{
  "id": 1326946679,
  "type": "Feature",
  "properties": {
    "edtf:cessation":"2018-09-07",
    "edtf:inception":"uuuu",
    "geom:area":0.0,
    "geom:area_square_m":0.0,
    "geom:bbox":"-114.89032,40.89631,-114.89032,40.89631",
    "geom:latitude":40.89631,
    "geom:longitude":-114.89032,
    "gn:admin1_code":"NV",
    "gn:admin2_code":"7",
    "gn:asciiname":"Tobar (historical)",
    "gn:country_code":"US",
    "gn:dem":1735,
    "gn:elevation":"1731.0",
    "gn:feature_class":"P",
    "gn:feature_code":"PPLQ",
    "gn:geonameid":5709408,
    "gn:latitude":40.89631,
    "gn:longitude":-114.89032,
    "gn:modification_date":"2011-12-11",
    "gn:name":"Tobar (historical)",
    "gn:population":0,
    "gn:timezone":"America/Los_Angeles",
    "iso:country":"US",
    "mz:hierarchy_label":1,
    "mz:is_current":0,
    "name:eng_x_preferred":[
        "Tobar (historical)"
    ],
    "name:und_x_variant":[
        "Clover City"
    ],
    "src:geom":"geonames",
    "wof:belongsto":[
        102191575,
        85633793,
        85688531,
        102082651
    ],
    "wof:breaches":[],
    "wof:concordances":{
        "gn:id":5709408
    },
    "wof:country":"US",
    "wof:geomhash":"d4353cb5b82e65da42d50368652054b5",
    "wof:hierarchy":[
        {
            "continent_id":102191575,
            "country_id":85633793,
            "county_id":102082651,
            "locality_id":1326946679,
            "region_id":85688531
        }
    ],
    "wof:id":1326946679,
    "wof:lastmodified":1537713098,
    "wof:name":"Tobar (historical)",
    "wof:parent_id":102082651,
    "wof:placetype":"locality",
    "wof:repo":"whosonfirst-data-admin-us",
    "wof:superseded_by":[],
    "wof:supersedes":[],
    "wof:tags":[]
},
  "bbox": [
    -114.89032,
    40.89631,
    -114.89032,
    40.89631
],
  "geometry": {"coordinates":[-114.89032,40.89631],"type":"Point"}
}