{
  "id": 1259407027,
  "type": "Feature",
  "properties": {
    "edtf:cessation":"uuuu",
    "edtf:inception":"uuuu",
    "geom:area":0.0,
    "geom:area_square_m":0.0,
    "geom:bbox":"-94.10271,36.58063,-94.10271,36.58063",
    "geom:latitude":36.58063,
    "geom:longitude":-94.10271,
    "gn:admin1_code":"MO",
    "gn:admin2_code":"119.0",
    "gn:admin3_code":"12574.0",
    "gn:asciiname":"Cove",
    "gn:country_code":"US",
    "gn:dem":361,
    "gn:elevation":"360.0",
    "gn:feature_class":"P",
    "gn:feature_code":"PPL",
    "gn:geonameid":4382606,
    "gn:latitude":36.58063,
    "gn:longitude":-94.10271,
    "gn:modification_date":"2017-05-23",
    "gn:name":"Cove",
    "gn:population":0,
    "gn:timezone":"America/Chicago",
    "iso:country":"US",
    "mz:hierarchy_label":1,
    "mz:is_current":-1,
    "src:geom":"geonames",
    "wof:belongsto":[
        85688661,
        102191575,
        404517545,
        85633793,
        102085305
    ],
    "wof:breaches":[],
    "wof:concordances":{
        "gn:id":4382606
    },
    "wof:country":"US",
    "wof:geomhash":"532079481fb038c8227f626fea1ba141",
    "wof:hierarchy":[
        {
            "continent_id":102191575,
            "country_id":85633793,
            "county_id":102085305,
            "localadmin_id":404517545,
            "locality_id":1259407027,
            "region_id":85688661
        }
    ],
    "wof:id":1259407027,
    "wof:lastmodified":1536968397,
    "wof:name":"Cove",
    "wof:parent_id":404517545,
    "wof:placetype":"locality",
    "wof:repo":"whosonfirst-data-admin-us",
    "wof:superseded_by":[],
    "wof:supersedes":[],
    "wof:tags":[]
},
  "bbox": [
    -94.10271,
    36.58063,
    -94.10271,
    36.58063
],
  "geometry": {"coordinates":[-94.10271,36.58063],"type":"Point"}
}