{
  "id": 1310527513,
  "type": "Feature",
  "properties": {
    "edtf:cessation":"uuuu",
    "edtf:inception":"uuuu",
    "geom:area":0.0,
    "geom:area_square_m":0.0,
    "geom:bbox":"-85.88994,31.26101,-85.88994,31.26101",
    "geom:latitude":31.26101,
    "geom:longitude":-85.88994,
    "gn:admin1_code":"AL",
    "gn:admin2_code":"31.0",
    "gn:asciiname":"Battens Crossroads",
    "gn:country_code":"US",
    "gn:dem":110,
    "gn:elevation":"105.0",
    "gn:feature_class":"P",
    "gn:feature_code":"PPL",
    "gn:geonameid":4831621,
    "gn:latitude":31.26101,
    "gn:longitude":-85.88994,
    "gn:modification_date":"2006-01-15",
    "gn:name":"Battens Crossroads",
    "gn:population":0,
    "gn:timezone":"America/Chicago",
    "iso:country":"US",
    "mz:hierarchy_label":1,
    "mz:is_current":-1,
    "name:eng_x_preferred":[
        "Battens Crossroads"
    ],
    "name:und_x_variant":[
        "Union Academy"
    ],
    "src:geom":"geonames",
    "wof:belongsto":[
        102191575,
        85633793,
        85688675,
        102085699
    ],
    "wof:breaches":[],
    "wof:concordances":{
        "gn:id":4831621,
        "wk:page":"Battens_Crossroads%2C_Alabama"
    },
    "wof:country":"US",
    "wof:geomhash":"998bbaeecb408c53b6a0504108c4cf34",
    "wof:hierarchy":[
        {
            "continent_id":102191575,
            "country_id":85633793,
            "county_id":102085699,
            "locality_id":1310527513,
            "region_id":85688675
        }
    ],
    "wof:id":1310527513,
    "wof:lastmodified":1537712802,
    "wof:name":"Battens Crossroads",
    "wof:parent_id":102085699,
    "wof:placetype":"locality",
    "wof:repo":"whosonfirst-data-admin-us",
    "wof:superseded_by":[],
    "wof:supersedes":[],
    "wof:tags":[]
},
  "bbox": [
    -85.88994,
    31.26101,
    -85.88994,
    31.26101
],
  "geometry": {"coordinates":[-85.88994,31.26101],"type":"Point"}
}