{
  "id": 1125419879,
  "type": "Feature",
  "properties": {
    "edtf:cessation":"uuuu",
    "edtf:deprecated":"2017-11-04",
    "edtf:inception":"uuuu",
    "geom:area":0.0,
    "geom:area_square_m":0.0,
    "geom:bbox":"-88.11253,41.57231,-88.11253,41.57231",
    "geom:latitude":41.57231,
    "geom:longitude":-88.11253,
    "gn:gn_country":"US",
    "gn:gn_fcode":"ADMD",
    "gn:gn_pop":20837,
    "gn:population":20837,
    "iso:country":"US",
    "lbl:latitude":41.57231,
    "lbl:longitude":-88.11253,
    "mz:hierarchy_label":1,
    "mz:is_current":0,
    "mz:note":"Quattroshapes Point Gazetteer import 20170519",
    "qs_pg:aaroncc":"US",
    "qs_pg:gn_country":"US",
    "qs_pg:gn_fcode":"ADMD",
    "qs_pg:gn_id":7163042,
    "qs_pg:gn_pop":20837,
    "qs_pg:name":"City of Crest Hill",
    "qs_pg:photos_9r":0,
    "qs_pg:photos_sr":0,
    "qs_pg:pop_sr":7,
    "qs_pg:qs_id":658007,
    "qs_pg:qs_pg_placetype":"localadmin",
    "src:geom":"qs_pg",
    "src:lbl:centroid":"qs_pg",
    "src:population":"geonames",
    "wof:belongsto":[
        85633793
    ],
    "wof:breaches":[],
    "wof:concordances":{
        "gn:id":7163042,
        "qs_pg:id":658007
    },
    "wof:country":"US",
    "wof:created":1497052032,
    "wof:geomhash":"5613dcb2ef548468de48f39a979e850f",
    "wof:hierarchy":[
        {
            "country_id":85633793,
            "localadmin_id":1125419879
        }
    ],
    "wof:id":1125419879,
    "wof:lastmodified":1509752754,
    "wof:name":"City of Crest Hill",
    "wof:parent_id":-1,
    "wof:placetype":"localadmin",
    "wof:population":20837,
    "wof:population_rank":7,
    "wof:repo":"whosonfirst-data-admin-us",
    "wof:superseded_by":[
        85940565
    ],
    "wof:supersedes":[],
    "wof:tags":[]
},
  "bbox": [
    -88.11253,
    41.57231,
    -88.11253,
    41.57231
],
  "geometry": {"coordinates":[-88.11253000000001,41.57231],"type":"Point"}
}