{
  "id": 1125413777,
  "type": "Feature",
  "properties": {
    "edtf:cessation":"uuuu",
    "edtf:deprecated":"2017-11-04",
    "edtf:inception":"uuuu",
    "geom:area":0.0,
    "geom:area_square_m":0.0,
    "geom:bbox":"-98.2442,35.06502,-98.2442,35.06502",
    "geom:latitude":35.06502,
    "geom:longitude":-98.2442,
    "gn:gn_country":"US",
    "gn:gn_fcode":"ADMD",
    "gn:gn_pop":6762,
    "gn:population":6762,
    "iso:country":"US",
    "lbl:latitude":35.06502,
    "lbl:longitude":-98.2442,
    "mz:hierarchy_label":1,
    "mz:is_current":0,
    "mz:note":"Quattroshapes Point Gazetteer import 20170519",
    "qs_pg:aaroncc":"US",
    "qs_pg:gn_country":"US",
    "qs_pg:gn_fcode":"ADMD",
    "qs_pg:gn_id":7172927,
    "qs_pg:gn_pop":6762,
    "qs_pg:name":"City of Anadarko",
    "qs_pg:photos_9r":0,
    "qs_pg:photos_sr":0,
    "qs_pg:pop_sr":5,
    "qs_pg:qs_id":665486,
    "qs_pg:qs_pg_placetype":"localadmin",
    "src:geom":"qs_pg",
    "src:lbl:centroid":"qs_pg",
    "src:population":"geonames",
    "wof:belongsto":[
        85633793
    ],
    "wof:breaches":[],
    "wof:concordances":{
        "gn:id":7172927,
        "qs_pg:id":665486
    },
    "wof:country":"US",
    "wof:created":1497050886,
    "wof:geomhash":"c6372c3682f2e88379d9a9f016e5dab9",
    "wof:hierarchy":[
        {
            "country_id":85633793,
            "localadmin_id":1125413777
        }
    ],
    "wof:id":1125413777,
    "wof:lastmodified":1509752729,
    "wof:name":"City of Anadarko",
    "wof:parent_id":-1,
    "wof:placetype":"localadmin",
    "wof:population":6762,
    "wof:population_rank":5,
    "wof:repo":"whosonfirst-data-admin-us",
    "wof:superseded_by":[
        101714181
    ],
    "wof:supersedes":[],
    "wof:tags":[]
},
  "bbox": [
    -98.2442,
    35.06502,
    -98.2442,
    35.06502
],
  "geometry": {"coordinates":[-98.24420000000001,35.06502],"type":"Point"}
}