{
  "id": 1243086843,
  "type": "Feature",
  "properties": {
    "edtf:cessation":"uuuu",
    "edtf:inception":"uuuu",
    "geom:area":0.0,
    "geom:area_square_m":0.0,
    "geom:bbox":"-82.7849,39.83979,-82.7849,39.83979",
    "geom:latitude":39.83979,
    "geom:longitude":-82.7849,
    "gn:admin1_code":"OH",
    "gn:admin2_code":"45",
    "gn:admin3_code":"80206.0",
    "gn:asciiname":"Waterloo",
    "gn:country_code":"US",
    "gn:dem":240,
    "gn:elevation":"237.0",
    "gn:feature_class":"P",
    "gn:feature_code":"PPL",
    "gn:geonameid":4527720,
    "gn:latitude":39.83979,
    "gn:longitude":-82.7849,
    "gn:modification_date":"2017-05-23",
    "gn:name":"Waterloo",
    "gn:population":0,
    "gn:timezone":"America/New_York",
    "iso:country":"US",
    "mz:hierarchy_label":1,
    "mz:is_current":-1,
    "src:geom":"geonames",
    "wof:belongsto":[
        85688485,
        102191575,
        404524589,
        85633793,
        102083747
    ],
    "wof:breaches":[],
    "wof:concordances":{
        "gn:id":4527720
    },
    "wof:country":"US",
    "wof:geomhash":"a1c6e2f51c109af64dca825967921f0a",
    "wof:hierarchy":[
        {
            "continent_id":102191575,
            "country_id":85633793,
            "county_id":102083747,
            "localadmin_id":404524589,
            "locality_id":1243086843,
            "region_id":85688485
        }
    ],
    "wof:id":1243086843,
    "wof:lastmodified":1536825986,
    "wof:name":"Waterloo",
    "wof:parent_id":404524589,
    "wof:placetype":"locality",
    "wof:repo":"whosonfirst-data-admin-us",
    "wof:superseded_by":[],
    "wof:supersedes":[],
    "wof:tags":[]
},
  "bbox": [
    -82.7849,
    39.83979,
    -82.7849,
    39.83979
],
  "geometry": {"coordinates":[-82.78489999999999,39.83979],"type":"Point"}
}