{
  "id": 420527769,
  "type": "Feature",
  "properties": {
    "edtf:cessation":"uuuu",
    "edtf:inception":"uuuu",
    "geom:area":0.0,
    "geom:area_square_m":15209021.86897,
    "geom:bbox":"-74.924976,41.017422,-74.924976,41.017422",
    "geom:latitude":41.017422,
    "geom:longitude":-74.924976,
    "iso:country":"US",
    "lbl:latitude":41.017422,
    "lbl:longitude":-74.924976,
    "mz:hierarchy_label":0,
    "mz:is_current":-1,
    "name:eng_x_preferred":[
        "Spring Valley"
    ],
    "src:geom":"mz",
    "src:geom_alt":[
        "zetashapes"
    ],
    "src:lbl":"mapshaper",
    "src:lbl:centroid":"mapshaper",
    "src:population":"zetashapes",
    "wof:belongsto":[
        102191575,
        404478425,
        85633793,
        102083873,
        85688607
    ],
    "wof:breaches":[],
    "wof:concordances":{
        "gp:id":2498096
    },
    "wof:country":"US",
    "wof:geomhash":"7c7fca615ca2f1c725e5c3306c3e1d74",
    "wof:hierarchy":[
        {
            "continent_id":102191575,
            "country_id":85633793,
            "county_id":102083873,
            "localadmin_id":404478425,
            "locality_id":-1,
            "neighbourhood_id":420527769,
            "region_id":85688607
        }
    ],
    "wof:id":420527769,
    "wof:lastmodified":1533596583,
    "wof:name":"Spring Valley",
    "wof:parent_id":-1,
    "wof:placetype":"neighbourhood",
    "wof:population":390,
    "wof:population_rank":2,
    "wof:repo":"whosonfirst-data-admin-us",
    "wof:superseded_by":[],
    "wof:supersedes":[],
    "wof:tags":[],
    "zs:area_m":15208057.728526,
    "zs:blockids":[
        340410311021025,
        340410311021046,
        340410311021021,
        340410311021063,
        340410311021022,
        340410311021043,
        340410311021045,
        340410311021027,
        340410311021024,
        340410311021044,
        340410311021028,
        340410311021029
    ],
    "zs:housing10":151,
    "zs:id":2498096,
    "zs:label":"Spring Valley",
    "zs:pop10":390
},
  "bbox": [
    -74.924976,
    41.017422,
    -74.924976,
    41.017422
],
  "geometry": {"coordinates":[-74.924976,41.017422],"type":"Point"}
}