{
  "id": 1125389845,
  "type": "Feature",
  "properties": {
    "edtf:cessation":"2017-05-19",
    "edtf:inception":"uuuu",
    "geom:area":0.0,
    "geom:area_square_m":0.0,
    "geom:bbox":"-74.10039,41.32842,-74.10039,41.32842",
    "geom:latitude":41.32842,
    "geom:longitude":-74.10039,
    "gn:gn_country":"US",
    "gn:gn_fcode":"ADMD",
    "gn:gn_pop":10686,
    "gn:population":10686,
    "iso:country":"US",
    "lbl:latitude":41.32842,
    "lbl:longitude":-74.10039,
    "mz:hierarchy_label":1,
    "mz:is_current":0,
    "mz:note":"Quattroshapes Point Gazetteer import 20170519",
    "qs_pg:aaroncc":"US",
    "qs_pg:gn_country":"US",
    "qs_pg:gn_fcode":"ADMD",
    "qs_pg:gn_id":7161960,
    "qs_pg:gn_pop":10686,
    "qs_pg:name":"Village of Woodbury",
    "qs_pg:photos_9r":0,
    "qs_pg:photos_sr":0,
    "qs_pg:pop_sr":6,
    "qs_pg:qs_id":657498,
    "qs_pg:qs_pg_placetype":"localadmin",
    "src:geom":"qs_pg",
    "src:lbl:centroid":"qs_pg",
    "src:population":"geonames",
    "wof:belongsto":[
        85633793
    ],
    "wof:breaches":[],
    "wof:concordances":{
        "gn:id":7161960,
        "qs_pg:id":657498
    },
    "wof:country":"US",
    "wof:created":1497048640,
    "wof:geomhash":"02f8b1197be078f983b67909036be69a",
    "wof:hierarchy":[
        {
            "country_id":85633793,
            "localadmin_id":1125389845
        }
    ],
    "wof:id":1125389845,
    "wof:lastmodified":1505187021,
    "wof:name":"Village of Woodbury",
    "wof:parent_id":-1,
    "wof:placetype":"localadmin",
    "wof:population":10686,
    "wof:population_rank":6,
    "wof:repo":"whosonfirst-data-admin-us",
    "wof:superseded_by":[],
    "wof:supersedes":[],
    "wof:tags":[]
},
  "bbox": [
    -74.10039,
    41.32842,
    -74.10039,
    41.32842
],
  "geometry": {"coordinates":[-74.10039,41.32842],"type":"Point"}
}