{
  "id": 1276129663,
  "type": "Feature",
  "properties": {
    "edtf:cessation":"2018-09-07",
    "edtf:inception":"uuuu",
    "geom:area":0.0,
    "geom:area_square_m":0.0,
    "geom:bbox":"-94.30549,36.25758,-94.30549,36.25758",
    "geom:latitude":36.25758,
    "geom:longitude":-94.30549,
    "gn:admin1_code":"AR",
    "gn:admin2_code":"7.0",
    "gn:admin3_code":"93647.0",
    "gn:asciiname":"Castleville (historical)",
    "gn:country_code":"US",
    "gn:dem":380,
    "gn:elevation":"377.0",
    "gn:feature_class":"P",
    "gn:feature_code":"PPLQ",
    "gn:geonameid":4104782,
    "gn:latitude":36.25758,
    "gn:longitude":-94.30549,
    "gn:modification_date":"2017-05-23",
    "gn:name":"Castleville (historical)",
    "gn:population":0,
    "gn:timezone":"America/Chicago",
    "iso:country":"US",
    "mz:hierarchy_label":1,
    "mz:is_current":0,
    "src:geom":"geonames",
    "wof:belongsto":[
        102191575,
        85633793,
        85688549,
        102083255
    ],
    "wof:breaches":[],
    "wof:concordances":{
        "gn:id":4104782
    },
    "wof:country":"US",
    "wof:geomhash":"1bf61531a9caa367bfa04b669904b6e6",
    "wof:hierarchy":[
        {
            "continent_id":102191575,
            "country_id":85633793,
            "county_id":102083255,
            "locality_id":1276129663,
            "region_id":85688549
        }
    ],
    "wof:id":1276129663,
    "wof:lastmodified":1537049365,
    "wof:name":"Castleville (historical)",
    "wof:parent_id":102083255,
    "wof:placetype":"locality",
    "wof:repo":"whosonfirst-data-admin-us",
    "wof:superseded_by":[],
    "wof:supersedes":[],
    "wof:tags":[]
},
  "bbox": [
    -94.30549,
    36.25758,
    -94.30549,
    36.25758
],
  "geometry": {"coordinates":[-94.30549000000001,36.25758],"type":"Point"}
}