{
  "id": 1327442349,
  "type": "Feature",
  "properties": {
    "edtf:cessation":"uuuu",
    "edtf:inception":"uuuu",
    "geom:area":0.0,
    "geom:area_square_m":0.0,
    "geom:bbox":"-87.79613,37.56866,-87.79613,37.56866",
    "geom:latitude":37.56866,
    "geom:longitude":-87.79613,
    "gn:admin1_code":"KY",
    "gn:admin2_code":"233",
    "gn:asciiname":"Shelton",
    "gn:country_code":"US",
    "gn:dem":134,
    "gn:elevation":"135.0",
    "gn:feature_class":"P",
    "gn:feature_code":"PPL",
    "gn:geonameid":4308134,
    "gn:latitude":37.56866,
    "gn:longitude":-87.79613,
    "gn:modification_date":"2006-01-15",
    "gn:name":"Shelton",
    "gn:population":0,
    "gn:timezone":"America/Chicago",
    "iso:country":"US",
    "mz:hierarchy_label":1,
    "mz:is_current":-1,
    "src:geom":"geonames",
    "wof:belongsto":[
        102191575,
        85633793,
        85688641,
        102084493
    ],
    "wof:breaches":[],
    "wof:concordances":{
        "gn:id":4308134
    },
    "wof:country":"US",
    "wof:geomhash":"ab0fafcdbc50f9f8f61461081c76f5fb",
    "wof:hierarchy":[
        {
            "continent_id":102191575,
            "country_id":85633793,
            "county_id":102084493,
            "locality_id":1327442349,
            "region_id":85688641
        }
    ],
    "wof:id":1327442349,
    "wof:lastmodified":1536666386,
    "wof:name":"Shelton",
    "wof:parent_id":102084493,
    "wof:placetype":"locality",
    "wof:repo":"whosonfirst-data-admin-us",
    "wof:superseded_by":[],
    "wof:supersedes":[],
    "wof:tags":[]
},
  "bbox": [
    -87.79613,
    37.56866,
    -87.79613,
    37.56866
],
  "geometry": {"coordinates":[-87.79613000000001,37.56866],"type":"Point"}
}