{
  "id": 1276575059,
  "type": "Feature",
  "properties": {
    "edtf:cessation":"2018-09-07",
    "edtf:inception":"uuuu",
    "geom:area":0.0,
    "geom:area_square_m":0.0,
    "geom:bbox":"-83.49299,41.55838,-83.49299,41.55838",
    "geom:latitude":41.55838,
    "geom:longitude":-83.49299,
    "gn:admin1_code":"OH",
    "gn:admin2_code":"173.0",
    "gn:admin3_code":"41328.0",
    "gn:asciiname":"Cummings (historical)",
    "gn:country_code":"US",
    "gn:dem":187,
    "gn:elevation":"190.0",
    "gn:feature_class":"P",
    "gn:feature_code":"PPLQ",
    "gn:geonameid":5151577,
    "gn:latitude":41.55838,
    "gn:longitude":-83.49299,
    "gn:modification_date":"2017-05-23",
    "gn:name":"Cummings (historical)",
    "gn:population":0,
    "gn:timezone":"America/New_York",
    "iso:country":"US",
    "mz:hierarchy_label":1,
    "mz:is_current":0,
    "src:geom":"geonames",
    "wof:belongsto":[
        85688485,
        102191575,
        404526741,
        85633793,
        102084781
    ],
    "wof:breaches":[],
    "wof:concordances":{
        "gn:id":5151577
    },
    "wof:country":"US",
    "wof:geomhash":"f6871f9a77abede8357a0b342560fa31",
    "wof:hierarchy":[
        {
            "continent_id":102191575,
            "country_id":85633793,
            "county_id":102084781,
            "localadmin_id":404526741,
            "locality_id":1276575059,
            "region_id":85688485
        }
    ],
    "wof:id":1276575059,
    "wof:lastmodified":1536952556,
    "wof:name":"Cummings (historical)",
    "wof:parent_id":404526741,
    "wof:placetype":"locality",
    "wof:repo":"whosonfirst-data-admin-us",
    "wof:superseded_by":[],
    "wof:supersedes":[],
    "wof:tags":[]
},
  "bbox": [
    -83.49299,
    41.55838,
    -83.49299,
    41.55838
],
  "geometry": {"coordinates":[-83.49299000000001,41.55838],"type":"Point"}
}