{
  "id": 1126079615,
  "type": "Feature",
  "properties": {
    "edtf:cessation":"uuuu",
    "edtf:inception":"uuuu",
    "geom:area":0.0,
    "geom:area_square_m":0.0,
    "geom:bbox":"-80.10589,40.2209,-80.10589,40.2209",
    "geom:latitude":40.2209,
    "geom:longitude":-80.10589,
    "gn:gn_country":"US",
    "gn:gn_fcode":"PPL",
    "gn:gn_pop":0,
    "iso:country":"US",
    "lbl:latitude":40.2209,
    "lbl:longitude":-80.10589,
    "mz:hierarchy_label":1,
    "mz:is_current":-1,
    "mz:note":"Quattroshapes Point Gazetteer import 20170519",
    "qs_pg:aaroncc":"US",
    "qs_pg:gn_country":"US",
    "qs_pg:gn_fcode":"PPL",
    "qs_pg:gn_id":5191106,
    "qs_pg:gn_pop":0,
    "qs_pg:name":"Gilkeson",
    "qs_pg:name_adm0":"United States",
    "qs_pg:name_adm1":"Pennsylvania",
    "qs_pg:photos":1,
    "qs_pg:photos_1k":1,
    "qs_pg:photos_9k":1,
    "qs_pg:photos_9r":1,
    "qs_pg:photos_all":1,
    "qs_pg:photos_sr":1,
    "qs_pg:pop_sr":0,
    "qs_pg:qs_id":1016126,
    "qs_pg:qs_pg_placetype":"neighbourhood",
    "qs_pg:qs_pg_placetype_gp":"Suburb",
    "qs_pg:woe_adm0":23424977,
    "qs_pg:woe_id":2410220,
    "src:geom":"qs_pg",
    "src:lbl:centroid":"qs_pg",
    "woe:adm0_id":23424977,
    "woe:name_adm0":"United States",
    "woe:name_adm1":"Pennsylvania",
    "woe:placetype":"Suburb",
    "wof:belongsto":[
        102191575,
        404487841,
        85633793,
        102081343,
        85688481
    ],
    "wof:breaches":[],
    "wof:concordances":{
        "gn:id":5191106,
        "gp:id":2410220,
        "qs_pg:id":1016126
    },
    "wof:country":"US",
    "wof:created":1497311734,
    "wof:geomhash":"9635ef1974b55659eab47a4ac3cc97f6",
    "wof:hierarchy":[
        {
            "continent_id":102191575,
            "country_id":85633793,
            "county_id":102081343,
            "localadmin_id":404487841,
            "locality_id":-1,
            "neighbourhood_id":1126079615,
            "region_id":85688481
        }
    ],
    "wof:id":1126079615,
    "wof:lastmodified":1509411092,
    "wof:name":"Gilkeson",
    "wof:parent_id":-1,
    "wof:placetype":"neighbourhood",
    "wof:repo":"whosonfirst-data-admin-us",
    "wof:superseded_by":[],
    "wof:supersedes":[],
    "wof:tags":[]
},
  "bbox": [
    -80.10589,
    40.2209,
    -80.10589,
    40.2209
],
  "geometry": {"coordinates":[-80.10589,40.2209],"type":"Point"}
}