{
  "id": 1125927043,
  "type": "Feature",
  "properties": {
    "edtf:cessation":"uuuu",
    "edtf:deprecated":"2018-08-15",
    "edtf:inception":"uuuu",
    "edtf:superseded":"2018-08-15",
    "geom:area":0.0,
    "geom:area_square_m":0.0,
    "geom:bbox":"-77.10428,38.88101,-77.10428,38.88101",
    "geom:latitude":38.88101,
    "geom:longitude":-77.10428,
    "gn:gn_country":"US",
    "gn:gn_fcode":"PPLA2",
    "gn:gn_pop":207627,
    "iso:country":"US",
    "lbl:latitude":38.88101,
    "lbl:longitude":-77.10428,
    "mz:hierarchy_label":1,
    "mz:is_current":0,
    "mz:note":"Quattroshapes Point Gazetteer import 20170519",
    "qs_pg:aaroncc":"US",
    "qs_pg:gn_country":"US",
    "qs_pg:gn_fcode":"PPLA2",
    "qs_pg:gn_id":4744709,
    "qs_pg:gn_pop":207627,
    "qs_pg:name":"Arlington",
    "qs_pg:name_adm0":"United States",
    "qs_pg:name_adm1":"Virginia",
    "qs_pg:photos":676,
    "qs_pg:photos_1k":137,
    "qs_pg:photos_9k":527,
    "qs_pg:photos_9r":26,
    "qs_pg:photos_all":118966,
    "qs_pg:photos_sr":8,
    "qs_pg:pop_sr":10,
    "qs_pg:qs_id":813113,
    "qs_pg:qs_pg_placetype":"locality",
    "qs_pg:qs_pg_placetype_gp":"Town",
    "qs_pg:woe_adm0":23424977,
    "qs_pg:woe_id":2355942,
    "src:geom":"qs_pg",
    "src:lbl:centroid":"qs_pg",
    "src:population":"quattroshapes_pg",
    "woe:adm0_id":23424977,
    "woe:name_adm0":"United States",
    "woe:name_adm1":"Virginia",
    "woe:placetype":"Town",
    "wof:belongsto":[
        102191575,
        85633793,
        85688747,
        102085953
    ],
    "wof:breaches":[],
    "wof:concordances":{
        "gn:id":4744709,
        "gp:id":2355942,
        "qs_pg:id":813113
    },
    "wof:country":"US",
    "wof:created":1497296675,
    "wof:geomhash":"7e45b0ab05baf74b35b9c77940b4a6fd",
    "wof:hierarchy":[
        {
            "continent_id":102191575,
            "country_id":85633793,
            "county_id":102085953,
            "locality_id":1125927043,
            "region_id":85688747
        }
    ],
    "wof:id":1125927043,
    "wof:lastmodified":1534379664,
    "wof:name":"Arlington",
    "wof:parent_id":102085953,
    "wof:placetype":"locality",
    "wof:population":207627,
    "wof:population_rank":10,
    "wof:repo":"whosonfirst-data-admin-us",
    "wof:superseded_by":[
        101729469
    ],
    "wof:supersedes":[],
    "wof:tags":[]
},
  "bbox": [
    -77.10428,
    38.88101,
    -77.10428,
    38.88101
],
  "geometry": {"coordinates":[-77.10428,38.88101],"type":"Point"}
}