{
  "id": 1344076157,
  "type": "Feature",
  "properties": {
    "edtf:cessation":"2018-09-06",
    "edtf:inception":"uuuu",
    "geom:area":0.0,
    "geom:area_square_m":0.0,
    "geom:bbox":"-80.59757,35.34042,-80.59757,35.34042",
    "geom:latitude":35.34042,
    "geom:longitude":-80.59757,
    "gn:admin1_code":"NC",
    "gn:admin2_code":"25",
    "gn:asciiname":"Kirkland (historical)",
    "gn:country_code":"US",
    "gn:dem":173,
    "gn:elevation":"176.0",
    "gn:feature_class":"P",
    "gn:feature_code":"PPLQ",
    "gn:geonameid":4474463,
    "gn:latitude":35.34042,
    "gn:longitude":-80.59757,
    "gn:modification_date":"2011-12-11",
    "gn:name":"Kirkland (historical)",
    "gn:population":0,
    "gn:timezone":"America/New_York",
    "iso:country":"US",
    "mz:hierarchy_label":1,
    "mz:is_current":0,
    "src:geom":"geonames",
    "wof:belongsto":[
        102191575,
        85633793,
        85688773,
        102087733
    ],
    "wof:breaches":[],
    "wof:concordances":{
        "gn:id":4474463
    },
    "wof:country":"US",
    "wof:geomhash":"bcea5fc2e244b5bd0709a83f0185461e",
    "wof:hierarchy":[
        {
            "continent_id":102191575,
            "country_id":85633793,
            "county_id":102087733,
            "locality_id":1344076157,
            "region_id":85688773
        }
    ],
    "wof:id":1344076157,
    "wof:lastmodified":1536851862,
    "wof:name":"Kirkland (historical)",
    "wof:parent_id":102087733,
    "wof:placetype":"locality",
    "wof:repo":"whosonfirst-data-admin-us",
    "wof:superseded_by":[],
    "wof:supersedes":[],
    "wof:tags":[]
},
  "bbox": [
    -80.59756999999998,
    35.34042,
    -80.59756999999998,
    35.34042
],
  "geometry": {"coordinates":[-80.59756999999998,35.34042],"type":"Point"}
}