{
  "id": 420512605,
  "type": "Feature",
  "properties": {
    "edtf:cessation":"uuuu",
    "edtf:inception":"uuuu",
    "geom:area":0.0,
    "geom:area_square_m":126077.867749,
    "geom:bbox":"-82.417283,27.958432,-82.417283,27.958432",
    "geom:latitude":27.958432,
    "geom:longitude":-82.417283,
    "iso:country":"US",
    "lbl:latitude":27.958432,
    "lbl:longitude":-82.417283,
    "mz:hierarchy_label":0,
    "mz:is_current":1,
    "name:eng_x_preferred":[
        "East Bay"
    ],
    "src:geom":"mz",
    "src:geom_alt":[
        "quattroshapes_pg",
        "zetashapes"
    ],
    "src:lbl":"mapshaper",
    "src:lbl:centroid":"mapshaper",
    "src:population":"zetashapes",
    "wd:wordcount":150,
    "wof:belongsto":[
        102191575,
        85633793,
        85931789,
        102085773,
        85688651
    ],
    "wof:breaches":[],
    "wof:concordances":{
        "gp:id":55982298,
        "qs_pg:id":141595
    },
    "wof:country":"US",
    "wof:geomhash":"83a594c467ea5cf8142efe8aa0ec7af9",
    "wof:hierarchy":[
        {
            "continent_id":102191575,
            "country_id":85633793,
            "county_id":102085773,
            "locality_id":85931789,
            "neighbourhood_id":420512605,
            "region_id":85688651
        }
    ],
    "wof:id":420512605,
    "wof:lastmodified":1533591925,
    "wof:name":"East Bay",
    "wof:parent_id":85931789,
    "wof:placetype":"neighbourhood",
    "wof:population":10,
    "wof:population_rank":1,
    "wof:repo":"whosonfirst-data-admin-us",
    "wof:superseded_by":[],
    "wof:supersedes":[],
    "wof:tags":[],
    "zs:area_m":126069.373107,
    "zs:blockids":[
        120570038002054,
        120570038002035,
        120570038002037,
        120570038002036,
        120570038002046,
        120570038002028
    ],
    "zs:housing10":3,
    "zs:id":55982298,
    "zs:label":"East Bay",
    "zs:pop10":10
},
  "bbox": [
    -82.417283,
    27.958432,
    -82.417283,
    27.958432
],
  "geometry": {"coordinates":[-82.417283,27.958432],"type":"Point"}
}