{
  "id": 1360301105,
  "type": "Feature",
  "properties": {
    "edtf:cessation":"uuuu",
    "edtf:inception":"uuuu",
    "geom:area":0.0,
    "geom:area_square_m":0.0,
    "geom:bbox":"-82.53315,27.25866,-82.53315,27.25866",
    "geom:latitude":27.25866,
    "geom:longitude":-82.53315,
    "gn:admin1_code":"FL",
    "gn:admin2_code":"115.0",
    "gn:asciiname":"Siesta Key",
    "gn:country_code":"US",
    "gn:dem":2,
    "gn:elevation":"0.0",
    "gn:feature_class":"P",
    "gn:feature_code":"PPL",
    "gn:geonameid":4172934,
    "gn:latitude":27.25866,
    "gn:longitude":-82.53315,
    "gn:modification_date":"2009-06-09",
    "gn:name":"Siesta Key",
    "gn:population":0,
    "gn:timezone":"America/New_York",
    "iso:country":"US",
    "mz:hierarchy_label":1,
    "mz:is_current":-1,
    "name:eng_x_preferred":[
        "Siesta Key"
    ],
    "name:und_x_variant":[
        "Sarasota Key",
        "Little Sarasota Key"
    ],
    "src:geom":"geonames",
    "wof:belongsto":[
        102191575,
        85633793,
        85688651,
        102085795
    ],
    "wof:breaches":[],
    "wof:concordances":{
        "gn:id":4172934,
        "wk:page":"Siesta_Key%2C_Florida"
    },
    "wof:country":"US",
    "wof:geomhash":"96421337c1f5217388a7f2c3d2c95196",
    "wof:hierarchy":[
        {
            "continent_id":102191575,
            "country_id":85633793,
            "county_id":102085795,
            "locality_id":1360301105,
            "region_id":85688651
        }
    ],
    "wof:id":1360301105,
    "wof:lastmodified":1537712296,
    "wof:name":"Siesta Key",
    "wof:parent_id":102085795,
    "wof:placetype":"locality",
    "wof:repo":"whosonfirst-data-admin-us",
    "wof:superseded_by":[],
    "wof:supersedes":[],
    "wof:tags":[]
},
  "bbox": [
    -82.53315,
    27.25866,
    -82.53315,
    27.25866
],
  "geometry": {"coordinates":[-82.53315000000001,27.25866],"type":"Point"}
}