{
  "id": 1125293541,
  "type": "Feature",
  "properties": {
    "edtf:cessation":"2017-05-19",
    "edtf:inception":"uuuu",
    "geom:area":0.0,
    "geom:area_square_m":0.0,
    "geom:bbox":"-97.00135,35.68828,-97.00135,35.68828",
    "geom:latitude":35.68828,
    "geom:longitude":-97.00135,
    "gn:gn_country":"US",
    "gn:gn_fcode":"ADMD",
    "gn:gn_pop":148,
    "gn:population":148,
    "iso:country":"US",
    "lbl:latitude":35.68828,
    "lbl:longitude":-97.00135,
    "mz:hierarchy_label":1,
    "mz:is_current":0,
    "mz:note":"Quattroshapes Point Gazetteer import 20170519",
    "qs_pg:aaroncc":"US",
    "qs_pg:gn_country":"US",
    "qs_pg:gn_fcode":"ADMD",
    "qs_pg:gn_id":7175850,
    "qs_pg:gn_pop":148,
    "qs_pg:name":"Town of Warwick",
    "qs_pg:photos_9r":0,
    "qs_pg:photos_sr":0,
    "qs_pg:pop_sr":1,
    "qs_pg:qs_id":668355,
    "qs_pg:qs_pg_placetype":"localadmin",
    "src:geom":"qs_pg",
    "src:lbl:centroid":"qs_pg",
    "src:population":"geonames",
    "wof:belongsto":[
        85633793
    ],
    "wof:breaches":[],
    "wof:concordances":{
        "gn:id":7175850,
        "qs_pg:id":668355
    },
    "wof:country":"US",
    "wof:created":1497043039,
    "wof:geomhash":"ce8deb3baccd974e28294207236f3e72",
    "wof:hierarchy":[
        {
            "country_id":85633793,
            "localadmin_id":1125293541
        }
    ],
    "wof:id":1125293541,
    "wof:lastmodified":1505187157,
    "wof:name":"Town of Warwick",
    "wof:parent_id":-1,
    "wof:placetype":"localadmin",
    "wof:population":148,
    "wof:population_rank":1,
    "wof:repo":"whosonfirst-data-admin-us",
    "wof:superseded_by":[],
    "wof:supersedes":[],
    "wof:tags":[]
},
  "bbox": [
    -97.00135,
    35.68828,
    -97.00135,
    35.68828
],
  "geometry": {"coordinates":[-97.00135,35.68828],"type":"Point"}
}