{
  "id": 85853645,
  "type": "Feature",
  "properties": {"wof:repo":"whosonfirst-data-admin-us",
    "src:geom":"quattroshapes",
    "wof:geomhash":"002ddc08c4cf5a2cce34d43a585580da",
    "wof:id":85853645
},
  "bbox": [
    -122.72974592278479,
    45.4718876425744,
    -122.72277831999975,
    45.47939202180008
],
  "geometry": {"coordinates":[[[-122.72661947910422,45.47205335960338],[-122.72720053209190,45.47188764257440],[-122.72827148399995,45.47265124502555],[-122.72869026820123,45.47294984353412],[-122.72929578047010,45.47554027160002],[-122.72974592278479,45.47746601505035],[-122.72952886521838,45.47759868357441],[-122.72827148399986,45.47939195597503],[-122.72827148399995,45.47939202180008],[-122.72380250876759,45.47939202180008],[-122.72277831999992,45.47939202180008],[-122.72277832225518,45.47554026179357],[-122.72277831999975,45.47361429152382],[-122.72552490199990,45.47361428901347],[-122.72661947910422,45.47205335960338]]],"type":"Polygon"}
}