{
  "id": 1125944143,
  "type": "Feature",
  "properties": {
    "edtf:cessation":"uuuu",
    "edtf:inception":"uuuu",
    "geom:area":0.0,
    "geom:area_square_m":0.0,
    "geom:bbox":"-82.72788,28.05641,-82.72788,28.05641",
    "geom:latitude":28.05641,
    "geom:longitude":-82.72788,
    "gn:gn_country":"US",
    "gn:gn_fcode":"PPL",
    "gn:gn_pop":2709,
    "gn:population":2709,
    "iso:country":"US",
    "lbl:latitude":28.05641,
    "lbl:longitude":-82.72788,
    "mz:hierarchy_label":1,
    "mz:is_current":-1,
    "mz:note":"Quattroshapes Point Gazetteer import 20170519",
    "qs_pg:aaroncc":"US",
    "qs_pg:gn_country":"US",
    "qs_pg:gn_fcode":"PPL",
    "qs_pg:gn_id":4171010,
    "qs_pg:gn_pop":2709,
    "qs_pg:name":"Saint George",
    "qs_pg:name_adm0":"United States",
    "qs_pg:name_adm1":"Florida",
    "qs_pg:photos":42,
    "qs_pg:photos_1k":9,
    "qs_pg:photos_9k":1,
    "qs_pg:photos_9r":2,
    "qs_pg:photos_all":42,
    "qs_pg:photos_sr":2,
    "qs_pg:pop_sr":4,
    "qs_pg:qs_id":1048046,
    "qs_pg:qs_pg_placetype":"locality",
    "qs_pg:qs_pg_placetype_gp":"Town",
    "qs_pg:woe_adm0":23424977,
    "qs_pg:woe_id":28745682,
    "src:geom":"qs_pg",
    "src:lbl:centroid":"qs_pg",
    "src:population":"geonames",
    "woe:adm0_id":23424977,
    "woe:name_adm0":"United States",
    "woe:name_adm1":"Florida",
    "woe:placetype":"Town",
    "wof:belongsto":[
        102191575,
        85633793,
        85688651,
        102085759
    ],
    "wof:breaches":[],
    "wof:concordances":{
        "gn:id":4171010,
        "gp:id":28745682,
        "qs_pg:id":1048046
    },
    "wof:country":"US",
    "wof:created":1497297219,
    "wof:geomhash":"71a7c55938e81fa7c704965d6b8f859d",
    "wof:hierarchy":[
        {
            "continent_id":102191575,
            "country_id":85633793,
            "county_id":102085759,
            "locality_id":1125944143,
            "region_id":85688651
        }
    ],
    "wof:id":1125944143,
    "wof:lastmodified":1509402271,
    "wof:name":"Saint George",
    "wof:parent_id":102085759,
    "wof:placetype":"locality",
    "wof:population":2709,
    "wof:population_rank":4,
    "wof:repo":"whosonfirst-data-admin-us",
    "wof:superseded_by":[],
    "wof:supersedes":[],
    "wof:tags":[]
},
  "bbox": [
    -82.72788,
    28.05641,
    -82.72788,
    28.05641
],
  "geometry": {"coordinates":[-82.72788,28.05641],"type":"Point"}
}