{
  "id": 1125318135,
  "type": "Feature",
  "properties": {
    "edtf:cessation":"2017-05-19",
    "edtf:inception":"uuuu",
    "geom:area":0.0,
    "geom:area_square_m":0.0,
    "geom:bbox":"-91.24931,40.39543,-91.24931,40.39543",
    "geom:latitude":40.39543,
    "geom:longitude":-91.24931,
    "gn:gn_country":"US",
    "gn:gn_fcode":"ADMD",
    "gn:gn_pop":165,
    "gn:population":165,
    "iso:country":"US",
    "lbl:latitude":40.39543,
    "lbl:longitude":-91.24931,
    "mz:hierarchy_label":1,
    "mz:is_current":0,
    "mz:note":"Quattroshapes Point Gazetteer import 20170519",
    "qs_pg:aaroncc":"US",
    "qs_pg:gn_country":"US",
    "qs_pg:gn_fcode":"ADMD",
    "qs_pg:gn_id":7166520,
    "qs_pg:gn_pop":165,
    "qs_pg:name":"Village of Elvaston",
    "qs_pg:photos_9r":0,
    "qs_pg:photos_sr":0,
    "qs_pg:pop_sr":1,
    "qs_pg:qs_id":661338,
    "qs_pg:qs_pg_placetype":"localadmin",
    "src:geom":"qs_pg",
    "src:lbl:centroid":"qs_pg",
    "src:population":"geonames",
    "wof:belongsto":[
        85633793
    ],
    "wof:breaches":[],
    "wof:concordances":{
        "gn:id":7166520,
        "qs_pg:id":661338
    },
    "wof:country":"US",
    "wof:created":1497044377,
    "wof:geomhash":"bd21a2d666af3f4820f78f5d9b358c81",
    "wof:hierarchy":[
        {
            "country_id":85633793,
            "localadmin_id":1125318135
        }
    ],
    "wof:id":1125318135,
    "wof:lastmodified":1505187066,
    "wof:name":"Village of Elvaston",
    "wof:parent_id":-1,
    "wof:placetype":"localadmin",
    "wof:population":165,
    "wof:population_rank":1,
    "wof:repo":"whosonfirst-data-admin-us",
    "wof:superseded_by":[],
    "wof:supersedes":[],
    "wof:tags":[]
},
  "bbox": [
    -91.24931,
    40.39543,
    -91.24931,
    40.39543
],
  "geometry": {"coordinates":[-91.24930999999999,40.39543],"type":"Point"}
}