{
  "id": 1209531349,
  "type": "Feature",
  "properties": {
    "edtf:cessation":"2018-09-06",
    "edtf:inception":"uuuu",
    "geom:area":0.0,
    "geom:area_square_m":0.0,
    "geom:bbox":"-83.41238,31.10075,-83.41238,31.10075",
    "geom:latitude":31.10075,
    "geom:longitude":-83.41238,
    "gn:admin1_code":"GA",
    "gn:admin2_code":"75.0",
    "gn:asciiname":"Heartpine (historical)",
    "gn:country_code":"US",
    "gn:dem":68,
    "gn:elevation":"70.0",
    "gn:feature_class":"P",
    "gn:feature_code":"PPLQ",
    "gn:geonameid":4199855,
    "gn:latitude":31.10075,
    "gn:longitude":-83.41238,
    "gn:modification_date":"2011-12-11",
    "gn:name":"Heartpine (historical)",
    "gn:population":0,
    "gn:timezone":"America/New_York",
    "iso:country":"US",
    "mz:hierarchy_label":1,
    "mz:is_current":0,
    "src:geom":"geonames",
    "wof:belongsto":[
        85633793
    ],
    "wof:breaches":[],
    "wof:concordances":{
        "gn:id":4199855
    },
    "wof:country":"US",
    "wof:geomhash":"0f2be0e2d556f1c0ad877412cdad3f5f",
    "wof:hierarchy":[
        {
            "country_id":85633793,
            "locality_id":1209531349
        }
    ],
    "wof:id":1209531349,
    "wof:lastmodified":1536284271,
    "wof:name":"Heartpine (historical)",
    "wof:parent_id":85633793,
    "wof:placetype":"locality",
    "wof:repo":"whosonfirst-data-admin-us",
    "wof:superseded_by":[],
    "wof:supersedes":[],
    "wof:tags":[]
},
  "bbox": [
    -83.41238,
    31.10075,
    -83.41238,
    31.10075
],
  "geometry": {"coordinates":[-83.41238,31.10075],"type":"Point"}
}