{
  "id": 420540499,
  "type": "Feature",
  "properties": {
    "edtf:cessation":"uuuu",
    "edtf:inception":"uuuu",
    "geom:area":0.0,
    "geom:area_square_m":155987.484132,
    "geom:bbox":"-71.446141,41.855619,-71.446141,41.855619",
    "geom:latitude":41.855619,
    "geom:longitude":-71.446141,
    "gn:gn_country":"US",
    "gn:gn_fcode":"PPL",
    "gn:gn_pop":0,
    "iso:country":"US",
    "lbl:latitude":41.855619,
    "lbl:longitude":-71.446141,
    "mz:hierarchy_label":0,
    "mz:is_current":-1,
    "name:eng_x_preferred":[
        "Geneva"
    ],
    "qs_pg:aaroncc":"US",
    "qs_pg:gn_country":"US",
    "qs_pg:gn_fcode":"PPL",
    "qs_pg:gn_id":5222303,
    "qs_pg:gn_pop":0,
    "qs_pg:name":"Geneva",
    "qs_pg:name_adm0":"United States",
    "qs_pg:name_adm1":"Rhode Island",
    "qs_pg:photos":5,
    "qs_pg:photos_1k":1,
    "qs_pg:photos_9k":1,
    "qs_pg:photos_9r":1,
    "qs_pg:photos_all":5,
    "qs_pg:photos_sr":1,
    "qs_pg:pop_sr":0,
    "qs_pg:qs_id":1334078,
    "qs_pg:qs_pg_placetype":"neighbourhood",
    "qs_pg:qs_pg_placetype_gp":"Suburb",
    "qs_pg:woe_adm0":23424977,
    "qs_pg:woe_id":2409495,
    "src:geom":"mz",
    "src:geom_alt":[
        "zetashapes"
    ],
    "src:lbl":"mapshaper",
    "src:lbl:centroid":"mapshaper",
    "src:population":"zetashapes",
    "wof:belongsto":[
        102191575,
        404488371,
        85633793,
        102081597,
        85688509
    ],
    "wof:breaches":[],
    "wof:concordances":{
        "gn:id":5222303,
        "gp:id":2409495,
        "qs_pg:id":1334078
    },
    "wof:country":"US",
    "wof:geomhash":"f55633fb9510383c3851dadc9bf2f5a5",
    "wof:hierarchy":[
        {
            "continent_id":102191575,
            "country_id":85633793,
            "county_id":102081597,
            "localadmin_id":404488371,
            "locality_id":-1,
            "neighbourhood_id":420540499,
            "region_id":85688509
        }
    ],
    "wof:id":420540499,
    "wof:lastmodified":1534379751,
    "wof:name":"Geneva",
    "wof:parent_id":-1,
    "wof:placetype":"neighbourhood",
    "wof:population":153,
    "wof:population_rank":1,
    "wof:repo":"whosonfirst-data-admin-us",
    "wof:superseded_by":[],
    "wof:supersedes":[
        1126095967
    ],
    "wof:tags":[],
    "zs:area_m":155976.910643,
    "zs:blockids":[
        440070028001001,
        440070119012032,
        440070119012033,
        440070119012024,
        440070028001000
    ],
    "zs:housing10":72,
    "zs:id":2409495,
    "zs:label":"Geneva",
    "zs:pop10":153
},
  "bbox": [
    -71.446141,
    41.855619,
    -71.446141,
    41.855619
],
  "geometry": {"coordinates":[-71.446141,41.855619],"type":"Point"}
}