{
  "id": 1293211831,
  "type": "Feature",
  "properties": {
    "edtf:cessation":"2018-09-06",
    "edtf:inception":"uuuu",
    "geom:area":0.0,
    "geom:area_square_m":0.0,
    "geom:bbox":"-87.50168,36.13839,-87.50168,36.13839",
    "geom:latitude":36.13839,
    "geom:longitude":-87.50168,
    "gn:admin1_code":"TN",
    "gn:admin2_code":"43.0",
    "gn:asciiname":"Williamsville (historical)",
    "gn:country_code":"US",
    "gn:dem":183,
    "gn:elevation":"183.0",
    "gn:feature_class":"P",
    "gn:feature_code":"PPLQ",
    "gn:geonameid":4668075,
    "gn:latitude":36.13839,
    "gn:longitude":-87.50168,
    "gn:modification_date":"2011-12-11",
    "gn:name":"Williamsville (historical)",
    "gn:population":0,
    "gn:timezone":"America/Chicago",
    "iso:country":"US",
    "mz:hierarchy_label":1,
    "mz:is_current":0,
    "name:eng_x_preferred":[
        "Williamsville (historical)"
    ],
    "name:und_x_variant":[
        "Williams Store"
    ],
    "src:geom":"geonames",
    "wof:belongsto":[
        102191575,
        85633793,
        85688701,
        102086975
    ],
    "wof:breaches":[],
    "wof:concordances":{
        "gn:id":4668075
    },
    "wof:country":"US",
    "wof:geomhash":"70acd02b330371962e94f222f08f2461",
    "wof:hierarchy":[
        {
            "continent_id":102191575,
            "country_id":85633793,
            "county_id":102086975,
            "locality_id":1293211831,
            "region_id":85688701
        }
    ],
    "wof:id":1293211831,
    "wof:lastmodified":1537712650,
    "wof:name":"Williamsville (historical)",
    "wof:parent_id":102086975,
    "wof:placetype":"locality",
    "wof:repo":"whosonfirst-data-admin-us",
    "wof:superseded_by":[],
    "wof:supersedes":[],
    "wof:tags":[]
},
  "bbox": [
    -87.50168000000002,
    36.13839,
    -87.50168000000002,
    36.13839
],
  "geometry": {"coordinates":[-87.50168000000002,36.13839],"type":"Point"}
}