{
  "id": 1126109303,
  "type": "Feature",
  "properties": {
    "edtf:cessation":"uuuu",
    "edtf:deprecated":"2018-08-15",
    "edtf:inception":"uuuu",
    "edtf:superseded":"2018-08-15",
    "geom:area":0.0,
    "geom:area_square_m":0.0,
    "geom:bbox":"-77.42193,37.56265,-77.42193,37.56265",
    "geom:latitude":37.56265,
    "geom:longitude":-77.42193,
    "gn:gn_country":"US",
    "gn:gn_fcode":"PPL",
    "gn:gn_pop":0,
    "iso:country":"US",
    "lbl:latitude":37.56265,
    "lbl:longitude":-77.42193,
    "mz:hierarchy_label":1,
    "mz:is_current":0,
    "mz:note":"Quattroshapes Point Gazetteer import 20170519",
    "qs_pg:aaroncc":"US",
    "qs_pg:gn_country":"US",
    "qs_pg:gn_fcode":"PPL",
    "qs_pg:gn_id":4752329,
    "qs_pg:gn_pop":0,
    "qs_pg:name":"Chestnut Hill",
    "qs_pg:name_adm0":"United States",
    "qs_pg:name_adm1":"Virginia",
    "qs_pg:photos":216,
    "qs_pg:photos_1k":44,
    "qs_pg:photos_9k":1,
    "qs_pg:photos_9r":4,
    "qs_pg:photos_all":216,
    "qs_pg:photos_sr":4,
    "qs_pg:pop_sr":0,
    "qs_pg:qs_id":512564,
    "qs_pg:qs_pg_placetype":"neighbourhood",
    "qs_pg:qs_pg_placetype_gp":"Suburb",
    "qs_pg:woe_adm0":23424977,
    "qs_pg:woe_id":28340555,
    "src:geom":"qs_pg",
    "src:lbl:centroid":"qs_pg",
    "woe:adm0_id":23424977,
    "woe:name_adm0":"United States",
    "woe:name_adm1":"Virginia",
    "woe:placetype":"Suburb",
    "wof:belongsto":[
        85688747,
        102191575,
        85633793,
        101728675,
        102085959
    ],
    "wof:breaches":[],
    "wof:concordances":{
        "gn:id":4752329,
        "gp:id":28340555,
        "qs_pg:id":512564
    },
    "wof:country":"US",
    "wof:created":1497317850,
    "wof:geomhash":"c6ba8c6985371a8acceb6de245c71176",
    "wof:hierarchy":[
        {
            "continent_id":102191575,
            "country_id":85633793,
            "county_id":102085959,
            "locality_id":101728675,
            "neighbourhood_id":1126109303,
            "region_id":85688747
        }
    ],
    "wof:id":1126109303,
    "wof:lastmodified":1534379777,
    "wof:name":"Chestnut Hill",
    "wof:parent_id":101728675,
    "wof:placetype":"neighbourhood",
    "wof:repo":"whosonfirst-data-admin-us",
    "wof:superseded_by":[
        85868513
    ],
    "wof:supersedes":[],
    "wof:tags":[]
},
  "bbox": [
    -77.42193,
    37.56265,
    -77.42193,
    37.56265
],
  "geometry": {"coordinates":[-77.42193,37.56265],"type":"Point"}
}