{
  "id": 1209430581,
  "type": "Feature",
  "properties": {
    "edtf:cessation":"uuuu",
    "edtf:deprecated":"2019-02-08",
    "edtf:inception":"uuuu",
    "geom:area":0.0,
    "geom:area_square_m":0.0,
    "geom:bbox":"-76.2259,36.2754,-76.2259,36.2754",
    "geom:latitude":36.2754,
    "geom:longitude":-76.2259,
    "gn:admin1_code":"NC",
    "gn:admin2_code":"139",
    "gn:admin3_code":"90996.0",
    "gn:asciiname":"Meadowland Mobile Home Park",
    "gn:country_code":"US",
    "gn:dem":3,
    "gn:elevation":"2.0",
    "gn:feature_class":"P",
    "gn:feature_code":"PPL",
    "gn:geonameid":7230379,
    "gn:latitude":36.2754,
    "gn:longitude":-76.2259,
    "gn:modification_date":"2017-05-23",
    "gn:name":"Meadowland Mobile Home Park",
    "gn:population":0,
    "gn:timezone":"America/New_York",
    "iso:country":"US",
    "mz:hierarchy_label":1,
    "mz:is_current":0,
    "src:geom":"geonames",
    "wof:belongsto":[
        85633793
    ],
    "wof:breaches":[],
    "wof:concordances":{
        "gn:id":7230379
    },
    "wof:country":"US",
    "wof:geomhash":"7a361e4f6a1d9b124070f72b40249baf",
    "wof:hierarchy":[
        {
            "country_id":85633793,
            "locality_id":1209430581
        }
    ],
    "wof:id":1209430581,
    "wof:lastmodified":1549653920,
    "wof:name":"Meadowland Mobile Home Park",
    "wof:parent_id":85633793,
    "wof:placetype":"locality",
    "wof:repo":"whosonfirst-data-admin-us",
    "wof:superseded_by":[
        1376899847
    ],
    "wof:supersedes":[],
    "wof:tags":[]
},
  "bbox": [
    -76.2259,
    36.2754,
    -76.2259,
    36.2754
],
  "geometry": {"coordinates":[-76.2259,36.2754],"type":"Point"}
}