{
  "id": 1226081867,
  "type": "Feature",
  "properties": {
    "edtf:cessation":"uuuu",
    "edtf:inception":"uuuu",
    "geom:area":0.0,
    "geom:area_square_m":0.0,
    "geom:bbox":"-103.65302,34.15536,-103.65302,34.15536",
    "geom:latitude":34.15536,
    "geom:longitude":-103.65302,
    "gn:admin1_code":"NM",
    "gn:admin2_code":"41.0",
    "gn:asciiname":"Upton",
    "gn:country_code":"US",
    "gn:dem":1315,
    "gn:elevation":"1318.0",
    "gn:feature_class":"P",
    "gn:feature_code":"PPL",
    "gn:geonameid":5496189,
    "gn:latitude":34.15536,
    "gn:longitude":-103.65302,
    "gn:modification_date":"2006-01-15",
    "gn:name":"Upton",
    "gn:population":0,
    "gn:timezone":"America/Denver",
    "iso:country":"US",
    "mz:hierarchy_label":1,
    "mz:is_current":-1,
    "src:geom":"geonames",
    "wof:belongsto":[
        102191575,
        85633793,
        85688493,
        102081175
    ],
    "wof:breaches":[],
    "wof:concordances":{
        "gn:id":5496189
    },
    "wof:country":"US",
    "wof:geomhash":"3b4e71ea606578d52375460618b0deda",
    "wof:hierarchy":[
        {
            "continent_id":102191575,
            "country_id":85633793,
            "county_id":102081175,
            "locality_id":1226081867,
            "region_id":85688493
        }
    ],
    "wof:id":1226081867,
    "wof:lastmodified":1536672964,
    "wof:name":"Upton",
    "wof:parent_id":102081175,
    "wof:placetype":"locality",
    "wof:repo":"whosonfirst-data-admin-us",
    "wof:superseded_by":[],
    "wof:supersedes":[],
    "wof:tags":[]
},
  "bbox": [
    -103.65302,
    34.15535999999999,
    -103.65302,
    34.15535999999999
],
  "geometry": {"coordinates":[-103.65302,34.15535999999999],"type":"Point"}
}