{
  "id": 1125346219,
  "type": "Feature",
  "properties": {
    "edtf:cessation":"uuuu",
    "edtf:deprecated":"2017-11-04",
    "edtf:inception":"uuuu",
    "geom:area":0.0,
    "geom:area_square_m":0.0,
    "geom:bbox":"-93.23916,41.59527,-93.23916,41.59527",
    "geom:latitude":41.59527,
    "geom:longitude":-93.23916,
    "gn:gn_country":"US",
    "gn:gn_fcode":"ADMD",
    "gn:gn_pop":1680,
    "gn:population":1680,
    "iso:country":"US",
    "lbl:latitude":41.59527,
    "lbl:longitude":-93.23916,
    "mz:hierarchy_label":1,
    "mz:is_current":0,
    "mz:note":"Quattroshapes Point Gazetteer import 20170519",
    "qs_pg:aaroncc":"US",
    "qs_pg:gn_country":"US",
    "qs_pg:gn_fcode":"ADMD",
    "qs_pg:gn_id":7317296,
    "qs_pg:gn_pop":1680,
    "qs_pg:name":"City of Prairie City",
    "qs_pg:photos_9r":0,
    "qs_pg:photos_sr":0,
    "qs_pg:pop_sr":3,
    "qs_pg:qs_id":683312,
    "qs_pg:qs_pg_placetype":"localadmin",
    "src:geom":"qs_pg",
    "src:lbl:centroid":"qs_pg",
    "src:population":"geonames",
    "wof:belongsto":[
        85633793
    ],
    "wof:breaches":[],
    "wof:concordances":{
        "gn:id":7317296,
        "qs_pg:id":683312
    },
    "wof:country":"US",
    "wof:created":1497045933,
    "wof:geomhash":"1f57e438bfef43d30cbedead5d956568",
    "wof:hierarchy":[
        {
            "country_id":85633793,
            "localadmin_id":1125346219
        }
    ],
    "wof:id":1125346219,
    "wof:lastmodified":1509752593,
    "wof:name":"City of Prairie City",
    "wof:parent_id":-1,
    "wof:placetype":"localadmin",
    "wof:population":1680,
    "wof:population_rank":3,
    "wof:repo":"whosonfirst-data-admin-us",
    "wof:superseded_by":[
        85944355
    ],
    "wof:supersedes":[],
    "wof:tags":[]
},
  "bbox": [
    -93.23916,
    41.59527,
    -93.23916,
    41.59527
],
  "geometry": {"coordinates":[-93.23916,41.59527],"type":"Point"}
}