{
  "id": 1326952585,
  "type": "Feature",
  "properties": {
    "edtf:cessation":"uuuu",
    "edtf:inception":"uuuu",
    "geom:area":0.0,
    "geom:area_square_m":0.0,
    "geom:bbox":"-84.39022,39.47839,-84.39022,39.47839",
    "geom:latitude":39.47839,
    "geom:longitude":-84.39022,
    "gn:admin1_code":"OH",
    "gn:admin2_code":"17",
    "gn:admin3_code":"49840.0",
    "gn:asciiname":"Oneida",
    "gn:country_code":"US",
    "gn:dem":204,
    "gn:elevation":"200.0",
    "gn:feature_class":"P",
    "gn:feature_code":"PPL",
    "gn:geonameid":4520591,
    "gn:latitude":39.47839,
    "gn:longitude":-84.39022,
    "gn:modification_date":"2017-05-23",
    "gn:name":"Oneida",
    "gn:population":0,
    "gn:timezone":"America/New_York",
    "iso:country":"US",
    "mz:hierarchy_label":1,
    "mz:is_current":-1,
    "name:eng_x_preferred":[
        "Oneida"
    ],
    "name:und_x_variant":[
        "Reeds Station"
    ],
    "src:geom":"geonames",
    "wof:belongsto":[
        85688485,
        102191575,
        404524795,
        85633793,
        102084743
    ],
    "wof:breaches":[],
    "wof:concordances":{
        "gn:id":4520591
    },
    "wof:country":"US",
    "wof:geomhash":"1711cc6ef78e613379f96036f447ff5d",
    "wof:hierarchy":[
        {
            "continent_id":102191575,
            "country_id":85633793,
            "county_id":102084743,
            "localadmin_id":404524795,
            "locality_id":1326952585,
            "region_id":85688485
        }
    ],
    "wof:id":1326952585,
    "wof:lastmodified":1537712560,
    "wof:name":"Oneida",
    "wof:parent_id":404524795,
    "wof:placetype":"locality",
    "wof:repo":"whosonfirst-data-admin-us",
    "wof:superseded_by":[],
    "wof:supersedes":[],
    "wof:tags":[]
},
  "bbox": [
    -84.39022,
    39.47839000000001,
    -84.39022,
    39.47839000000001
],
  "geometry": {"coordinates":[-84.39022,39.47839000000001],"type":"Point"}
}