{
  "id": 1259995557,
  "type": "Feature",
  "properties": {
    "edtf:cessation":"uuuu",
    "edtf:inception":"uuuu",
    "geom:area":0.0,
    "geom:area_square_m":0.0,
    "geom:bbox":"-93.08491,47.41605,-93.08491,47.41605",
    "geom:latitude":47.41605,
    "geom:longitude":-93.08491,
    "gn:admin1_code":"MN",
    "gn:admin2_code":"61.0",
    "gn:admin3_code":"32570.0",
    "gn:asciiname":"Bennett",
    "gn:country_code":"US",
    "gn:dem":408,
    "gn:elevation":"477.0",
    "gn:feature_class":"P",
    "gn:feature_code":"PPL",
    "gn:geonameid":5017866,
    "gn:latitude":47.41605,
    "gn:longitude":-93.08491,
    "gn:modification_date":"2017-05-23",
    "gn:name":"Bennett",
    "gn:population":0,
    "gn:timezone":"America/Chicago",
    "iso:country":"US",
    "mz:hierarchy_label":1,
    "mz:is_current":-1,
    "src:geom":"geonames",
    "wof:belongsto":[
        85688727,
        102191575,
        404513311,
        85633793,
        102086963
    ],
    "wof:breaches":[],
    "wof:concordances":{
        "gn:id":5017866
    },
    "wof:country":"US",
    "wof:geomhash":"c9b0cb07d22bb72433f3f3179dc7c5c5",
    "wof:hierarchy":[
        {
            "continent_id":102191575,
            "country_id":85633793,
            "county_id":102086963,
            "localadmin_id":404513311,
            "locality_id":1259995557,
            "region_id":85688727
        }
    ],
    "wof:id":1259995557,
    "wof:lastmodified":1536615347,
    "wof:name":"Bennett",
    "wof:parent_id":404513311,
    "wof:placetype":"locality",
    "wof:repo":"whosonfirst-data-admin-us",
    "wof:superseded_by":[],
    "wof:supersedes":[],
    "wof:tags":[]
},
  "bbox": [
    -93.08491,
    47.41605,
    -93.08491,
    47.41605
],
  "geometry": {"coordinates":[-93.08490999999999,47.41605],"type":"Point"}
}