{
  "id": 1259916901,
  "type": "Feature",
  "properties": {
    "edtf:cessation":"2018-09-07",
    "edtf:inception":"uuuu",
    "geom:area":0.0,
    "geom:area_square_m":0.0,
    "geom:bbox":"-120.68438,39.30934,-120.68438,39.30934",
    "geom:latitude":39.30934,
    "geom:longitude":-120.68438,
    "gn:admin1_code":"CA",
    "gn:admin2_code":"57.0",
    "gn:asciiname":"Bear Valley (historical)",
    "gn:country_code":"US",
    "gn:dem":1399,
    "gn:elevation":"1393.0",
    "gn:feature_class":"P",
    "gn:feature_code":"PPLQ",
    "gn:geonameid":5326985,
    "gn:latitude":39.30934,
    "gn:longitude":-120.68438,
    "gn:modification_date":"2011-12-12",
    "gn:name":"Bear Valley (historical)",
    "gn:population":0,
    "gn:timezone":"America/Los_Angeles",
    "iso:country":"US",
    "mz:hierarchy_label":1,
    "mz:is_current":0,
    "src:geom":"geonames",
    "wof:belongsto":[
        102191575,
        85633793,
        85688637,
        102085391
    ],
    "wof:breaches":[],
    "wof:concordances":{
        "gn:id":5326985
    },
    "wof:country":"US",
    "wof:geomhash":"dd6e7035afcf5bc320709d15ce753072",
    "wof:hierarchy":[
        {
            "continent_id":102191575,
            "country_id":85633793,
            "county_id":102085391,
            "locality_id":1259916901,
            "region_id":85688637
        }
    ],
    "wof:id":1259916901,
    "wof:lastmodified":1536731238,
    "wof:name":"Bear Valley (historical)",
    "wof:parent_id":102085391,
    "wof:placetype":"locality",
    "wof:repo":"whosonfirst-data-admin-us",
    "wof:superseded_by":[],
    "wof:supersedes":[],
    "wof:tags":[]
},
  "bbox": [
    -120.68438,
    39.30934,
    -120.68438,
    39.30934
],
  "geometry": {"coordinates":[-120.68438,39.30934],"type":"Point"}
}