{
  "id": 1125350117,
  "type": "Feature",
  "properties": {
    "edtf:cessation":"uuuu",
    "edtf:deprecated":"2017-11-04",
    "edtf:inception":"uuuu",
    "geom:area":0.0,
    "geom:area_square_m":0.0,
    "geom:bbox":"-87.26297,36.72256,-87.26297,36.72256",
    "geom:latitude":36.72256,
    "geom:longitude":-87.26297,
    "gn:gn_country":"US",
    "gn:gn_fcode":"ADMD",
    "gn:gn_pop":384,
    "gn:population":384,
    "iso:country":"US",
    "lbl:latitude":36.72256,
    "lbl:longitude":-87.26297,
    "mz:hierarchy_label":1,
    "mz:is_current":0,
    "mz:note":"Quattroshapes Point Gazetteer import 20170519",
    "qs_pg:aaroncc":"US",
    "qs_pg:gn_country":"US",
    "qs_pg:gn_fcode":"ADMD",
    "qs_pg:gn_id":7170909,
    "qs_pg:gn_pop":384,
    "qs_pg:name":"City of Trenton",
    "qs_pg:photos_9r":0,
    "qs_pg:photos_sr":0,
    "qs_pg:pop_sr":2,
    "qs_pg:qs_id":663568,
    "qs_pg:qs_pg_placetype":"localadmin",
    "src:geom":"qs_pg",
    "src:lbl:centroid":"qs_pg",
    "src:population":"geonames",
    "wof:belongsto":[
        85633793
    ],
    "wof:breaches":[],
    "wof:concordances":{
        "gn:id":7170909,
        "qs_pg:id":663568
    },
    "wof:country":"US",
    "wof:created":1497046153,
    "wof:geomhash":"22980464168938f735685f27062eb7a3",
    "wof:hierarchy":[
        {
            "country_id":85633793,
            "localadmin_id":1125350117
        }
    ],
    "wof:id":1125350117,
    "wof:lastmodified":1509752617,
    "wof:name":"City of Trenton",
    "wof:parent_id":-1,
    "wof:placetype":"localadmin",
    "wof:population":384,
    "wof:population_rank":2,
    "wof:repo":"whosonfirst-data-admin-us",
    "wof:superseded_by":[
        85946731
    ],
    "wof:supersedes":[],
    "wof:tags":[]
},
  "bbox": [
    -87.26297,
    36.72256,
    -87.26297,
    36.72256
],
  "geometry": {"coordinates":[-87.26297,36.72256],"type":"Point"}
}