{
  "id": 1125340963,
  "type": "Feature",
  "properties": {
    "edtf:cessation":"uuuu",
    "edtf:deprecated":"2017-11-04",
    "edtf:inception":"uuuu",
    "geom:area":0.0,
    "geom:area_square_m":0.0,
    "geom:bbox":"-154.38084,63.00799,-154.38084,63.00799",
    "geom:latitude":63.00799,
    "geom:longitude":-154.38084,
    "gn:gn_country":"US",
    "gn:gn_fcode":"ADMD",
    "gn:gn_pop":94,
    "gn:population":94,
    "iso:country":"US",
    "lbl:latitude":63.00799,
    "lbl:longitude":-154.38084,
    "mz:hierarchy_label":1,
    "mz:is_current":0,
    "mz:note":"Quattroshapes Point Gazetteer import 20170519",
    "qs_pg:aaroncc":"US",
    "qs_pg:gn_country":"US",
    "qs_pg:gn_fcode":"ADMD",
    "qs_pg:gn_id":7117689,
    "qs_pg:gn_pop":94,
    "qs_pg:name":"City of Nikolai",
    "qs_pg:photos_9r":0,
    "qs_pg:photos_sr":0,
    "qs_pg:pop_sr":1,
    "qs_pg:qs_id":656808,
    "qs_pg:qs_pg_placetype":"localadmin",
    "src:geom":"qs_pg",
    "src:lbl:centroid":"qs_pg",
    "src:population":"geonames",
    "wof:belongsto":[
        85633793
    ],
    "wof:breaches":[],
    "wof:concordances":{
        "gn:id":7117689,
        "qs_pg:id":656808
    },
    "wof:country":"US",
    "wof:created":1497045650,
    "wof:geomhash":"42db368199417db04acecf204658d984",
    "wof:hierarchy":[
        {
            "country_id":85633793,
            "localadmin_id":1125340963
        }
    ],
    "wof:id":1125340963,
    "wof:lastmodified":1509752569,
    "wof:name":"City of Nikolai",
    "wof:parent_id":-1,
    "wof:placetype":"localadmin",
    "wof:population":94,
    "wof:population_rank":1,
    "wof:repo":"whosonfirst-data-admin-us",
    "wof:superseded_by":[
        85915853
    ],
    "wof:supersedes":[],
    "wof:tags":[]
},
  "bbox": [
    -154.38084,
    63.00799,
    -154.38084,
    63.00799
],
  "geometry": {"coordinates":[-154.38084000000001,63.00799],"type":"Point"}
}