{
  "id": 1209131499,
  "type": "Feature",
  "properties": {
    "edtf:cessation":"uuuu",
    "edtf:inception":"uuuu",
    "geom:area":0.0,
    "geom:area_square_m":0.0,
    "geom:bbox":"-85.44412,32.82513,-85.44412,32.82513",
    "geom:latitude":32.82513,
    "geom:longitude":-85.44412,
    "gn:admin1_code":"AL",
    "gn:admin2_code":"17",
    "gn:asciiname":"Moorefield",
    "gn:country_code":"US",
    "gn:dem":262,
    "gn:elevation":"262.0",
    "gn:feature_class":"P",
    "gn:feature_code":"PPL",
    "gn:geonameid":4076960,
    "gn:latitude":32.82513,
    "gn:longitude":-85.44412,
    "gn:modification_date":"2006-01-15",
    "gn:name":"Moorefield",
    "gn:population":0,
    "gn:timezone":"America/Chicago",
    "iso:country":"US",
    "mz:hierarchy_label":1,
    "mz:is_current":-1,
    "src:geom":"geonames",
    "wof:belongsto":[
        85633793
    ],
    "wof:breaches":[],
    "wof:concordances":{
        "gn:id":4076960
    },
    "wof:country":"US",
    "wof:geomhash":"92f2d8dfc2e748f7acc44391c030b1aa",
    "wof:hierarchy":[
        {
            "country_id":85633793,
            "locality_id":1209131499
        }
    ],
    "wof:id":1209131499,
    "wof:lastmodified":1536296789,
    "wof:name":"Moorefield",
    "wof:parent_id":85633793,
    "wof:placetype":"locality",
    "wof:repo":"whosonfirst-data-admin-us",
    "wof:superseded_by":[],
    "wof:supersedes":[],
    "wof:tags":[]
},
  "bbox": [
    -85.44412,
    32.82513,
    -85.44412,
    32.82513
],
  "geometry": {"coordinates":[-85.44412,32.82513],"type":"Point"}
}