{
  "id": 1125296059,
  "type": "Feature",
  "properties": {
    "edtf:cessation":"uuuu",
    "edtf:deprecated":"2017-11-15",
    "edtf:inception":"uuuu",
    "geom:area":0.0,
    "geom:area_square_m":0.0,
    "geom:bbox":"-97.48684,34.23354,-97.48684,34.23354",
    "geom:latitude":34.23354,
    "geom:longitude":-97.48684,
    "gn:gn_country":"US",
    "gn:gn_fcode":"ADMD",
    "gn:gn_pop":2788,
    "gn:population":2788,
    "iso:country":"US",
    "lbl:latitude":34.23354,
    "lbl:longitude":-97.48684,
    "mz:hierarchy_label":1,
    "mz:is_current":0,
    "mz:note":"Quattroshapes Point Gazetteer import 20170519",
    "qs_pg:aaroncc":"US",
    "qs_pg:gn_country":"US",
    "qs_pg:gn_fcode":"ADMD",
    "qs_pg:gn_id":7173594,
    "qs_pg:gn_pop":2788,
    "qs_pg:name":"City of Healdton",
    "qs_pg:photos_9r":0,
    "qs_pg:photos_sr":0,
    "qs_pg:pop_sr":4,
    "qs_pg:qs_id":666161,
    "qs_pg:qs_pg_placetype":"localadmin",
    "src:geom":"qs_pg",
    "src:lbl:centroid":"qs_pg",
    "src:population":"geonames",
    "wof:belongsto":[
        85633793
    ],
    "wof:breaches":[],
    "wof:concordances":{
        "gn:id":7173594,
        "qs_pg:id":666161
    },
    "wof:country":"US",
    "wof:created":1497043152,
    "wof:geomhash":"a0892b9821b1ee0efa65c41ca93fe5fe",
    "wof:hierarchy":[
        {
            "country_id":85633793,
            "localadmin_id":1125296059
        }
    ],
    "wof:id":1125296059,
    "wof:lastmodified":1510790349,
    "wof:name":"City of Healdton",
    "wof:parent_id":-1,
    "wof:placetype":"localadmin",
    "wof:population":2788,
    "wof:population_rank":4,
    "wof:repo":"whosonfirst-data-admin-us",
    "wof:superseded_by":[
        101714759
    ],
    "wof:supersedes":[],
    "wof:tags":[]
},
  "bbox": [
    -97.48684,
    34.23354,
    -97.48684,
    34.23354
],
  "geometry": {"coordinates":[-97.48684,34.23354],"type":"Point"}
}