{
  "id": 1242593693,
  "type": "Feature",
  "properties": {
    "edtf:cessation":"uuuu",
    "edtf:deprecated":"2019-02-08",
    "edtf:inception":"uuuu",
    "geom:area":0.0,
    "geom:area_square_m":0.0,
    "geom:bbox":"-77.03795,42.92346,-77.03795,42.92346",
    "geom:latitude":42.92346,
    "geom:longitude":-77.03795,
    "gn:admin1_code":"NY",
    "gn:admin2_code":"69.0",
    "gn:admin3_code":"57529.0",
    "gn:asciiname":"Countryside Mobile Home Park",
    "gn:country_code":"US",
    "gn:dem":184,
    "gn:elevation":"183.0",
    "gn:feature_class":"P",
    "gn:feature_code":"PPL",
    "gn:geonameid":8085294,
    "gn:latitude":42.92346,
    "gn:longitude":-77.03795,
    "gn:modification_date":"2017-05-23",
    "gn:name":"Countryside Mobile Home Park",
    "gn:population":0,
    "gn:timezone":"America/New_York",
    "iso:country":"US",
    "mz:hierarchy_label":1,
    "mz:is_current":0,
    "src:geom":"geonames",
    "wof:belongsto":[
        85688543,
        102191575,
        404522787,
        85633793,
        102082359
    ],
    "wof:breaches":[],
    "wof:concordances":{
        "gn:id":8085294
    },
    "wof:country":"US",
    "wof:geomhash":"21b70c95104c3aed82a30b801d2da46c",
    "wof:hierarchy":[
        {
            "continent_id":102191575,
            "country_id":85633793,
            "county_id":102082359,
            "localadmin_id":404522787,
            "locality_id":1242593693,
            "region_id":85688543
        }
    ],
    "wof:id":1242593693,
    "wof:lastmodified":1549653980,
    "wof:name":"Countryside Mobile Home Park",
    "wof:parent_id":404522787,
    "wof:placetype":"locality",
    "wof:repo":"whosonfirst-data-admin-us",
    "wof:superseded_by":[
        1376902049
    ],
    "wof:supersedes":[],
    "wof:tags":[]
},
  "bbox": [
    -77.03795,
    42.92346,
    -77.03795,
    42.92346
],
  "geometry": {"coordinates":[-77.03795,42.92346],"type":"Point"}
}