{
  "id": 1125366405,
  "type": "Feature",
  "properties": {
    "edtf:cessation":"2017-05-19",
    "edtf:inception":"uuuu",
    "geom:area":0.0,
    "geom:area_square_m":0.0,
    "geom:bbox":"-74.85128,40.10483,-74.85128,40.10483",
    "geom:latitude":40.10483,
    "geom:longitude":-74.85128,
    "gn:gn_country":"US",
    "gn:gn_fcode":"ADMD",
    "gn:gn_pop":9726,
    "gn:population":9726,
    "iso:country":"US",
    "lbl:latitude":40.10483,
    "lbl:longitude":-74.85128,
    "mz:hierarchy_label":1,
    "mz:is_current":0,
    "mz:note":"Quattroshapes Point Gazetteer import 20170519",
    "qs_pg:aaroncc":"US",
    "qs_pg:gn_country":"US",
    "qs_pg:gn_fcode":"ADMD",
    "qs_pg:gn_id":5181699,
    "qs_pg:gn_pop":9726,
    "qs_pg:name":"Borough of Bristol",
    "qs_pg:photos_9r":0,
    "qs_pg:photos_sr":0,
    "qs_pg:pop_sr":5,
    "qs_pg:qs_id":101344,
    "qs_pg:qs_pg_placetype":"localadmin",
    "src:geom":"qs_pg",
    "src:lbl:centroid":"qs_pg",
    "src:population":"geonames",
    "wof:belongsto":[
        85633793
    ],
    "wof:breaches":[],
    "wof:concordances":{
        "gn:id":5181699,
        "qs_pg:id":101344
    },
    "wof:country":"US",
    "wof:created":1497047104,
    "wof:geomhash":"9689fd719bee517d667ed5ce7f23d977",
    "wof:hierarchy":[
        {
            "country_id":85633793,
            "localadmin_id":1125366405
        }
    ],
    "wof:id":1125366405,
    "wof:lastmodified":1505186968,
    "wof:name":"Borough of Bristol",
    "wof:parent_id":-1,
    "wof:placetype":"localadmin",
    "wof:population":9726,
    "wof:population_rank":5,
    "wof:repo":"whosonfirst-data-admin-us",
    "wof:superseded_by":[],
    "wof:supersedes":[],
    "wof:tags":[]
},
  "bbox": [
    -74.85128,
    40.10483,
    -74.85128,
    40.10483
],
  "geometry": {"coordinates":[-74.85128,40.10483],"type":"Point"}
}