{
  "id": 1126093391,
  "type": "Feature",
  "properties": {
    "edtf:cessation":"uuuu",
    "edtf:deprecated":"2018-08-15",
    "edtf:inception":"uuuu",
    "edtf:superseded":"2018-08-15",
    "geom:area":0.0,
    "geom:area_square_m":0.0,
    "geom:bbox":"-77.49276,37.47931,-77.49276,37.47931",
    "geom:latitude":37.47931,
    "geom:longitude":-77.49276,
    "gn:gn_country":"US",
    "gn:gn_fcode":"PPLX",
    "gn:gn_pop":0,
    "iso:country":"US",
    "lbl:latitude":37.47931,
    "lbl:longitude":-77.49276,
    "mz:hierarchy_label":1,
    "mz:is_current":0,
    "mz:note":"Quattroshapes Point Gazetteer import 20170519",
    "qs_pg:aaroncc":"US",
    "qs_pg:gn_country":"US",
    "qs_pg:gn_fcode":"PPLX",
    "qs_pg:gn_id":4779206,
    "qs_pg:gn_pop":0,
    "qs_pg:name":"Piney Knolls",
    "qs_pg:name_adm0":"United States",
    "qs_pg:name_adm1":"Virginia",
    "qs_pg:photos":161,
    "qs_pg:photos_1k":33,
    "qs_pg:photos_9k":1,
    "qs_pg:photos_9r":4,
    "qs_pg:photos_all":161,
    "qs_pg:photos_sr":4,
    "qs_pg:pop_sr":0,
    "qs_pg:qs_id":224093,
    "qs_pg:qs_pg_placetype":"neighbourhood",
    "qs_pg:qs_pg_placetype_gp":"Suburb",
    "qs_pg:woe_adm0":23424977,
    "qs_pg:woe_id":28298053,
    "src:geom":"qs_pg",
    "src:lbl:centroid":"qs_pg",
    "woe:adm0_id":23424977,
    "woe:name_adm0":"United States",
    "woe:name_adm1":"Virginia",
    "woe:placetype":"Suburb",
    "wof:belongsto":[
        85688747,
        102191575,
        85633793,
        101728675,
        102085959
    ],
    "wof:breaches":[],
    "wof:concordances":{
        "gn:id":4779206,
        "gp:id":28298053,
        "qs_pg:id":224093
    },
    "wof:country":"US",
    "wof:created":1497314556,
    "wof:geomhash":"4ff49ecf83136ac9c2b91eec944a4788",
    "wof:hierarchy":[
        {
            "continent_id":102191575,
            "country_id":85633793,
            "county_id":102085959,
            "locality_id":101728675,
            "neighbourhood_id":1126093391,
            "region_id":85688747
        }
    ],
    "wof:id":1126093391,
    "wof:lastmodified":1534379748,
    "wof:name":"Piney Knolls",
    "wof:parent_id":101728675,
    "wof:placetype":"neighbourhood",
    "wof:repo":"whosonfirst-data-admin-us",
    "wof:superseded_by":[
        420548311
    ],
    "wof:supersedes":[],
    "wof:tags":[]
},
  "bbox": [
    -77.49276,
    37.47931,
    -77.49276,
    37.47931
],
  "geometry": {"coordinates":[-77.49276,37.47931],"type":"Point"}
}