{
  "id": 420544403,
  "type": "Feature",
  "properties": {
    "edtf:cessation":"uuuu",
    "edtf:inception":"uuuu",
    "geom:area":0.0,
    "geom:area_square_m":337990.674919,
    "geom:bbox":"-111.888005,40.881881,-111.888005,40.881881",
    "geom:latitude":40.881881,
    "geom:longitude":-111.888005,
    "iso:country":"US",
    "lbl:latitude":40.881881,
    "lbl:longitude":-111.888005,
    "mz:hierarchy_label":0,
    "mz:is_current":-1,
    "name:eng_x_preferred":[
        "Newport"
    ],
    "src:geom":"mz",
    "src:geom_alt":[
        "quattroshapes_pg",
        "zetashapes"
    ],
    "src:lbl":"mapshaper",
    "src:lbl:centroid":"mapshaper",
    "src:population":"zetashapes",
    "wof:belongsto":[
        102191575,
        85633793,
        101727881,
        102083563,
        85688567
    ],
    "wof:breaches":[],
    "wof:concordances":{
        "gn:id":5778886,
        "gp:id":2459600,
        "qs_pg:id":1350922
    },
    "wof:country":"US",
    "wof:geomhash":"ec82dc06cc40b3a3c2f3f216ac412c82",
    "wof:hierarchy":[
        {
            "continent_id":102191575,
            "country_id":85633793,
            "county_id":102083563,
            "locality_id":101727881,
            "neighbourhood_id":420544403,
            "region_id":85688567
        }
    ],
    "wof:id":420544403,
    "wof:lastmodified":1533601679,
    "wof:name":"Newport",
    "wof:parent_id":101727881,
    "wof:placetype":"neighbourhood",
    "wof:population":517,
    "wof:population_rank":2,
    "wof:repo":"whosonfirst-data-admin-us",
    "wof:superseded_by":[],
    "wof:supersedes":[],
    "wof:tags":[],
    "zs:area_m":337967.433663,
    "zs:blockids":[
        490111269015003,
        490111269015004,
        490111269015006,
        490111269015001,
        490111269015000
    ],
    "zs:housing10":189,
    "zs:id":2459600,
    "zs:label":"Newport",
    "zs:pop10":517
},
  "bbox": [
    -111.888005,
    40.881881,
    -111.888005,
    40.881881
],
  "geometry": {"coordinates":[-111.88800500000001,40.881881],"type":"Point"}
}