{
  "id": 1125270093,
  "type": "Feature",
  "properties": {
    "edtf:cessation":"2017-05-19",
    "edtf:inception":"uuuu",
    "geom:area":0.0,
    "geom:area_square_m":0.0,
    "geom:bbox":"-78.24537,35.50957,-78.24537,35.50957",
    "geom:latitude":35.50957,
    "geom:longitude":-78.24537,
    "gn:gn_country":"US",
    "gn:gn_fcode":"ADMD",
    "gn:gn_pop":1700,
    "gn:population":1700,
    "iso:country":"US",
    "lbl:latitude":35.50957,
    "lbl:longitude":-78.24537,
    "mz:hierarchy_label":1,
    "mz:is_current":0,
    "mz:note":"Quattroshapes Point Gazetteer import 20170519",
    "qs_pg:aaroncc":"US",
    "qs_pg:gn_country":"US",
    "qs_pg:gn_fcode":"ADMD",
    "qs_pg:gn_id":7172334,
    "qs_pg:gn_pop":1700,
    "qs_pg:name":"Town of Pine Level",
    "qs_pg:photos_9r":0,
    "qs_pg:photos_sr":0,
    "qs_pg:pop_sr":3,
    "qs_pg:qs_id":664938,
    "qs_pg:qs_pg_placetype":"localadmin",
    "src:geom":"qs_pg",
    "src:lbl:centroid":"qs_pg",
    "src:population":"geonames",
    "wof:belongsto":[
        85633793
    ],
    "wof:breaches":[],
    "wof:concordances":{
        "gn:id":7172334,
        "qs_pg:id":664938
    },
    "wof:country":"US",
    "wof:created":1497042091,
    "wof:geomhash":"0b99ddcee59dc9d5030131b4e310625f",
    "wof:hierarchy":[
        {
            "country_id":85633793,
            "localadmin_id":1125270093
        }
    ],
    "wof:id":1125270093,
    "wof:lastmodified":1505187116,
    "wof:name":"Town of Pine Level",
    "wof:parent_id":-1,
    "wof:placetype":"localadmin",
    "wof:population":1700,
    "wof:population_rank":3,
    "wof:repo":"whosonfirst-data-admin-us",
    "wof:superseded_by":[],
    "wof:supersedes":[],
    "wof:tags":[]
},
  "bbox": [
    -78.24537,
    35.50957,
    -78.24537,
    35.50957
],
  "geometry": {"coordinates":[-78.24536999999999,35.50957],"type":"Point"}
}