{
  "id": 1242694115,
  "type": "Feature",
  "properties": {
    "edtf:cessation":"2018-09-06",
    "edtf:inception":"uuuu",
    "geom:area":0.0,
    "geom:area_square_m":0.0,
    "geom:bbox":"-165.5,65.15,-165.5,65.15",
    "geom:latitude":65.15,
    "geom:longitude":-165.5,
    "gn:admin1_code":"AK",
    "gn:admin2_code":"180.0",
    "gn:asciiname":"Kaviak (historical)",
    "gn:country_code":"US",
    "gn:dem":1,
    "gn:elevation":"2.0",
    "gn:feature_class":"P",
    "gn:feature_code":"PPLQ",
    "gn:geonameid":5865966,
    "gn:latitude":65.15,
    "gn:longitude":-165.5,
    "gn:modification_date":"2011-12-12",
    "gn:name":"Kaviak (historical)",
    "gn:population":0,
    "gn:timezone":"America/Nome",
    "iso:country":"US",
    "mz:hierarchy_label":1,
    "mz:is_current":0,
    "name:eng_x_preferred":[
        "Kaviak (historical)"
    ],
    "name:und_x_variant":[
        "Kaviagamute",
        "Kaviagemut",
        "Kavaihazakmute",
        "Kaviarazkhmute",
        "Kaviarazakhm ute",
        "Kaviagmut",
        "Kaviarzakhmute"
    ],
    "src:geom":"geonames",
    "wof:belongsto":[
        102191575,
        85633793,
        85688573,
        102081401
    ],
    "wof:breaches":[],
    "wof:concordances":{
        "gn:id":5865966
    },
    "wof:country":"US",
    "wof:geomhash":"fd3dd4ec3bfea6e94ff504f6d53a7e09",
    "wof:hierarchy":[
        {
            "continent_id":102191575,
            "country_id":85633793,
            "county_id":102081401,
            "locality_id":1242694115,
            "region_id":85688573
        }
    ],
    "wof:id":1242694115,
    "wof:lastmodified":1537713142,
    "wof:name":"Kaviak (historical)",
    "wof:parent_id":102081401,
    "wof:placetype":"locality",
    "wof:repo":"whosonfirst-data-admin-us",
    "wof:superseded_by":[],
    "wof:supersedes":[],
    "wof:tags":[]
},
  "bbox": [
    -165.5,
    65.15,
    -165.5,
    65.15
],
  "geometry": {"coordinates":[-165.5,65.15000000000001],"type":"Point"}
}