{
  "id": 1226763623,
  "type": "Feature",
  "properties": {
    "edtf:cessation":"uuuu",
    "edtf:inception":"uuuu",
    "geom:area":0.0,
    "geom:area_square_m":0.0,
    "geom:bbox":"-103.26578,33.82176,-103.26578,33.82176",
    "geom:latitude":33.82176,
    "geom:longitude":-103.26578,
    "gn:admin1_code":"NM",
    "gn:admin2_code":"41.0",
    "gn:asciiname":"Richland",
    "gn:country_code":"US",
    "gn:dem":1266,
    "gn:elevation":"1261.0",
    "gn:feature_class":"P",
    "gn:feature_code":"PPL",
    "gn:geonameid":5487504,
    "gn:latitude":33.82176,
    "gn:longitude":-103.26578,
    "gn:modification_date":"2006-01-15",
    "gn:name":"Richland",
    "gn:population":0,
    "gn:timezone":"America/Denver",
    "iso:country":"US",
    "mz:hierarchy_label":1,
    "mz:is_current":-1,
    "src:geom":"geonames",
    "wof:belongsto":[
        102191575,
        85633793,
        85688493,
        102081175
    ],
    "wof:breaches":[],
    "wof:concordances":{
        "gn:id":5487504
    },
    "wof:country":"US",
    "wof:geomhash":"edb8f269d051a66a556a7e76d28a8eb5",
    "wof:hierarchy":[
        {
            "continent_id":102191575,
            "country_id":85633793,
            "county_id":102081175,
            "locality_id":1226763623,
            "region_id":85688493
        }
    ],
    "wof:id":1226763623,
    "wof:lastmodified":1536689900,
    "wof:name":"Richland",
    "wof:parent_id":102081175,
    "wof:placetype":"locality",
    "wof:repo":"whosonfirst-data-admin-us",
    "wof:superseded_by":[],
    "wof:supersedes":[],
    "wof:tags":[]
},
  "bbox": [
    -103.26578,
    33.82176,
    -103.26578,
    33.82176
],
  "geometry": {"coordinates":[-103.26578000000001,33.82176],"type":"Point"}
}