{
  "id": 1276588279,
  "type": "Feature",
  "properties": {
    "edtf:cessation":"uuuu",
    "edtf:inception":"uuuu",
    "geom:area":0.0,
    "geom:area_square_m":0.0,
    "geom:bbox":"-123.18482,45.0404,-123.18482,45.0404",
    "geom:latitude":45.0404,
    "geom:longitude":-123.18482,
    "gn:admin1_code":"OR",
    "gn:admin2_code":"53",
    "gn:asciiname":"Bethel",
    "gn:country_code":"US",
    "gn:dem":58,
    "gn:elevation":"60.0",
    "gn:feature_class":"P",
    "gn:feature_code":"PPL",
    "gn:geonameid":5713771,
    "gn:latitude":45.0404,
    "gn:longitude":-123.18482,
    "gn:modification_date":"2010-02-17",
    "gn:name":"Bethel",
    "gn:population":0,
    "gn:timezone":"America/Los_Angeles",
    "iso:country":"US",
    "mz:hierarchy_label":1,
    "mz:is_current":-1,
    "src:geom":"geonames",
    "wof:belongsto":[
        102191575,
        85633793,
        85688513,
        102081601
    ],
    "wof:breaches":[],
    "wof:concordances":{
        "gn:id":5713771
    },
    "wof:country":"US",
    "wof:geomhash":"b8a4f8a1d1c480cf11714fd503840f7d",
    "wof:hierarchy":[
        {
            "continent_id":102191575,
            "country_id":85633793,
            "county_id":102081601,
            "locality_id":1276588279,
            "region_id":85688513
        }
    ],
    "wof:id":1276588279,
    "wof:lastmodified":1536935301,
    "wof:name":"Bethel",
    "wof:parent_id":102081601,
    "wof:placetype":"locality",
    "wof:repo":"whosonfirst-data-admin-us",
    "wof:superseded_by":[],
    "wof:supersedes":[],
    "wof:tags":[]
},
  "bbox": [
    -123.18482,
    45.0404,
    -123.18482,
    45.0404
],
  "geometry": {"coordinates":[-123.18482,45.0404],"type":"Point"}
}