{
  "id": 1260100095,
  "type": "Feature",
  "properties": {
    "edtf:cessation":"uuuu",
    "edtf:inception":"uuuu",
    "geom:area":0.0,
    "geom:area_square_m":0.0,
    "geom:bbox":"-96.69442,29.06692,-96.69442,29.06692",
    "geom:latitude":29.06692,
    "geom:longitude":-96.69442,
    "gn:admin1_code":"TX",
    "gn:admin2_code":"239",
    "gn:asciiname":"Mount Olive",
    "gn:country_code":"US",
    "gn:dem":29,
    "gn:elevation":"27.0",
    "gn:feature_class":"P",
    "gn:feature_code":"PPL",
    "gn:geonameid":4712823,
    "gn:latitude":29.06692,
    "gn:longitude":-96.69442,
    "gn:modification_date":"2006-01-15",
    "gn:name":"Mount Olive",
    "gn:population":0,
    "gn:timezone":"America/Chicago",
    "iso:country":"US",
    "mz:hierarchy_label":1,
    "mz:is_current":-1,
    "src:geom":"geonames",
    "wof:belongsto":[
        102191575,
        85633793,
        85688753,
        102080689
    ],
    "wof:breaches":[],
    "wof:concordances":{
        "gn:id":4712823
    },
    "wof:country":"US",
    "wof:geomhash":"56d69c53e870997524437ebf27eb3ad8",
    "wof:hierarchy":[
        {
            "continent_id":102191575,
            "country_id":85633793,
            "county_id":102080689,
            "locality_id":1260100095,
            "region_id":85688753
        }
    ],
    "wof:id":1260100095,
    "wof:lastmodified":1536964045,
    "wof:name":"Mount Olive",
    "wof:parent_id":102080689,
    "wof:placetype":"locality",
    "wof:repo":"whosonfirst-data-admin-us",
    "wof:superseded_by":[],
    "wof:supersedes":[],
    "wof:tags":[]
},
  "bbox": [
    -96.69442,
    29.06692,
    -96.69442,
    29.06692
],
  "geometry": {"coordinates":[-96.69441999999999,29.06692],"type":"Point"}
}