{
  "id": 1327456543,
  "type": "Feature",
  "properties": {
    "edtf:cessation":"uuuu",
    "edtf:inception":"uuuu",
    "geom:area":0.0,
    "geom:area_square_m":0.0,
    "geom:bbox":"-80.55536,39.75647,-80.55536,39.75647",
    "geom:latitude":39.75647,
    "geom:longitude":-80.55536,
    "gn:admin1_code":"WV",
    "gn:admin2_code":"51",
    "gn:asciiname":"Bellton",
    "gn:country_code":"US",
    "gn:dem":283,
    "gn:elevation":"286.0",
    "gn:feature_class":"P",
    "gn:feature_code":"PPL",
    "gn:geonameid":4798584,
    "gn:latitude":39.75647,
    "gn:longitude":-80.55536,
    "gn:modification_date":"2006-01-15",
    "gn:name":"Bellton",
    "gn:population":0,
    "gn:timezone":"America/New_York",
    "iso:country":"US",
    "mz:hierarchy_label":1,
    "mz:is_current":-1,
    "name:eng_x_preferred":[
        "Bellton"
    ],
    "name:und_x_variant":[
        "Denver",
        "Denver Station",
        "Belton"
    ],
    "src:geom":"geonames",
    "wof:belongsto":[
        102191575,
        85633793,
        85688589,
        102082591
    ],
    "wof:breaches":[],
    "wof:concordances":{
        "gn:id":4798584,
        "wk:page":"Bellton%2C_West_Virginia"
    },
    "wof:country":"US",
    "wof:geomhash":"a25a47ee6944f848e647aaae8e870085",
    "wof:hierarchy":[
        {
            "continent_id":102191575,
            "country_id":85633793,
            "county_id":102082591,
            "locality_id":1327456543,
            "region_id":85688589
        }
    ],
    "wof:id":1327456543,
    "wof:lastmodified":1537712745,
    "wof:name":"Bellton",
    "wof:parent_id":102082591,
    "wof:placetype":"locality",
    "wof:repo":"whosonfirst-data-admin-us",
    "wof:superseded_by":[],
    "wof:supersedes":[],
    "wof:tags":[]
},
  "bbox": [
    -80.55536,
    39.75647,
    -80.55536,
    39.75647
],
  "geometry": {"coordinates":[-80.55535999999999,39.75647],"type":"Point"}
}