{
  "id": 404486831,
  "type": "Feature",
  "properties": {
    "edtf:cessation":"uuuu",
    "edtf:inception":"uuuu",
    "geom:area":0.000797,
    "geom:area_square_m":7402759.992067,
    "geom:bbox":"-75.558005,41.33205,-75.505247,41.359624",
    "geom:latitude":41.341687,
    "geom:longitude":-75.531576,
    "iso:country":"US",
    "lbl:latitude":41.342273,
    "lbl:longitude":-75.531577,
    "mz:hierarchy_label":1,
    "mz:is_current":-1,
    "name:eng_x_preferred":[
        "Moscow"
    ],
    "qs:a0":"United States",
    "qs:a1":"Pennsylvania",
    "qs:a1_lc":"42",
    "qs:a2":"Lackawanna",
    "qs:a2_lc":"42069",
    "qs:adm0":"United States",
    "qs:adm0_a3":"USA",
    "qs:la":"Moscow",
    "qs:la_lc":"4206951208",
    "qs:level":"localadmin",
    "qs:pop":2026,
    "qs:source":"US Census",
    "qs:type":"boro",
    "src:geom":"quattroshapes",
    "src:population":"quattroshapes",
    "wof:belongsto":[
        102191575,
        85633793,
        85688481,
        102081345
    ],
    "wof:breaches":[],
    "wof:concordances":{},
    "wof:country":"US",
    "wof:geomhash":"d96cf46b10e9b05abf03e7689a7332c8",
    "wof:hierarchy":[
        {
            "continent_id":102191575,
            "country_id":85633793,
            "county_id":102081345,
            "localadmin_id":404486831,
            "region_id":85688481
        }
    ],
    "wof:id":404486831,
    "wof:lastmodified":1505339526,
    "wof:name":"Moscow",
    "wof:parent_id":102081345,
    "wof:placetype":"localadmin",
    "wof:population":2026,
    "wof:population_rank":4,
    "wof:repo":"whosonfirst-data-admin-us",
    "wof:superseded_by":[],
    "wof:supersedes":[],
    "wof:tags":[]
},
  "bbox": [
    -75.558005,
    41.33205,
    -75.505247,
    41.359624
],
  "geometry": {"coordinates":[[[-75.557168,41.333637],[-75.557682,41.34146],[-75.55800499999999,41.34431],[-75.54199800000001,41.344822],[-75.54229100000001,41.350842],[-75.527235,41.351891],[-75.527709,41.359624],[-75.523916,41.357331],[-75.52383399999999,41.353375],[-75.522035,41.352776],[-75.522524,41.351315],[-75.52184699999999,41.34919],[-75.519946,41.348937],[-75.517877,41.347563],[-75.51375899999999,41.351545],[-75.505247,41.345405],[-75.50870999999999,41.342018],[-75.506793,41.340857],[-75.511645,41.336153],[-75.51280800000001,41.33363],[-75.51317899999999,41.333604],[-75.515027,41.333543],[-75.55717,41.33205],[-75.55723,41.332813],[-75.55712800000001,41.333019],[-75.557168,41.333637]]],"type":"Polygon"}
}