{
  "id": 85868347,
  "type": "Feature",
  "properties": {"wof:repo":"whosonfirst-data-admin-us",
    "src:geom":"quattroshapes",
    "wof:geomhash":"5394b7e12f519dd62c751a8212003f7a",
    "wof:id":85868347
},
  "bbox": [
    -118.26507568400004,
    34.04697021038359,
    -118.260666300516,
    34.05335824465199
],
  "geometry": {"coordinates":[[[-118.26095581100003,34.05038378370004],[-118.26095581109541,34.04924594149692],[-118.26073867922702,34.04898388099198],[-118.26082343222987,34.04867701435019],[-118.26066630051599,34.04810808107513],[-118.26095581099995,34.04775867158089],[-118.26095581099995,34.04697021048911],[-118.26203958678630,34.04697021038359],[-118.26232910199988,34.04697021260004],[-118.26232910199988,34.04731962164831],[-118.26232910199988,34.04775867178225],[-118.26261861191239,34.04810808330640],[-118.26370239299990,34.04810808250953],[-118.26370239299990,34.04924593936671],[-118.26370239299990,34.05038378370004],[-118.26507568400004,34.05038378370004],[-118.26507568399995,34.05108260344487],[-118.26507568399995,34.05265941248980],[-118.26290809535573,34.05265941427184],[-118.26232910199988,34.05335824465199],[-118.26095581099995,34.05280573544943],[-118.26095581099995,34.05265942140011],[-118.26095581099995,34.05152160765022],[-118.26095581100003,34.05073319516158],[-118.26095581100003,34.05038378370004]]],"type":"Polygon"}
}