{
  "id": 1226062531,
  "type": "Feature",
  "properties": {
    "edtf:cessation":"uuuu",
    "edtf:inception":"uuuu",
    "geom:area":0.0,
    "geom:area_square_m":0.0,
    "geom:bbox":"-91.30596,34.75537,-91.30596,34.75537",
    "geom:latitude":34.75537,
    "geom:longitude":-91.30596,
    "gn:admin1_code":"AR",
    "gn:admin2_code":"95.0",
    "gn:admin3_code":"90585.0",
    "gn:asciiname":"Dobbs Landing",
    "gn:country_code":"US",
    "gn:dem":59,
    "gn:elevation":"48.0",
    "gn:feature_class":"P",
    "gn:feature_code":"PPL",
    "gn:geonameid":4108766,
    "gn:latitude":34.75537,
    "gn:longitude":-91.30596,
    "gn:modification_date":"2017-05-23",
    "gn:name":"Dobbs Landing",
    "gn:population":0,
    "gn:timezone":"America/Chicago",
    "iso:country":"US",
    "mz:hierarchy_label":1,
    "mz:is_current":-1,
    "src:geom":"geonames",
    "wof:belongsto":[
        102191575,
        85633793,
        85688549,
        102082531
    ],
    "wof:breaches":[],
    "wof:concordances":{
        "gn:id":4108766
    },
    "wof:country":"US",
    "wof:geomhash":"d0291eb3e51b4f8a4d961a39aba51617",
    "wof:hierarchy":[
        {
            "continent_id":102191575,
            "country_id":85633793,
            "county_id":102082531,
            "locality_id":1226062531,
            "region_id":85688549
        }
    ],
    "wof:id":1226062531,
    "wof:lastmodified":1536701284,
    "wof:name":"Dobbs Landing",
    "wof:parent_id":102082531,
    "wof:placetype":"locality",
    "wof:repo":"whosonfirst-data-admin-us",
    "wof:superseded_by":[],
    "wof:supersedes":[],
    "wof:tags":[]
},
  "bbox": [
    -91.30596,
    34.75537,
    -91.30596,
    34.75537
],
  "geometry": {"coordinates":[-91.30596,34.75537],"type":"Point"}
}