{
  "id": 1243183339,
  "type": "Feature",
  "properties": {
    "edtf:cessation":"uuuu",
    "edtf:inception":"uuuu",
    "geom:area":0.0,
    "geom:area_square_m":0.0,
    "geom:bbox":"-91.83347,35.28203,-91.83347,35.28203",
    "geom:latitude":35.28203,
    "geom:longitude":-91.83347,
    "gn:admin1_code":"AR",
    "gn:admin2_code":"145.0",
    "gn:admin3_code":"90978.0",
    "gn:asciiname":"Crosby",
    "gn:country_code":"US",
    "gn:dem":83,
    "gn:elevation":"81.0",
    "gn:feature_class":"P",
    "gn:feature_code":"PPL",
    "gn:geonameid":4107128,
    "gn:latitude":35.28203,
    "gn:longitude":-91.83347,
    "gn:modification_date":"2017-05-23",
    "gn:name":"Crosby",
    "gn:population":0,
    "gn:timezone":"America/Chicago",
    "iso:country":"US",
    "mz:hierarchy_label":1,
    "mz:is_current":-1,
    "name:eng_x_preferred":[
        "Crosby"
    ],
    "name:und_x_variant":[
        "Armstrong Springs",
        "Quinton"
    ],
    "src:geom":"geonames",
    "wof:belongsto":[
        102191575,
        85633793,
        85688549,
        102082521
    ],
    "wof:breaches":[],
    "wof:concordances":{
        "gn:id":4107128
    },
    "wof:country":"US",
    "wof:geomhash":"eaf6459ea65b60ae46ca6ffbd699798d",
    "wof:hierarchy":[
        {
            "continent_id":102191575,
            "country_id":85633793,
            "county_id":102082521,
            "locality_id":1243183339,
            "region_id":85688549
        }
    ],
    "wof:id":1243183339,
    "wof:lastmodified":1537712253,
    "wof:name":"Crosby",
    "wof:parent_id":102082521,
    "wof:placetype":"locality",
    "wof:repo":"whosonfirst-data-admin-us",
    "wof:superseded_by":[],
    "wof:supersedes":[],
    "wof:tags":[]
},
  "bbox": [
    -91.83347,
    35.28203,
    -91.83347,
    35.28203
],
  "geometry": {"coordinates":[-91.83347000000001,35.28203],"type":"Point"}
}