{
  "id": 85846169,
  "type": "Feature",
  "properties": {"wof:repo":"whosonfirst-data-admin-us",
    "src:geom":"quattroshapes",
    "wof:geomhash":"96e84ee334d90e0a2de6c7587a6919b7",
    "wof:id":85846169
},
  "bbox": [
    -77.08145141600005,
    38.891032817926856,
    -77.06297844772666,
    38.90278963540001
],
  "geometry": {"coordinates":[[[-77.07046508789989,38.90278963540001],[-77.07046508789989,38.90225527660610],[-77.06991625399900,38.90225527661684],[-77.06977844239998,38.90225527720001],[-77.06977844239998,38.90207819051541],[-77.06977844239998,38.90172091500001],[-77.06909179689995,38.90172091500001],[-77.06826492895703,38.90172091019781],[-77.06717208350264,38.90172091264625],[-77.06634521479990,38.90172091500001],[-77.06634521481448,38.90065839820360],[-77.06634521481448,38.90029175781498],[-77.06497192379996,38.89970355549879],[-77.06401207759939,38.90011467284225],[-77.06359863315981,38.89958342437001],[-77.06318518328379,38.89905216499751],[-77.06332462551381,38.89851465330041],[-77.06325408813620,38.89824274691109],[-77.06297844772666,38.89788857209859],[-77.06330994691842,38.89717867365013],[-77.06339282361290,38.89664624360590],[-77.06339190277447,38.89664269406532],[-77.06359863279994,38.89637707121699],[-77.06359863279994,38.89584266471678],[-77.06359863279994,38.89530825490002],[-77.06359863279994,38.89495408918451],[-77.06359863280002,38.89317057290008],[-77.06414992741230,38.89317056717070],[-77.06634521481340,38.89317056350856],[-77.06634521481882,38.89103282037637],[-77.06854048614122,38.89103282147512],[-77.06909179689995,38.89103282650008],[-77.06909179689995,38.89210170483189],[-77.07046508789989,38.89210170503350],[-77.07183837890003,38.89210170483189],[-77.07183837890003,38.89103282650008],[-77.07238968963867,38.89103282147512],[-77.07458496091812,38.89103281792686],[-77.07733154298157,38.89103281792686],[-77.07952681785866,38.89103282077950],[-77.08007812500003,38.89103282650008],[-77.08007812500003,38.89281640976526],[-77.08090508274560,38.89317057290008],[-77.08104166027016,38.89322906527715],[-77.08084967306297,38.89364018322128],[-77.08110809328534,38.89397221103977],[-77.08110809328500,38.89423942190005],[-77.08145141600005,38.89423942190005],[-77.08145141599996,38.89477066577329],[-77.08145141599996,38.89530825490002],[-77.08145141599996,38.89542840935023],[-77.08007812499994,38.89601657625084],[-77.08007812499994,38.89744586322300],[-77.07733154298336,38.89744586545561],[-77.07513623475739,38.89744586631883],[-77.07458496089990,38.89744587260003],[-77.07458496089990,38.89673123548494],[-77.07389831540007,38.89643714870512],[-77.07389831540007,38.89637707180007],[-77.07389831540007,38.89584266471678],[-77.07389831540007,38.89530825490002],[-77.07183837890003,38.89530825490002],[-77.07183837890003,38.89423941952018],[-77.07087855791804,38.89423941956680],[-77.07046508789989,38.89423942190005],[-77.06909179689995,38.89423942190005],[-77.06909179689995,38.89530825490002],[-77.06909179689995,38.89566241725591],[-77.06909179689995,38.89637706911680],[-77.06909179689995,38.89744587025230],[-77.06909179689995,38.89851465445167],[-77.07018945254430,38.89851465496699],[-77.07046508789989,38.89851465730005],[-77.07046508789989,38.89886882361643],[-77.07046508789989,38.89958342346895],[-77.07183837889994,38.89958342363771],[-77.07225182369939,38.90011467284225],[-77.07211239036261,38.90065217450045],[-77.07238962725648,38.90172090913759],[-77.07211239453233,38.90278963137514],[-77.07183837890003,38.90278963278584],[-77.07074070945615,38.90278963392724],[-77.07046508789989,38.90278963540001]]],"type":"Polygon"}
}