{
  "id": 85881819,
  "type": "Feature",
  "properties": {
    "edtf:cessation":"uuuu",
    "edtf:inception":"uuuu",
    "geom:area":0.0,
    "geom:area_square_m":2631943.018296,
    "geom:bbox":"-80.0644,26.671286,-80.0644,26.671286",
    "geom:latitude":26.671286,
    "geom:longitude":-80.0644,
    "gn:id":"",
    "iso:country":"US",
    "lbl:latitude":26.671286,
    "lbl:longitude":-80.0644,
    "mps:latitude":26.671353,
    "mps:longitude":-80.067364,
    "mz:hierarchy_label":0,
    "mz:is_current":-1,
    "mz:is_funky":0,
    "mz:is_hard_boundary":0,
    "mz:is_landuse_aoi":0,
    "mz:is_official":0,
    "mz:max_zoom":18.0,
    "mz:min_zoom":15.0,
    "mz:tier_locality":3,
    "mz:tier_metro":1,
    "name:eng_x_preferred":[
        "Southwest"
    ],
    "name:unk_x_variant":[
        "Southwest"
    ],
    "qs:gn_adm0_cc":"US",
    "qs:gn_id":0,
    "qs:gn_local":4177887,
    "qs:gn_nam_loc":"West Palm Beach, Palm Beach, Florida, US",
    "qs:gn_namadm1":"FL",
    "qs:local_max":6364,
    "qs:local_sum":19609,
    "qs:localhoods":20,
    "qs:name":"Southwest",
    "qs:name_adm0":"United States",
    "qs:name_adm1":"Florida",
    "qs:name_adm2":"Palm Beach",
    "qs:name_local":"West Palm Beach",
    "qs:photo_max":752,
    "qs:photo_sum":1834,
    "qs:placetype":"Suburb",
    "qs:quad_count":21,
    "qs:woe_adm0":23424977,
    "qs:woe_adm1":2347568,
    "qs:woe_adm2":12587852,
    "qs:woe_lau":0,
    "qs:woe_local":2517521,
    "qs:woe_ver":"7.10.0",
    "src:geom":"mz",
    "src:geom_alt":[
        "quattroshapes",
        "quattroshapes_pg"
    ],
    "src:lbl:centroid":"mz",
    "src:population":"zetashapes",
    "wof:belongsto":[
        85688651,
        102191575,
        85633793,
        85931945,
        102085845
    ],
    "wof:breaches":[],
    "wof:concordances":{
        "gp:id":55862450,
        "qs:id":1291035,
        "qs_pg:id":1291035
    },
    "wof:country":"US",
    "wof:geomhash":"922e95464c2d63844d000ee4017a57e7",
    "wof:hierarchy":[
        {
            "continent_id":102191575,
            "country_id":85633793,
            "county_id":102085845,
            "locality_id":85931945,
            "neighbourhood_id":85881819,
            "region_id":85688651
        }
    ],
    "wof:id":85881819,
    "wof:lang":[
        "eng"
    ],
    "wof:lastmodified":1532373743,
    "wof:name":"Southwest",
    "wof:parent_id":85931945,
    "wof:placetype":"neighbourhood",
    "wof:population":2316,
    "wof:population_rank":4,
    "wof:repo":"whosonfirst-data-admin-us",
    "wof:superseded_by":[],
    "wof:supersedes":[],
    "wof:tags":[],
    "zs:blockids":[
        120990037004015,
        120990037002022,
        120990037002000,
        120990037002023,
        120990037004004,
        120990037004008,
        120990037002025,
        120990037001020,
        120990037001019,
        120990037002012,
        120990037004016,
        120990037002002,
        120990037004002,
        120990037001026,
        120990037004022,
        120990037004003,
        120990037002024,
        120990037004009,
        120990037001025,
        120990037002005
    ],
    "zs:housing10":852,
    "zs:pop10":2316
},
  "bbox": [
    -80.0644,
    26.671286,
    -80.0644,
    26.671286
],
  "geometry": {"coordinates":[-80.06440000000001,26.671286],"type":"Point"}
}