{
  "id": 420538085,
  "type": "Feature",
  "properties": {
    "edtf:cessation":"uuuu",
    "edtf:inception":"uuuu",
    "geom:area":0.0,
    "geom:area_square_m":2004257.562468,
    "geom:bbox":"-79.67801,39.911532,-79.67801,39.911532",
    "geom:latitude":39.911532,
    "geom:longitude":-79.67801,
    "iso:country":"US",
    "lbl:latitude":39.911532,
    "lbl:longitude":-79.67801,
    "mz:hierarchy_label":0,
    "mz:is_current":-1,
    "name:eng_x_preferred":[
        "Evans"
    ],
    "src:geom":"mz",
    "src:geom_alt":[
        "zetashapes"
    ],
    "src:lbl":"mapshaper",
    "src:lbl:centroid":"mapshaper",
    "src:population":"zetashapes",
    "wof:belongsto":[
        102191575,
        404487055,
        85633793,
        102080959,
        85688481
    ],
    "wof:breaches":[],
    "wof:concordances":{
        "gp:id":2400684
    },
    "wof:country":"US",
    "wof:geomhash":"1a049ac26cd42ec6d817b0481452791a",
    "wof:hierarchy":[
        {
            "continent_id":102191575,
            "country_id":85633793,
            "county_id":102080959,
            "localadmin_id":404487055,
            "locality_id":-1,
            "neighbourhood_id":420538085,
            "region_id":85688481
        }
    ],
    "wof:id":420538085,
    "wof:lastmodified":1533599788,
    "wof:name":"Evans",
    "wof:parent_id":-1,
    "wof:placetype":"neighbourhood",
    "wof:population":309,
    "wof:population_rank":2,
    "wof:repo":"whosonfirst-data-admin-us",
    "wof:superseded_by":[],
    "wof:supersedes":[],
    "wof:tags":[],
    "zs:area_m":2004119.903541,
    "zs:blockids":[
        420512625002032,
        420512625002020,
        420512625002024,
        420512616001029,
        420512625002023,
        420512625002026,
        420512625002031,
        420512625002016,
        420512616001032,
        420512625002021,
        420512625002025
    ],
    "zs:housing10":126,
    "zs:id":2400684,
    "zs:label":"Evans",
    "zs:pop10":309
},
  "bbox": [
    -79.67801,
    39.911532,
    -79.67801,
    39.911532
],
  "geometry": {"coordinates":[-79.67801,39.911532],"type":"Point"}
}