{
  "id": 1360005589,
  "type": "Feature",
  "properties": {
    "edtf:cessation":"2018-09-06",
    "edtf:inception":"uuuu",
    "geom:area":0.0,
    "geom:area_square_m":0.0,
    "geom:bbox":"-123.06676,44.93679,-123.06676,44.93679",
    "geom:latitude":44.93679,
    "geom:longitude":-123.06676,
    "gn:admin1_code":"OR",
    "gn:admin2_code":"53",
    "gn:asciiname":"Kingwood Park (historical)",
    "gn:country_code":"US",
    "gn:dem":58,
    "gn:elevation":"61.0",
    "gn:feature_class":"P",
    "gn:feature_code":"PPLQ",
    "gn:geonameid":5735126,
    "gn:latitude":44.93679,
    "gn:longitude":-123.06676,
    "gn:modification_date":"2011-12-11",
    "gn:name":"Kingwood Park (historical)",
    "gn:population":0,
    "gn:timezone":"America/Los_Angeles",
    "iso:country":"US",
    "mz:hierarchy_label":1,
    "mz:is_current":0,
    "src:geom":"geonames",
    "wof:belongsto":[
        102191575,
        85633793,
        85688513,
        102081601
    ],
    "wof:breaches":[],
    "wof:concordances":{
        "gn:id":5735126
    },
    "wof:country":"US",
    "wof:geomhash":"153a82b24362adb095b8ae7bac7634a7",
    "wof:hierarchy":[
        {
            "continent_id":102191575,
            "country_id":85633793,
            "county_id":102081601,
            "locality_id":1360005589,
            "region_id":85688513
        }
    ],
    "wof:id":1360005589,
    "wof:lastmodified":1537057827,
    "wof:name":"Kingwood Park (historical)",
    "wof:parent_id":102081601,
    "wof:placetype":"locality",
    "wof:repo":"whosonfirst-data-admin-us",
    "wof:superseded_by":[],
    "wof:supersedes":[],
    "wof:tags":[]
},
  "bbox": [
    -123.06676000000002,
    44.93679,
    -123.06676000000002,
    44.93679
],
  "geometry": {"coordinates":[-123.06676000000002,44.93679],"type":"Point"}
}