{
  "id": 1327368251,
  "type": "Feature",
  "properties": {
    "edtf:cessation":"2018-09-06",
    "edtf:inception":"uuuu",
    "geom:area":0.0,
    "geom:area_square_m":0.0,
    "geom:bbox":"-100.57958,45.72361,-100.57958,45.72361",
    "geom:latitude":45.72361,
    "geom:longitude":-100.57958,
    "gn:admin1_code":"SD",
    "gn:admin2_code":"31.0",
    "gn:admin3_code":"68180.0",
    "gn:asciiname":"Jeffrey (historical)",
    "gn:country_code":"US",
    "gn:dem":558,
    "gn:elevation":"561.0",
    "gn:feature_class":"P",
    "gn:feature_code":"PPLQ",
    "gn:geonameid":5765995,
    "gn:latitude":45.72361,
    "gn:longitude":-100.57958,
    "gn:modification_date":"2017-05-23",
    "gn:name":"Jeffrey (historical)",
    "gn:population":0,
    "gn:timezone":"America/Denver",
    "iso:country":"US",
    "mz:hierarchy_label":1,
    "mz:is_current":0,
    "src:geom":"geonames",
    "wof:belongsto":[
        85688693,
        102191575,
        404488563,
        85633793,
        102086853
    ],
    "wof:breaches":[],
    "wof:concordances":{
        "gn:id":5765995
    },
    "wof:country":"US",
    "wof:geomhash":"573c8bb5f11a3008a31318f60494c378",
    "wof:hierarchy":[
        {
            "continent_id":102191575,
            "country_id":85633793,
            "county_id":102086853,
            "localadmin_id":404488563,
            "locality_id":1327368251,
            "region_id":85688693
        }
    ],
    "wof:id":1327368251,
    "wof:lastmodified":1536774120,
    "wof:name":"Jeffrey (historical)",
    "wof:parent_id":404488563,
    "wof:placetype":"locality",
    "wof:repo":"whosonfirst-data-admin-us",
    "wof:superseded_by":[],
    "wof:supersedes":[],
    "wof:tags":[]
},
  "bbox": [
    -100.57958,
    45.72361,
    -100.57958,
    45.72361
],
  "geometry": {"coordinates":[-100.57958000000001,45.72361],"type":"Point"}
}