{
  "id": 1226559225,
  "type": "Feature",
  "properties": {
    "edtf:cessation":"uuuu",
    "edtf:inception":"uuuu",
    "geom:area":0.0,
    "geom:area_square_m":0.0,
    "geom:bbox":"-76.5403,39.13775,-76.5403,39.13775",
    "geom:latitude":39.13775,
    "geom:longitude":-76.5403,
    "gn:admin1_code":"MD",
    "gn:admin2_code":"3",
    "gn:asciiname":"Green Haven",
    "gn:country_code":"US",
    "gn:dem":19,
    "gn:elevation":"18.0",
    "gn:feature_class":"P",
    "gn:feature_code":"PPL",
    "gn:geonameid":7258673,
    "gn:latitude":39.13775,
    "gn:longitude":-76.5403,
    "gn:modification_date":"2010-02-07",
    "gn:name":"Green Haven",
    "gn:population":0,
    "gn:timezone":"America/New_York",
    "iso:country":"US",
    "mz:hierarchy_label":1,
    "mz:is_current":-1,
    "name:und_x_variant":[
        "Green Haven CDP",
        "Green Haven"
    ],
    "src:geom":"geonames",
    "wof:belongsto":[
        102191575,
        85633793,
        85688501,
        102083469
    ],
    "wof:breaches":[],
    "wof:concordances":{
        "gn:id":7258673,
        "wk:page":"Green_Haven%2C_Maryland"
    },
    "wof:country":"US",
    "wof:geomhash":"d36fa78e06eff814c1310f665809f4c3",
    "wof:hierarchy":[
        {
            "continent_id":102191575,
            "country_id":85633793,
            "county_id":102083469,
            "locality_id":1226559225,
            "region_id":85688501
        }
    ],
    "wof:id":1226559225,
    "wof:lastmodified":1537713179,
    "wof:name":"Green Haven",
    "wof:parent_id":102083469,
    "wof:placetype":"locality",
    "wof:repo":"whosonfirst-data-admin-us",
    "wof:superseded_by":[],
    "wof:supersedes":[],
    "wof:tags":[]
},
  "bbox": [
    -76.5403,
    39.13775,
    -76.5403,
    39.13775
],
  "geometry": {"coordinates":[-76.5403,39.13775],"type":"Point"}
}