{
  "id": 1125319999,
  "type": "Feature",
  "properties": {
    "edtf:cessation":"uuuu",
    "edtf:deprecated":"2017-11-04",
    "edtf:inception":"uuuu",
    "geom:area":0.0,
    "geom:area_square_m":0.0,
    "geom:bbox":"-96.54873,32.91657,-96.54873,32.91657",
    "geom:latitude":32.91657,
    "geom:longitude":-96.54873,
    "gn:gn_country":"US",
    "gn:gn_fcode":"ADMD",
    "gn:gn_pop":56199,
    "gn:population":56199,
    "iso:country":"US",
    "lbl:latitude":32.91657,
    "lbl:longitude":-96.54873,
    "mz:hierarchy_label":1,
    "mz:is_current":0,
    "mz:note":"Quattroshapes Point Gazetteer import 20170519",
    "qs_pg:aaroncc":"US",
    "qs_pg:gn_country":"US",
    "qs_pg:gn_fcode":"ADMD",
    "qs_pg:gn_id":7173793,
    "qs_pg:gn_pop":56199,
    "qs_pg:name":"City of Rowlett",
    "qs_pg:photos_9r":0,
    "qs_pg:photos_sr":0,
    "qs_pg:pop_sr":8,
    "qs_pg:qs_id":666363,
    "qs_pg:qs_pg_placetype":"localadmin",
    "src:geom":"qs_pg",
    "src:lbl:centroid":"qs_pg",
    "src:population":"geonames",
    "wof:belongsto":[
        85633793
    ],
    "wof:breaches":[],
    "wof:concordances":{
        "gn:id":7173793,
        "qs_pg:id":666363
    },
    "wof:country":"US",
    "wof:created":1497044477,
    "wof:geomhash":"2601fdf0456c27fd179e4dedeed485ba",
    "wof:hierarchy":[
        {
            "country_id":85633793,
            "localadmin_id":1125319999
        }
    ],
    "wof:id":1125319999,
    "wof:lastmodified":1509752544,
    "wof:name":"City of Rowlett",
    "wof:parent_id":-1,
    "wof:placetype":"localadmin",
    "wof:population":56199,
    "wof:population_rank":8,
    "wof:repo":"whosonfirst-data-admin-us",
    "wof:superseded_by":[
        101724037
    ],
    "wof:supersedes":[],
    "wof:tags":[]
},
  "bbox": [
    -96.54873,
    32.91657,
    -96.54873,
    32.91657
],
  "geometry": {"coordinates":[-96.54873000000001,32.91657],"type":"Point"}
}