{
  "id": 1293424789,
  "type": "Feature",
  "properties": {
    "edtf:cessation":"uuuu",
    "edtf:inception":"uuuu",
    "geom:area":0.0,
    "geom:area_square_m":0.0,
    "geom:bbox":"-87.1214,39.20588,-87.1214,39.20588",
    "geom:latitude":39.20588,
    "geom:longitude":-87.1214,
    "gn:admin1_code":"IN",
    "gn:admin2_code":"21.0",
    "gn:admin3_code":"31684.0",
    "gn:asciiname":"New Brunswick",
    "gn:country_code":"US",
    "gn:dem":161,
    "gn:elevation":"164.0",
    "gn:feature_class":"P",
    "gn:feature_code":"PPL",
    "gn:geonameid":4262069,
    "gn:latitude":39.20588,
    "gn:longitude":-87.1214,
    "gn:modification_date":"2017-05-23",
    "gn:name":"New Brunswick",
    "gn:population":0,
    "gn:timezone":"America/Indiana/Indianapolis",
    "iso:country":"US",
    "mz:hierarchy_label":1,
    "mz:is_current":-1,
    "src:geom":"geonames",
    "wof:belongsto":[
        85688709,
        102191575,
        404501227,
        85633793,
        102087033
    ],
    "wof:breaches":[],
    "wof:concordances":{
        "gn:id":4262069
    },
    "wof:country":"US",
    "wof:geomhash":"c1c24e6944cb30c0f50ea25548e6eecd",
    "wof:hierarchy":[
        {
            "continent_id":102191575,
            "country_id":85633793,
            "county_id":102087033,
            "localadmin_id":404501227,
            "locality_id":1293424789,
            "region_id":85688709
        }
    ],
    "wof:id":1293424789,
    "wof:lastmodified":1536876563,
    "wof:name":"New Brunswick",
    "wof:parent_id":404501227,
    "wof:placetype":"locality",
    "wof:repo":"whosonfirst-data-admin-us",
    "wof:superseded_by":[],
    "wof:supersedes":[],
    "wof:tags":[]
},
  "bbox": [
    -87.1214,
    39.20588,
    -87.1214,
    39.20588
],
  "geometry": {"coordinates":[-87.12139999999999,39.20588],"type":"Point"}
}