{
  "id": 85870527,
  "type": "Feature",
  "properties": {"wof:repo":"whosonfirst-data-admin-us",
    "src:geom":"quattroshapes",
    "wof:geomhash":"0433355df49e09c401115863f718b068",
    "wof:id":85870527
},
  "bbox": [
    -83.12199095693052,
    42.3440855994717,
    -83.0830449266058,
    42.371203442086156
],
  "geometry": {"coordinates":[[[-83.09111224125286,42.36702076495236],[-83.09072365771863,42.36691557822583],[-83.08826832815930,42.36857719920407],[-83.08685302959455,42.36666165382273],[-83.08685302730731,42.36535064867783],[-83.08632227747808,42.36463231784693],[-83.08410644529988,42.36463231382020],[-83.08354475346295,42.36463230910041],[-83.08304494274967,42.36260292170007],[-83.08304492660579,42.36260285615027],[-83.08410644529980,42.36116624997688],[-83.08410644529980,42.35998051006777],[-83.08410644529988,42.35854391750003],[-83.08516798821765,42.35854391750003],[-83.08516803665418,42.35854385195042],[-83.08959960938421,42.35854385195042],[-83.08959960939256,42.35592121633010],[-83.08959960939993,42.35448465110004],[-83.08959960939993,42.35143998820020],[-83.08959960939993,42.35042512240008],[-83.09066124916936,42.35042512240008],[-83.09066129759373,42.35042505687544],[-83.09403110942179,42.35042505687544],[-83.09509277342491,42.34898853243861],[-83.09827791075071,42.35042512240008],[-83.09907403219103,42.35078419642180],[-83.10040087551124,42.35042512240008],[-83.10058593749972,42.35037504041112],[-83.10064754412201,42.35042505687544],[-83.10607910158421,42.35042505687544],[-83.10607910158421,42.34636533160001],[-83.10607910157489,42.34636526605040],[-83.11151073976328,42.34636526605040],[-83.11157226560005,42.34631531839896],[-83.11431884764994,42.34408559947170],[-83.11997344102116,42.35173641393553],[-83.12199095693052,42.35264638723295],[-83.11972780903992,42.35877175222525],[-83.11440310763675,42.36237478598441],[-83.11356912551986,42.36463216160027],[-83.10764048344109,42.36463216160027],[-83.10753209431755,42.36469503183125],[-83.10607910159993,42.36666159811635],[-83.10607910159993,42.36666166370007],[-83.10607905314359,42.36666166370007],[-83.10457985104085,42.36869077250016],[-83.10058593749972,42.36869077250016],[-83.09765351841128,42.36869077250016],[-83.09515467874942,42.37072014350004],[-83.09509277340004,42.37077041840267],[-83.09455957530326,42.37120344208616],[-83.09384541773409,42.37072012712540],[-83.09234619491087,42.36869092970623],[-83.09111224125286,42.36702076495236]]],"type":"Polygon"}
}