{
  "id": 1125353569,
  "type": "Feature",
  "properties": {
    "edtf:cessation":"2017-05-19",
    "edtf:inception":"uuuu",
    "geom:area":0.0,
    "geom:area_square_m":0.0,
    "geom:bbox":"-73.63918,40.74697,-73.63918,40.74697",
    "geom:latitude":40.74697,
    "geom:longitude":-73.63918,
    "gn:gn_country":"US",
    "gn:gn_fcode":"ADMD",
    "gn:gn_pop":18799,
    "gn:population":18799,
    "iso:country":"US",
    "lbl:latitude":40.74697,
    "lbl:longitude":-73.63918,
    "mz:hierarchy_label":1,
    "mz:is_current":0,
    "mz:note":"Quattroshapes Point Gazetteer import 20170519",
    "qs_pg:aaroncc":"US",
    "qs_pg:gn_country":"US",
    "qs_pg:gn_fcode":"ADMD",
    "qs_pg:gn_id":7316587,
    "qs_pg:gn_pop":18799,
    "qs_pg:name":"Village of Mineola",
    "qs_pg:photos_9r":0,
    "qs_pg:photos_sr":0,
    "qs_pg:pop_sr":6,
    "qs_pg:qs_id":682598,
    "qs_pg:qs_pg_placetype":"localadmin",
    "src:geom":"qs_pg",
    "src:lbl:centroid":"qs_pg",
    "src:population":"geonames",
    "wof:belongsto":[
        85633793
    ],
    "wof:breaches":[],
    "wof:concordances":{
        "gn:id":7316587,
        "qs_pg:id":682598
    },
    "wof:country":"US",
    "wof:created":1497046330,
    "wof:geomhash":"ea2a3aa2cf74fd1b796d8d69e1a2fad9",
    "wof:hierarchy":[
        {
            "country_id":85633793,
            "localadmin_id":1125353569
        }
    ],
    "wof:id":1125353569,
    "wof:lastmodified":1505187162,
    "wof:name":"Village of Mineola",
    "wof:parent_id":-1,
    "wof:placetype":"localadmin",
    "wof:population":18799,
    "wof:population_rank":6,
    "wof:repo":"whosonfirst-data-admin-us",
    "wof:superseded_by":[],
    "wof:supersedes":[],
    "wof:tags":[]
},
  "bbox": [
    -73.63918,
    40.74697,
    -73.63918,
    40.74697
],
  "geometry": {"coordinates":[-73.63918,40.74697],"type":"Point"}
}