{
  "id": 1276255119,
  "type": "Feature",
  "properties": {
    "edtf:cessation":"uuuu",
    "edtf:inception":"uuuu",
    "geom:area":0.0,
    "geom:area_square_m":0.0,
    "geom:bbox":"-87.44585,33.93261,-87.44585,33.93261",
    "geom:latitude":33.93261,
    "geom:longitude":-87.44585,
    "gn:admin1_code":"AL",
    "gn:admin2_code":"127.0",
    "gn:asciiname":"Prospect",
    "gn:country_code":"US",
    "gn:dem":199,
    "gn:elevation":"197.0",
    "gn:feature_class":"P",
    "gn:feature_code":"PPL",
    "gn:geonameid":4084963,
    "gn:latitude":33.93261,
    "gn:longitude":-87.44585,
    "gn:modification_date":"2006-01-15",
    "gn:name":"Prospect",
    "gn:population":0,
    "gn:timezone":"America/Chicago",
    "iso:country":"US",
    "mz:hierarchy_label":1,
    "mz:is_current":-1,
    "name:eng_x_preferred":[
        "Prospect"
    ],
    "name:und_x_variant":[
        "Kirk",
        "Prospect Station"
    ],
    "src:geom":"geonames",
    "wof:belongsto":[
        102191575,
        85633793,
        85688675,
        102085523
    ],
    "wof:breaches":[],
    "wof:concordances":{
        "gn:id":4084963
    },
    "wof:country":"US",
    "wof:geomhash":"1dc9e29a53993316de2f3321977dc1f3",
    "wof:hierarchy":[
        {
            "continent_id":102191575,
            "country_id":85633793,
            "county_id":102085523,
            "locality_id":1276255119,
            "region_id":85688675
        }
    ],
    "wof:id":1276255119,
    "wof:lastmodified":1537712230,
    "wof:name":"Prospect",
    "wof:parent_id":102085523,
    "wof:placetype":"locality",
    "wof:repo":"whosonfirst-data-admin-us",
    "wof:superseded_by":[],
    "wof:supersedes":[],
    "wof:tags":[]
},
  "bbox": [
    -87.44585,
    33.93261,
    -87.44585,
    33.93261
],
  "geometry": {"coordinates":[-87.44584999999999,33.93261],"type":"Point"}
}