{
  "id": 1260096599,
  "type": "Feature",
  "properties": {
    "edtf:cessation":"uuuu",
    "edtf:inception":"uuuu",
    "geom:area":0.0,
    "geom:area_square_m":0.0,
    "geom:bbox":"-91.32597,36.58534,-91.32597,36.58534",
    "geom:latitude":36.58534,
    "geom:longitude":-91.32597,
    "gn:admin1_code":"MO",
    "gn:admin2_code":"149.0",
    "gn:admin3_code":"16768.0",
    "gn:asciiname":"Garfield",
    "gn:country_code":"US",
    "gn:dem":193,
    "gn:elevation":"187.0",
    "gn:feature_class":"P",
    "gn:feature_code":"PPL",
    "gn:geonameid":4387630,
    "gn:latitude":36.58534,
    "gn:longitude":-91.32597,
    "gn:modification_date":"2017-05-23",
    "gn:name":"Garfield",
    "gn:population":0,
    "gn:timezone":"America/Chicago",
    "iso:country":"US",
    "mz:hierarchy_label":1,
    "mz:is_current":-1,
    "name:eng_x_preferred":[
        "Garfield"
    ],
    "name:und_x_variant":[
        "Sittonville"
    ],
    "src:geom":"geonames",
    "wof:belongsto":[
        85688661,
        102191575,
        404518357,
        85633793,
        102085267
    ],
    "wof:breaches":[],
    "wof:concordances":{
        "gn:id":4387630
    },
    "wof:country":"US",
    "wof:geomhash":"2b06752e5a8ecbc2505780dacd04f0b8",
    "wof:hierarchy":[
        {
            "continent_id":102191575,
            "country_id":85633793,
            "county_id":102085267,
            "localadmin_id":404518357,
            "locality_id":1260096599,
            "region_id":85688661
        }
    ],
    "wof:id":1260096599,
    "wof:lastmodified":1537712456,
    "wof:name":"Garfield",
    "wof:parent_id":404518357,
    "wof:placetype":"locality",
    "wof:repo":"whosonfirst-data-admin-us",
    "wof:superseded_by":[],
    "wof:supersedes":[],
    "wof:tags":[]
},
  "bbox": [
    -91.32597,
    36.58534,
    -91.32597,
    36.58534
],
  "geometry": {"coordinates":[-91.32597,36.58534],"type":"Point"}
}