{
  "id": 1125342753,
  "type": "Feature",
  "properties": {
    "edtf:cessation":"uuuu",
    "edtf:deprecated":"2017-11-04",
    "edtf:inception":"uuuu",
    "geom:area":0.0,
    "geom:area_square_m":0.0,
    "geom:bbox":"-90.47945,38.63201,-90.47945,38.63201",
    "geom:latitude":38.63201,
    "geom:longitude":-90.47945,
    "gn:gn_country":"US",
    "gn:gn_fcode":"ADMD",
    "gn:gn_pop":10815,
    "gn:population":10815,
    "iso:country":"US",
    "lbl:latitude":38.63201,
    "lbl:longitude":-90.47945,
    "mz:hierarchy_label":1,
    "mz:is_current":0,
    "mz:note":"Quattroshapes Point Gazetteer import 20170519",
    "qs_pg:aaroncc":"US",
    "qs_pg:gn_country":"US",
    "qs_pg:gn_fcode":"ADMD",
    "qs_pg:gn_id":7164997,
    "qs_pg:gn_pop":10815,
    "qs_pg:name":"City of Town and Country",
    "qs_pg:photos_9r":0,
    "qs_pg:photos_sr":0,
    "qs_pg:pop_sr":6,
    "qs_pg:qs_id":659921,
    "qs_pg:qs_pg_placetype":"localadmin",
    "src:geom":"qs_pg",
    "src:lbl:centroid":"qs_pg",
    "src:population":"geonames",
    "wof:belongsto":[
        85633793
    ],
    "wof:breaches":[],
    "wof:concordances":{
        "gn:id":7164997,
        "qs_pg:id":659921
    },
    "wof:country":"US",
    "wof:created":1497045755,
    "wof:geomhash":"645096005cf5079b25082677de4fcf4c",
    "wof:hierarchy":[
        {
            "country_id":85633793,
            "localadmin_id":1125342753
        }
    ],
    "wof:id":1125342753,
    "wof:lastmodified":1509752576,
    "wof:name":"City of Town and Country",
    "wof:parent_id":-1,
    "wof:placetype":"localadmin",
    "wof:population":10815,
    "wof:population_rank":6,
    "wof:repo":"whosonfirst-data-admin-us",
    "wof:superseded_by":[
        85972231
    ],
    "wof:supersedes":[],
    "wof:tags":[]
},
  "bbox": [
    -90.47945,
    38.63201,
    -90.47945,
    38.63201
],
  "geometry": {"coordinates":[-90.47945,38.63201],"type":"Point"}
}