{
  "id": 85819893,
  "type": "Feature",
  "properties": {
    "edtf:cessation":"uuuu",
    "edtf:inception":"uuuu",
    "geom:area":0.0,
    "geom:area_square_m":3719141.203829,
    "geom:bbox":"-81.669617,38.350271,-81.669617,38.350271",
    "geom:latitude":38.350271,
    "geom:longitude":-81.669617,
    "gn:elevation":251,
    "iso:country":"US",
    "lbl:latitude":38.350271,
    "lbl:longitude":-81.669617,
    "mps:latitude":38.348714,
    "mps:longitude":-81.671405,
    "mz:hierarchy_label":0,
    "mz:is_current":1,
    "mz:is_funky":0,
    "mz:is_hard_boundary":0,
    "mz:is_landuse_aoi":0,
    "mz:is_official":0,
    "mz:max_zoom":18.0,
    "mz:min_zoom":15.0,
    "mz:tier_locality":2,
    "name:eng_x_preferred":[
        "Forest Hills"
    ],
    "name:eng_x_variant":[
        "Forest Hls"
    ],
    "name:unk_x_variant":[
        "Forest Hills"
    ],
    "qs:gn_adm0_cc":"US",
    "qs:gn_fcode":"PPLX",
    "qs:gn_local":4801859,
    "qs:gn_nam_loc":"Charleston, Kanawha, West Virginia, US",
    "qs:gn_namadm1":"WV",
    "qs:gn_name":"Forest Hills",
    "qs:local_max":10768,
    "qs:local_sum":13619,
    "qs:localhoods":9,
    "qs:name":"Forest Hills",
    "qs:name_adm0":"United States",
    "qs:name_adm1":"West Virginia",
    "qs:name_adm2":"Kanawha",
    "qs:name_local":"Charleston",
    "qs:photo_max":1,
    "qs:photo_sum":2,
    "qs:placetype":"Suburb",
    "qs:quad_count":2,
    "qs:woe_adm0":23424977,
    "qs:woe_adm1":2347607,
    "qs:woe_adm2":12590498,
    "qs:woe_lau":0,
    "qs:woe_local":2378317,
    "qs:woe_ver":"7.10.0",
    "src:geom":"mz",
    "src:geom_alt":[
        "zetashapes",
        "quattroshapes"
    ],
    "src:lbl:centroid":"yerbashapes",
    "src:population":"zetashapes",
    "wd:wordcount":235,
    "wof:belongsto":[
        102191575,
        85633793,
        101731793,
        102083335,
        85688589
    ],
    "wof:breaches":[],
    "wof:concordances":{
        "gn:id":4806286,
        "gp:id":2405213,
        "qs:id":511687
    },
    "wof:country":"US",
    "wof:geomhash":"e8b74ebc2462be8e16d1506694dc5837",
    "wof:hierarchy":[
        {
            "continent_id":102191575,
            "country_id":85633793,
            "county_id":102083335,
            "locality_id":101731793,
            "neighbourhood_id":85819893,
            "region_id":85688589
        }
    ],
    "wof:id":85819893,
    "wof:lang":[
        "eng"
    ],
    "wof:lastmodified":1531864472,
    "wof:name":"Forest Hills",
    "wof:parent_id":101731793,
    "wof:placetype":"neighbourhood",
    "wof:population":303,
    "wof:population_rank":2,
    "wof:repo":"whosonfirst-data-admin-us",
    "wof:superseded_by":[],
    "wof:supersedes":[],
    "wof:tags":[],
    "zs:blockids":[
        540390021004015
    ],
    "zs:housing10":134,
    "zs:pop10":303
},
  "bbox": [
    -81.669617,
    38.350271,
    -81.669617,
    38.350271
],
  "geometry": {"coordinates":[-81.669617,38.350271],"type":"Point"}
}