{
  "id": 420541627,
  "type": "Feature",
  "properties": {
    "edtf:cessation":"uuuu",
    "edtf:inception":"uuuu",
    "geom:area":0.0,
    "geom:area_square_m":4963867.993135,
    "geom:bbox":"-85.273965,35.157435,-85.273965,35.157435",
    "geom:latitude":35.157435,
    "geom:longitude":-85.273965,
    "iso:country":"US",
    "lbl:latitude":35.157435,
    "lbl:longitude":-85.273965,
    "mz:hierarchy_label":0,
    "mz:is_current":1,
    "name:eng_x_preferred":[
        "Cross Creek"
    ],
    "src:geom":"mz",
    "src:geom_alt":[
        "zetashapes"
    ],
    "src:lbl":"mapshaper",
    "src:lbl:centroid":"mapshaper",
    "src:population":"zetashapes",
    "wd:wordcount":197,
    "wof:belongsto":[
        102191575,
        85633793,
        101723043,
        102087185,
        85688701
    ],
    "wof:breaches":[],
    "wof:concordances":{
        "gp:id":2387526
    },
    "wof:country":"US",
    "wof:geomhash":"90c0e15a6fed07d1fcef1df71529b74f",
    "wof:hierarchy":[
        {
            "continent_id":102191575,
            "country_id":85633793,
            "county_id":102087185,
            "locality_id":101723043,
            "neighbourhood_id":420541627,
            "region_id":85688701
        }
    ],
    "wof:id":420541627,
    "wof:lastmodified":1533600827,
    "wof:name":"Cross Creek",
    "wof:parent_id":101723043,
    "wof:placetype":"neighbourhood",
    "wof:population":1173,
    "wof:population_rank":3,
    "wof:repo":"whosonfirst-data-admin-us",
    "wof:superseded_by":[],
    "wof:supersedes":[],
    "wof:tags":[],
    "zs:area_m":4963525.850895,
    "zs:blockids":[
        470650104351046,
        470650104351043,
        470650104351020,
        470650104352014,
        470650104351023,
        470650104341077,
        470650104351050,
        470650104351022,
        470650106003001,
        470650104351042,
        470650104351045,
        470650104352020,
        470650109031000,
        470650104352015,
        470650109031003,
        470650104351049,
        470650104351048,
        470650109031001,
        470650104352019,
        470650109031002,
        470650106003002,
        470650104351044,
        470650104351047
    ],
    "zs:housing10":513,
    "zs:id":2387526,
    "zs:label":"Cross Creek",
    "zs:pop10":1173
},
  "bbox": [
    -85.273965,
    35.157435,
    -85.273965,
    35.157435
],
  "geometry": {"coordinates":[-85.273965,35.157435],"type":"Point"}
}