{
  "id": 1125399119,
  "type": "Feature",
  "properties": {
    "edtf:cessation":"uuuu",
    "edtf:deprecated":"2017-11-04",
    "edtf:inception":"uuuu",
    "geom:area":0.0,
    "geom:area_square_m":0.0,
    "geom:bbox":"-97.93419,39.38607,-97.93419,39.38607",
    "geom:latitude":39.38607,
    "geom:longitude":-97.93419,
    "gn:gn_country":"US",
    "gn:gn_fcode":"ADMD",
    "gn:gn_pop":86,
    "gn:population":86,
    "iso:country":"US",
    "lbl:latitude":39.38607,
    "lbl:longitude":-97.93419,
    "mz:hierarchy_label":1,
    "mz:is_current":0,
    "mz:note":"Quattroshapes Point Gazetteer import 20170519",
    "qs_pg:aaroncc":"US",
    "qs_pg:gn_country":"US",
    "qs_pg:gn_fcode":"ADMD",
    "qs_pg:gn_id":7164169,
    "qs_pg:gn_pop":86,
    "qs_pg:name":"City of Simpson",
    "qs_pg:photos_9r":0,
    "qs_pg:photos_sr":0,
    "qs_pg:pop_sr":1,
    "qs_pg:qs_id":659141,
    "qs_pg:qs_pg_placetype":"localadmin",
    "src:geom":"qs_pg",
    "src:lbl:centroid":"qs_pg",
    "src:population":"geonames",
    "wof:belongsto":[
        85633793
    ],
    "wof:breaches":[],
    "wof:concordances":{
        "gn:id":7164169,
        "qs_pg:id":659141
    },
    "wof:country":"US",
    "wof:created":1497049203,
    "wof:geomhash":"ec645e133c703ce903ff3238ce3d9cc3",
    "wof:hierarchy":[
        {
            "country_id":85633793,
            "localadmin_id":1125399119
        }
    ],
    "wof:id":1125399119,
    "wof:lastmodified":1509752700,
    "wof:name":"City of Simpson",
    "wof:parent_id":-1,
    "wof:placetype":"localadmin",
    "wof:population":86,
    "wof:population_rank":1,
    "wof:repo":"whosonfirst-data-admin-us",
    "wof:superseded_by":[
        85945945
    ],
    "wof:supersedes":[],
    "wof:tags":[]
},
  "bbox": [
    -97.93419,
    39.38607,
    -97.93419,
    39.38607
],
  "geometry": {"coordinates":[-97.93419,39.38607],"type":"Point"}
}