{
  "id": 1327451099,
  "type": "Feature",
  "properties": {
    "edtf:cessation":"uuuu",
    "edtf:inception":"uuuu",
    "geom:area":0.0,
    "geom:area_square_m":0.0,
    "geom:bbox":"-83.83883,40.66005,-83.83883,40.66005",
    "geom:latitude":40.66005,
    "geom:longitude":-83.83883,
    "gn:admin1_code":"OH",
    "gn:admin2_code":"65.0",
    "gn:admin3_code":"47712.0",
    "gn:asciiname":"Quickstep",
    "gn:country_code":"US",
    "gn:dem":299,
    "gn:elevation":"300.0",
    "gn:feature_class":"P",
    "gn:feature_code":"PPL",
    "gn:geonameid":5167619,
    "gn:latitude":40.66005,
    "gn:longitude":-83.83883,
    "gn:modification_date":"2017-05-23",
    "gn:name":"Quickstep",
    "gn:population":0,
    "gn:timezone":"America/New_York",
    "iso:country":"US",
    "mz:hierarchy_label":1,
    "mz:is_current":-1,
    "src:geom":"geonames",
    "wof:belongsto":[
        85688485,
        102191575,
        404523833,
        85633793,
        102084805
    ],
    "wof:breaches":[],
    "wof:concordances":{
        "gn:id":5167619
    },
    "wof:country":"US",
    "wof:geomhash":"5991965414cc96d83c06fc23e523686b",
    "wof:hierarchy":[
        {
            "continent_id":102191575,
            "country_id":85633793,
            "county_id":102084805,
            "localadmin_id":404523833,
            "locality_id":1327451099,
            "region_id":85688485
        }
    ],
    "wof:id":1327451099,
    "wof:lastmodified":1536653725,
    "wof:name":"Quickstep",
    "wof:parent_id":404523833,
    "wof:placetype":"locality",
    "wof:repo":"whosonfirst-data-admin-us",
    "wof:superseded_by":[],
    "wof:supersedes":[],
    "wof:tags":[]
},
  "bbox": [
    -83.83883,
    40.66005,
    -83.83883,
    40.66005
],
  "geometry": {"coordinates":[-83.83883,40.66005],"type":"Point"}
}