{
  "id": 85872089,
  "type": "Feature",
  "properties": {"wof:repo":"whosonfirst-data-admin-us",
    "src:geom":"quattroshapes",
    "wof:geomhash":"5ee1be7e4ac6dc07a7eff2a7719201b6",
    "wof:id":85872089
},
  "bbox": [
    -84.40803646512398,
    33.81110228232396,
    -84.39137632815942,
    33.831638308925235
],
  "geometry": {"coordinates":[[[-84.39697265621450,33.82935684685033],[-84.39697265621558,33.82479361830002],[-84.39147949219992,33.82479361830002],[-84.39147949219992,33.82479355737516],[-84.39137632815942,33.82479355737516],[-84.39147949220001,33.82442101407761],[-84.39147949219992,33.82023008520008],[-84.39147949219992,33.81636477305577],[-84.39147949219992,33.81566630870007],[-84.39285278319986,33.81566630870007],[-84.39285278319977,33.81452532412517],[-84.39422607419999,33.81452532376697],[-84.39422607419999,33.81338432910005],[-84.39480639341230,33.81338432351767],[-84.39697265620003,33.81338431825813],[-84.39697265766057,33.81110228232396],[-84.40246582029999,33.81110228860010],[-84.40795898439362,33.81110228860010],[-84.40795898438111,33.81249919018951],[-84.40795898438526,33.81566624780017],[-84.40795903497494,33.81566630869804],[-84.40803646512398,33.81575950458166],[-84.40795898439993,33.81603927856921],[-84.40795898439993,33.82023008520008],[-84.40795898438526,33.82162701410535],[-84.40795898438625,33.82479361830002],[-84.40795898437489,33.82707514122545],[-84.40793310737070,33.82709071624291],[-84.40378100242691,33.82637669570110],[-84.40246582029988,33.82795989740764],[-84.40246582029999,33.82935690770006],[-84.40130530931748,33.82935690770006],[-84.39941012558717,33.83163830892524],[-84.39886786524360,33.83163830892524],[-84.39697270677033,33.82935690770219],[-84.39697265620003,33.82935690770006],[-84.39697265621450,33.82935684685033]]],"type":"Polygon"}
}