{
  "id": 1343974263,
  "type": "Feature",
  "properties": {
    "edtf:cessation":"uuuu",
    "edtf:inception":"uuuu",
    "geom:area":0.0,
    "geom:area_square_m":0.0,
    "geom:bbox":"-116.79544,44.35516,-116.79544,44.35516",
    "geom:latitude":44.35516,
    "geom:longitude":-116.79544,
    "gn:admin1_code":"ID",
    "gn:admin2_code":"87.0",
    "gn:asciiname":"Concrete",
    "gn:country_code":"US",
    "gn:dem":720,
    "gn:elevation":"710.0",
    "gn:feature_class":"P",
    "gn:feature_code":"PPL",
    "gn:geonameid":5589393,
    "gn:latitude":44.35516,
    "gn:longitude":-116.79544,
    "gn:modification_date":"2006-01-15",
    "gn:name":"Concrete",
    "gn:population":0,
    "gn:timezone":"America/Boise",
    "iso:country":"US",
    "mz:hierarchy_label":1,
    "mz:is_current":-1,
    "src:geom":"geonames",
    "wof:belongsto":[
        102191575,
        85633793,
        85688657,
        102085079
    ],
    "wof:breaches":[],
    "wof:concordances":{
        "gn:id":5589393
    },
    "wof:country":"US",
    "wof:geomhash":"e2d289f64e8dd1c5edb2a5709397ae7f",
    "wof:hierarchy":[
        {
            "continent_id":102191575,
            "country_id":85633793,
            "county_id":102085079,
            "locality_id":1343974263,
            "region_id":85688657
        }
    ],
    "wof:id":1343974263,
    "wof:lastmodified":1536999345,
    "wof:name":"Concrete",
    "wof:parent_id":102085079,
    "wof:placetype":"locality",
    "wof:repo":"whosonfirst-data-admin-us",
    "wof:superseded_by":[],
    "wof:supersedes":[],
    "wof:tags":[]
},
  "bbox": [
    -116.79544,
    44.35516,
    -116.79544,
    44.35516
],
  "geometry": {"coordinates":[-116.79544,44.35516],"type":"Point"}
}