{
  "id": 1125383381,
  "type": "Feature",
  "properties": {
    "edtf:cessation":"2017-05-19",
    "edtf:inception":"uuuu",
    "geom:area":0.0,
    "geom:area_square_m":0.0,
    "geom:bbox":"-100.23758,42.63858,-100.23758,42.63858",
    "geom:latitude":42.63858,
    "geom:longitude":-100.23758,
    "gn:gn_country":"US",
    "gn:gn_fcode":"ADMD",
    "gn:gn_pop":63,
    "gn:population":63,
    "iso:country":"US",
    "lbl:latitude":42.63858,
    "lbl:longitude":-100.23758,
    "mz:hierarchy_label":1,
    "mz:is_current":0,
    "mz:note":"Quattroshapes Point Gazetteer import 20170519",
    "qs_pg:aaroncc":"US",
    "qs_pg:gn_country":"US",
    "qs_pg:gn_fcode":"ADMD",
    "qs_pg:gn_id":7167360,
    "qs_pg:gn_pop":63,
    "qs_pg:name":"Village of Wood Lake",
    "qs_pg:photos_9r":0,
    "qs_pg:photos_sr":0,
    "qs_pg:pop_sr":1,
    "qs_pg:qs_id":538255,
    "qs_pg:qs_pg_placetype":"localadmin",
    "src:geom":"qs_pg",
    "src:lbl:centroid":"qs_pg",
    "src:population":"geonames",
    "wof:belongsto":[
        85633793
    ],
    "wof:breaches":[],
    "wof:concordances":{
        "gn:id":7167360,
        "qs_pg:id":538255
    },
    "wof:country":"US",
    "wof:created":1497048201,
    "wof:geomhash":"7d7715d2714976739ebc4bf6db5f9aed",
    "wof:hierarchy":[
        {
            "country_id":85633793,
            "localadmin_id":1125383381
        }
    ],
    "wof:id":1125383381,
    "wof:lastmodified":1505187076,
    "wof:name":"Village of Wood Lake",
    "wof:parent_id":-1,
    "wof:placetype":"localadmin",
    "wof:population":63,
    "wof:population_rank":1,
    "wof:repo":"whosonfirst-data-admin-us",
    "wof:superseded_by":[],
    "wof:supersedes":[],
    "wof:tags":[]
},
  "bbox": [
    -100.23758,
    42.63858,
    -100.23758,
    42.63858
],
  "geometry": {"coordinates":[-100.23757999999999,42.63858],"type":"Point"}
}