{
  "id": 1310620747,
  "type": "Feature",
  "properties": {
    "edtf:cessation":"2018-09-07",
    "edtf:inception":"uuuu",
    "geom:area":0.0,
    "geom:area_square_m":0.0,
    "geom:bbox":"-82.41429,33.6918,-82.41429,33.6918",
    "geom:latitude":33.6918,
    "geom:longitude":-82.41429,
    "gn:admin1_code":"GA",
    "gn:admin2_code":"181",
    "gn:asciiname":"Salem (historical)",
    "gn:country_code":"US",
    "gn:dem":134,
    "gn:elevation":"129.0",
    "gn:feature_class":"P",
    "gn:feature_code":"PPLQ",
    "gn:geonameid":4220927,
    "gn:latitude":33.6918,
    "gn:longitude":-82.41429,
    "gn:modification_date":"2011-12-11",
    "gn:name":"Salem (historical)",
    "gn:population":0,
    "gn:timezone":"America/New_York",
    "iso:country":"US",
    "mz:hierarchy_label":1,
    "mz:is_current":0,
    "src:geom":"geonames",
    "wof:belongsto":[
        102191575,
        85633793,
        85688535,
        102083613
    ],
    "wof:breaches":[],
    "wof:concordances":{
        "gn:id":4220927
    },
    "wof:country":"US",
    "wof:geomhash":"9a08e2ea271708f4eb29a9c70786ae8c",
    "wof:hierarchy":[
        {
            "continent_id":102191575,
            "country_id":85633793,
            "county_id":102083613,
            "locality_id":1310620747,
            "region_id":85688535
        }
    ],
    "wof:id":1310620747,
    "wof:lastmodified":1536750622,
    "wof:name":"Salem (historical)",
    "wof:parent_id":102083613,
    "wof:placetype":"locality",
    "wof:repo":"whosonfirst-data-admin-us",
    "wof:superseded_by":[],
    "wof:supersedes":[],
    "wof:tags":[]
},
  "bbox": [
    -82.41429000000002,
    33.6918,
    -82.41429000000002,
    33.6918
],
  "geometry": {"coordinates":[-82.41429000000002,33.6918],"type":"Point"}
}