{
  "id": 1125352835,
  "type": "Feature",
  "properties": {
    "edtf:cessation":"uuuu",
    "edtf:deprecated":"2017-11-04",
    "edtf:inception":"uuuu",
    "geom:area":0.0,
    "geom:area_square_m":0.0,
    "geom:bbox":"-95.22154,32.22128,-95.22154,32.22128",
    "geom:latitude":32.22128,
    "geom:longitude":-95.22154,
    "gn:gn_country":"US",
    "gn:gn_fcode":"ADMD",
    "gn:gn_pop":7660,
    "gn:population":7660,
    "iso:country":"US",
    "lbl:latitude":32.22128,
    "lbl:longitude":-95.22154,
    "mz:hierarchy_label":1,
    "mz:is_current":0,
    "mz:note":"Quattroshapes Point Gazetteer import 20170519",
    "qs_pg:aaroncc":"US",
    "qs_pg:gn_country":"US",
    "qs_pg:gn_fcode":"ADMD",
    "qs_pg:gn_id":7174704,
    "qs_pg:gn_pop":7660,
    "qs_pg:name":"City of Whitehouse",
    "qs_pg:photos_9r":0,
    "qs_pg:photos_sr":0,
    "qs_pg:pop_sr":5,
    "qs_pg:qs_id":667275,
    "qs_pg:qs_pg_placetype":"localadmin",
    "src:geom":"qs_pg",
    "src:lbl:centroid":"qs_pg",
    "src:population":"geonames",
    "wof:belongsto":[
        85633793
    ],
    "wof:breaches":[],
    "wof:concordances":{
        "gn:id":7174704,
        "qs_pg:id":667275
    },
    "wof:country":"US",
    "wof:created":1497046289,
    "wof:geomhash":"73f77aeded4f153f34d0a737bed2a596",
    "wof:hierarchy":[
        {
            "country_id":85633793,
            "localadmin_id":1125352835
        }
    ],
    "wof:id":1125352835,
    "wof:lastmodified":1509752631,
    "wof:name":"City of Whitehouse",
    "wof:parent_id":-1,
    "wof:placetype":"localadmin",
    "wof:population":7660,
    "wof:population_rank":5,
    "wof:repo":"whosonfirst-data-admin-us",
    "wof:superseded_by":[
        101723923
    ],
    "wof:supersedes":[],
    "wof:tags":[]
},
  "bbox": [
    -95.22154,
    32.22128,
    -95.22154,
    32.22128
],
  "geometry": {"coordinates":[-95.22154,32.22128],"type":"Point"}
}