{
  "id": 1209434385,
  "type": "Feature",
  "properties": {
    "edtf:cessation":"uuuu",
    "edtf:inception":"uuuu",
    "geom:area":0.0,
    "geom:area_square_m":0.0,
    "geom:bbox":"-122.51791,47.6551,-122.51791,47.6551",
    "geom:latitude":47.6551,
    "geom:longitude":-122.51791,
    "gn:admin1_code":"WA",
    "gn:admin2_code":"35.0",
    "gn:asciiname":"Bainbridge",
    "gn:country_code":"US",
    "gn:dem":11,
    "gn:elevation":"13.0",
    "gn:feature_class":"P",
    "gn:feature_code":"PPL",
    "gn:geonameid":5786145,
    "gn:latitude":47.6551,
    "gn:longitude":-122.51791,
    "gn:modification_date":"2010-02-18",
    "gn:name":"Bainbridge",
    "gn:population":0,
    "gn:timezone":"America/Los_Angeles",
    "iso:country":"US",
    "mz:hierarchy_label":1,
    "mz:is_current":-1,
    "src:geom":"geonames",
    "wof:belongsto":[
        85633793
    ],
    "wof:breaches":[],
    "wof:concordances":{
        "gn:id":5786145
    },
    "wof:country":"US",
    "wof:geomhash":"907a042beb553af9de6d1a542cfc98e5",
    "wof:hierarchy":[
        {
            "country_id":85633793,
            "locality_id":1209434385
        }
    ],
    "wof:id":1209434385,
    "wof:lastmodified":1536287146,
    "wof:name":"Bainbridge",
    "wof:parent_id":85633793,
    "wof:placetype":"locality",
    "wof:repo":"whosonfirst-data-admin-us",
    "wof:superseded_by":[],
    "wof:supersedes":[],
    "wof:tags":[]
},
  "bbox": [
    -122.51791,
    47.6551,
    -122.51791,
    47.6551
],
  "geometry": {"coordinates":[-122.51791,47.6551],"type":"Point"}
}