{
  "id": 1125400435,
  "type": "Feature",
  "properties": {
    "edtf:cessation":"2017-05-19",
    "edtf:inception":"uuuu",
    "geom:area":0.0,
    "geom:area_square_m":0.0,
    "geom:bbox":"-92.40926,38.61774,-92.40926,38.61774",
    "geom:latitude":38.61774,
    "geom:longitude":-92.40926,
    "gn:gn_country":"US",
    "gn:gn_fcode":"ADMD",
    "gn:gn_pop":278,
    "gn:population":278,
    "iso:country":"US",
    "lbl:latitude":38.61774,
    "lbl:longitude":-92.40926,
    "mz:hierarchy_label":1,
    "mz:is_current":0,
    "mz:note":"Quattroshapes Point Gazetteer import 20170519",
    "qs_pg:aaroncc":"US",
    "qs_pg:gn_country":"US",
    "qs_pg:gn_fcode":"ADMD",
    "qs_pg:gn_id":7164602,
    "qs_pg:gn_pop":278,
    "qs_pg:name":"Town of Centertown",
    "qs_pg:photos_9r":0,
    "qs_pg:photos_sr":0,
    "qs_pg:pop_sr":2,
    "qs_pg:qs_id":659567,
    "qs_pg:qs_pg_placetype":"localadmin",
    "src:geom":"qs_pg",
    "src:lbl:centroid":"qs_pg",
    "src:population":"geonames",
    "wof:belongsto":[
        85633793
    ],
    "wof:breaches":[],
    "wof:concordances":{
        "gn:id":7164602,
        "qs_pg:id":659567
    },
    "wof:country":"US",
    "wof:created":1497049289,
    "wof:geomhash":"b88a15b5e32effb62c94a9a087b36c29",
    "wof:hierarchy":[
        {
            "country_id":85633793,
            "localadmin_id":1125400435
        }
    ],
    "wof:id":1125400435,
    "wof:lastmodified":1505187046,
    "wof:name":"Town of Centertown",
    "wof:parent_id":-1,
    "wof:placetype":"localadmin",
    "wof:population":278,
    "wof:population_rank":2,
    "wof:repo":"whosonfirst-data-admin-us",
    "wof:superseded_by":[],
    "wof:supersedes":[],
    "wof:tags":[]
},
  "bbox": [
    -92.40926,
    38.61774,
    -92.40926,
    38.61774
],
  "geometry": {"coordinates":[-92.40926,38.61774],"type":"Point"}
}