{
  "id": 1125349093,
  "type": "Feature",
  "properties": {
    "edtf:cessation":"2017-05-19",
    "edtf:inception":"uuuu",
    "geom:area":0.0,
    "geom:area_square_m":0.0,
    "geom:bbox":"-106.90851,40.1529,-106.90851,40.1529",
    "geom:latitude":40.1529,
    "geom:longitude":-106.90851,
    "gn:gn_country":"US",
    "gn:gn_fcode":"ADMD",
    "gn:gn_pop":429,
    "gn:population":429,
    "iso:country":"US",
    "lbl:latitude":40.1529,
    "lbl:longitude":-106.90851,
    "mz:hierarchy_label":1,
    "mz:is_current":0,
    "mz:note":"Quattroshapes Point Gazetteer import 20170519",
    "qs_pg:aaroncc":"US",
    "qs_pg:gn_country":"US",
    "qs_pg:gn_fcode":"ADMD",
    "qs_pg:gn_id":7175915,
    "qs_pg:gn_pop":429,
    "qs_pg:name":"Town of Yampa",
    "qs_pg:photos_9r":0,
    "qs_pg:photos_sr":0,
    "qs_pg:pop_sr":2,
    "qs_pg:qs_id":668416,
    "qs_pg:qs_pg_placetype":"localadmin",
    "src:geom":"qs_pg",
    "src:lbl:centroid":"qs_pg",
    "src:population":"geonames",
    "wof:belongsto":[
        85633793
    ],
    "wof:breaches":[],
    "wof:concordances":{
        "gn:id":7175915,
        "qs_pg:id":668416
    },
    "wof:country":"US",
    "wof:created":1497046092,
    "wof:geomhash":"6e06379071e17e25f993776d9bd83820",
    "wof:hierarchy":[
        {
            "country_id":85633793,
            "localadmin_id":1125349093
        }
    ],
    "wof:id":1125349093,
    "wof:lastmodified":1505187157,
    "wof:name":"Town of Yampa",
    "wof:parent_id":-1,
    "wof:placetype":"localadmin",
    "wof:population":429,
    "wof:population_rank":2,
    "wof:repo":"whosonfirst-data-admin-us",
    "wof:superseded_by":[],
    "wof:supersedes":[],
    "wof:tags":[]
},
  "bbox": [
    -106.90851,
    40.1529,
    -106.90851,
    40.1529
],
  "geometry": {"coordinates":[-106.90851000000001,40.1529],"type":"Point"}
}