{
  "id": 1243083901,
  "type": "Feature",
  "properties": {
    "edtf:cessation":"2018-09-06",
    "edtf:inception":"uuuu",
    "geom:area":0.0,
    "geom:area_square_m":0.0,
    "geom:bbox":"-93.7016,42.4772,-93.7016,42.4772",
    "geom:latitude":42.4772,
    "geom:longitude":-93.7016,
    "gn:admin1_code":"IA",
    "gn:admin2_code":"79.0",
    "gn:admin3_code":"90264.0",
    "gn:asciiname":"Remicker (historical)",
    "gn:country_code":"US",
    "gn:dem":359,
    "gn:elevation":"363.0",
    "gn:feature_class":"P",
    "gn:feature_code":"PPLQ",
    "gn:geonameid":4872749,
    "gn:latitude":42.4772,
    "gn:longitude":-93.7016,
    "gn:modification_date":"2017-05-23",
    "gn:name":"Remicker (historical)",
    "gn:population":0,
    "gn:timezone":"America/Chicago",
    "iso:country":"US",
    "mz:hierarchy_label":1,
    "mz:is_current":0,
    "src:geom":"geonames",
    "wof:belongsto":[
        102191575,
        85633793,
        85688713,
        102086283
    ],
    "wof:breaches":[],
    "wof:concordances":{
        "gn:id":4872749
    },
    "wof:country":"US",
    "wof:geomhash":"f1581b140f24c4badd4c18ac6453f358",
    "wof:hierarchy":[
        {
            "continent_id":102191575,
            "country_id":85633793,
            "county_id":102086283,
            "locality_id":1243083901,
            "region_id":85688713
        }
    ],
    "wof:id":1243083901,
    "wof:lastmodified":1536830134,
    "wof:name":"Remicker (historical)",
    "wof:parent_id":102086283,
    "wof:placetype":"locality",
    "wof:repo":"whosonfirst-data-admin-us",
    "wof:superseded_by":[],
    "wof:supersedes":[],
    "wof:tags":[]
},
  "bbox": [
    -93.7016,
    42.4772,
    -93.7016,
    42.4772
],
  "geometry": {"coordinates":[-93.7016,42.4772],"type":"Point"}
}