{
  "id": 1360210387,
  "type": "Feature",
  "properties": {
    "edtf:cessation":"2018-09-06",
    "edtf:inception":"uuuu",
    "geom:area":0.0,
    "geom:area_square_m":0.0,
    "geom:bbox":"-94.34771,34.51122,-94.34771,34.51122",
    "geom:latitude":34.51122,
    "geom:longitude":-94.34771,
    "gn:admin1_code":"AR",
    "gn:admin2_code":"113.0",
    "gn:admin3_code":"91197.0",
    "gn:asciiname":"Two Mile (historical)",
    "gn:country_code":"US",
    "gn:dem":300,
    "gn:elevation":"292.0",
    "gn:feature_class":"P",
    "gn:feature_code":"PPLQ",
    "gn:geonameid":4134198,
    "gn:latitude":34.51122,
    "gn:longitude":-94.34771,
    "gn:modification_date":"2017-05-23",
    "gn:name":"Two Mile (historical)",
    "gn:population":0,
    "gn:timezone":"America/Chicago",
    "iso:country":"US",
    "mz:hierarchy_label":1,
    "mz:is_current":0,
    "src:geom":"geonames",
    "wof:belongsto":[
        102191575,
        85633793,
        85688549,
        102083245
    ],
    "wof:breaches":[],
    "wof:concordances":{
        "gn:id":4134198
    },
    "wof:country":"US",
    "wof:geomhash":"5949946527da15ef23d0e7aef7188870",
    "wof:hierarchy":[
        {
            "continent_id":102191575,
            "country_id":85633793,
            "county_id":102083245,
            "locality_id":1360210387,
            "region_id":85688549
        }
    ],
    "wof:id":1360210387,
    "wof:lastmodified":1536765342,
    "wof:name":"Two Mile (historical)",
    "wof:parent_id":102083245,
    "wof:placetype":"locality",
    "wof:repo":"whosonfirst-data-admin-us",
    "wof:superseded_by":[],
    "wof:supersedes":[],
    "wof:tags":[]
},
  "bbox": [
    -94.34771,
    34.51122,
    -94.34771,
    34.51122
],
  "geometry": {"coordinates":[-94.34771000000001,34.51122],"type":"Point"}
}