{
  "id": 1276678159,
  "type": "Feature",
  "properties": {
    "edtf:cessation":"2018-09-07",
    "edtf:inception":"uuuu",
    "geom:area":0.0,
    "geom:area_square_m":0.0,
    "geom:bbox":"-84.5744,41.61755,-84.5744,41.61755",
    "geom:latitude":41.61755,
    "geom:longitude":-84.5744,
    "gn:admin1_code":"OH",
    "gn:admin2_code":"171.0",
    "gn:admin3_code":"75819.0",
    "gn:asciiname":"Deer Lick (historical)",
    "gn:country_code":"US",
    "gn:dem":262,
    "gn:elevation":"265.0",
    "gn:feature_class":"P",
    "gn:feature_code":"PPLQ",
    "gn:geonameid":5151845,
    "gn:latitude":41.61755,
    "gn:longitude":-84.5744,
    "gn:modification_date":"2017-05-23",
    "gn:name":"Deer Lick (historical)",
    "gn:population":0,
    "gn:timezone":"America/New_York",
    "iso:country":"US",
    "mz:hierarchy_label":1,
    "mz:is_current":0,
    "name:eng_x_preferred":[
        "Deer Lick (historical)"
    ],
    "name:und_x_variant":[
        "Madison"
    ],
    "src:geom":"geonames",
    "wof:belongsto":[
        85688485,
        102191575,
        404526725,
        85633793,
        102084817
    ],
    "wof:breaches":[],
    "wof:concordances":{
        "gn:id":5151845
    },
    "wof:country":"US",
    "wof:geomhash":"6c3df3be6211bd5e1f16348f71d66912",
    "wof:hierarchy":[
        {
            "continent_id":102191575,
            "country_id":85633793,
            "county_id":102084817,
            "localadmin_id":404526725,
            "locality_id":1276678159,
            "region_id":85688485
        }
    ],
    "wof:id":1276678159,
    "wof:lastmodified":1537712901,
    "wof:name":"Deer Lick (historical)",
    "wof:parent_id":404526725,
    "wof:placetype":"locality",
    "wof:repo":"whosonfirst-data-admin-us",
    "wof:superseded_by":[],
    "wof:supersedes":[],
    "wof:tags":[]
},
  "bbox": [
    -84.5744,
    41.61755,
    -84.5744,
    41.61755
],
  "geometry": {"coordinates":[-84.5744,41.61755],"type":"Point"}
}