{
  "id": 1125415687,
  "type": "Feature",
  "properties": {
    "edtf:cessation":"2017-05-19",
    "edtf:inception":"uuuu",
    "geom:area":0.0,
    "geom:area_square_m":0.0,
    "geom:bbox":"-98.50898,44.73887,-98.50898,44.73887",
    "geom:latitude":44.73887,
    "geom:longitude":-98.50898,
    "gn:gn_country":"US",
    "gn:gn_fcode":"ADMD",
    "gn:gn_pop":207,
    "gn:population":207,
    "iso:country":"US",
    "lbl:latitude":44.73887,
    "lbl:longitude":-98.50898,
    "mz:hierarchy_label":1,
    "mz:is_current":0,
    "mz:note":"Quattroshapes Point Gazetteer import 20170519",
    "qs_pg:aaroncc":"US",
    "qs_pg:gn_country":"US",
    "qs_pg:gn_fcode":"ADMD",
    "qs_pg:gn_id":5232445,
    "qs_pg:gn_pop":207,
    "qs_pg:name":"Town of Tulare",
    "qs_pg:photos_9r":0,
    "qs_pg:photos_sr":0,
    "qs_pg:pop_sr":2,
    "qs_pg:qs_id":608451,
    "qs_pg:qs_pg_placetype":"localadmin",
    "src:geom":"qs_pg",
    "src:lbl:centroid":"qs_pg",
    "src:population":"geonames",
    "wof:belongsto":[
        85633793
    ],
    "wof:breaches":[],
    "wof:concordances":{
        "gn:id":5232445,
        "qs_pg:id":608451
    },
    "wof:country":"US",
    "wof:created":1497051288,
    "wof:geomhash":"8a803a130ca42fafcae51bdcba713301",
    "wof:hierarchy":[
        {
            "country_id":85633793,
            "localadmin_id":1125415687
        }
    ],
    "wof:id":1125415687,
    "wof:lastmodified":1505186983,
    "wof:name":"Town of Tulare",
    "wof:parent_id":-1,
    "wof:placetype":"localadmin",
    "wof:population":207,
    "wof:population_rank":2,
    "wof:repo":"whosonfirst-data-admin-us",
    "wof:superseded_by":[],
    "wof:supersedes":[],
    "wof:tags":[]
},
  "bbox": [
    -98.50898,
    44.73887,
    -98.50898,
    44.73887
],
  "geometry": {"coordinates":[-98.50897999999999,44.73887],"type":"Point"}
}