{
  "id": 1293702331,
  "type": "Feature",
  "properties": {
    "edtf:cessation":"2018-09-06",
    "edtf:inception":"uuuu",
    "geom:area":0.0,
    "geom:area_square_m":0.0,
    "geom:bbox":"-69.51505,43.90675,-69.51505,43.90675",
    "geom:latitude":43.90675,
    "geom:longitude":-69.51505,
    "gn:admin1_code":"ME",
    "gn:admin2_code":"15.0",
    "gn:admin3_code":"7485.0",
    "gn:asciiname":"Pemaquid (historical)",
    "gn:country_code":"US",
    "gn:dem":20,
    "gn:elevation":"19.0",
    "gn:feature_class":"P",
    "gn:feature_code":"PPLQ",
    "gn:geonameid":4974906,
    "gn:latitude":43.90675,
    "gn:longitude":-69.51505,
    "gn:modification_date":"2017-05-23",
    "gn:name":"Pemaquid (historical)",
    "gn:population":0,
    "gn:timezone":"America/New_York",
    "iso:country":"US",
    "mz:hierarchy_label":1,
    "mz:is_current":0,
    "name:eng_x_preferred":[
        "Pemaquid (historical)"
    ],
    "name:und_x_variant":[
        "Pemmayquid",
        "Penaquid",
        "Pemmaquid",
        "Panaquid"
    ],
    "src:geom":"geonames",
    "wof:belongsto":[
        85688769,
        102191575,
        404475647,
        85633793,
        102087447
    ],
    "wof:breaches":[],
    "wof:concordances":{
        "gn:id":4974906
    },
    "wof:country":"US",
    "wof:geomhash":"f4aae40c453be6025a04d9d47f233865",
    "wof:hierarchy":[
        {
            "continent_id":102191575,
            "country_id":85633793,
            "county_id":102087447,
            "localadmin_id":404475647,
            "locality_id":1293702331,
            "region_id":85688769
        }
    ],
    "wof:id":1293702331,
    "wof:lastmodified":1537712844,
    "wof:name":"Pemaquid (historical)",
    "wof:parent_id":404475647,
    "wof:placetype":"locality",
    "wof:repo":"whosonfirst-data-admin-us",
    "wof:superseded_by":[],
    "wof:supersedes":[],
    "wof:tags":[]
},
  "bbox": [
    -69.51505,
    43.90675,
    -69.51505,
    43.90675
],
  "geometry": {"coordinates":[-69.51505,43.90675],"type":"Point"}
}