{
  "id": 1125413995,
  "type": "Feature",
  "properties": {
    "edtf:cessation":"2017-05-19",
    "edtf:inception":"uuuu",
    "geom:area":0.0,
    "geom:area_square_m":0.0,
    "geom:bbox":"-95.58724,35.88715,-95.58724,35.88715",
    "geom:latitude":35.88715,
    "geom:longitude":-95.58724,
    "gn:gn_country":"US",
    "gn:gn_fcode":"ADMD",
    "gn:gn_pop":137,
    "gn:population":137,
    "iso:country":"US",
    "lbl:latitude":35.88715,
    "lbl:longitude":-95.58724,
    "mz:hierarchy_label":1,
    "mz:is_current":0,
    "mz:note":"Quattroshapes Point Gazetteer import 20170519",
    "qs_pg:aaroncc":"US",
    "qs_pg:gn_country":"US",
    "qs_pg:gn_fcode":"ADMD",
    "qs_pg:gn_id":7174959,
    "qs_pg:gn_pop":137,
    "qs_pg:name":"Town of Redbird",
    "qs_pg:photos_9r":0,
    "qs_pg:photos_sr":0,
    "qs_pg:pop_sr":1,
    "qs_pg:qs_id":667515,
    "qs_pg:qs_pg_placetype":"localadmin",
    "src:geom":"qs_pg",
    "src:lbl:centroid":"qs_pg",
    "src:population":"geonames",
    "wof:belongsto":[
        85633793
    ],
    "wof:breaches":[],
    "wof:concordances":{
        "gn:id":7174959,
        "qs_pg:id":667515
    },
    "wof:country":"US",
    "wof:created":1497050918,
    "wof:geomhash":"bde665f0caf0343a1872029a3f16cc81",
    "wof:hierarchy":[
        {
            "country_id":85633793,
            "localadmin_id":1125413995
        }
    ],
    "wof:id":1125413995,
    "wof:lastmodified":1505187146,
    "wof:name":"Town of Redbird",
    "wof:parent_id":-1,
    "wof:placetype":"localadmin",
    "wof:population":137,
    "wof:population_rank":1,
    "wof:repo":"whosonfirst-data-admin-us",
    "wof:superseded_by":[],
    "wof:supersedes":[],
    "wof:tags":[]
},
  "bbox": [
    -95.58724,
    35.88715,
    -95.58724,
    35.88715
],
  "geometry": {"coordinates":[-95.58723999999999,35.88715],"type":"Point"}
}