{
  "id": 1126079129,
  "type": "Feature",
  "properties": {
    "edtf:cessation":"uuuu",
    "edtf:inception":"uuuu",
    "geom:area":0.0,
    "geom:area_square_m":0.0,
    "geom:bbox":"-82.40568,34.90289,-82.40568,34.90289",
    "geom:latitude":34.90289,
    "geom:longitude":-82.40568,
    "gn:gn_country":"US",
    "gn:gn_fcode":"PPLX",
    "gn:gn_pop":0,
    "iso:country":"US",
    "lbl:latitude":34.90289,
    "lbl:longitude":-82.40568,
    "mz:hierarchy_label":1,
    "mz:is_current":-1,
    "mz:note":"Quattroshapes Point Gazetteer import 20170519",
    "name:eng_x_preferred":[
        "Buxton"
    ],
    "qs_pg:aaroncc":"US",
    "qs_pg:gn_country":"US",
    "qs_pg:gn_fcode":"PPLX",
    "qs_pg:gn_id":4572936,
    "qs_pg:gn_pop":0,
    "qs_pg:name":"Buxton",
    "qs_pg:name_adm0":"United States",
    "qs_pg:name_adm1":"South Carolina",
    "qs_pg:photos":1,
    "qs_pg:photos_1k":1,
    "qs_pg:photos_9k":1,
    "qs_pg:photos_9r":1,
    "qs_pg:photos_all":1,
    "qs_pg:photos_sr":1,
    "qs_pg:pop_sr":0,
    "qs_pg:qs_id":1015622,
    "qs_pg:qs_pg_placetype":"neighbourhood",
    "qs_pg:qs_pg_placetype_gp":"Suburb",
    "qs_pg:woe_adm0":23424977,
    "qs_pg:woe_id":2372721,
    "src:geom":"qs_pg",
    "src:lbl:centroid":"qs_pg",
    "src:population":"zetashapes",
    "woe:adm0_id":23424977,
    "woe:name_adm0":"United States",
    "woe:name_adm1":"South Carolina",
    "woe:placetype":"Suburb",
    "wof:belongsto":[
        85688683,
        102191575,
        85633793,
        102085747
    ],
    "wof:breaches":[],
    "wof:concordances":{
        "gn:id":4572936,
        "gp:id":2372721,
        "qs_pg:id":1015622
    },
    "wof:country":"US",
    "wof:created":1497311653,
    "wof:geomhash":"841f9069ec0cd183bcbb02e8cbc7633f",
    "wof:hierarchy":[
        {
            "continent_id":102191575,
            "country_id":85633793,
            "county_id":102085747,
            "locality_id":-1,
            "neighbourhood_id":1126079129,
            "region_id":85688683
        }
    ],
    "wof:id":1126079129,
    "wof:lastmodified":1534379606,
    "wof:name":"Buxton",
    "wof:parent_id":-1,
    "wof:placetype":"neighbourhood",
    "wof:population":683,
    "wof:population_rank":2,
    "wof:repo":"whosonfirst-data-admin-us",
    "wof:superseded_by":[],
    "wof:supersedes":[
        420540851
    ],
    "wof:tags":[]
},
  "bbox": [
    -82.40568,
    34.90289,
    -82.40568,
    34.90289
],
  "geometry": {"coordinates":[-82.40568,34.90289],"type":"Point"}
}