{
  "id": 1343378327,
  "type": "Feature",
  "properties": {
    "edtf:cessation":"uuuu",
    "edtf:inception":"uuuu",
    "geom:area":0.0,
    "geom:area_square_m":0.0,
    "geom:bbox":"-75.56159,39.03122,-75.56159,39.03122",
    "geom:latitude":39.03122,
    "geom:longitude":-75.56159,
    "gn:admin1_code":"DE",
    "gn:admin2_code":"1.0",
    "gn:asciiname":"Plymouth",
    "gn:country_code":"US",
    "gn:dem":18,
    "gn:elevation":"18.0",
    "gn:feature_class":"P",
    "gn:feature_code":"PPL",
    "gn:geonameid":4144142,
    "gn:latitude":39.03122,
    "gn:longitude":-75.56159,
    "gn:modification_date":"2006-01-15",
    "gn:name":"Plymouth",
    "gn:population":0,
    "gn:timezone":"America/New_York",
    "iso:country":"US",
    "mz:hierarchy_label":1,
    "mz:is_current":-1,
    "src:geom":"geonames",
    "wof:belongsto":[
        102191575,
        85633793,
        85688611,
        102083871
    ],
    "wof:breaches":[],
    "wof:concordances":{
        "gn:id":4144142
    },
    "wof:country":"US",
    "wof:geomhash":"147e81d159280257e70a756827b29da7",
    "wof:hierarchy":[
        {
            "continent_id":102191575,
            "country_id":85633793,
            "county_id":102083871,
            "locality_id":1343378327,
            "region_id":85688611
        }
    ],
    "wof:id":1343378327,
    "wof:lastmodified":1536863364,
    "wof:name":"Plymouth",
    "wof:parent_id":102083871,
    "wof:placetype":"locality",
    "wof:repo":"whosonfirst-data-admin-us",
    "wof:superseded_by":[],
    "wof:supersedes":[],
    "wof:tags":[]
},
  "bbox": [
    -75.56159,
    39.03122000000001,
    -75.56159,
    39.03122000000001
],
  "geometry": {"coordinates":[-75.56159,39.03122000000001],"type":"Point"}
}