{
  "id": 1226059213,
  "type": "Feature",
  "properties": {
    "edtf:cessation":"uuuu",
    "edtf:inception":"uuuu",
    "geom:area":0.0,
    "geom:area_square_m":0.0,
    "geom:bbox":"-80.7351,38.30455,-80.7351,38.30455",
    "geom:latitude":38.30455,
    "geom:longitude":-80.7351,
    "gn:admin1_code":"WV",
    "gn:admin2_code":"67.0",
    "gn:asciiname":"Nile",
    "gn:country_code":"US",
    "gn:dem":658,
    "gn:elevation":"659.0",
    "gn:feature_class":"P",
    "gn:feature_code":"PPL",
    "gn:geonameid":4816657,
    "gn:latitude":38.30455,
    "gn:longitude":-80.7351,
    "gn:modification_date":"2006-01-15",
    "gn:name":"Nile",
    "gn:population":0,
    "gn:timezone":"America/New_York",
    "iso:country":"US",
    "mz:hierarchy_label":1,
    "mz:is_current":-1,
    "src:geom":"geonames",
    "wof:belongsto":[
        102191575,
        85633793,
        85688589,
        102082623
    ],
    "wof:breaches":[],
    "wof:concordances":{
        "gn:id":4816657
    },
    "wof:country":"US",
    "wof:geomhash":"bf101fa06ffd801a7857e13ee27d3f9a",
    "wof:hierarchy":[
        {
            "continent_id":102191575,
            "country_id":85633793,
            "county_id":102082623,
            "locality_id":1226059213,
            "region_id":85688589
        }
    ],
    "wof:id":1226059213,
    "wof:lastmodified":1536706020,
    "wof:name":"Nile",
    "wof:parent_id":102082623,
    "wof:placetype":"locality",
    "wof:repo":"whosonfirst-data-admin-us",
    "wof:superseded_by":[],
    "wof:supersedes":[],
    "wof:tags":[]
},
  "bbox": [
    -80.7351,
    38.30455,
    -80.7351,
    38.30455
],
  "geometry": {"coordinates":[-80.7351,38.30455],"type":"Point"}
}