{
  "id": 1125272397,
  "type": "Feature",
  "properties": {
    "edtf:cessation":"uuuu",
    "edtf:deprecated":"2017-11-04",
    "edtf:inception":"uuuu",
    "geom:area":0.0,
    "geom:area_square_m":0.0,
    "geom:bbox":"-95.9469,30.77919,-95.9469,30.77919",
    "geom:latitude":30.77919,
    "geom:longitude":-95.9469,
    "gn:gn_country":"US",
    "gn:gn_fcode":"ADMD",
    "gn:gn_pop":443,
    "gn:population":443,
    "iso:country":"US",
    "lbl:latitude":30.77919,
    "lbl:longitude":-95.9469,
    "mz:hierarchy_label":1,
    "mz:is_current":0,
    "mz:note":"Quattroshapes Point Gazetteer import 20170519",
    "qs_pg:aaroncc":"US",
    "qs_pg:gn_country":"US",
    "qs_pg:gn_fcode":"ADMD",
    "qs_pg:gn_id":7172999,
    "qs_pg:gn_pop":443,
    "qs_pg:name":"City of Bedias",
    "qs_pg:photos_9r":0,
    "qs_pg:photos_sr":0,
    "qs_pg:pop_sr":2,
    "qs_pg:qs_id":665560,
    "qs_pg:qs_pg_placetype":"localadmin",
    "src:geom":"qs_pg",
    "src:lbl:centroid":"qs_pg",
    "src:population":"geonames",
    "wof:belongsto":[
        85633793
    ],
    "wof:breaches":[],
    "wof:concordances":{
        "gn:id":7172999,
        "qs_pg:id":665560
    },
    "wof:country":"US",
    "wof:created":1497042178,
    "wof:geomhash":"fd84f30c554432649a6c95bf63edb884",
    "wof:hierarchy":[
        {
            "country_id":85633793,
            "localadmin_id":1125272397
        }
    ],
    "wof:id":1125272397,
    "wof:lastmodified":1509752404,
    "wof:name":"City of Bedias",
    "wof:parent_id":-1,
    "wof:placetype":"localadmin",
    "wof:population":443,
    "wof:population_rank":2,
    "wof:repo":"whosonfirst-data-admin-us",
    "wof:superseded_by":[
        101725315
    ],
    "wof:supersedes":[],
    "wof:tags":[]
},
  "bbox": [
    -95.9469,
    30.77919,
    -95.9469,
    30.77919
],
  "geometry": {"coordinates":[-95.9469,30.77919],"type":"Point"}
}