{
  "id": 1209023349,
  "type": "Feature",
  "properties": {
    "edtf:cessation":"uuuu",
    "edtf:inception":"uuuu",
    "geom:area":0.0,
    "geom:area_square_m":0.0,
    "geom:bbox":"-80.64119,34.26821,-80.64119,34.26821",
    "geom:latitude":34.26821,
    "geom:longitude":-80.64119,
    "gn:admin1_code":"SC",
    "gn:admin2_code":"55.0",
    "gn:asciiname":"Windsor Heights",
    "gn:country_code":"US",
    "gn:dem":88,
    "gn:elevation":"79.0",
    "gn:feature_class":"P",
    "gn:feature_code":"PPL",
    "gn:geonameid":4601302,
    "gn:latitude":34.26821,
    "gn:longitude":-80.64119,
    "gn:modification_date":"2006-01-15",
    "gn:name":"Windsor Heights",
    "gn:population":0,
    "gn:timezone":"America/New_York",
    "iso:country":"US",
    "mz:hierarchy_label":1,
    "mz:is_current":-1,
    "src:geom":"geonames",
    "wof:belongsto":[
        85633793
    ],
    "wof:breaches":[],
    "wof:concordances":{
        "gn:id":4601302
    },
    "wof:country":"US",
    "wof:geomhash":"46510847e1843e4209f775b993987d5b",
    "wof:hierarchy":[
        {
            "country_id":85633793,
            "locality_id":1209023349
        }
    ],
    "wof:id":1209023349,
    "wof:lastmodified":1536300078,
    "wof:name":"Windsor Heights",
    "wof:parent_id":85633793,
    "wof:placetype":"locality",
    "wof:repo":"whosonfirst-data-admin-us",
    "wof:superseded_by":[],
    "wof:supersedes":[],
    "wof:tags":[]
},
  "bbox": [
    -80.64119000000002,
    34.26821,
    -80.64119000000002,
    34.26821
],
  "geometry": {"coordinates":[-80.64119000000002,34.26821],"type":"Point"}
}