{
  "id": 1126081885,
  "type": "Feature",
  "properties": {
    "edtf:cessation":"uuuu",
    "edtf:deprecated":"2018-08-15",
    "edtf:inception":"uuuu",
    "edtf:superseded":"2018-08-15",
    "geom:area":0.0,
    "geom:area_square_m":0.0,
    "geom:bbox":"-72.01813,41.70954,-72.01813,41.70954",
    "geom:latitude":41.70954,
    "geom:longitude":-72.01813,
    "gn:gn_country":"US",
    "gn:gn_fcode":"PPL",
    "gn:gn_pop":0,
    "iso:country":"US",
    "lbl:latitude":41.70954,
    "lbl:longitude":-72.01813,
    "mz:hierarchy_label":1,
    "mz:is_current":0,
    "mz:note":"Quattroshapes Point Gazetteer import 20170519",
    "name:eng_x_preferred":[
        "Westminster"
    ],
    "name:unk_x_variant":[
        "West Row"
    ],
    "qs_pg:aaroncc":"US",
    "qs_pg:gn_country":"US",
    "qs_pg:gn_fcode":"PPL",
    "qs_pg:gn_id":4845571,
    "qs_pg:gn_pop":0,
    "qs_pg:name":"Westminster",
    "qs_pg:name_adm0":"United States",
    "qs_pg:name_adm1":"Connecticut",
    "qs_pg:photos":2,
    "qs_pg:photos_1k":1,
    "qs_pg:photos_9k":1,
    "qs_pg:photos_9r":1,
    "qs_pg:photos_all":2,
    "qs_pg:photos_sr":1,
    "qs_pg:pop_sr":0,
    "qs_pg:qs_id":1018707,
    "qs_pg:qs_pg_placetype":"neighbourhood",
    "qs_pg:qs_pg_placetype_gp":"Suburb",
    "qs_pg:woe_adm0":23424977,
    "qs_pg:woe_id":2518325,
    "src:geom":"qs_pg",
    "src:lbl:centroid":"qs_pg",
    "woe:adm0_id":23424977,
    "woe:name_adm0":"United States",
    "woe:name_adm1":"Connecticut",
    "woe:placetype":"Suburb",
    "wof:belongsto":[
        102191575,
        404495915,
        85633793,
        102085377,
        85688629
    ],
    "wof:breaches":[],
    "wof:concordances":{
        "gn:id":4845571,
        "gp:id":2518325,
        "qs_pg:id":1018707
    },
    "wof:country":"US",
    "wof:created":1497312050,
    "wof:geomhash":"548e4ec5e4770dbd7ca7cdbd54e50d67",
    "wof:hierarchy":[
        {
            "continent_id":102191575,
            "country_id":85633793,
            "county_id":102085377,
            "localadmin_id":404495915,
            "locality_id":-1,
            "neighbourhood_id":1126081885,
            "region_id":85688629
        }
    ],
    "wof:id":1126081885,
    "wof:lastmodified":1534379743,
    "wof:name":"Westminster",
    "wof:parent_id":-1,
    "wof:placetype":"neighbourhood",
    "wof:repo":"whosonfirst-data-admin-us",
    "wof:superseded_by":[
        420555725
    ],
    "wof:supersedes":[],
    "wof:tags":[]
},
  "bbox": [
    -72.01813,
    41.70954,
    -72.01813,
    41.70954
],
  "geometry": {"coordinates":[-72.01813,41.70954],"type":"Point"}
}