{
  "id": 1293123337,
  "type": "Feature",
  "properties": {
    "edtf:cessation":"2018-09-06",
    "edtf:inception":"uuuu",
    "geom:area":0.0,
    "geom:area_square_m":0.0,
    "geom:bbox":"-106.37558,35.10755,-106.37558,35.10755",
    "geom:latitude":35.10755,
    "geom:longitude":-106.37558,
    "gn:admin1_code":"NM",
    "gn:admin2_code":"1.0",
    "gn:asciiname":"Kemp (historical)",
    "gn:country_code":"US",
    "gn:dem":2027,
    "gn:elevation":"2025.0",
    "gn:feature_class":"P",
    "gn:feature_code":"PPLQ",
    "gn:geonameid":5474300,
    "gn:latitude":35.10755,
    "gn:longitude":-106.37558,
    "gn:modification_date":"2011-12-11",
    "gn:name":"Kemp (historical)",
    "gn:population":0,
    "gn:timezone":"America/Denver",
    "iso:country":"US",
    "mz:hierarchy_label":1,
    "mz:is_current":0,
    "src:geom":"geonames",
    "wof:belongsto":[
        102191575,
        85633793,
        85688493,
        102081199
    ],
    "wof:breaches":[],
    "wof:concordances":{
        "gn:id":5474300
    },
    "wof:country":"US",
    "wof:geomhash":"6a4b9e244c150abcb4759013aaa11ab6",
    "wof:hierarchy":[
        {
            "continent_id":102191575,
            "country_id":85633793,
            "county_id":102081199,
            "locality_id":1293123337,
            "region_id":85688493
        }
    ],
    "wof:id":1293123337,
    "wof:lastmodified":1536814403,
    "wof:name":"Kemp (historical)",
    "wof:parent_id":102081199,
    "wof:placetype":"locality",
    "wof:repo":"whosonfirst-data-admin-us",
    "wof:superseded_by":[],
    "wof:supersedes":[],
    "wof:tags":[]
},
  "bbox": [
    -106.37558,
    35.10755,
    -106.37558,
    35.10755
],
  "geometry": {"coordinates":[-106.37558,35.10755],"type":"Point"}
}