{
  "id": 1125987675,
  "type": "Feature",
  "properties": {
    "edtf:cessation":"uuuu",
    "edtf:inception":"uuuu",
    "geom:area":0.0,
    "geom:area_square_m":0.0,
    "geom:bbox":"-77.4436,39.65787,-77.4436,39.65787",
    "geom:latitude":39.65787,
    "geom:longitude":-77.4436,
    "gn:gn_country":"US",
    "gn:gn_fcode":"PPL",
    "gn:gn_pop":0,
    "iso:country":"US",
    "lbl:latitude":39.65787,
    "lbl:longitude":-77.4436,
    "mz:hierarchy_label":1,
    "mz:is_current":-1,
    "mz:note":"Quattroshapes Point Gazetteer import 20170519",
    "qs_pg:aaroncc":"US",
    "qs_pg:gn_country":"US",
    "qs_pg:gn_fcode":"PPL",
    "qs_pg:gn_id":4355132,
    "qs_pg:gn_pop":0,
    "qs_pg:name":"Flint",
    "qs_pg:name_adm0":"United States",
    "qs_pg:name_adm1":"Maryland",
    "qs_pg:photos":328,
    "qs_pg:photos_1k":66,
    "qs_pg:photos_9k":1,
    "qs_pg:photos_9r":5,
    "qs_pg:photos_all":328,
    "qs_pg:photos_sr":5,
    "qs_pg:pop_sr":0,
    "qs_pg:qs_id":238528,
    "qs_pg:qs_pg_placetype":"locality",
    "qs_pg:qs_pg_placetype_gp":"Town",
    "qs_pg:woe_adm0":23424977,
    "qs_pg:woe_id":2404358,
    "src:geom":"qs_pg",
    "src:lbl:centroid":"qs_pg",
    "woe:adm0_id":23424977,
    "woe:name_adm0":"United States",
    "woe:name_adm1":"Maryland",
    "woe:placetype":"Town",
    "wof:belongsto":[
        102191575,
        85633793,
        85688501,
        102081593
    ],
    "wof:breaches":[],
    "wof:concordances":{
        "gn:id":4355132,
        "gp:id":2404358,
        "qs_pg:id":238528
    },
    "wof:country":"US",
    "wof:created":1497298891,
    "wof:geomhash":"ee604d205270b67a64a15e2b7ec6b50c",
    "wof:hierarchy":[
        {
            "continent_id":102191575,
            "country_id":85633793,
            "county_id":102081593,
            "locality_id":1125987675,
            "region_id":85688501
        }
    ],
    "wof:id":1125987675,
    "wof:lastmodified":1509405178,
    "wof:name":"Flint",
    "wof:parent_id":102081593,
    "wof:placetype":"locality",
    "wof:repo":"whosonfirst-data-admin-us",
    "wof:superseded_by":[],
    "wof:supersedes":[],
    "wof:tags":[]
},
  "bbox": [
    -77.4436,
    39.65787,
    -77.4436,
    39.65787
],
  "geometry": {"coordinates":[-77.4436,39.65787],"type":"Point"}
}