{
  "id": 85891269,
  "type": "Feature",
  "properties": {"wof:repo":"whosonfirst-data-admin-us",
    "src:geom":"quattroshapes",
    "wof:geomhash":"63718aef1b8421b8fd31ea05ab785720",
    "wof:id":85891269
},
  "bbox": [
    -71.06585963633032,
    42.35836433974096,
    -71.05545043947501,
    42.36490169738347
],
  "geometry": {"coordinates":[[[-71.05976934444857,42.36490169738347],[-71.05957031258984,42.36463232509216],[-71.05937127948545,42.36436295012449],[-71.05942989005234,42.36412497967520],[-71.05930493358557,42.36361762940851],[-71.05846240079279,42.36361763019863],[-71.05819702150004,42.36361763180001],[-71.05819702150004,42.36311027820213],[-71.05764306677216,42.36311027820213],[-71.05751037600001,42.36328985953885],[-71.05716705322482,42.36313497688363],[-71.05692324829178,42.36324496424568],[-71.05682373052923,42.36311027874240],[-71.05672421240712,42.36297559251507],[-71.05675351989547,42.36285660052512],[-71.05669103958112,42.36260292170007],[-71.05545043949996,42.36260292170007],[-71.05545043966978,42.36158819507459],[-71.05600439169200,42.36158819520008],[-71.05606687514677,42.36133451082533],[-71.05603756490285,42.36121550999313],[-71.05613708493345,42.36108082577388],[-71.05623081123298,42.36095398225038],[-71.05613708498524,42.36082713946894],[-71.05613708498419,42.36057345222839],[-71.05579376221539,42.36057345222839],[-71.05579376221539,42.36031976394388],[-71.05545043948433,42.36031976394388],[-71.05545043948337,42.36006607463352],[-71.05545043948337,42.35981238431694],[-71.05545043948433,42.35955869310003],[-71.05545043947501,42.35937911453911],[-71.05579376222479,42.35953398784645],[-71.05613708499376,42.35937911456718],[-71.05613708499999,42.35923088470226],[-71.05613708499999,42.35905130740008],[-71.05648040771496,42.35905130740008],[-71.05648040771550,42.35879761275967],[-71.05682373048438,42.35879761275967],[-71.05682373049041,42.35854391750003],[-71.05682373048347,42.35836433974096],[-71.05716705322482,42.35851921054595],[-71.05751037598731,42.35836433976938],[-71.05785369872493,42.35851921054595],[-71.05819702148733,42.35836433976930],[-71.05854034422487,42.35851921054595],[-71.05888366699986,42.35836433977498],[-71.05901636414993,42.35854391707308],[-71.05957031250006,42.35854391681693],[-71.06012426041718,42.35854391690238],[-71.06025695799988,42.35854391750003],[-71.06025695799980,42.35872349438361],[-71.06025695799980,42.35887172924630],[-71.06038965446047,42.35905130678776],[-71.06094360349999,42.35905130677639],[-71.06108402090445,42.35905130635042],[-71.06120899490458,42.35955869151435],[-71.06231689449993,42.35955869038362],[-71.06369018551391,42.35955869083632],[-71.06506347659990,42.35955869068418],[-71.06534431238956,42.35955868902542],[-71.06546156295792,42.36003471294916],[-71.06585963633032,42.36057344756705],[-71.06563469351687,42.36108082484999],[-71.06547894318550,42.36213477805605],[-71.06453979949805,42.36171111294878],[-71.06403350829993,42.36184815158681],[-71.06369018552510,42.36212693479374],[-71.06349114590671,42.36185756290804],[-71.06300353999995,42.36163759488656],[-71.06231689449993,42.36194735334109],[-71.06231689449993,42.36224375864717],[-71.06231689449993,42.36260292170007],[-71.06205151255622,42.36260291930856],[-71.06094360349999,42.36260291913767],[-71.06094360349999,42.36325846704253],[-71.06120898241403,42.36361762770026],[-71.06108402594771,42.36412497967520],[-71.06114263651443,42.36436295012449],[-71.06094360335700,42.36463232488211],[-71.06076197523424,42.36487814297048],[-71.06073151885727,42.36489580878711],[-71.06025695799980,42.36468171526180],[-71.05976934444857,42.36490169738347]]],"type":"Polygon"}
}