{
  "id": 1225860861,
  "type": "Feature",
  "properties": {
    "edtf:cessation":"uuuu",
    "edtf:inception":"uuuu",
    "geom:area":0.0,
    "geom:area_square_m":0.0,
    "geom:bbox":"-121.67663,40.51765,-121.67663,40.51765",
    "geom:latitude":40.51765,
    "geom:longitude":-121.67663,
    "gn:admin1_code":"CA",
    "gn:admin2_code":"89.0",
    "gn:asciiname":"Viola",
    "gn:country_code":"US",
    "gn:dem":1376,
    "gn:elevation":"1353.0",
    "gn:feature_class":"P",
    "gn:feature_code":"PPL",
    "gn:geonameid":5573275,
    "gn:latitude":40.51765,
    "gn:longitude":-121.67663,
    "gn:modification_date":"2015-01-17",
    "gn:name":"Viola",
    "gn:population":0,
    "gn:timezone":"America/Los_Angeles",
    "iso:country":"US",
    "mz:hierarchy_label":1,
    "mz:is_current":-1,
    "name:eng_x_preferred":[
        "Viola"
    ],
    "name:und_x_variant":[
        "Loomis"
    ],
    "src:geom":"geonames",
    "wof:belongsto":[
        102191575,
        85633793,
        85688637,
        102083577
    ],
    "wof:breaches":[],
    "wof:concordances":{
        "gn:id":5573275
    },
    "wof:country":"US",
    "wof:geomhash":"baa22aa5ce252866c0f281c64ae0caf8",
    "wof:hierarchy":[
        {
            "continent_id":102191575,
            "country_id":85633793,
            "county_id":102083577,
            "locality_id":1225860861,
            "region_id":85688637
        }
    ],
    "wof:id":1225860861,
    "wof:lastmodified":1537713071,
    "wof:name":"Viola",
    "wof:parent_id":102083577,
    "wof:placetype":"locality",
    "wof:repo":"whosonfirst-data-admin-us",
    "wof:superseded_by":[],
    "wof:supersedes":[],
    "wof:tags":[]
},
  "bbox": [
    -121.67663,
    40.51765,
    -121.67663,
    40.51765
],
  "geometry": {"coordinates":[-121.67663,40.51765],"type":"Point"}
}