{
  "id": 1209340261,
  "type": "Feature",
  "properties": {
    "edtf:cessation":"uuuu",
    "edtf:inception":"uuuu",
    "geom:area":0.0,
    "geom:area_square_m":0.0,
    "geom:bbox":"-88.74229,41.09837,-88.74229,41.09837",
    "geom:latitude":41.09837,
    "geom:longitude":-88.74229,
    "gn:admin1_code":"IL",
    "gn:admin2_code":"105.0",
    "gn:admin3_code":"52883.0",
    "gn:asciiname":"Missal",
    "gn:country_code":"US",
    "gn:dem":208,
    "gn:elevation":"202.0",
    "gn:feature_class":"P",
    "gn:feature_code":"PPL",
    "gn:geonameid":4902412,
    "gn:latitude":41.09837,
    "gn:longitude":-88.74229,
    "gn:modification_date":"2017-05-23",
    "gn:name":"Missal",
    "gn:population":0,
    "gn:timezone":"America/Chicago",
    "iso:country":"US",
    "mz:hierarchy_label":1,
    "mz:is_current":-1,
    "name:eng_x_preferred":[
        "Missal"
    ],
    "name:und_x_variant":[
        "Missa"
    ],
    "src:geom":"geonames",
    "wof:belongsto":[
        85633793
    ],
    "wof:breaches":[],
    "wof:concordances":{
        "gn:id":4902412
    },
    "wof:country":"US",
    "wof:geomhash":"10b7814e9c90ebdda7ed30086d6a050d",
    "wof:hierarchy":[
        {
            "country_id":85633793,
            "locality_id":1209340261
        }
    ],
    "wof:id":1209340261,
    "wof:lastmodified":1537712819,
    "wof:name":"Missal",
    "wof:parent_id":85633793,
    "wof:placetype":"locality",
    "wof:repo":"whosonfirst-data-admin-us",
    "wof:superseded_by":[],
    "wof:supersedes":[],
    "wof:tags":[]
},
  "bbox": [
    -88.74229,
    41.09837,
    -88.74229,
    41.09837
],
  "geometry": {"coordinates":[-88.74229,41.09837],"type":"Point"}
}