{
  "id": 890537371,
  "type": "Feature",
  "properties": {
    "edtf:cessation":"uuuu",
    "edtf:inception":"uuuu",
    "geom:area":0.000014,
    "geom:area_square_m":115145.696788,
    "geom:bbox":"-122.333286718,47.5924452037,-122.329841918,47.5964982592",
    "geom:latitude":47.59448,
    "geom:longitude":-122.331581,
    "iso:country":"US",
    "lbl:latitude":47.594473,
    "lbl:longitude":-122.33158,
    "mps:latitude":47.594473,
    "mps:longitude":-122.33158,
    "mz:hierarchy_label":1,
    "mz:is_current":1,
    "mz:is_landuse_aoi":1,
    "mz:max_zoom":18.0,
    "mz:min_zoom":16.0,
    "reversegeo:latitude":47.594473,
    "reversegeo:longitude":-122.33158,
    "src:geom":"mz",
    "wof:belongsto":[
        85866047,
        102191575,
        890536791,
        85633793,
        101730401,
        102086191,
        85688623
    ],
    "wof:breaches":[],
    "wof:concordances":{},
    "wof:controlled":[],
    "wof:country":"US",
    "wof:geomhash":"9c69039abd8587f97fd9e61425a66c7d",
    "wof:hierarchy":[
        {
            "continent_id":102191575,
            "country_id":85633793,
            "county_id":102086191,
            "locality_id":101730401,
            "macrohood_id":890536791,
            "microhood_id":890537371,
            "neighbourhood_id":85866047,
            "region_id":85688623
        }
    ],
    "wof:id":890537371,
    "wof:lastmodified":1507246007,
    "wof:name":"CenturyLink Field",
    "wof:parent_id":85866047,
    "wof:placetype":"microhood",
    "wof:repo":"whosonfirst-data-admin-us",
    "wof:superseded_by":[],
    "wof:supersedes":[],
    "wof:tags":[]
},
  "bbox": [
    -122.33328671766526,
    47.59244520370022,
    -122.32984191803376,
    47.59649825917563
],
  "geometry": {"coordinates":[[[[-122.33328671334827,47.59649825871272],[-122.32984191803376,47.59649825917563],[-122.32991210450093,47.59244520370022],[-122.33328671766526,47.59245186050829],[-122.33328671334827,47.59649825871272]]]],"type":"MultiPolygon"}
}