{
  "id": 1125290155,
  "type": "Feature",
  "properties": {
    "edtf:cessation":"2017-05-19",
    "edtf:inception":"uuuu",
    "geom:area":0.0,
    "geom:area_square_m":0.0,
    "geom:bbox":"-89.40801,39.57902,-89.40801,39.57902",
    "geom:latitude":39.57902,
    "geom:longitude":-89.40801,
    "gn:gn_country":"US",
    "gn:gn_fcode":"ADMD",
    "gn:gn_pop":107,
    "gn:population":107,
    "iso:country":"US",
    "lbl:latitude":39.57902,
    "lbl:longitude":-89.40801,
    "mz:hierarchy_label":1,
    "mz:is_current":0,
    "mz:note":"Quattroshapes Point Gazetteer import 20170519",
    "qs_pg:aaroncc":"US",
    "qs_pg:gn_country":"US",
    "qs_pg:gn_fcode":"ADMD",
    "qs_pg:gn_id":7166025,
    "qs_pg:gn_pop":107,
    "qs_pg:name":"Village of Jeisyville",
    "qs_pg:photos_9r":0,
    "qs_pg:photos_sr":0,
    "qs_pg:pop_sr":1,
    "qs_pg:qs_id":660878,
    "qs_pg:qs_pg_placetype":"localadmin",
    "src:geom":"qs_pg",
    "src:lbl:centroid":"qs_pg",
    "src:population":"geonames",
    "wof:belongsto":[
        85633793
    ],
    "wof:breaches":[],
    "wof:concordances":{
        "gn:id":7166025,
        "qs_pg:id":660878
    },
    "wof:country":"US",
    "wof:created":1497042882,
    "wof:geomhash":"b77a4e489d03069f86ddca873536ab94",
    "wof:hierarchy":[
        {
            "country_id":85633793,
            "localadmin_id":1125290155
        }
    ],
    "wof:id":1125290155,
    "wof:lastmodified":1505187061,
    "wof:name":"Village of Jeisyville",
    "wof:parent_id":-1,
    "wof:placetype":"localadmin",
    "wof:population":107,
    "wof:population_rank":1,
    "wof:repo":"whosonfirst-data-admin-us",
    "wof:superseded_by":[],
    "wof:supersedes":[],
    "wof:tags":[]
},
  "bbox": [
    -89.40801,
    39.57902,
    -89.40801,
    39.57902
],
  "geometry": {"coordinates":[-89.40801,39.57902],"type":"Point"}
}