{
  "id": 404521507,
  "type": "Feature",
  "properties": {
    "edtf:cessation":"uuuu",
    "edtf:inception":"uuuu",
    "geom:area":0.010469,
    "geom:area_square_m":94974991.207441,
    "geom:bbox":"-77.479131,42.757529,-77.368995,42.85498",
    "geom:latitude":42.80648,
    "geom:longitude":-77.42378,
    "iso:country":"US",
    "lbl:latitude":42.806439,
    "lbl:longitude":-77.423842,
    "mz:hierarchy_label":1,
    "mz:is_current":-1,
    "name:eng_x_preferred":[
        "Bristol"
    ],
    "qs:a0":"United States",
    "qs:a1":"New York",
    "qs:a1_lc":"36",
    "qs:a2":"Ontario",
    "qs:a2_lc":"36069",
    "qs:adm0":"United States",
    "qs:adm0_a3":"USA",
    "qs:la":"Bristol",
    "qs:la_lc":"3606908378",
    "qs:level":"localadmin",
    "qs:pop":2315,
    "qs:source":"US Census",
    "qs:type":"town",
    "src:geom":"quattroshapes",
    "src:population":"quattroshapes",
    "wof:belongsto":[
        102191575,
        85633793,
        85688543,
        102082359
    ],
    "wof:breaches":[],
    "wof:concordances":{},
    "wof:country":"US",
    "wof:geomhash":"e9ae5df2b530f522459b8079745557cb",
    "wof:hierarchy":[
        {
            "continent_id":102191575,
            "country_id":85633793,
            "county_id":102082359,
            "localadmin_id":404521507,
            "region_id":85688543
        }
    ],
    "wof:id":404521507,
    "wof:lastmodified":1505339767,
    "wof:name":"Bristol",
    "wof:parent_id":102082359,
    "wof:placetype":"localadmin",
    "wof:population":2315,
    "wof:population_rank":4,
    "wof:repo":"whosonfirst-data-admin-us",
    "wof:superseded_by":[],
    "wof:supersedes":[],
    "wof:tags":[]
},
  "bbox": [
    -77.479131,
    42.757529,
    -77.368995,
    42.85498
],
  "geometry": {"coordinates":[[[-77.368995,42.759128],[-77.36899699999999,42.758271],[-77.40440599999999,42.75813],[-77.416725,42.758027],[-77.419014,42.758017],[-77.44039600000001,42.757885],[-77.444366,42.758001],[-77.47671800000001,42.757529],[-77.477373,42.78439],[-77.47766799999999,42.805816],[-77.478464,42.835972],[-77.478493,42.837651],[-77.47878799999999,42.852547],[-77.479131,42.8546],[-77.475441,42.854696],[-77.44256799999999,42.854927],[-77.438953,42.854866],[-77.437281,42.85498],[-77.38466099999999,42.854631],[-77.381739,42.854588],[-77.370053,42.854693],[-77.369716,42.83731],[-77.369893,42.819457],[-77.369856,42.815144],[-77.36952100000001,42.814116],[-77.36974600000001,42.811886],[-77.369741,42.791241],[-77.369426,42.787589],[-77.36933500000001,42.77843],[-77.36922,42.770509],[-77.368995,42.759128]]],"type":"Polygon"}
}