{
  "id": 1310328989,
  "type": "Feature",
  "properties": {
    "edtf:cessation":"2018-09-07",
    "edtf:inception":"uuuu",
    "geom:area":0.0,
    "geom:area_square_m":0.0,
    "geom:bbox":"-90.77652,40.5381,-90.77652,40.5381",
    "geom:latitude":40.5381,
    "geom:longitude":-90.77652,
    "gn:admin1_code":"IL",
    "gn:admin2_code":"109.0",
    "gn:admin3_code":"24101.0",
    "gn:asciiname":"Spring Creek Settlement (historical)",
    "gn:country_code":"US",
    "gn:dem":224,
    "gn:elevation":"224.0",
    "gn:feature_class":"P",
    "gn:feature_code":"PPLQ",
    "gn:geonameid":4912242,
    "gn:latitude":40.5381,
    "gn:longitude":-90.77652,
    "gn:modification_date":"2017-05-23",
    "gn:name":"Spring Creek Settlement (historical)",
    "gn:population":0,
    "gn:timezone":"America/Chicago",
    "iso:country":"US",
    "mz:hierarchy_label":1,
    "mz:is_current":0,
    "src:geom":"geonames",
    "wof:belongsto":[
        85688697,
        102191575,
        404497931,
        85633793,
        102080815
    ],
    "wof:breaches":[],
    "wof:concordances":{
        "gn:id":4912242
    },
    "wof:country":"US",
    "wof:geomhash":"44fadd4f311d9cc02d003e846ae9cfd5",
    "wof:hierarchy":[
        {
            "continent_id":102191575,
            "country_id":85633793,
            "county_id":102080815,
            "localadmin_id":404497931,
            "locality_id":1310328989,
            "region_id":85688697
        }
    ],
    "wof:id":1310328989,
    "wof:lastmodified":1536674125,
    "wof:name":"Spring Creek Settlement (historical)",
    "wof:parent_id":404497931,
    "wof:placetype":"locality",
    "wof:repo":"whosonfirst-data-admin-us",
    "wof:superseded_by":[],
    "wof:supersedes":[],
    "wof:tags":[]
},
  "bbox": [
    -90.77652,
    40.5381,
    -90.77652,
    40.5381
],
  "geometry": {"coordinates":[-90.77652,40.5381],"type":"Point"}
}