{
  "id": 1326849871,
  "type": "Feature",
  "properties": {
    "edtf:cessation":"uuuu",
    "edtf:inception":"uuuu",
    "geom:area":0.0,
    "geom:area_square_m":0.0,
    "geom:bbox":"-78.89919,38.21402,-78.89919,38.21402",
    "geom:latitude":38.21402,
    "geom:longitude":-78.89919,
    "gn:admin1_code":"VA",
    "gn:admin2_code":"15",
    "gn:asciiname":"Piedmont",
    "gn:country_code":"US",
    "gn:dem":371,
    "gn:elevation":"373.0",
    "gn:feature_class":"P",
    "gn:feature_code":"PPL",
    "gn:geonameid":4778783,
    "gn:latitude":38.21402,
    "gn:longitude":-78.89919,
    "gn:modification_date":"2006-01-15",
    "gn:name":"Piedmont",
    "gn:population":0,
    "gn:timezone":"America/New_York",
    "iso:country":"US",
    "mz:hierarchy_label":1,
    "mz:is_current":-1,
    "src:geom":"geonames",
    "wof:belongsto":[
        102191575,
        85633793,
        85688747,
        102086699
    ],
    "wof:breaches":[],
    "wof:concordances":{
        "gn:id":4778783
    },
    "wof:country":"US",
    "wof:geomhash":"8ebe4906f3b5fb6065a96dd4b9198651",
    "wof:hierarchy":[
        {
            "continent_id":102191575,
            "country_id":85633793,
            "county_id":102086699,
            "locality_id":1326849871,
            "region_id":85688747
        }
    ],
    "wof:id":1326849871,
    "wof:lastmodified":1537022368,
    "wof:name":"Piedmont",
    "wof:parent_id":102086699,
    "wof:placetype":"locality",
    "wof:repo":"whosonfirst-data-admin-us",
    "wof:superseded_by":[],
    "wof:supersedes":[],
    "wof:tags":[]
},
  "bbox": [
    -78.89919,
    38.21402,
    -78.89919,
    38.21402
],
  "geometry": {"coordinates":[-78.89919,38.21402],"type":"Point"}
}