{
  "id": 1293016641,
  "type": "Feature",
  "properties": {
    "edtf:cessation":"2018-09-06",
    "edtf:inception":"uuuu",
    "geom:area":0.0,
    "geom:area_square_m":0.0,
    "geom:bbox":"-90.24177,36.31423,-90.24177,36.31423",
    "geom:latitude":36.31423,
    "geom:longitude":-90.24177,
    "gn:admin1_code":"AR",
    "gn:admin2_code":"21.0",
    "gn:admin3_code":"90448.0",
    "gn:asciiname":"Hammett (historical)",
    "gn:country_code":"US",
    "gn:dem":84,
    "gn:elevation":"84.0",
    "gn:feature_class":"P",
    "gn:feature_code":"PPLQ",
    "gn:geonameid":4113645,
    "gn:latitude":36.31423,
    "gn:longitude":-90.24177,
    "gn:modification_date":"2017-05-23",
    "gn:name":"Hammett (historical)",
    "gn:population":0,
    "gn:timezone":"America/Chicago",
    "iso:country":"US",
    "mz:hierarchy_label":1,
    "mz:is_current":0,
    "name:eng_x_preferred":[
        "Hammett (historical)"
    ],
    "name:und_x_variant":[
        "Hammetts"
    ],
    "src:geom":"geonames",
    "wof:belongsto":[
        102191575,
        85633793,
        85688549,
        102082049
    ],
    "wof:breaches":[],
    "wof:concordances":{
        "gn:id":4113645
    },
    "wof:country":"US",
    "wof:geomhash":"4a1b324a42c101b8f84a4393310266e1",
    "wof:hierarchy":[
        {
            "continent_id":102191575,
            "country_id":85633793,
            "county_id":102082049,
            "locality_id":1293016641,
            "region_id":85688549
        }
    ],
    "wof:id":1293016641,
    "wof:lastmodified":1537712258,
    "wof:name":"Hammett (historical)",
    "wof:parent_id":102082049,
    "wof:placetype":"locality",
    "wof:repo":"whosonfirst-data-admin-us",
    "wof:superseded_by":[],
    "wof:supersedes":[],
    "wof:tags":[]
},
  "bbox": [
    -90.24177,
    36.31423,
    -90.24177,
    36.31423
],
  "geometry": {"coordinates":[-90.24177,36.31423],"type":"Point"}
}