{
  "id": 1126061051,
  "type": "Feature",
  "properties": {
    "edtf:cessation":"uuuu",
    "edtf:deprecated":"2018-08-15",
    "edtf:inception":"uuuu",
    "edtf:superseded":"2018-08-15",
    "geom:area":0.0,
    "geom:area_square_m":0.0,
    "geom:bbox":"-73.88901,42.76563,-73.88901,42.76563",
    "geom:latitude":42.76563,
    "geom:longitude":-73.88901,
    "gn:gn_country":"US",
    "gn:gn_fcode":"PPL",
    "gn:gn_pop":0,
    "iso:country":"US",
    "lbl:latitude":42.76563,
    "lbl:longitude":-73.88901,
    "mz:hierarchy_label":1,
    "mz:is_current":0,
    "mz:note":"Quattroshapes Point Gazetteer import 20170519",
    "qs_pg:aaroncc":"US",
    "qs_pg:gn_country":"US",
    "qs_pg:gn_fcode":"PPL",
    "qs_pg:gn_id":5139440,
    "qs_pg:gn_pop":0,
    "qs_pg:name":"Stanford Heights",
    "qs_pg:name_adm0":"United States",
    "qs_pg:name_adm1":"New York",
    "qs_pg:photos":351,
    "qs_pg:photos_1k":71,
    "qs_pg:photos_9k":2,
    "qs_pg:photos_9r":5,
    "qs_pg:photos_all":351,
    "qs_pg:photos_sr":6,
    "qs_pg:pop_sr":0,
    "qs_pg:qs_id":898334,
    "qs_pg:qs_pg_placetype":"neighbourhood",
    "qs_pg:qs_pg_placetype_gp":"Suburb",
    "qs_pg:woe_adm0":23424977,
    "qs_pg:woe_id":2498944,
    "src:geom":"qs_pg",
    "src:lbl:centroid":"qs_pg",
    "woe:adm0_id":23424977,
    "woe:name_adm0":"United States",
    "woe:name_adm1":"New York",
    "woe:placetype":"Suburb",
    "wof:belongsto":[
        102191575,
        404522385,
        85633793,
        102081765,
        85688543
    ],
    "wof:breaches":[],
    "wof:concordances":{
        "gn:id":5139440,
        "gp:id":2498944,
        "qs_pg:id":898334
    },
    "wof:country":"US",
    "wof:created":1497308126,
    "wof:geomhash":"eb83a57e5ecbf416b720289eb878372c",
    "wof:hierarchy":[
        {
            "continent_id":102191575,
            "country_id":85633793,
            "county_id":102081765,
            "localadmin_id":404522385,
            "locality_id":-1,
            "neighbourhood_id":1126061051,
            "region_id":85688543
        }
    ],
    "wof:id":1126061051,
    "wof:lastmodified":1534379525,
    "wof:name":"Stanford Heights",
    "wof:parent_id":-1,
    "wof:placetype":"neighbourhood",
    "wof:repo":"whosonfirst-data-admin-us",
    "wof:superseded_by":[
        85850897
    ],
    "wof:supersedes":[],
    "wof:tags":[]
},
  "bbox": [
    -73.88901,
    42.76563,
    -73.88901,
    42.76563
],
  "geometry": {"coordinates":[-73.88901,42.76563],"type":"Point"}
}