{
  "id": 1125333749,
  "type": "Feature",
  "properties": {
    "edtf:cessation":"2017-05-19",
    "edtf:inception":"uuuu",
    "geom:area":0.0,
    "geom:area_square_m":0.0,
    "geom:bbox":"-75.4038,39.83317,-75.4038,39.83317",
    "geom:latitude":39.83317,
    "geom:longitude":-75.4038,
    "gn:gn_country":"US",
    "gn:gn_fcode":"ADMD",
    "gn:gn_pop":1828,
    "gn:population":1828,
    "iso:country":"US",
    "lbl:latitude":39.83317,
    "lbl:longitude":-75.4038,
    "mz:hierarchy_label":1,
    "mz:is_current":0,
    "mz:note":"Quattroshapes Point Gazetteer import 20170519",
    "qs_pg:aaroncc":"US",
    "qs_pg:gn_country":"US",
    "qs_pg:gn_fcode":"ADMD",
    "qs_pg:gn_id":4561770,
    "qs_pg:gn_pop":1828,
    "qs_pg:name":"Borough of Trainer",
    "qs_pg:photos_9r":0,
    "qs_pg:photos_sr":0,
    "qs_pg:pop_sr":3,
    "qs_pg:qs_id":595111,
    "qs_pg:qs_pg_placetype":"localadmin",
    "src:geom":"qs_pg",
    "src:lbl:centroid":"qs_pg",
    "src:population":"geonames",
    "wof:belongsto":[
        85633793
    ],
    "wof:breaches":[],
    "wof:concordances":{
        "gn:id":4561770,
        "qs_pg:id":595111
    },
    "wof:country":"US",
    "wof:created":1497045280,
    "wof:geomhash":"bc34d9fd6ff2d2b66dd068f3bd15c6cc",
    "wof:hierarchy":[
        {
            "country_id":85633793,
            "localadmin_id":1125333749
        }
    ],
    "wof:id":1125333749,
    "wof:lastmodified":1505186918,
    "wof:name":"Borough of Trainer",
    "wof:parent_id":-1,
    "wof:placetype":"localadmin",
    "wof:population":1828,
    "wof:population_rank":3,
    "wof:repo":"whosonfirst-data-admin-us",
    "wof:superseded_by":[],
    "wof:supersedes":[],
    "wof:tags":[]
},
  "bbox": [
    -75.4038,
    39.83317,
    -75.4038,
    39.83317
],
  "geometry": {"coordinates":[-75.4038,39.83317],"type":"Point"}
}