{
  "id": 1125390191,
  "type": "Feature",
  "properties": {
    "edtf:cessation":"2017-05-19",
    "edtf:inception":"uuuu",
    "geom:area":0.0,
    "geom:area_square_m":0.0,
    "geom:bbox":"-71.51618,42.48343,-71.51618,42.48343",
    "geom:latitude":42.48343,
    "geom:longitude":-71.51618,
    "gn:gn_country":"US",
    "gn:gn_fcode":"ADMD",
    "gn:gn_pop":0,
    "gn:population":5206,
    "iso:country":"US",
    "lbl:latitude":42.48343,
    "lbl:longitude":-71.51618,
    "mz:hierarchy_label":1,
    "mz:is_current":0,
    "mz:note":"Quattroshapes Point Gazetteer import 20170519",
    "qs_pg:aaroncc":"US",
    "qs_pg:gn_country":"US",
    "qs_pg:gn_fcode":"ADMD",
    "qs_pg:gn_id":4931107,
    "qs_pg:gn_pop":0,
    "qs_pg:name":"Town of Boxborough",
    "qs_pg:photos_9r":0,
    "qs_pg:photos_sr":0,
    "qs_pg:pop_sr":0,
    "qs_pg:qs_id":1036295,
    "qs_pg:qs_pg_placetype":"localadmin",
    "src:geom":"qs_pg",
    "src:lbl:centroid":"qs_pg",
    "src:population":"geonames",
    "wof:belongsto":[
        85633793
    ],
    "wof:breaches":[],
    "wof:concordances":{
        "gn:id":4931107,
        "qs_pg:id":1036295
    },
    "wof:country":"US",
    "wof:created":1497048658,
    "wof:geomhash":"77b8ac7dd7082af791def8c89c9484e8",
    "wof:hierarchy":[
        {
            "country_id":85633793,
            "localadmin_id":1125390191
        }
    ],
    "wof:id":1125390191,
    "wof:lastmodified":1505186935,
    "wof:name":"Town of Boxborough",
    "wof:parent_id":-1,
    "wof:placetype":"localadmin",
    "wof:population":5206,
    "wof:population_rank":5,
    "wof:repo":"whosonfirst-data-admin-us",
    "wof:superseded_by":[],
    "wof:supersedes":[],
    "wof:tags":[]
},
  "bbox": [
    -71.51618,
    42.48343,
    -71.51618,
    42.48343
],
  "geometry": {"coordinates":[-71.51618000000001,42.48343],"type":"Point"}
}