{
  "id": 420516893,
  "type": "Feature",
  "properties": {
    "edtf:cessation":"uuuu",
    "edtf:inception":"uuuu",
    "geom:area":0.0,
    "geom:area_square_m":543861.539899,
    "geom:bbox":"-81.853065,27.873559,-81.853065,27.873559",
    "geom:latitude":27.873559,
    "geom:longitude":-81.853065,
    "iso:country":"US",
    "lbl:latitude":27.873559,
    "lbl:longitude":-81.853065,
    "mz:hierarchy_label":0,
    "mz:is_current":-1,
    "name:eng_x_preferred":[
        "Floral Lakes"
    ],
    "src:geom":"mz",
    "src:geom_alt":[
        "zetashapes"
    ],
    "src:lbl":"mapshaper",
    "src:lbl:centroid":"mapshaper",
    "src:population":"zetashapes",
    "wof:belongsto":[
        102191575,
        85633793,
        85933367,
        102085843,
        85688651
    ],
    "wof:breaches":[],
    "wof:concordances":{
        "gp:id":55975011
    },
    "wof:country":"US",
    "wof:geomhash":"3c46717c4999a2f191e832d25a6a1c86",
    "wof:hierarchy":[
        {
            "continent_id":102191575,
            "country_id":85633793,
            "county_id":102085843,
            "locality_id":85933367,
            "neighbourhood_id":420516893,
            "region_id":85688651
        }
    ],
    "wof:id":420516893,
    "wof:lastmodified":1533593245,
    "wof:name":"Floral Lakes",
    "wof:parent_id":85933367,
    "wof:placetype":"neighbourhood",
    "wof:population":477,
    "wof:population_rank":2,
    "wof:repo":"whosonfirst-data-admin-us",
    "wof:superseded_by":[],
    "wof:supersedes":[],
    "wof:tags":[],
    "zs:area_m":543823.966394,
    "zs:blockids":[
        121050151012050,
        121050151012053,
        121050151012051,
        121050151012052,
        121050151012049
    ],
    "zs:housing10":348,
    "zs:id":55975011,
    "zs:label":"Floral Lakes",
    "zs:pop10":477
},
  "bbox": [
    -81.853065,
    27.873559,
    -81.853065,
    27.873559
],
  "geometry": {"coordinates":[-81.853065,27.873559],"type":"Point"}
}