{
  "id": 1209835369,
  "type": "Feature",
  "properties": {
    "edtf:cessation":"2018-09-06",
    "edtf:inception":"uuuu",
    "geom:area":0.0,
    "geom:area_square_m":0.0,
    "geom:bbox":"-80.2776,32.93517,-80.2776,32.93517",
    "geom:latitude":32.93517,
    "geom:longitude":-80.2776,
    "gn:admin1_code":"SC",
    "gn:admin2_code":"35.0",
    "gn:asciiname":"Waringville (historical)",
    "gn:country_code":"US",
    "gn:dem":11,
    "gn:elevation":"5.0",
    "gn:feature_class":"P",
    "gn:feature_code":"PPLQ",
    "gn:geonameid":4600154,
    "gn:latitude":32.93517,
    "gn:longitude":-80.2776,
    "gn:modification_date":"2011-12-11",
    "gn:name":"Waringville (historical)",
    "gn:population":0,
    "gn:timezone":"America/New_York",
    "iso:country":"US",
    "mz:hierarchy_label":1,
    "mz:is_current":0,
    "src:geom":"geonames",
    "wof:belongsto":[
        102191575,
        85633793,
        85688683,
        102085409
    ],
    "wof:breaches":[],
    "wof:concordances":{
        "gn:id":4600154
    },
    "wof:country":"US",
    "wof:geomhash":"32c4244f1d1472e5e665cd28e3cbc6de",
    "wof:hierarchy":[
        {
            "continent_id":102191575,
            "country_id":85633793,
            "county_id":102085409,
            "locality_id":1209835369,
            "region_id":85688683
        }
    ],
    "wof:id":1209835369,
    "wof:lastmodified":1536395151,
    "wof:name":"Waringville (historical)",
    "wof:parent_id":102085409,
    "wof:placetype":"locality",
    "wof:repo":"whosonfirst-data-admin-us",
    "wof:superseded_by":[],
    "wof:supersedes":[],
    "wof:tags":[]
},
  "bbox": [
    -80.2776,
    32.93517,
    -80.2776,
    32.93517
],
  "geometry": {"coordinates":[-80.27760000000001,32.93517],"type":"Point"}
}