{
  "id": 1126000001,
  "type": "Feature",
  "properties": {
    "edtf:cessation":"uuuu",
    "edtf:inception":"uuuu",
    "geom:area":0.0,
    "geom:area_square_m":0.0,
    "geom:bbox":"-96.9323,47.81164,-96.9323,47.81164",
    "geom:latitude":47.81164,
    "geom:longitude":-96.9323,
    "gn:gn_country":"US",
    "gn:gn_fcode":"PPL",
    "gn:gn_pop":0,
    "iso:country":"US",
    "lbl:latitude":47.81164,
    "lbl:longitude":-96.9323,
    "mz:hierarchy_label":1,
    "mz:is_current":-1,
    "mz:note":"Quattroshapes Point Gazetteer import 20170519",
    "qs_pg:aaroncc":"US",
    "qs_pg:gn_country":"US",
    "qs_pg:gn_fcode":"PPL",
    "qs_pg:gn_id":5019884,
    "qs_pg:gn_pop":0,
    "qs_pg:name":"Bygland",
    "qs_pg:name_adm0":"United States",
    "qs_pg:name_adm1":"Minnesota",
    "qs_pg:photos":32,
    "qs_pg:photos_1k":6,
    "qs_pg:photos_9k":1,
    "qs_pg:photos_9r":2,
    "qs_pg:photos_all":32,
    "qs_pg:photos_sr":2,
    "qs_pg:pop_sr":0,
    "qs_pg:qs_id":39453,
    "qs_pg:qs_pg_placetype":"locality",
    "qs_pg:qs_pg_placetype_gp":"Town",
    "qs_pg:woe_adm0":23424977,
    "qs_pg:woe_id":2372772,
    "src:geom":"qs_pg",
    "src:lbl:centroid":"qs_pg",
    "woe:adm0_id":23424977,
    "woe:name_adm0":"United States",
    "woe:name_adm1":"Minnesota",
    "woe:placetype":"Town",
    "wof:belongsto":[
        85688727,
        102191575,
        404513689,
        85633793,
        102087599
    ],
    "wof:breaches":[],
    "wof:concordances":{
        "gn:id":5019884,
        "gp:id":2372772,
        "qs_pg:id":39453
    },
    "wof:country":"US",
    "wof:created":1497299589,
    "wof:geomhash":"1520188fd2900e57b3adea336b0017d4",
    "wof:hierarchy":[
        {
            "continent_id":102191575,
            "country_id":85633793,
            "county_id":102087599,
            "localadmin_id":404513689,
            "locality_id":1126000001,
            "region_id":85688727
        }
    ],
    "wof:id":1126000001,
    "wof:lastmodified":1509406055,
    "wof:name":"Bygland",
    "wof:parent_id":404513689,
    "wof:placetype":"locality",
    "wof:repo":"whosonfirst-data-admin-us",
    "wof:superseded_by":[],
    "wof:supersedes":[],
    "wof:tags":[]
},
  "bbox": [
    -96.9323,
    47.81164,
    -96.9323,
    47.81164
],
  "geometry": {"coordinates":[-96.9323,47.81164],"type":"Point"}
}