{
  "id": 1125383149,
  "type": "Feature",
  "properties": {
    "edtf:cessation":"2017-05-19",
    "edtf:inception":"uuuu",
    "geom:area":0.0,
    "geom:area_square_m":0.0,
    "geom:bbox":"-83.31259,40.58367,-83.31259,40.58367",
    "geom:latitude":40.58367,
    "geom:longitude":-83.31259,
    "gn:gn_country":"US",
    "gn:gn_fcode":"ADMD",
    "gn:gn_pop":515,
    "gn:population":515,
    "iso:country":"US",
    "lbl:latitude":40.58367,
    "lbl:longitude":-83.31259,
    "mz:hierarchy_label":1,
    "mz:is_current":0,
    "mz:note":"Quattroshapes Point Gazetteer import 20170519",
    "qs_pg:aaroncc":"US",
    "qs_pg:gn_country":"US",
    "qs_pg:gn_fcode":"ADMD",
    "qs_pg:gn_id":7167113,
    "qs_pg:gn_pop":515,
    "qs_pg:name":"Village of New Bloomington",
    "qs_pg:photos_9r":0,
    "qs_pg:photos_sr":0,
    "qs_pg:pop_sr":2,
    "qs_pg:qs_id":532509,
    "qs_pg:qs_pg_placetype":"localadmin",
    "src:geom":"qs_pg",
    "src:lbl:centroid":"qs_pg",
    "src:population":"geonames",
    "wof:belongsto":[
        85633793
    ],
    "wof:breaches":[],
    "wof:concordances":{
        "gn:id":7167113,
        "qs_pg:id":532509
    },
    "wof:country":"US",
    "wof:created":1497048187,
    "wof:geomhash":"1ace7c4bfa79cbea286893fa6ef24969",
    "wof:hierarchy":[
        {
            "country_id":85633793,
            "localadmin_id":1125383149
        }
    ],
    "wof:id":1125383149,
    "wof:lastmodified":1505187073,
    "wof:name":"Village of New Bloomington",
    "wof:parent_id":-1,
    "wof:placetype":"localadmin",
    "wof:population":515,
    "wof:population_rank":2,
    "wof:repo":"whosonfirst-data-admin-us",
    "wof:superseded_by":[],
    "wof:supersedes":[],
    "wof:tags":[]
},
  "bbox": [
    -83.31259,
    40.58367,
    -83.31259,
    40.58367
],
  "geometry": {"coordinates":[-83.31259,40.58367],"type":"Point"}
}