{
  "id": 1125348097,
  "type": "Feature",
  "properties": {
    "edtf:cessation":"uuuu",
    "edtf:deprecated":"2017-11-04",
    "edtf:inception":"uuuu",
    "geom:area":0.0,
    "geom:area_square_m":0.0,
    "geom:bbox":"-113.89979,45.17745,-113.89979,45.17745",
    "geom:latitude":45.17745,
    "geom:longitude":-113.89979,
    "gn:gn_country":"US",
    "gn:gn_fcode":"ADMD",
    "gn:gn_pop":3112,
    "gn:population":3112,
    "iso:country":"US",
    "lbl:latitude":45.17745,
    "lbl:longitude":-113.89979,
    "mz:hierarchy_label":1,
    "mz:is_current":0,
    "mz:note":"Quattroshapes Point Gazetteer import 20170519",
    "qs_pg:aaroncc":"US",
    "qs_pg:gn_country":"US",
    "qs_pg:gn_fcode":"ADMD",
    "qs_pg:gn_id":7174364,
    "qs_pg:gn_pop":3112,
    "qs_pg:name":"City of Salmon",
    "qs_pg:photos_9r":0,
    "qs_pg:photos_sr":0,
    "qs_pg:pop_sr":4,
    "qs_pg:qs_id":666934,
    "qs_pg:qs_pg_placetype":"localadmin",
    "src:geom":"qs_pg",
    "src:lbl:centroid":"qs_pg",
    "src:population":"geonames",
    "wof:belongsto":[
        85633793
    ],
    "wof:breaches":[],
    "wof:concordances":{
        "gn:id":7174364,
        "qs_pg:id":666934
    },
    "wof:country":"US",
    "wof:created":1497046038,
    "wof:geomhash":"08d53ac4deaffe791e77738429df2809",
    "wof:hierarchy":[
        {
            "country_id":85633793,
            "localadmin_id":1125348097
        }
    ],
    "wof:id":1125348097,
    "wof:lastmodified":1509752605,
    "wof:name":"City of Salmon",
    "wof:parent_id":-1,
    "wof:placetype":"localadmin",
    "wof:population":3112,
    "wof:population_rank":4,
    "wof:repo":"whosonfirst-data-admin-us",
    "wof:superseded_by":[
        85938133
    ],
    "wof:supersedes":[],
    "wof:tags":[]
},
  "bbox": [
    -113.89979,
    45.17745,
    -113.89979,
    45.17745
],
  "geometry": {"coordinates":[-113.89979,45.17745],"type":"Point"}
}