{
  "id": 85872567,
  "type": "Feature",
  "properties": {"wof:repo":"whosonfirst-data-admin-us",
    "src:geom":"quattroshapes",
    "wof:geomhash":"0f2481ae8e2e75f7fd271a402a06774e",
    "wof:id":85872567
},
  "bbox": [
    -93.31237792969986,
    44.932604336287326,
    -93.29589843749977,
    44.95119307770865
],
  "geometry": {"coordinates":[[[-93.30375171933474,44.94979532200342],[-93.30307631387660,44.94947721177762],[-93.30207824709981,44.94975926155458],[-93.30207824709981,44.94924926660003],[-93.30207824709981,44.94894532283648],[-93.30194942411396,44.94876330238772],[-93.30139160160007,44.94876330234401],[-93.30139160159510,44.94827733520007],[-93.30001831050004,44.94827733520007],[-93.30001831051666,44.94791329423300],[-93.30001831051550,44.94730538482200],[-93.29903149343829,44.94730538568142],[-93.29864501950001,44.94730538740005],[-93.29864501950001,44.94675933143772],[-93.29835516203096,44.94634979017628],[-93.29835902439925,44.94633341900023],[-93.29812971088211,44.94536142592513],[-93.29864501951448,44.94463336958769],[-93.29864501951661,44.94341742327499],[-93.29864501951661,44.94147334657528],[-93.29864501951903,44.93952920602389],[-93.29589843749977,44.93952920268966],[-93.29589843749986,44.93758499567510],[-93.29589843749977,44.93564072343339],[-93.29812965496194,44.93564072574860],[-93.29864501951448,44.93491269787417],[-93.29864501951903,44.93369638342396],[-93.30139160158365,44.93369638228647],[-93.30216468136791,44.93260433628733],[-93.30413818359978,44.93353356371752],[-93.30611168583181,44.93260433628733],[-93.30688476560942,44.93369638384236],[-93.30963134768152,44.93369638091350],[-93.31237792969978,44.93369638329322],[-93.31237792969986,44.93564072147505],[-93.31237792969986,44.93758500390005],[-93.31237792969986,44.93904104681083],[-93.31237792969986,44.94001722966753],[-93.31237792969986,44.94147335480007],[-93.31237792969986,44.94341742327499],[-93.31237792969986,44.94536143416265],[-93.31237792969986,44.94730537917498],[-93.31237792969986,44.94924925709581],[-93.31014663054012,44.94924926056852],[-93.30991735053857,44.95022117740042],[-93.30963134769999,44.95022117855915],[-93.30825805661655,44.95022117876705],[-93.30688476559993,44.95022117893787],[-93.30688476559993,44.95119307770865],[-93.30551147460000,44.95119307742222],[-93.30551147460000,44.95022117893787],[-93.30413818359995,44.95022117854892],[-93.30385218073786,44.95022117740042],[-93.30375171933474,44.94979532200342]]],"type":"Polygon"}
}