{
  "id": 85867809,
  "type": "Feature",
  "properties": {"wof:repo":"whosonfirst-data-admin-us",
    "src:geom":"quattroshapes",
    "wof:geomhash":"73aef804144bdf443f32ff19b06796a3",
    "wof:id":85867809
},
  "bbox": [
    -87.69012451169999,
    41.9584580294181,
    -87.67913818359992,
    41.96765920370005
],
  "geometry": {"coordinates":[[[-87.68600463870007,41.96765920370005],[-87.68573807928908,41.96765920096695],[-87.68463134768530,41.96765920130854],[-87.68423150526479,41.96712143176337],[-87.68435129281693,41.96663811880030],[-87.68409821731967,41.96561702058143],[-87.68241789265821,41.96561702150052],[-87.68188476559999,41.96561702570010],[-87.68188476561446,41.96490000590616],[-87.68188476561897,41.96357477597167],[-87.67967132634419,41.96357477623572],[-87.67913818359992,41.96357478220010],[-87.67913818359992,41.96153247330005],[-87.67913818396576,41.95949009811872],[-87.68148488646645,41.95949009890006],[-87.68159879570049,41.95923479725010],[-87.68188476559999,41.95923479735021],[-87.68222808838539,41.95923479735428],[-87.68238461400273,41.95902430602787],[-87.68255122624345,41.95897949510001],[-87.68257141109990,41.95897406631433],[-87.68257645636510,41.95897270937310],[-87.68288446722431,41.95855850677341],[-87.68321768581453,41.95846888720006],[-87.68325805662496,41.95845802941810],[-87.68327150847989,41.95846888480872],[-87.68463134770005,41.95846888476929],[-87.68491138631049,41.95846888310049],[-87.68516451516808,41.95949009251743],[-87.68737792969992,41.95949009267162],[-87.68737792969992,41.96153245965444],[-87.68959135180251,41.96153245692524],[-87.68959136320137,41.96153247185144],[-87.69012451169999,41.96153247330005],[-87.69012451169979,41.96224946679691],[-87.69012451169971,41.96285776902842],[-87.69012451169999,41.96357478220010],[-87.68875122069977,41.96357478220010],[-87.68875122069977,41.96459590955344],[-87.68764449773280,41.96459591091164],[-87.68747527380026,41.96527867834472],[-87.68747789245907,41.96530333075283],[-87.68743445609113,41.96536174857523],[-87.68737792969992,41.96548845332708],[-87.68737792969992,41.96561702570010],[-87.68737792969992,41.96594832218518],[-87.68751121186887,41.96612757530029],[-87.68744794327210,41.96638284985023],[-87.68737792969992,41.96638284992032],[-87.68703460691557,41.96638284994394],[-87.68703460691498,41.96663812290005],[-87.68703460692501,41.96666346152946],[-87.68669128419981,41.96681737662426],[-87.68669128419981,41.96714866471679],[-87.68650148509192,41.96740393245031],[-87.68600463870007,41.96740393245031],[-87.68600463870007,41.96765920370005]]],"type":"Polygon"}
}