{
  "id": 85820755,
  "type": "Feature",
  "properties": {"wof:repo":"whosonfirst-data-admin-us",
    "src:geom":"zetashapes",
    "wof:geomhash":"9870899f201a82a21dbb8adad4e62985",
    "wof:id":85820755
},
  "bbox": [
    -96.739812,
    43.551186,
    -96.732806,
    43.556414
],
  "geometry": {"coordinates":[[[-96.732806,43.551199],[-96.734258,43.551211],[-96.73575,43.5512],[-96.737081,43.551206],[-96.738286,43.551186],[-96.739181,43.551195],[-96.739812,43.551186],[-96.73978700000001,43.552503],[-96.73831300000001,43.552497],[-96.73834100000001,43.553825],[-96.738502,43.553827],[-96.738516,43.555102],[-96.737095,43.555109],[-96.73710199999999,43.556414],[-96.735777,43.556406],[-96.735766,43.55511],[-96.735744,43.553826],[-96.734313,43.553825],[-96.734274,43.552504],[-96.73280800000001,43.552514],[-96.732806,43.551199]]],"type":"Polygon"}
}