{
  "id": 420543375,
  "type": "Feature",
  "properties": {
    "edtf:cessation":"uuuu",
    "edtf:inception":"uuuu",
    "geom:area":0.0,
    "geom:area_square_m":96930.361694,
    "geom:bbox":"-95.28203,29.736394,-95.28203,29.736394",
    "geom:latitude":29.736394,
    "geom:longitude":-95.28203,
    "iso:country":"US",
    "lbl:latitude":29.736394,
    "lbl:longitude":-95.28203,
    "mz:hierarchy_label":0,
    "mz:is_current":1,
    "name:eng_x_preferred":[
        "Magnolia Park"
    ],
    "src:geom":"mz",
    "src:geom_alt":[
        "zetashapes"
    ],
    "src:lbl":"mapshaper",
    "src:lbl:centroid":"mapshaper",
    "wd:wordcount":67,
    "wof:belongsto":[
        102191575,
        85633793,
        101725629,
        102081111,
        85688753
    ],
    "wof:breaches":[],
    "wof:concordances":{
        "gp:id":2444206,
        "wd:id":"Q17077796"
    },
    "wof:country":"US",
    "wof:geomhash":"ddfb1a5dcf377ba4a3f440d84cc5aa76",
    "wof:hierarchy":[
        {
            "continent_id":102191575,
            "country_id":85633793,
            "county_id":102081111,
            "locality_id":101725629,
            "neighbourhood_id":420543375,
            "region_id":85688753
        }
    ],
    "wof:id":420543375,
    "wof:lastmodified":1533601351,
    "wof:name":"Magnolia Park",
    "wof:parent_id":101725629,
    "wof:placetype":"neighbourhood",
    "wof:repo":"whosonfirst-data-admin-us",
    "wof:superseded_by":[],
    "wof:supersedes":[],
    "wof:tags":[],
    "zs:area_m":96924.523612,
    "zs:blockids":[
        482013111001016,
        482013111001020
    ],
    "zs:housing10":0,
    "zs:id":2444206,
    "zs:label":"Magnolia Park",
    "zs:pop10":0
},
  "bbox": [
    -95.28203,
    29.736394,
    -95.28203,
    29.736394
],
  "geometry": {"coordinates":[-95.28203000000001,29.736394],"type":"Point"}
}