{
  "id": 1343799025,
  "type": "Feature",
  "properties": {
    "edtf:cessation":"2018-09-06",
    "edtf:inception":"uuuu",
    "geom:area":0.0,
    "geom:area_square_m":0.0,
    "geom:bbox":"-122.87888,38.45047,-122.87888,38.45047",
    "geom:latitude":38.45047,
    "geom:longitude":-122.87888,
    "gn:admin1_code":"CA",
    "gn:admin2_code":"97.0",
    "gn:asciiname":"Williams (historical)",
    "gn:country_code":"US",
    "gn:dem":31,
    "gn:elevation":"33.0",
    "gn:feature_class":"P",
    "gn:feature_code":"PPLQ",
    "gn:geonameid":5409418,
    "gn:latitude":38.45047,
    "gn:longitude":-122.87888,
    "gn:modification_date":"2011-12-12",
    "gn:name":"Williams (historical)",
    "gn:population":0,
    "gn:timezone":"America/Los_Angeles",
    "iso:country":"US",
    "mz:hierarchy_label":1,
    "mz:is_current":0,
    "src:geom":"geonames",
    "wof:belongsto":[
        102191575,
        85633793,
        85688637,
        102081671
    ],
    "wof:breaches":[],
    "wof:concordances":{
        "gn:id":5409418
    },
    "wof:country":"US",
    "wof:geomhash":"c3cbb5dcfaabaf542ff3a7dddd9c8e5b",
    "wof:hierarchy":[
        {
            "continent_id":102191575,
            "country_id":85633793,
            "county_id":102081671,
            "locality_id":1343799025,
            "region_id":85688637
        }
    ],
    "wof:id":1343799025,
    "wof:lastmodified":1536755293,
    "wof:name":"Williams (historical)",
    "wof:parent_id":102081671,
    "wof:placetype":"locality",
    "wof:repo":"whosonfirst-data-admin-us",
    "wof:superseded_by":[],
    "wof:supersedes":[],
    "wof:tags":[]
},
  "bbox": [
    -122.87888,
    38.45047,
    -122.87888,
    38.45047
],
  "geometry": {"coordinates":[-122.87888,38.45047],"type":"Point"}
}