{
  "id": 85843779,
  "type": "Feature",
  "properties": {"wof:repo":"whosonfirst-data-admin-us",
    "src:geom":"quattroshapes",
    "wof:geomhash":"323355d6151cf003fc2dfa14cd412f11",
    "wof:id":85843779
},
  "bbox": [
    -112.02769532768909,
    33.5917432107254,
    -112.00012206999992,
    33.60919301581073
],
  "geometry": {"coordinates":[[[-112.02758789099994,33.59174321072540],[-112.02769532768909,33.59174321072540],[-112.02758789099994,33.59213014224582],[-112.02758789099994,33.59631896110010],[-112.02642480966560,33.59631896110010],[-112.02634072631952,33.59662178592824],[-112.02639202266369,33.59674495280582],[-112.02484130558537,33.59860670826842],[-112.02322660686610,33.60054526960610],[-112.02217519653371,33.60079773487514],[-112.02209472679147,33.60089434740014],[-112.02209472691652,33.60089440810003],[-112.01660156199989,33.60089440810003],[-112.01660151169222,33.60089440810013],[-112.01610051770638,33.60149590460979],[-112.01581965065213,33.60318202535025],[-112.01385498000002,33.60318202706026],[-112.01110839799995,33.60318204050009],[-112.01110839799995,33.60546961230007],[-112.00561523400003,33.60546961230007],[-112.00561518344483,33.60546961230007],[-112.00251407826062,33.60919301581073],[-112.00012206999992,33.60775697160008],[-112.00012206999992,33.60546961230007],[-112.00012206999992,33.60089440810003],[-112.00012206999992,33.60089434740014],[-112.00561523399983,33.60089434740014],[-112.00561523399983,33.59631896110010],[-112.00561523399983,33.59631890042552],[-112.01110839799986,33.59631890042552],[-112.01160939561794,33.59571743152159],[-112.01207764581912,33.59290677215049],[-112.01652098453769,33.59183994256678],[-112.01660151170785,33.59174327140016],[-112.01660156225000,33.59174321072540],[-112.02209472674980,33.59174321072540],[-112.02758789099994,33.59174321072540]]],"type":"Polygon"}
}