{
  "id": 1125399245,
  "type": "Feature",
  "properties": {
    "edtf:cessation":"uuuu",
    "edtf:deprecated":"2017-11-04",
    "edtf:inception":"uuuu",
    "geom:area":0.0,
    "geom:area_square_m":0.0,
    "geom:bbox":"-92.08248,41.13273,-92.08248,41.13273",
    "geom:latitude":41.13273,
    "geom:longitude":-92.08248,
    "gn:gn_country":"US",
    "gn:gn_fcode":"ADMD",
    "gn:gn_pop":204,
    "gn:population":204,
    "iso:country":"US",
    "lbl:latitude":41.13273,
    "lbl:longitude":-92.08248,
    "mz:hierarchy_label":1,
    "mz:is_current":0,
    "mz:note":"Quattroshapes Point Gazetteer import 20170519",
    "qs_pg:aaroncc":"US",
    "qs_pg:gn_country":"US",
    "qs_pg:gn_fcode":"ADMD",
    "qs_pg:gn_id":7164302,
    "qs_pg:gn_pop":204,
    "qs_pg:name":"City of Packwood",
    "qs_pg:photos_9r":0,
    "qs_pg:photos_sr":0,
    "qs_pg:pop_sr":2,
    "qs_pg:qs_id":659274,
    "qs_pg:qs_pg_placetype":"localadmin",
    "src:geom":"qs_pg",
    "src:lbl:centroid":"qs_pg",
    "src:population":"geonames",
    "wof:belongsto":[
        85633793
    ],
    "wof:breaches":[],
    "wof:concordances":{
        "gn:id":7164302,
        "qs_pg:id":659274
    },
    "wof:country":"US",
    "wof:created":1497049211,
    "wof:geomhash":"f2c449303d4f6fa586b469601fced38e",
    "wof:hierarchy":[
        {
            "country_id":85633793,
            "localadmin_id":1125399245
        }
    ],
    "wof:id":1125399245,
    "wof:lastmodified":1509752701,
    "wof:name":"City of Packwood",
    "wof:parent_id":-1,
    "wof:placetype":"localadmin",
    "wof:population":204,
    "wof:population_rank":2,
    "wof:repo":"whosonfirst-data-admin-us",
    "wof:superseded_by":[
        85943809
    ],
    "wof:supersedes":[],
    "wof:tags":[]
},
  "bbox": [
    -92.08248,
    41.13273,
    -92.08248,
    41.13273
],
  "geometry": {"coordinates":[-92.08248,41.13273],"type":"Point"}
}