{
  "id": 1209431147,
  "type": "Feature",
  "properties": {
    "edtf:cessation":"2018-09-06",
    "edtf:inception":"uuuu",
    "geom:area":0.0,
    "geom:area_square_m":0.0,
    "geom:bbox":"-82.41492,37.62186,-82.41492,37.62186",
    "geom:latitude":37.62186,
    "geom:longitude":-82.41492,
    "gn:admin1_code":"KY",
    "gn:admin2_code":"195",
    "gn:asciiname":"Tom Ray (historical)",
    "gn:country_code":"US",
    "gn:dem":301,
    "gn:elevation":"297.0",
    "gn:feature_class":"P",
    "gn:feature_code":"PPLQ",
    "gn:geonameid":7140889,
    "gn:latitude":37.62186,
    "gn:longitude":-82.41492,
    "gn:modification_date":"2014-10-08",
    "gn:name":"Tom Ray (historical)",
    "gn:population":0,
    "gn:timezone":"America/New_York",
    "iso:country":"US",
    "mz:hierarchy_label":1,
    "mz:is_current":0,
    "src:geom":"geonames",
    "wof:belongsto":[
        85633793
    ],
    "wof:breaches":[],
    "wof:concordances":{
        "gn:id":7140889
    },
    "wof:country":"US",
    "wof:geomhash":"3366fc862d735699d15efc97bdc43438",
    "wof:hierarchy":[
        {
            "country_id":85633793,
            "locality_id":1209431147
        }
    ],
    "wof:id":1209431147,
    "wof:lastmodified":1536287236,
    "wof:name":"Tom Ray (historical)",
    "wof:parent_id":85633793,
    "wof:placetype":"locality",
    "wof:repo":"whosonfirst-data-admin-us",
    "wof:superseded_by":[],
    "wof:supersedes":[],
    "wof:tags":[]
},
  "bbox": [
    -82.41492,
    37.62186,
    -82.41492,
    37.62186
],
  "geometry": {"coordinates":[-82.41492,37.62186],"type":"Point"}
}