{
  "id": 1293219733,
  "type": "Feature",
  "properties": {
    "edtf:cessation":"uuuu",
    "edtf:deprecated":"2019-02-08",
    "edtf:inception":"uuuu",
    "geom:area":0.0,
    "geom:area_square_m":0.0,
    "geom:bbox":"-84.08333,40.75667,-84.08333,40.75667",
    "geom:latitude":40.75667,
    "geom:longitude":-84.08333,
    "gn:admin1_code":"OH",
    "gn:admin2_code":"3.0",
    "gn:admin3_code":"4206.0",
    "gn:asciiname":"Marilee Estates Mobile Home Park",
    "gn:country_code":"US",
    "gn:dem":270,
    "gn:elevation":"267.0",
    "gn:feature_class":"P",
    "gn:feature_code":"PPL",
    "gn:geonameid":8096900,
    "gn:latitude":40.75667,
    "gn:longitude":-84.08333,
    "gn:modification_date":"2017-05-23",
    "gn:name":"Marilee Estates Mobile Home Park",
    "gn:population":0,
    "gn:timezone":"America/New_York",
    "iso:country":"US",
    "mz:hierarchy_label":1,
    "mz:is_current":0,
    "src:geom":"geonames",
    "wof:belongsto":[
        85688485,
        102191575,
        404524749,
        85633793,
        102083673
    ],
    "wof:breaches":[],
    "wof:concordances":{
        "gn:id":8096900
    },
    "wof:country":"US",
    "wof:geomhash":"71869102b25bdbaec82162f217c3b950",
    "wof:hierarchy":[
        {
            "continent_id":102191575,
            "country_id":85633793,
            "county_id":102083673,
            "localadmin_id":404524749,
            "locality_id":1293219733,
            "region_id":85688485
        }
    ],
    "wof:id":1293219733,
    "wof:lastmodified":1549654113,
    "wof:name":"Marilee Estates Mobile Home Park",
    "wof:parent_id":404524749,
    "wof:placetype":"locality",
    "wof:repo":"whosonfirst-data-admin-us",
    "wof:superseded_by":[
        1376906647
    ],
    "wof:supersedes":[],
    "wof:tags":[]
},
  "bbox": [
    -84.08333,
    40.75667,
    -84.08333,
    40.75667
],
  "geometry": {"coordinates":[-84.08333,40.75667],"type":"Point"}
}