{
  "id": 85871263,
  "type": "Feature",
  "properties": {"wof:repo":"whosonfirst-data-admin-us",
    "src:geom":"quattroshapes",
    "wof:geomhash":"bf43b872b7d4cb88dc51e932c9aefd21",
    "wof:id":85871263
},
  "bbox": [
    -105.06088256799995,
    39.67545002180495,
    -105.02838588919758,
    39.7051875410116
],
  "geometry": {"coordinates":[[[-105.03993095012004,39.70518754101160],[-105.03479003899994,39.70296020602538],[-105.02950449026028,39.70296020602538],[-105.02838588919758,39.69569136138087],[-105.02929682519647,39.69450749860017],[-105.02929687499991,39.69450743387506],[-105.03092314314824,39.69239391730034],[-105.02929692476741,39.69028059480004],[-105.02929687499991,39.69028059480004],[-105.02929687499983,39.69028053012546],[-105.02929687499983,39.68605343230010],[-105.02929687499983,39.68605336757516],[-105.03092354147708,39.68393959217538],[-105.03316337252269,39.68393959217538],[-105.03478998920679,39.68182601090005],[-105.03479003899994,39.68182594620025],[-105.03967063596971,39.67548423185032],[-105.03974962517697,39.67545002180495],[-105.04028320299997,39.67614331703258],[-105.04252273526680,39.67759826602533],[-105.04577636700000,39.67759826602533],[-105.05126953099983,39.67759826602533],[-105.05126953099983,39.67759833070008],[-105.05126953099983,39.68182594620052],[-105.05566937042136,39.68182594620052],[-105.05676269499995,39.68040533184636],[-105.05784289825596,39.67900176671967],[-105.06075905388627,39.67954305466061],[-105.06088256799995,39.67981053534365],[-105.06088256799995,39.68813417887914],[-105.06012453767167,39.68868142850847],[-105.05950927700002,39.69028053012546],[-105.05950927700002,39.69450743387524],[-105.05950927700002,39.69906229856528],[-105.05351125407174,39.70296020602538],[-105.05126953099983,39.70296020602538],[-105.04639162278391,39.70084681885042],[-105.04577636700009,39.70084681885042],[-105.04528417141597,39.70100674928590],[-105.04077637256472,39.70491281879694],[-105.03993095012004,39.70518754101160]]],"type":"Polygon"}
}