{
  "id": 1125351899,
  "type": "Feature",
  "properties": {
    "edtf:cessation":"uuuu",
    "edtf:deprecated":"2017-11-04",
    "edtf:inception":"uuuu",
    "geom:area":0.0,
    "geom:area_square_m":0.0,
    "geom:bbox":"-87.61207,40.14245,-87.61207,40.14245",
    "geom:latitude":40.14245,
    "geom:longitude":-87.61207,
    "gn:gn_country":"US",
    "gn:gn_fcode":"ADMD",
    "gn:gn_pop":33027,
    "gn:population":33027,
    "iso:country":"US",
    "lbl:latitude":40.14245,
    "lbl:longitude":-87.61207,
    "mz:hierarchy_label":1,
    "mz:is_current":0,
    "mz:note":"Quattroshapes Point Gazetteer import 20170519",
    "qs_pg:aaroncc":"US",
    "qs_pg:gn_country":"US",
    "qs_pg:gn_fcode":"ADMD",
    "qs_pg:gn_id":7316727,
    "qs_pg:gn_pop":33027,
    "qs_pg:name":"City of Danville",
    "qs_pg:photos_9r":0,
    "qs_pg:photos_sr":0,
    "qs_pg:pop_sr":7,
    "qs_pg:qs_id":682737,
    "qs_pg:qs_pg_placetype":"localadmin",
    "src:geom":"qs_pg",
    "src:lbl:centroid":"qs_pg",
    "src:population":"geonames",
    "wof:belongsto":[
        85633793
    ],
    "wof:breaches":[],
    "wof:concordances":{
        "gn:id":7316727,
        "qs_pg:id":682737
    },
    "wof:country":"US",
    "wof:created":1497046246,
    "wof:geomhash":"747b285ed3a809843a1273f9d3925f82",
    "wof:hierarchy":[
        {
            "country_id":85633793,
            "localadmin_id":1125351899
        }
    ],
    "wof:id":1125351899,
    "wof:lastmodified":1509752622,
    "wof:name":"City of Danville",
    "wof:parent_id":-1,
    "wof:placetype":"localadmin",
    "wof:population":33027,
    "wof:population_rank":7,
    "wof:repo":"whosonfirst-data-admin-us",
    "wof:superseded_by":[
        85941111
    ],
    "wof:supersedes":[],
    "wof:tags":[]
},
  "bbox": [
    -87.61207,
    40.14245,
    -87.61207,
    40.14245
],
  "geometry": {"coordinates":[-87.61207,40.14245],"type":"Point"}
}