{
  "id": 1125387075,
  "type": "Feature",
  "properties": {
    "edtf:cessation":"2017-05-19",
    "edtf:inception":"uuuu",
    "geom:area":0.0,
    "geom:area_square_m":0.0,
    "geom:bbox":"-79.00083,42.45893,-79.00083,42.45893",
    "geom:latitude":42.45893,
    "geom:longitude":-79.00083,
    "gn:gn_country":"US",
    "gn:gn_fcode":"ADMD",
    "gn:gn_pop":401,
    "gn:population":401,
    "iso:country":"US",
    "lbl:latitude":42.45893,
    "lbl:longitude":-79.00083,
    "mz:hierarchy_label":1,
    "mz:is_current":0,
    "mz:note":"Quattroshapes Point Gazetteer import 20170519",
    "qs_pg:aaroncc":"US",
    "qs_pg:gn_country":"US",
    "qs_pg:gn_fcode":"ADMD",
    "qs_pg:gn_id":7161813,
    "qs_pg:gn_pop":401,
    "qs_pg:name":"Village of Perrysburg",
    "qs_pg:photos_9r":0,
    "qs_pg:photos_sr":0,
    "qs_pg:pop_sr":2,
    "qs_pg:qs_id":657361,
    "qs_pg:qs_pg_placetype":"localadmin",
    "src:geom":"qs_pg",
    "src:lbl:centroid":"qs_pg",
    "src:population":"geonames",
    "wof:belongsto":[
        85633793
    ],
    "wof:breaches":[],
    "wof:concordances":{
        "gn:id":7161813,
        "qs_pg:id":657361
    },
    "wof:country":"US",
    "wof:created":1497048455,
    "wof:geomhash":"9c2292d8e0f450a7b594e5206398fb64",
    "wof:hierarchy":[
        {
            "country_id":85633793,
            "localadmin_id":1125387075
        }
    ],
    "wof:id":1125387075,
    "wof:lastmodified":1505187019,
    "wof:name":"Village of Perrysburg",
    "wof:parent_id":-1,
    "wof:placetype":"localadmin",
    "wof:population":401,
    "wof:population_rank":2,
    "wof:repo":"whosonfirst-data-admin-us",
    "wof:superseded_by":[],
    "wof:supersedes":[],
    "wof:tags":[]
},
  "bbox": [
    -79.00083,
    42.45893,
    -79.00083,
    42.45893
],
  "geometry": {"coordinates":[-79.00082999999999,42.45893],"type":"Point"}
}