{
  "id": 1210035867,
  "type": "Feature",
  "properties": {
    "edtf:cessation":"uuuu",
    "edtf:inception":"uuuu",
    "geom:area":0.0,
    "geom:area_square_m":0.0,
    "geom:bbox":"-77.68917,40.92478,-77.68917,40.92478",
    "geom:latitude":40.92478,
    "geom:longitude":-77.68917,
    "gn:admin1_code":"PA",
    "gn:admin2_code":"27.0",
    "gn:admin3_code":"80552.0",
    "gn:asciiname":"Forest",
    "gn:country_code":"US",
    "gn:dem":307,
    "gn:elevation":"304.0",
    "gn:feature_class":"P",
    "gn:feature_code":"PPL",
    "gn:geonameid":5189956,
    "gn:latitude":40.92478,
    "gn:longitude":-77.68917,
    "gn:modification_date":"2017-05-23",
    "gn:name":"Forest",
    "gn:population":0,
    "gn:timezone":"America/New_York",
    "iso:country":"US",
    "mz:hierarchy_label":1,
    "mz:is_current":-1,
    "src:geom":"geonames",
    "wof:belongsto":[
        85688481,
        102191575,
        404485887,
        85633793,
        102081369
    ],
    "wof:breaches":[],
    "wof:concordances":{
        "gn:id":5189956
    },
    "wof:country":"US",
    "wof:geomhash":"45f9dbbe3923772b5930185de74a1c6b",
    "wof:hierarchy":[
        {
            "continent_id":102191575,
            "country_id":85633793,
            "county_id":102081369,
            "localadmin_id":404485887,
            "locality_id":1210035867,
            "region_id":85688481
        }
    ],
    "wof:id":1210035867,
    "wof:lastmodified":1536386524,
    "wof:name":"Forest",
    "wof:parent_id":404485887,
    "wof:placetype":"locality",
    "wof:repo":"whosonfirst-data-admin-us",
    "wof:superseded_by":[],
    "wof:supersedes":[],
    "wof:tags":[]
},
  "bbox": [
    -77.68916999999998,
    40.92478,
    -77.68916999999998,
    40.92478
],
  "geometry": {"coordinates":[-77.68916999999998,40.92478],"type":"Point"}
}