{
  "id": 1125302817,
  "type": "Feature",
  "properties": {
    "edtf:cessation":"uuuu",
    "edtf:deprecated":"2017-11-04",
    "edtf:inception":"uuuu",
    "geom:area":0.0,
    "geom:area_square_m":0.0,
    "geom:bbox":"-98.29704,46.35775,-98.29704,46.35775",
    "geom:latitude":46.35775,
    "geom:longitude":-98.29704,
    "gn:gn_country":"US",
    "gn:gn_fcode":"ADMD",
    "gn:gn_pop":889,
    "gn:population":889,
    "iso:country":"US",
    "lbl:latitude":46.35775,
    "lbl:longitude":-98.29704,
    "mz:hierarchy_label":1,
    "mz:is_current":0,
    "mz:note":"Quattroshapes Point Gazetteer import 20170519",
    "qs_pg:aaroncc":"US",
    "qs_pg:gn_country":"US",
    "qs_pg:gn_fcode":"ADMD",
    "qs_pg:gn_id":5060012,
    "qs_pg:gn_pop":889,
    "qs_pg:name":"City of LaMoure",
    "qs_pg:photos_9r":0,
    "qs_pg:photos_sr":0,
    "qs_pg:pop_sr":2,
    "qs_pg:qs_id":602795,
    "qs_pg:qs_pg_placetype":"localadmin",
    "src:geom":"qs_pg",
    "src:lbl:centroid":"qs_pg",
    "src:population":"geonames",
    "wof:belongsto":[
        85633793
    ],
    "wof:breaches":[],
    "wof:concordances":{
        "gn:id":5060012,
        "qs_pg:id":602795
    },
    "wof:country":"US",
    "wof:created":1497043522,
    "wof:geomhash":"c38fd7fb53edebd4432f5913be293513",
    "wof:hierarchy":[
        {
            "country_id":85633793,
            "localadmin_id":1125302817
        }
    ],
    "wof:id":1125302817,
    "wof:lastmodified":1509752512,
    "wof:name":"City of LaMoure",
    "wof:parent_id":-1,
    "wof:placetype":"localadmin",
    "wof:population":889,
    "wof:population_rank":2,
    "wof:repo":"whosonfirst-data-admin-us",
    "wof:superseded_by":[
        85982423
    ],
    "wof:supersedes":[],
    "wof:tags":[]
},
  "bbox": [
    -98.29704,
    46.35775,
    -98.29704,
    46.35775
],
  "geometry": {"coordinates":[-98.29704,46.35775],"type":"Point"}
}