{
  "id": 1125416069,
  "type": "Feature",
  "properties": {
    "edtf:cessation":"2017-05-19",
    "edtf:inception":"uuuu",
    "geom:area":0.0,
    "geom:area_square_m":0.0,
    "geom:bbox":"-102.2396,43.99166,-102.2396,43.99166",
    "geom:latitude":43.99166,
    "geom:longitude":-102.2396,
    "gn:gn_country":"US",
    "gn:gn_fcode":"ADMD",
    "gn:gn_pop":766,
    "gn:population":766,
    "iso:country":"US",
    "lbl:latitude":43.99166,
    "lbl:longitude":-102.2396,
    "mz:hierarchy_label":1,
    "mz:is_current":0,
    "mz:note":"Quattroshapes Point Gazetteer import 20170519",
    "qs_pg:aaroncc":"US",
    "qs_pg:gn_country":"US",
    "qs_pg:gn_fcode":"ADMD",
    "qs_pg:gn_id":5770103,
    "qs_pg:gn_pop":766,
    "qs_pg:name":"Town of Wall",
    "qs_pg:photos_9r":0,
    "qs_pg:photos_sr":0,
    "qs_pg:pop_sr":2,
    "qs_pg:qs_id":613147,
    "qs_pg:qs_pg_placetype":"localadmin",
    "src:geom":"qs_pg",
    "src:lbl:centroid":"qs_pg",
    "src:population":"geonames",
    "wof:belongsto":[
        85633793
    ],
    "wof:breaches":[],
    "wof:concordances":{
        "gn:id":5770103,
        "qs_pg:id":613147
    },
    "wof:country":"US",
    "wof:created":1497051368,
    "wof:geomhash":"4f9f4a43e5e50427f49b14c67ce61150",
    "wof:hierarchy":[
        {
            "country_id":85633793,
            "localadmin_id":1125416069
        }
    ],
    "wof:id":1125416069,
    "wof:lastmodified":1505187008,
    "wof:name":"Town of Wall",
    "wof:parent_id":-1,
    "wof:placetype":"localadmin",
    "wof:population":766,
    "wof:population_rank":2,
    "wof:repo":"whosonfirst-data-admin-us",
    "wof:superseded_by":[],
    "wof:supersedes":[],
    "wof:tags":[]
},
  "bbox": [
    -102.2396,
    43.99166,
    -102.2396,
    43.99166
],
  "geometry": {"coordinates":[-102.2396,43.99166],"type":"Point"}
}