{
  "id": 1209953585,
  "type": "Feature",
  "properties": {
    "edtf:cessation":"2018-09-06",
    "edtf:inception":"uuuu",
    "geom:area":0.0,
    "geom:area_square_m":0.0,
    "geom:bbox":"-110.64577,47.05969,-110.64577,47.05969",
    "geom:latitude":47.05969,
    "geom:longitude":-110.64577,
    "gn:admin1_code":"MT",
    "gn:admin2_code":"13.0",
    "gn:asciiname":"Centerville (historical)",
    "gn:country_code":"US",
    "gn:dem":1688,
    "gn:elevation":"1676.0",
    "gn:feature_class":"P",
    "gn:feature_code":"PPLQ",
    "gn:geonameid":5644315,
    "gn:latitude":47.05969,
    "gn:longitude":-110.64577,
    "gn:modification_date":"2011-12-12",
    "gn:name":"Centerville (historical)",
    "gn:population":0,
    "gn:timezone":"America/Denver",
    "iso:country":"US",
    "mz:hierarchy_label":1,
    "mz:is_current":0,
    "name:eng_x_preferred":[
        "Centerville (historical)"
    ],
    "name:und_x_variant":[
        "Central City"
    ],
    "src:geom":"geonames",
    "wof:belongsto":[
        102191575,
        85633793,
        85688617,
        102085113
    ],
    "wof:breaches":[],
    "wof:concordances":{
        "gn:id":5644315
    },
    "wof:country":"US",
    "wof:geomhash":"1e714f6c003c34086f195ad35618baa4",
    "wof:hierarchy":[
        {
            "continent_id":102191575,
            "country_id":85633793,
            "county_id":102085113,
            "locality_id":1209953585,
            "region_id":85688617
        }
    ],
    "wof:id":1209953585,
    "wof:lastmodified":1537713081,
    "wof:name":"Centerville (historical)",
    "wof:parent_id":102085113,
    "wof:placetype":"locality",
    "wof:repo":"whosonfirst-data-admin-us",
    "wof:superseded_by":[],
    "wof:supersedes":[],
    "wof:tags":[]
},
  "bbox": [
    -110.64577,
    47.05969,
    -110.64577,
    47.05969
],
  "geometry": {"coordinates":[-110.64577,47.05969],"type":"Point"}
}