{
  "id": 1309735867,
  "type": "Feature",
  "properties": {
    "edtf:cessation":"2018-09-06",
    "edtf:inception":"uuuu",
    "geom:area":0.0,
    "geom:area_square_m":0.0,
    "geom:bbox":"-89.81594,39.70505,-89.81594,39.70505",
    "geom:latitude":39.70505,
    "geom:longitude":-89.81594,
    "gn:admin1_code":"IL",
    "gn:admin2_code":"167.0",
    "gn:admin3_code":"52181.0",
    "gn:asciiname":"Sudduth (historical)",
    "gn:country_code":"US",
    "gn:dem":192,
    "gn:elevation":"192.0",
    "gn:feature_class":"P",
    "gn:feature_code":"PPLQ",
    "gn:geonameid":4250793,
    "gn:latitude":39.70505,
    "gn:longitude":-89.81594,
    "gn:modification_date":"2017-05-23",
    "gn:name":"Sudduth (historical)",
    "gn:population":0,
    "gn:timezone":"America/Chicago",
    "iso:country":"US",
    "mz:hierarchy_label":1,
    "mz:is_current":0,
    "src:geom":"geonames",
    "wof:belongsto":[
        85688697,
        102191575,
        404498561,
        85633793,
        102083527
    ],
    "wof:breaches":[],
    "wof:concordances":{
        "gn:id":4250793
    },
    "wof:country":"US",
    "wof:geomhash":"9ce83edb4c8cc8a6a1438b0a7119841a",
    "wof:hierarchy":[
        {
            "continent_id":102191575,
            "country_id":85633793,
            "county_id":102083527,
            "localadmin_id":404498561,
            "locality_id":1309735867,
            "region_id":85688697
        }
    ],
    "wof:id":1309735867,
    "wof:lastmodified":1537030658,
    "wof:name":"Sudduth (historical)",
    "wof:parent_id":404498561,
    "wof:placetype":"locality",
    "wof:repo":"whosonfirst-data-admin-us",
    "wof:superseded_by":[],
    "wof:supersedes":[],
    "wof:tags":[]
},
  "bbox": [
    -89.81594,
    39.70505,
    -89.81594,
    39.70505
],
  "geometry": {"coordinates":[-89.81594,39.70505],"type":"Point"}
}