{
  "id": 1125390127,
  "type": "Feature",
  "properties": {
    "edtf:cessation":"2017-05-19",
    "edtf:inception":"uuuu",
    "geom:area":0.0,
    "geom:area_square_m":0.0,
    "geom:bbox":"-80.60427,40.10484,-80.60427,40.10484",
    "geom:latitude":40.10484,
    "geom:longitude":-80.60427,
    "gn:gn_country":"US",
    "gn:gn_fcode":"ADMD",
    "gn:gn_pop":0,
    "iso:country":"US",
    "lbl:latitude":40.10484,
    "lbl:longitude":-80.60427,
    "mz:hierarchy_label":1,
    "mz:is_current":0,
    "mz:note":"Quattroshapes Point Gazetteer import 20170519",
    "name:eng_x_preferred":[
        "District 1"
    ],
    "name:unk_x_variant":[
        "District 1 Magisterial District"
    ],
    "qs_pg:aaroncc":"US",
    "qs_pg:gn_country":"US",
    "qs_pg:gn_fcode":"ADMD",
    "qs_pg:gn_id":5280222,
    "qs_pg:gn_pop":0,
    "qs_pg:name":"District 1",
    "qs_pg:photos_9r":0,
    "qs_pg:photos_sr":0,
    "qs_pg:pop_sr":0,
    "qs_pg:qs_id":1036232,
    "qs_pg:qs_pg_placetype":"localadmin",
    "src:geom":"qs_pg",
    "src:lbl:centroid":"qs_pg",
    "wof:belongsto":[
        85633793
    ],
    "wof:breaches":[],
    "wof:concordances":{
        "gn:id":5280222,
        "qs_pg:id":1036232
    },
    "wof:country":"US",
    "wof:created":1497048655,
    "wof:geomhash":"e40a7c9342945b3d516a639bae6a5c84",
    "wof:hierarchy":[
        {
            "country_id":85633793,
            "localadmin_id":1125390127
        }
    ],
    "wof:id":1125390127,
    "wof:lastmodified":1505248164,
    "wof:name":"District 1",
    "wof:parent_id":-1,
    "wof:placetype":"localadmin",
    "wof:repo":"whosonfirst-data-admin-us",
    "wof:superseded_by":[],
    "wof:supersedes":[],
    "wof:tags":[]
},
  "bbox": [
    -80.60427,
    40.10484,
    -80.60427,
    40.10484
],
  "geometry": {"coordinates":[-80.60427,40.10484],"type":"Point"}
}