{
  "id": 1327169967,
  "type": "Feature",
  "properties": {
    "edtf:cessation":"2018-09-06",
    "edtf:inception":"uuuu",
    "geom:area":0.0,
    "geom:area_square_m":0.0,
    "geom:bbox":"-116.85621,40.42519,-116.85621,40.42519",
    "geom:latitude":40.42519,
    "geom:longitude":-116.85621,
    "gn:admin1_code":"NV",
    "gn:admin2_code":"15.0",
    "gn:asciiname":"Dean (historical)",
    "gn:country_code":"US",
    "gn:dem":2175,
    "gn:elevation":"2164.0",
    "gn:feature_class":"P",
    "gn:feature_code":"PPLQ",
    "gn:geonameid":5703117,
    "gn:latitude":40.42519,
    "gn:longitude":-116.85621,
    "gn:modification_date":"2011-12-11",
    "gn:name":"Dean (historical)",
    "gn:population":0,
    "gn:timezone":"America/Los_Angeles",
    "iso:country":"US",
    "mz:hierarchy_label":1,
    "mz:is_current":0,
    "name:eng_x_preferred":[
        "Dean (historical)"
    ],
    "name:und_x_variant":[
        "Uppertown",
        "Upper Lewis"
    ],
    "src:geom":"geonames",
    "wof:belongsto":[
        102191575,
        85633793,
        85688531,
        102081545
    ],
    "wof:breaches":[],
    "wof:concordances":{
        "gn:id":5703117
    },
    "wof:country":"US",
    "wof:geomhash":"32e3fad2167787c1cb7cbf53ae262311",
    "wof:hierarchy":[
        {
            "continent_id":102191575,
            "country_id":85633793,
            "county_id":102081545,
            "locality_id":1327169967,
            "region_id":85688531
        }
    ],
    "wof:id":1327169967,
    "wof:lastmodified":1537713095,
    "wof:name":"Dean (historical)",
    "wof:parent_id":102081545,
    "wof:placetype":"locality",
    "wof:repo":"whosonfirst-data-admin-us",
    "wof:superseded_by":[],
    "wof:supersedes":[],
    "wof:tags":[]
},
  "bbox": [
    -116.85621,
    40.42519,
    -116.85621,
    40.42519
],
  "geometry": {"coordinates":[-116.85621,40.42519],"type":"Point"}
}