{
  "id": 1125413835,
  "type": "Feature",
  "properties": {
    "edtf:cessation":"uuuu",
    "edtf:deprecated":"2017-11-04",
    "edtf:inception":"uuuu",
    "geom:area":0.0,
    "geom:area_square_m":0.0,
    "geom:bbox":"-123.31497,43.6617,-123.31497,43.6617",
    "geom:latitude":43.6617,
    "geom:longitude":-123.31497,
    "gn:gn_country":"US",
    "gn:gn_fcode":"ADMD",
    "gn:gn_pop":1151,
    "gn:population":1151,
    "iso:country":"US",
    "lbl:latitude":43.6617,
    "lbl:longitude":-123.31497,
    "mz:hierarchy_label":1,
    "mz:is_current":0,
    "mz:note":"Quattroshapes Point Gazetteer import 20170519",
    "qs_pg:aaroncc":"US",
    "qs_pg:gn_country":"US",
    "qs_pg:gn_fcode":"ADMD",
    "qs_pg:gn_id":7173321,
    "qs_pg:gn_pop":1151,
    "qs_pg:name":"City of Drain",
    "qs_pg:photos_9r":0,
    "qs_pg:photos_sr":0,
    "qs_pg:pop_sr":3,
    "qs_pg:qs_id":665886,
    "qs_pg:qs_pg_placetype":"localadmin",
    "src:geom":"qs_pg",
    "src:lbl:centroid":"qs_pg",
    "src:population":"geonames",
    "wof:belongsto":[
        85633793
    ],
    "wof:breaches":[],
    "wof:concordances":{
        "gn:id":7173321,
        "qs_pg:id":665886
    },
    "wof:country":"US",
    "wof:created":1497050894,
    "wof:geomhash":"bb8e34148293d606ab1a746de40ee87c",
    "wof:hierarchy":[
        {
            "country_id":85633793,
            "localadmin_id":1125413835
        }
    ],
    "wof:id":1125413835,
    "wof:lastmodified":1509752730,
    "wof:name":"City of Drain",
    "wof:parent_id":-1,
    "wof:placetype":"localadmin",
    "wof:population":1151,
    "wof:population_rank":3,
    "wof:repo":"whosonfirst-data-admin-us",
    "wof:superseded_by":[
        101715785
    ],
    "wof:supersedes":[],
    "wof:tags":[]
},
  "bbox": [
    -123.31497,
    43.6617,
    -123.31497,
    43.6617
],
  "geometry": {"coordinates":[-123.31497,43.6617],"type":"Point"}
}