{
  "id": 85858067,
  "type": "Feature",
  "properties": {"wof:repo":"whosonfirst-data-admin-us",
    "src:geom":"quattroshapes",
    "wof:geomhash":"737e1257d8dfb2050eef21a8bb530542",
    "wof:id":85858067
},
  "bbox": [
    -80.87768791540918,
    35.209721583175195,
    -80.85388183589987,
    35.223185049700035
],
  "geometry": {"coordinates":[[[-80.85388183591382,35.21869749630005],[-80.85388183591382,35.21757556704735],[-80.85496889170534,35.21757556693970],[-80.85505130368907,35.21727294220243],[-80.85525512699991,35.21718978012227],[-80.85525512699991,35.21701459980002],[-80.85568447933477,35.21701459980002],[-80.85587744970030,35.21693586583703],[-80.85584448425305,35.21673411345033],[-80.85589031455919,35.21645362562536],[-80.85573774558918,35.21614238006137],[-80.85594177249993,35.21589264893146],[-80.85594177249993,35.21533166850001],[-80.85594177249993,35.21526145816433],[-80.85641373674184,35.21506889675858],[-80.85649495030785,35.21477068262547],[-80.85619905243382,35.21368415294448],[-80.85636148574781,35.21308770180009],[-80.85605592049686,35.21196568550040],[-80.85662841797489,35.21126498004345],[-80.85800170899998,35.21182525761580],[-80.85873093419229,35.21152774710046],[-80.85908875202739,35.21196570100010],[-80.85937500000000,35.21196570100010],[-80.86074829099994,35.21196570100010],[-80.86074829099994,35.21140469231304],[-80.86074829099994,35.21084368090007],[-80.86212158199987,35.21084368090007],[-80.86212158199987,35.20972164520006],[-80.86298034480581,35.20972163951679],[-80.86486816686991,35.20972163724616],[-80.86489715790935,35.20975711582552],[-80.86576074372135,35.20996850804997],[-80.86590375049383,35.21084368090007],[-80.86624145510007,35.21084368090007],[-80.86624145510007,35.21196570100010],[-80.86761474609992,35.21196570100010],[-80.86847348679856,35.21196570100010],[-80.86893184020533,35.21140469192525],[-80.87036132809988,35.21015495175347],[-80.87036132809988,35.20972164520006],[-80.87045254099152,35.20972164520006],[-80.87045254993416,35.20972158317520],[-80.87585449218312,35.20972158317520],[-80.87585454285212,35.20972164520006],[-80.87768791540918,35.21196554595016],[-80.87585449218111,35.21420963277551],[-80.87585449219992,35.21420969480003],[-80.87150626608795,35.21420969480003],[-80.87036132811446,35.21561110373986],[-80.87036132811446,35.21869743427553],[-80.87036132809988,35.21869749630005],[-80.87036127745108,35.21869749629801],[-80.86852831029620,35.22094114892533],[-80.86784611985928,35.22094114892533],[-80.86784592982463,35.22094128850044],[-80.86486816410005,35.22094129454423],[-80.86212158201897,35.22094129809544],[-80.86212158201383,35.22318504193780],[-80.85937500000000,35.22318504271406],[-80.85388183589987,35.22318504970004],[-80.85388183590717,35.22096960377368],[-80.85388183591445,35.21939821529558],[-80.85388183591382,35.21869749630005]]],"type":"Polygon"}
}