{
  "id": 1125388039,
  "type": "Feature",
  "properties": {
    "edtf:cessation":"2017-05-19",
    "edtf:inception":"uuuu",
    "geom:area":0.0,
    "geom:area_square_m":0.0,
    "geom:bbox":"-87.99337,40.44837,-87.99337,40.44837",
    "geom:latitude":40.44837,
    "geom:longitude":-87.99337,
    "gn:gn_country":"US",
    "gn:gn_fcode":"ADMD",
    "gn:gn_pop":0,
    "iso:country":"US",
    "lbl:latitude":40.44837,
    "lbl:longitude":-87.99337,
    "mz:hierarchy_label":1,
    "mz:is_current":0,
    "mz:note":"Quattroshapes Point Gazetteer import 20170519",
    "name:eng_x_preferred":[
        "Button Township"
    ],
    "qs_pg:aaroncc":"US",
    "qs_pg:gn_country":"US",
    "qs_pg:gn_fcode":"ADMD",
    "qs_pg:gn_id":4886167,
    "qs_pg:gn_pop":0,
    "qs_pg:name":"Township of Button",
    "qs_pg:photos_9r":0,
    "qs_pg:photos_sr":0,
    "qs_pg:pop_sr":0,
    "qs_pg:qs_id":1034177,
    "qs_pg:qs_pg_placetype":"localadmin",
    "src:geom":"qs_pg",
    "src:lbl:centroid":"qs_pg",
    "wof:belongsto":[
        85633793
    ],
    "wof:breaches":[],
    "wof:concordances":{
        "gn:id":4886167,
        "qs_pg:id":1034177
    },
    "wof:country":"US",
    "wof:created":1497048526,
    "wof:geomhash":"28a1d835d5eaaff9c430e931c70d86cb",
    "wof:hierarchy":[
        {
            "country_id":85633793,
            "localadmin_id":1125388039
        }
    ],
    "wof:id":1125388039,
    "wof:lastmodified":1505248156,
    "wof:name":"Township of Button",
    "wof:parent_id":-1,
    "wof:placetype":"localadmin",
    "wof:repo":"whosonfirst-data-admin-us",
    "wof:superseded_by":[],
    "wof:supersedes":[],
    "wof:tags":[]
},
  "bbox": [
    -87.99337,
    40.44837,
    -87.99337,
    40.44837
],
  "geometry": {"coordinates":[-87.99337,40.44837],"type":"Point"}
}