{
  "id": 404527237,
  "type": "Feature",
  "properties": {
    "edtf:cessation":"uuuu",
    "edtf:inception":"uuuu",
    "geom:area":0.011401,
    "geom:area_square_m":100584953.050346,
    "geom:bbox":"-72.319167,44.419497,-72.151982,44.542336",
    "geom:latitude":44.481347,
    "geom:longitude":-72.235907,
    "iso:country":"US",
    "lbl:latitude":44.480727,
    "lbl:longitude":-72.235907,
    "mz:hierarchy_label":1,
    "mz:is_current":-1,
    "name:eng_x_preferred":[
        "Walden"
    ],
    "qs:a0":"United States",
    "qs:a1":"Vermont",
    "qs:a1_lc":"50",
    "qs:a2":"Caledonia",
    "qs:a2_lc":"50005",
    "qs:adm0":"United States",
    "qs:adm0_a3":"USA",
    "qs:la":"Walden",
    "qs:la_lc":"5000575700",
    "qs:level":"localadmin",
    "qs:pop":935,
    "qs:source":"US Census",
    "qs:type":"town",
    "src:geom":"quattroshapes",
    "src:population":"quattroshapes",
    "wof:belongsto":[
        102191575,
        85633793,
        85688763,
        102080755
    ],
    "wof:breaches":[],
    "wof:concordances":{},
    "wof:country":"US",
    "wof:geomhash":"d100b9a3c621300bbd61a1df93dab489",
    "wof:hierarchy":[
        {
            "continent_id":102191575,
            "country_id":85633793,
            "county_id":102080755,
            "localadmin_id":404527237,
            "region_id":85688763
        }
    ],
    "wof:id":404527237,
    "wof:lastmodified":1505339808,
    "wof:name":"Walden",
    "wof:parent_id":102080755,
    "wof:placetype":"localadmin",
    "wof:population":935,
    "wof:population_rank":2,
    "wof:repo":"whosonfirst-data-admin-us",
    "wof:superseded_by":[],
    "wof:supersedes":[],
    "wof:tags":[]
},
  "bbox": [
    -72.319167,
    44.419497,
    -72.151982,
    44.542336
],
  "geometry": {"coordinates":[[[-72.30477500000001,44.483702],[-72.303989,44.485358],[-72.26296499999999,44.542336],[-72.25715599999999,44.540517],[-72.255152,44.539427],[-72.230091,44.530511],[-72.151982,44.501151],[-72.15268,44.499841],[-72.163927,44.482893],[-72.210943,44.419497],[-72.222166,44.424133],[-72.22371,44.424582],[-72.229423,44.426901],[-72.23697300000001,44.429199],[-72.23880200000001,44.430515],[-72.24258399999999,44.431799],[-72.249899,44.435013],[-72.31916699999999,44.461759],[-72.30477500000001,44.483702]]],"type":"Polygon"}
}