{
  "id": 1209626493,
  "type": "Feature",
  "properties": {
    "edtf:cessation":"uuuu",
    "edtf:deprecated":"2019-02-08",
    "edtf:inception":"uuuu",
    "geom:area":0.0,
    "geom:area_square_m":0.0,
    "geom:bbox":"-81.4618,28.26476,-81.4618,28.26476",
    "geom:latitude":28.26476,
    "geom:longitude":-81.4618,
    "gn:admin1_code":"FL",
    "gn:admin2_code":"97.0",
    "gn:asciiname":"Teels Mobile Home Park",
    "gn:country_code":"US",
    "gn:dem":23,
    "gn:elevation":"21.0",
    "gn:feature_class":"P",
    "gn:feature_code":"PPL",
    "gn:geonameid":7191213,
    "gn:latitude":28.26476,
    "gn:longitude":-81.4618,
    "gn:modification_date":"2010-02-05",
    "gn:name":"Teels Mobile Home Park",
    "gn:population":0,
    "gn:timezone":"America/New_York",
    "iso:country":"US",
    "mz:hierarchy_label":1,
    "mz:is_current":0,
    "src:geom":"geonames",
    "wof:belongsto":[
        85633793
    ],
    "wof:breaches":[],
    "wof:concordances":{
        "gn:id":7191213
    },
    "wof:country":"US",
    "wof:geomhash":"ecb599a50a344c92d31c817f85073514",
    "wof:hierarchy":[
        {
            "country_id":85633793,
            "locality_id":1209626493
        }
    ],
    "wof:id":1209626493,
    "wof:lastmodified":1549653926,
    "wof:name":"Teels Mobile Home Park",
    "wof:parent_id":85633793,
    "wof:placetype":"locality",
    "wof:repo":"whosonfirst-data-admin-us",
    "wof:superseded_by":[
        1376900083
    ],
    "wof:supersedes":[],
    "wof:tags":[]
},
  "bbox": [
    -81.4618,
    28.26476,
    -81.4618,
    28.26476
],
  "geometry": {"coordinates":[-81.4618,28.26476],"type":"Point"}
}