{
  "id": 1242614429,
  "type": "Feature",
  "properties": {
    "edtf:cessation":"2018-09-06",
    "edtf:inception":"uuuu",
    "geom:area":0.0,
    "geom:area_square_m":0.0,
    "geom:bbox":"-114.70947,40.17076,-114.70947,40.17076",
    "geom:latitude":40.17076,
    "geom:longitude":-114.70947,
    "gn:admin1_code":"NV",
    "gn:admin2_code":"7",
    "gn:asciiname":"Goshute (historical)",
    "gn:country_code":"US",
    "gn:dem":1785,
    "gn:elevation":"1784.0",
    "gn:feature_class":"P",
    "gn:feature_code":"PPLQ",
    "gn:geonameid":5704324,
    "gn:latitude":40.17076,
    "gn:longitude":-114.70947,
    "gn:modification_date":"2011-12-11",
    "gn:name":"Goshute (historical)",
    "gn:population":0,
    "gn:timezone":"America/Los_Angeles",
    "iso:country":"US",
    "mz:hierarchy_label":1,
    "mz:is_current":0,
    "name:eng_x_preferred":[
        "Goshute (historical)"
    ],
    "name:und_x_variant":[
        "Goshiute",
        "Goshiute Station",
        "Gosiute"
    ],
    "src:geom":"geonames",
    "wof:belongsto":[
        102191575,
        85633793,
        85688531,
        102082651
    ],
    "wof:breaches":[],
    "wof:concordances":{
        "gn:id":5704324
    },
    "wof:country":"US",
    "wof:geomhash":"0c6b63bfe6a4bdabe3887649a4f01046",
    "wof:hierarchy":[
        {
            "continent_id":102191575,
            "country_id":85633793,
            "county_id":102082651,
            "locality_id":1242614429,
            "region_id":85688531
        }
    ],
    "wof:id":1242614429,
    "wof:lastmodified":1537713096,
    "wof:name":"Goshute (historical)",
    "wof:parent_id":102082651,
    "wof:placetype":"locality",
    "wof:repo":"whosonfirst-data-admin-us",
    "wof:superseded_by":[],
    "wof:supersedes":[],
    "wof:tags":[]
},
  "bbox": [
    -114.70947,
    40.17076,
    -114.70947,
    40.17076
],
  "geometry": {"coordinates":[-114.70947,40.17076],"type":"Point"}
}