{
  "id": 85892469,
  "type": "Feature",
  "properties": {
    "edtf:cessation":"uuuu",
    "edtf:inception":"uuuu",
    "geom:area":0.0,
    "geom:area_square_m":6297293.517923,
    "geom:bbox":"-74.289529,40.508376,-74.289529,40.508376",
    "geom:latitude":40.508376,
    "geom:longitude":-74.289529,
    "gn:id":"",
    "iso:country":"US",
    "lbl:latitude":40.508376,
    "lbl:longitude":-74.289529,
    "mps:latitude":40.510662,
    "mps:longitude":-74.286239,
    "mz:hierarchy_label":0,
    "mz:is_current":-1,
    "mz:is_funky":0,
    "mz:is_hard_boundary":0,
    "mz:is_landuse_aoi":0,
    "mz:is_official":0,
    "mz:max_zoom":18.0,
    "mz:min_zoom":14.0,
    "mz:tier_locality":1,
    "name:eng_x_preferred":[
        "Southwest"
    ],
    "name:unk_x_variant":[
        "Southwest"
    ],
    "qs:gn_adm0_cc":"US",
    "qs:gn_id":0,
    "qs:gn_local":5102578,
    "qs:gn_nam_loc":"Perth Amboy, Middlesex, New Jersey, US",
    "qs:gn_namadm1":"NJ",
    "qs:local_max":562,
    "qs:local_sum":753,
    "qs:localhoods":5,
    "qs:name":"Southwest",
    "qs:name_adm0":"United States",
    "qs:name_adm1":"New Jersey",
    "qs:name_adm2":"Middlesex",
    "qs:name_local":"Perth Amboy",
    "qs:photo_max":16,
    "qs:photo_sum":96,
    "qs:placetype":"Suburb",
    "qs:quad_count":21,
    "qs:woe_adm0":23424977,
    "qs:woe_adm1":2347589,
    "qs:woe_adm2":12589269,
    "qs:woe_lau":0,
    "qs:woe_local":2470835,
    "qs:woe_ver":"7.10.0",
    "src:geom":"mz",
    "src:geom_alt":[
        "quattroshapes",
        "quattroshapes_pg"
    ],
    "src:lbl:centroid":"yerbashapes",
    "src:population":"zetashapes",
    "wof:belongsto":[
        102191575,
        404477477,
        85633793,
        85975737,
        102087417,
        85688607
    ],
    "wof:breaches":[],
    "wof:concordances":{
        "gp:id":55991710,
        "qs:id":986938,
        "qs_pg:id":986938
    },
    "wof:country":"US",
    "wof:geomhash":"4784c7869df70cc1697bf0ebff221bd3",
    "wof:hierarchy":[
        {
            "continent_id":102191575,
            "country_id":85633793,
            "county_id":102087417,
            "localadmin_id":404477477,
            "locality_id":85975737,
            "neighbourhood_id":85892469,
            "region_id":85688607
        }
    ],
    "wof:id":85892469,
    "wof:lang":[
        "eng"
    ],
    "wof:lastmodified":1532373808,
    "wof:name":"Southwest",
    "wof:parent_id":85975737,
    "wof:placetype":"neighbourhood",
    "wof:population":9329,
    "wof:population_rank":5,
    "wof:repo":"whosonfirst-data-admin-us",
    "wof:superseded_by":[],
    "wof:supersedes":[],
    "wof:tags":[],
    "zs:blockids":[
        340230089002133,
        340230042002008,
        340230047001007,
        340230042002012,
        340230048002001,
        340230048003003,
        340230047001003,
        340230047003003,
        340230047002009,
        340230042002005,
        340230048003002,
        340230048001005,
        340230047002012,
        340230048001003,
        340230048002002,
        340230048003025,
        340230048003026,
        340230048003013,
        340230033003017,
        340230047002003,
        340230048001008,
        340230089002046,
        340230048003014,
        340230092003002,
        340230048003000,
        340230047002013,
        340230047002006,
        340230048001006,
        340230047003007,
        340230048001010,
        340230047002010,
        340230042002009,
        340230048002005,
        340230048002006,
        340230047001008,
        340230048003027,
        340230048001014,
        340230048001001,
        340230047002004,
        340230047002008,
        340230048001004,
        340230048003007,
        340230042002013,
        340230048003015,
        340230089002129,
        340230033003026,
        340230033003018,
        340230048003011,
        340230089002132,
        340230048001011,
        340230048003024,
        340230047002011,
        340230047001005,
        340230047001006,
        340230047001004,
        340230048002003,
        340230048003008,
        340230048003009,
        340230048003028,
        340230047003006,
        340230048001009,
        340230042002010,
        340230048001000,
        340230048002007,
        340230048003017,
        340230048003004,
        340230048003006,
        340230092003001,
        340230048003019,
        340230048002000,
        340230048003005,
        340230044003004,
        340230048002004,
        340230092003007,
        340230041002027,
        340230042002003,
        340230042002004,
        340230048001007,
        340230042002007,
        340230042002006,
        340230089002047,
        340230033003019,
        340230033003027,
        340230033003025,
        340230048003001,
        340230092003000,
        340230033003029,
        340230089002130,
        340230047002007,
        340230042002011,
        340230047001009,
        340230048001013,
        340230048001002,
        340230048001012,
        340230047003011,
        340230048003016,
        340230047003004,
        340230047003005,
        340230089002131,
        340230033003028,
        340230048003012
    ],
    "zs:housing10":2898,
    "zs:pop10":9329
},
  "bbox": [
    -74.289529,
    40.508376,
    -74.289529,
    40.508376
],
  "geometry": {"coordinates":[-74.289529,40.508376],"type":"Point"}
}