{
  "id": 1310612171,
  "type": "Feature",
  "properties": {
    "edtf:cessation":"uuuu",
    "edtf:inception":"uuuu",
    "geom:area":0.0,
    "geom:area_square_m":0.0,
    "geom:bbox":"-93.66966,38.36391,-93.66966,38.36391",
    "geom:latitude":38.36391,
    "geom:longitude":-93.66966,
    "gn:admin1_code":"MO",
    "gn:admin2_code":"83.0",
    "gn:admin3_code":"5140.0",
    "gn:asciiname":"Alberta",
    "gn:country_code":"US",
    "gn:dem":249,
    "gn:elevation":"248.0",
    "gn:feature_class":"P",
    "gn:feature_code":"PPL",
    "gn:geonameid":4374560,
    "gn:latitude":38.36391,
    "gn:longitude":-93.66966,
    "gn:modification_date":"2017-05-23",
    "gn:name":"Alberta",
    "gn:population":0,
    "gn:timezone":"America/Chicago",
    "iso:country":"US",
    "mz:hierarchy_label":1,
    "mz:is_current":-1,
    "src:geom":"geonames",
    "wof:belongsto":[
        85688661,
        102191575,
        404517135,
        85633793,
        102080805
    ],
    "wof:breaches":[],
    "wof:concordances":{
        "gn:id":4374560
    },
    "wof:country":"US",
    "wof:geomhash":"984245204c81b3edce22e146230f8ff8",
    "wof:hierarchy":[
        {
            "continent_id":102191575,
            "country_id":85633793,
            "county_id":102080805,
            "localadmin_id":404517135,
            "locality_id":1310612171,
            "region_id":85688661
        }
    ],
    "wof:id":1310612171,
    "wof:lastmodified":1536763312,
    "wof:name":"Alberta",
    "wof:parent_id":404517135,
    "wof:placetype":"locality",
    "wof:repo":"whosonfirst-data-admin-us",
    "wof:superseded_by":[],
    "wof:supersedes":[],
    "wof:tags":[]
},
  "bbox": [
    -93.66966,
    38.36391,
    -93.66966,
    38.36391
],
  "geometry": {"coordinates":[-93.66965999999999,38.36391],"type":"Point"}
}