{
  "id": 1126095481,
  "type": "Feature",
  "properties": {
    "edtf:cessation":"uuuu",
    "edtf:deprecated":"2017-11-08",
    "edtf:inception":"uuuu",
    "geom:area":0.0,
    "geom:area_square_m":0.0,
    "geom:bbox":"-75.220813,40.037242,-75.220813,40.037242",
    "geom:latitude":40.037242,
    "geom:longitude":-75.220813,
    "gn:gn_country":null,
    "iso:country":"US",
    "lbl:latitude":40.037242,
    "lbl:longitude":-75.220813,
    "mz:hierarchy_label":1,
    "mz:is_current":0,
    "mz:note":"Quattroshapes Point Gazetteer import 20170519",
    "qs_pg:aaroncc":"US",
    "qs_pg:gn_country":null,
    "qs_pg:name":"Germany Hill",
    "qs_pg:name_adm0":"United States",
    "qs_pg:name_adm1":"Pennsylvania",
    "qs_pg:photos":259,
    "qs_pg:photos_1k":52,
    "qs_pg:photos_9k":1,
    "qs_pg:photos_9r":4,
    "qs_pg:photos_all":259,
    "qs_pg:photos_sr":5,
    "qs_pg:pop_sr":0,
    "qs_pg:qs_id":1090712,
    "qs_pg:qs_pg_placetype":"neighbourhood",
    "qs_pg:qs_pg_placetype_gp":"Suburb",
    "qs_pg:woe_adm0":23424977,
    "qs_pg:woe_id":55992556,
    "src:geom":"qs_pg",
    "src:lbl:centroid":"qs_pg",
    "woe:adm0_id":23424977,
    "woe:name_adm0":"United States",
    "woe:name_adm1":"Pennsylvania",
    "woe:placetype":"Suburb",
    "wof:belongsto":[
        102191575,
        1108721809,
        404483701,
        85633793,
        101718083,
        102081353,
        85688481
    ],
    "wof:breaches":[],
    "wof:concordances":{
        "gp:id":55992556,
        "qs_pg:id":1090712
    },
    "wof:country":"US",
    "wof:created":1497315127,
    "wof:geomhash":"4b4c488fa32d8485c4994c49aa9a84fc",
    "wof:hierarchy":[
        {
            "continent_id":102191575,
            "country_id":85633793,
            "county_id":102081353,
            "localadmin_id":404483701,
            "locality_id":101718083,
            "macrohood_id":1108721809,
            "neighbourhood_id":1126095481,
            "region_id":85688481
        }
    ],
    "wof:id":1126095481,
    "wof:lastmodified":1511998875,
    "wof:name":"Germany Hill",
    "wof:parent_id":1108721809,
    "wof:placetype":"neighbourhood",
    "wof:repo":"whosonfirst-data-admin-us",
    "wof:superseded_by":[
        85846269
    ],
    "wof:supersedes":[],
    "wof:tags":[]
},
  "bbox": [
    -75.220813,
    40.037242,
    -75.220813,
    40.037242
],
  "geometry": {"coordinates":[-75.22081300000001,40.037242],"type":"Point"}
}