{
  "id": 1293506951,
  "type": "Feature",
  "properties": {
    "edtf:cessation":"uuuu",
    "edtf:inception":"uuuu",
    "geom:area":0.0,
    "geom:area_square_m":0.0,
    "geom:bbox":"-79.98726,35.93291,-79.98726,35.93291",
    "geom:latitude":35.93291,
    "geom:longitude":-79.98726,
    "gn:admin1_code":"NC",
    "gn:admin2_code":"81.0",
    "gn:admin3_code":"91484.0",
    "gn:asciiname":"Springfield",
    "gn:country_code":"US",
    "gn:dem":264,
    "gn:elevation":"254.0",
    "gn:feature_class":"P",
    "gn:feature_code":"PPL",
    "gn:geonameid":4493074,
    "gn:latitude":35.93291,
    "gn:longitude":-79.98726,
    "gn:modification_date":"2017-05-23",
    "gn:name":"Springfield",
    "gn:population":0,
    "gn:timezone":"America/New_York",
    "iso:country":"US",
    "mz:hierarchy_label":1,
    "mz:is_current":-1,
    "src:geom":"geonames",
    "wof:belongsto":[
        102191575,
        85633793,
        85688773,
        102080985
    ],
    "wof:breaches":[],
    "wof:concordances":{
        "gn:id":4493074
    },
    "wof:country":"US",
    "wof:geomhash":"a4b58716cb53ff633849403237133aac",
    "wof:hierarchy":[
        {
            "continent_id":102191575,
            "country_id":85633793,
            "county_id":102080985,
            "locality_id":1293506951,
            "region_id":85688773
        }
    ],
    "wof:id":1293506951,
    "wof:lastmodified":1536759183,
    "wof:name":"Springfield",
    "wof:parent_id":102080985,
    "wof:placetype":"locality",
    "wof:repo":"whosonfirst-data-admin-us",
    "wof:superseded_by":[],
    "wof:supersedes":[],
    "wof:tags":[]
},
  "bbox": [
    -79.98725999999998,
    35.93291,
    -79.98725999999998,
    35.93291
],
  "geometry": {"coordinates":[-79.98725999999998,35.93291],"type":"Point"}
}