{
  "id": 1125343941,
  "type": "Feature",
  "properties": {
    "edtf:cessation":"uuuu",
    "edtf:deprecated":"2017-11-04",
    "edtf:inception":"uuuu",
    "geom:area":0.0,
    "geom:area_square_m":0.0,
    "geom:bbox":"-95.63788,41.11139,-95.63788,41.11139",
    "geom:latitude":41.11139,
    "geom:longitude":-95.63788,
    "gn:gn_country":"US",
    "gn:gn_fcode":"ADMD",
    "gn:gn_pop":245,
    "gn:population":245,
    "iso:country":"US",
    "lbl:latitude":41.11139,
    "lbl:longitude":-95.63788,
    "mz:hierarchy_label":1,
    "mz:is_current":0,
    "mz:note":"Quattroshapes Point Gazetteer import 20170519",
    "qs_pg:aaroncc":"US",
    "qs_pg:gn_country":"US",
    "qs_pg:gn_fcode":"ADMD",
    "qs_pg:gn_id":7317212,
    "qs_pg:gn_pop":245,
    "qs_pg:name":"City of Silver City",
    "qs_pg:photos_9r":0,
    "qs_pg:photos_sr":0,
    "qs_pg:pop_sr":2,
    "qs_pg:qs_id":683228,
    "qs_pg:qs_pg_placetype":"localadmin",
    "src:geom":"qs_pg",
    "src:lbl:centroid":"qs_pg",
    "src:population":"geonames",
    "wof:belongsto":[
        85633793
    ],
    "wof:breaches":[],
    "wof:concordances":{
        "gn:id":7317212,
        "qs_pg:id":683228
    },
    "wof:country":"US",
    "wof:created":1497045814,
    "wof:geomhash":"23531a271b9d0b1d69ae476a634f9321",
    "wof:hierarchy":[
        {
            "country_id":85633793,
            "localadmin_id":1125343941
        }
    ],
    "wof:id":1125343941,
    "wof:lastmodified":1509752577,
    "wof:name":"City of Silver City",
    "wof:parent_id":-1,
    "wof:placetype":"localadmin",
    "wof:population":245,
    "wof:population_rank":2,
    "wof:repo":"whosonfirst-data-admin-us",
    "wof:superseded_by":[
        85944611
    ],
    "wof:supersedes":[],
    "wof:tags":[]
},
  "bbox": [
    -95.63788,
    41.11139,
    -95.63788,
    41.11139
],
  "geometry": {"coordinates":[-95.63788,41.11139],"type":"Point"}
}