{
  "id": 1293800109,
  "type": "Feature",
  "properties": {
    "edtf:cessation":"uuuu",
    "edtf:inception":"uuuu",
    "geom:area":0.0,
    "geom:area_square_m":0.0,
    "geom:bbox":"-80.2537,39.43536,-80.2537,39.43536",
    "geom:latitude":39.43536,
    "geom:longitude":-80.2537,
    "gn:admin1_code":"WV",
    "gn:admin2_code":"49",
    "gn:asciiname":"Highland",
    "gn:country_code":"US",
    "gn:dem":341,
    "gn:elevation":"304.0",
    "gn:feature_class":"P",
    "gn:feature_code":"PPL",
    "gn:geonameid":4808852,
    "gn:latitude":39.43536,
    "gn:longitude":-80.2537,
    "gn:modification_date":"2006-01-15",
    "gn:name":"Highland",
    "gn:population":0,
    "gn:timezone":"America/New_York",
    "iso:country":"US",
    "mz:hierarchy_label":1,
    "mz:is_current":-1,
    "src:geom":"geonames",
    "wof:belongsto":[
        102191575,
        85633793,
        85688589,
        102082601
    ],
    "wof:breaches":[],
    "wof:concordances":{
        "gn:id":4808852
    },
    "wof:country":"US",
    "wof:geomhash":"dbaef90ff85d90f38246b1023e6e3148",
    "wof:hierarchy":[
        {
            "continent_id":102191575,
            "country_id":85633793,
            "county_id":102082601,
            "locality_id":1293800109,
            "region_id":85688589
        }
    ],
    "wof:id":1293800109,
    "wof:lastmodified":1536832420,
    "wof:name":"Highland",
    "wof:parent_id":102082601,
    "wof:placetype":"locality",
    "wof:repo":"whosonfirst-data-admin-us",
    "wof:superseded_by":[],
    "wof:supersedes":[],
    "wof:tags":[]
},
  "bbox": [
    -80.2537,
    39.43536,
    -80.2537,
    39.43536
],
  "geometry": {"coordinates":[-80.25369999999999,39.43536],"type":"Point"}
}