{
  "id": 1209631003,
  "type": "Feature",
  "properties": {
    "edtf:cessation":"uuuu",
    "edtf:inception":"uuuu",
    "geom:area":0.0,
    "geom:area_square_m":0.0,
    "geom:bbox":"-116.54322,47.32408,-116.54322,47.32408",
    "geom:latitude":47.32408,
    "geom:longitude":-116.54322,
    "gn:admin1_code":"ID",
    "gn:admin2_code":"9.0",
    "gn:asciiname":"Milltown",
    "gn:country_code":"US",
    "gn:dem":666,
    "gn:elevation":"672.0",
    "gn:feature_class":"P",
    "gn:feature_code":"PPL",
    "gn:geonameid":5601070,
    "gn:latitude":47.32408,
    "gn:longitude":-116.54322,
    "gn:modification_date":"2006-01-15",
    "gn:name":"Milltown",
    "gn:population":0,
    "gn:timezone":"America/Los_Angeles",
    "iso:country":"US",
    "mz:hierarchy_label":1,
    "mz:is_current":-1,
    "name:eng_x_preferred":[
        "Milltown"
    ],
    "name:und_x_variant":[
        "Miltown"
    ],
    "src:geom":"geonames",
    "wof:belongsto":[
        85633793
    ],
    "wof:breaches":[],
    "wof:concordances":{
        "gn:id":5601070
    },
    "wof:country":"US",
    "wof:geomhash":"e379108f861de2d60754f9fd0bcd0a6b",
    "wof:hierarchy":[
        {
            "country_id":85633793,
            "locality_id":1209631003
        }
    ],
    "wof:id":1209631003,
    "wof:lastmodified":1537713076,
    "wof:name":"Milltown",
    "wof:parent_id":85633793,
    "wof:placetype":"locality",
    "wof:repo":"whosonfirst-data-admin-us",
    "wof:superseded_by":[],
    "wof:supersedes":[],
    "wof:tags":[]
},
  "bbox": [
    -116.54322,
    47.32408,
    -116.54322,
    47.32408
],
  "geometry": {"coordinates":[-116.54322000000001,47.32408],"type":"Point"}
}