{
  "id": 1276239281,
  "type": "Feature",
  "properties": {
    "edtf:cessation":"2018-09-07",
    "edtf:inception":"uuuu",
    "geom:area":0.0,
    "geom:area_square_m":0.0,
    "geom:bbox":"-93.9538,34.24594,-93.9538,34.24594",
    "geom:latitude":34.24594,
    "geom:longitude":-93.9538,
    "gn:admin1_code":"AR",
    "gn:admin2_code":"61.0",
    "gn:admin3_code":"90822.0",
    "gn:asciiname":"Slip-Up and Hitch (historical)",
    "gn:country_code":"US",
    "gn:dem":234,
    "gn:elevation":"228.0",
    "gn:feature_class":"P",
    "gn:feature_code":"PPLQ",
    "gn:geonameid":4131365,
    "gn:latitude":34.24594,
    "gn:longitude":-93.9538,
    "gn:modification_date":"2017-05-23",
    "gn:name":"Slip-Up and Hitch (historical)",
    "gn:population":0,
    "gn:timezone":"America/Chicago",
    "iso:country":"US",
    "mz:hierarchy_label":1,
    "mz:is_current":0,
    "src:geom":"geonames",
    "wof:belongsto":[
        102191575,
        85633793,
        85688549,
        102082499
    ],
    "wof:breaches":[],
    "wof:concordances":{
        "gn:id":4131365
    },
    "wof:country":"US",
    "wof:geomhash":"f3e6b473549daa371decffbaef83a3a3",
    "wof:hierarchy":[
        {
            "continent_id":102191575,
            "country_id":85633793,
            "county_id":102082499,
            "locality_id":1276239281,
            "region_id":85688549
        }
    ],
    "wof:id":1276239281,
    "wof:lastmodified":1536904764,
    "wof:name":"Slip-Up and Hitch (historical)",
    "wof:parent_id":102082499,
    "wof:placetype":"locality",
    "wof:repo":"whosonfirst-data-admin-us",
    "wof:superseded_by":[],
    "wof:supersedes":[],
    "wof:tags":[]
},
  "bbox": [
    -93.9538,
    34.24594,
    -93.9538,
    34.24594
],
  "geometry": {"coordinates":[-93.9538,34.24594],"type":"Point"}
}