{
  "id": 1293600247,
  "type": "Feature",
  "properties": {
    "edtf:cessation":"uuuu",
    "edtf:inception":"uuuu",
    "geom:area":0.0,
    "geom:area_square_m":0.0,
    "geom:bbox":"-97.20952,44.7608,-97.20952,44.7608",
    "geom:latitude":44.7608,
    "geom:longitude":-97.20952,
    "gn:admin1_code":"SD",
    "gn:admin2_code":"57.0",
    "gn:admin3_code":"48060.0",
    "gn:asciiname":"Thomas",
    "gn:country_code":"US",
    "gn:dem":537,
    "gn:elevation":"537.0",
    "gn:feature_class":"P",
    "gn:feature_code":"PPL",
    "gn:geonameid":5232339,
    "gn:latitude":44.7608,
    "gn:longitude":-97.20952,
    "gn:modification_date":"2017-05-23",
    "gn:name":"Thomas",
    "gn:population":0,
    "gn:timezone":"America/Chicago",
    "iso:country":"US",
    "mz:hierarchy_label":1,
    "mz:is_current":-1,
    "src:geom":"geonames",
    "wof:belongsto":[
        85688693,
        102191575,
        404490693,
        85633793,
        102086845
    ],
    "wof:breaches":[],
    "wof:concordances":{
        "gn:id":5232339
    },
    "wof:country":"US",
    "wof:geomhash":"4ad92ac077bf03cede995d8635e5e068",
    "wof:hierarchy":[
        {
            "continent_id":102191575,
            "country_id":85633793,
            "county_id":102086845,
            "localadmin_id":404490693,
            "locality_id":1293600247,
            "region_id":85688693
        }
    ],
    "wof:id":1293600247,
    "wof:lastmodified":1536622480,
    "wof:name":"Thomas",
    "wof:parent_id":404490693,
    "wof:placetype":"locality",
    "wof:repo":"whosonfirst-data-admin-us",
    "wof:superseded_by":[],
    "wof:supersedes":[],
    "wof:tags":[]
},
  "bbox": [
    -97.20952,
    44.7608,
    -97.20952,
    44.7608
],
  "geometry": {"coordinates":[-97.20952,44.7608],"type":"Point"}
}