{
  "id": 1125835087,
  "type": "Feature",
  "properties": {
    "edtf:cessation":"uuuu",
    "edtf:inception":"uuuu",
    "geom:area":0.0,
    "geom:area_square_m":0.0,
    "geom:bbox":"-87.24389,37.82338,-87.24389,37.82338",
    "geom:latitude":37.82338,
    "geom:longitude":-87.24389,
    "gn:gn_country":"US",
    "gn:gn_fcode":"PPL",
    "gn:gn_pop":0,
    "iso:country":"US",
    "lbl:latitude":37.82338,
    "lbl:longitude":-87.24389,
    "mz:hierarchy_label":1,
    "mz:is_current":-1,
    "mz:note":"Quattroshapes Point Gazetteer import 20170519",
    "qs_pg:aaroncc":"US",
    "qs_pg:gn_country":"US",
    "qs_pg:gn_fcode":"PPL",
    "qs_pg:gn_id":4309507,
    "qs_pg:gn_pop":0,
    "qs_pg:name":"Stanley",
    "qs_pg:name_adm0":"United States",
    "qs_pg:name_adm1":"Kentucky",
    "qs_pg:photos":385,
    "qs_pg:photos_1k":78,
    "qs_pg:photos_9k":2,
    "qs_pg:photos_9r":5,
    "qs_pg:photos_all":385,
    "qs_pg:photos_sr":6,
    "qs_pg:pop_sr":5,
    "qs_pg:qs_id":935802,
    "qs_pg:qs_pg_placetype":"locality",
    "qs_pg:qs_pg_placetype_gp":"Town",
    "qs_pg:woe_adm0":23424977,
    "qs_pg:woe_id":2498983,
    "src:geom":"qs_pg",
    "src:lbl:centroid":"qs_pg",
    "woe:adm0_id":23424977,
    "woe:name_adm0":"United States",
    "woe:name_adm1":"Kentucky",
    "woe:placetype":"Town",
    "wof:belongsto":[
        102191575,
        85633793,
        85688641,
        102085691
    ],
    "wof:breaches":[],
    "wof:concordances":{
        "gn:id":4309507,
        "gp:id":2498983,
        "qs_pg:id":935802
    },
    "wof:country":"US",
    "wof:created":1497292678,
    "wof:geomhash":"5ae6280eeda0a02e1613970e84de44c6",
    "wof:hierarchy":[
        {
            "continent_id":102191575,
            "country_id":85633793,
            "county_id":102085691,
            "locality_id":1125835087,
            "region_id":85688641
        }
    ],
    "wof:id":1125835087,
    "wof:lastmodified":1509394929,
    "wof:name":"Stanley",
    "wof:parent_id":102085691,
    "wof:placetype":"locality",
    "wof:repo":"whosonfirst-data-admin-us",
    "wof:superseded_by":[],
    "wof:supersedes":[],
    "wof:tags":[]
},
  "bbox": [
    -87.24389,
    37.82338,
    -87.24389,
    37.82338
],
  "geometry": {"coordinates":[-87.24388999999999,37.82338],"type":"Point"}
}