{
  "id": 1276783243,
  "type": "Feature",
  "properties": {
    "edtf:cessation":"uuuu",
    "edtf:inception":"uuuu",
    "geom:area":0.0,
    "geom:area_square_m":0.0,
    "geom:bbox":"-85.54746,37.79451,-85.54746,37.79451",
    "geom:latitude":37.79451,
    "geom:longitude":-85.54746,
    "gn:admin1_code":"KY",
    "gn:admin2_code":"179",
    "gn:asciiname":"Bellwood",
    "gn:country_code":"US",
    "gn:dem":181,
    "gn:elevation":"183.0",
    "gn:feature_class":"P",
    "gn:feature_code":"PPL",
    "gn:geonameid":4283868,
    "gn:latitude":37.79451,
    "gn:longitude":-85.54746,
    "gn:modification_date":"2006-01-15",
    "gn:name":"Bellwood",
    "gn:population":0,
    "gn:timezone":"America/New_York",
    "iso:country":"US",
    "mz:hierarchy_label":1,
    "mz:is_current":-1,
    "src:geom":"geonames",
    "wof:belongsto":[
        102191575,
        85633793,
        85688641,
        102084589
    ],
    "wof:breaches":[],
    "wof:concordances":{
        "gn:id":4283868
    },
    "wof:country":"US",
    "wof:geomhash":"69f7154ede5c282977e19580ee8e52db",
    "wof:hierarchy":[
        {
            "continent_id":102191575,
            "country_id":85633793,
            "county_id":102084589,
            "locality_id":1276783243,
            "region_id":85688641
        }
    ],
    "wof:id":1276783243,
    "wof:lastmodified":1536673069,
    "wof:name":"Bellwood",
    "wof:parent_id":102084589,
    "wof:placetype":"locality",
    "wof:repo":"whosonfirst-data-admin-us",
    "wof:superseded_by":[],
    "wof:supersedes":[],
    "wof:tags":[]
},
  "bbox": [
    -85.54746,
    37.79451,
    -85.54746,
    37.79451
],
  "geometry": {"coordinates":[-85.54746,37.79451],"type":"Point"}
}