{
  "id": 1326754893,
  "type": "Feature",
  "properties": {
    "edtf:cessation":"2018-09-07",
    "edtf:inception":"uuuu",
    "geom:area":0.0,
    "geom:area_square_m":0.0,
    "geom:bbox":"-83.57295,36.05981,-83.57295,36.05981",
    "geom:latitude":36.05981,
    "geom:longitude":-83.57295,
    "gn:admin1_code":"TN",
    "gn:admin2_code":"89",
    "gn:asciiname":"Lucilla (historical)",
    "gn:country_code":"US",
    "gn:dem":313,
    "gn:elevation":"311.0",
    "gn:feature_class":"P",
    "gn:feature_code":"PPLQ",
    "gn:geonameid":4638605,
    "gn:latitude":36.05981,
    "gn:longitude":-83.57295,
    "gn:modification_date":"2011-12-11",
    "gn:name":"Lucilla (historical)",
    "gn:population":0,
    "gn:timezone":"America/New_York",
    "iso:country":"US",
    "mz:hierarchy_label":1,
    "mz:is_current":0,
    "src:geom":"geonames",
    "wof:belongsto":[
        102191575,
        85633793,
        85688701,
        102086419
    ],
    "wof:breaches":[],
    "wof:concordances":{
        "gn:id":4638605
    },
    "wof:country":"US",
    "wof:geomhash":"cbfefeab491f905f37bed42505a86a4f",
    "wof:hierarchy":[
        {
            "continent_id":102191575,
            "country_id":85633793,
            "county_id":102086419,
            "locality_id":1326754893,
            "region_id":85688701
        }
    ],
    "wof:id":1326754893,
    "wof:lastmodified":1536663043,
    "wof:name":"Lucilla (historical)",
    "wof:parent_id":102086419,
    "wof:placetype":"locality",
    "wof:repo":"whosonfirst-data-admin-us",
    "wof:superseded_by":[],
    "wof:supersedes":[],
    "wof:tags":[]
},
  "bbox": [
    -83.57295,
    36.05981,
    -83.57295,
    36.05981
],
  "geometry": {"coordinates":[-83.57295000000001,36.05981],"type":"Point"}
}