{
  "id": 1125344827,
  "type": "Feature",
  "properties": {
    "edtf:cessation":"2017-05-19",
    "edtf:inception":"uuuu",
    "geom:area":0.0,
    "geom:area_square_m":0.0,
    "geom:bbox":"-95.86279,43.80719,-95.86279,43.80719",
    "geom:latitude":43.80719,
    "geom:longitude":-95.86279,
    "gn:gn_country":"US",
    "gn:gn_fcode":"ADMD",
    "gn:gn_pop":0,
    "iso:country":"US",
    "lbl:latitude":43.80719,
    "lbl:longitude":-95.86279,
    "mz:hierarchy_label":1,
    "mz:is_current":0,
    "mz:note":"Quattroshapes Point Gazetteer import 20170519",
    "name:eng_x_preferred":[
        "Wilmont Township"
    ],
    "name:eng_x_variant":[
        "Township of Wilmont"
    ],
    "name:unk_x_variant":[
        "Willmont Township"
    ],
    "qs_pg:aaroncc":"US",
    "qs_pg:gn_country":"US",
    "qs_pg:gn_fcode":"ADMD",
    "qs_pg:gn_id":5053013,
    "qs_pg:gn_pop":0,
    "qs_pg:name":"Township of Wilmont",
    "qs_pg:photos_9r":0,
    "qs_pg:photos_sr":0,
    "qs_pg:pop_sr":0,
    "qs_pg:qs_id":279057,
    "qs_pg:qs_pg_placetype":"localadmin",
    "src:geom":"qs_pg",
    "src:lbl:centroid":"qs_pg",
    "wof:belongsto":[
        85633793
    ],
    "wof:breaches":[],
    "wof:concordances":{
        "gn:id":5053013,
        "qs_pg:id":279057
    },
    "wof:country":"US",
    "wof:created":1497045863,
    "wof:geomhash":"81fa3a760c4db3850b30f7ab8d658e58",
    "wof:hierarchy":[
        {
            "country_id":85633793,
            "localadmin_id":1125344827
        }
    ],
    "wof:id":1125344827,
    "wof:lastmodified":1505248083,
    "wof:name":"Township of Wilmont",
    "wof:parent_id":-1,
    "wof:placetype":"localadmin",
    "wof:repo":"whosonfirst-data-admin-us",
    "wof:superseded_by":[],
    "wof:supersedes":[],
    "wof:tags":[]
},
  "bbox": [
    -95.86279,
    43.80719,
    -95.86279,
    43.80719
],
  "geometry": {"coordinates":[-95.86279,43.80719],"type":"Point"}
}