{
  "id": 1125401585,
  "type": "Feature",
  "properties": {
    "edtf:cessation":"uuuu",
    "edtf:deprecated":"2017-11-04",
    "edtf:inception":"uuuu",
    "geom:area":0.0,
    "geom:area_square_m":0.0,
    "geom:bbox":"-96.01165,37.98081,-96.01165,37.98081",
    "geom:latitude":37.98081,
    "geom:longitude":-96.01165,
    "gn:gn_country":"US",
    "gn:gn_fcode":"ADMD",
    "gn:gn_pop":71,
    "gn:population":71,
    "iso:country":"US",
    "lbl:latitude":37.98081,
    "lbl:longitude":-96.01165,
    "mz:hierarchy_label":1,
    "mz:is_current":0,
    "mz:note":"Quattroshapes Point Gazetteer import 20170519",
    "qs_pg:aaroncc":"US",
    "qs_pg:gn_country":"US",
    "qs_pg:gn_fcode":"ADMD",
    "qs_pg:gn_id":7165046,
    "qs_pg:gn_pop":71,
    "qs_pg:name":"City of Virgil",
    "qs_pg:photos_9r":0,
    "qs_pg:photos_sr":0,
    "qs_pg:pop_sr":1,
    "qs_pg:qs_id":659970,
    "qs_pg:qs_pg_placetype":"localadmin",
    "src:geom":"qs_pg",
    "src:lbl:centroid":"qs_pg",
    "src:population":"geonames",
    "wof:belongsto":[
        85633793
    ],
    "wof:breaches":[],
    "wof:concordances":{
        "gn:id":7165046,
        "qs_pg:id":659970
    },
    "wof:country":"US",
    "wof:created":1497049358,
    "wof:geomhash":"819e0d1020f01aa0ff3ee2132dc9ca3a",
    "wof:hierarchy":[
        {
            "country_id":85633793,
            "localadmin_id":1125401585
        }
    ],
    "wof:id":1125401585,
    "wof:lastmodified":1509752705,
    "wof:name":"City of Virgil",
    "wof:parent_id":-1,
    "wof:placetype":"localadmin",
    "wof:population":71,
    "wof:population_rank":1,
    "wof:repo":"whosonfirst-data-admin-us",
    "wof:superseded_by":[
        85946227
    ],
    "wof:supersedes":[],
    "wof:tags":[]
},
  "bbox": [
    -96.01165,
    37.98081,
    -96.01165,
    37.98081
],
  "geometry": {"coordinates":[-96.01165,37.98081],"type":"Point"}
}