{
  "id": 1293405917,
  "type": "Feature",
  "properties": {
    "edtf:cessation":"uuuu",
    "edtf:inception":"uuuu",
    "geom:area":0.0,
    "geom:area_square_m":0.0,
    "geom:bbox":"-79.6317,37.0132,-79.6317,37.0132",
    "geom:latitude":37.0132,
    "geom:longitude":-79.6317,
    "gn:admin1_code":"VA",
    "gn:admin2_code":"67.0",
    "gn:asciiname":"Arrowhead",
    "gn:country_code":"US",
    "gn:dem":250,
    "gn:elevation":"253.0",
    "gn:feature_class":"P",
    "gn:feature_code":"PPL",
    "gn:geonameid":4744800,
    "gn:latitude":37.0132,
    "gn:longitude":-79.6317,
    "gn:modification_date":"2010-02-18",
    "gn:name":"Arrowhead",
    "gn:population":0,
    "gn:timezone":"America/New_York",
    "iso:country":"US",
    "mz:hierarchy_label":1,
    "mz:is_current":-1,
    "src:geom":"geonames",
    "wof:belongsto":[
        102191575,
        85633793,
        85688747,
        102084979
    ],
    "wof:breaches":[],
    "wof:concordances":{
        "gn:id":4744800
    },
    "wof:country":"US",
    "wof:geomhash":"d76a3d081f95b8e0b1480ce319716e56",
    "wof:hierarchy":[
        {
            "continent_id":102191575,
            "country_id":85633793,
            "county_id":102084979,
            "locality_id":1293405917,
            "region_id":85688747
        }
    ],
    "wof:id":1293405917,
    "wof:lastmodified":1536904778,
    "wof:name":"Arrowhead",
    "wof:parent_id":102084979,
    "wof:placetype":"locality",
    "wof:repo":"whosonfirst-data-admin-us",
    "wof:superseded_by":[],
    "wof:supersedes":[],
    "wof:tags":[]
},
  "bbox": [
    -79.6317,
    37.0132,
    -79.6317,
    37.0132
],
  "geometry": {"coordinates":[-79.6317,37.0132],"type":"Point"}
}