{
  "id": 420551323,
  "type": "Feature",
  "properties": {
    "edtf:cessation":"uuuu",
    "edtf:inception":"uuuu",
    "geom:area":0.0,
    "geom:area_square_m":84647.604785,
    "geom:bbox":"-122.536512,37.940551,-122.536512,37.940551",
    "geom:latitude":37.940551,
    "geom:longitude":-122.536512,
    "iso:country":"US",
    "lbl:latitude":37.940551,
    "lbl:longitude":-122.536512,
    "mz:hierarchy_label":0,
    "mz:is_current":1,
    "name:eng_x_preferred":[
        "Creekside"
    ],
    "src:geom":"mz",
    "src:geom_alt":[
        "quattroshapes_pg",
        "zetashapes"
    ],
    "src:lbl":"mapshaper",
    "src:lbl:centroid":"mapshaper",
    "src:population":"zetashapes",
    "wd:wordcount":74,
    "wof:belongsto":[
        102191575,
        85633793,
        85922027,
        102084353,
        85688637
    ],
    "wof:breaches":[],
    "wof:concordances":{
        "gp:id":55969861,
        "qs_pg:id":959684
    },
    "wof:country":"US",
    "wof:geomhash":"10f1d8b700e8f7597b47fceb2640f16d",
    "wof:hierarchy":[
        {
            "continent_id":102191575,
            "country_id":85633793,
            "county_id":102084353,
            "locality_id":85922027,
            "neighbourhood_id":420551323,
            "region_id":85688637
        }
    ],
    "wof:id":420551323,
    "wof:lastmodified":1533612935,
    "wof:name":"Creekside",
    "wof:parent_id":85922027,
    "wof:placetype":"neighbourhood",
    "wof:population":193,
    "wof:population_rank":1,
    "wof:repo":"whosonfirst-data-admin-us",
    "wof:superseded_by":[],
    "wof:supersedes":[],
    "wof:tags":[],
    "zs:area_m":84641.773917,
    "zs:blockids":[
        60411200005012,
        60411200005006,
        60411200005013,
        60411200005010,
        60411200005011
    ],
    "zs:housing10":71,
    "zs:id":55969861,
    "zs:label":"Creekside",
    "zs:pop10":193
},
  "bbox": [
    -122.536512,
    37.940551,
    -122.536512,
    37.940551
],
  "geometry": {"coordinates":[-122.536512,37.940551],"type":"Point"}
}