{
  "id": 1125983083,
  "type": "Feature",
  "properties": {
    "edtf:cessation":"uuuu",
    "edtf:inception":"uuuu",
    "geom:area":0.0,
    "geom:area_square_m":0.0,
    "geom:bbox":"-144.06889,61.51139,-144.06889,61.51139",
    "geom:latitude":61.51139,
    "geom:longitude":-144.06889,
    "gn:gn_country":"US",
    "gn:gn_fcode":"PPL",
    "gn:gn_pop":0,
    "iso:country":"US",
    "lbl:latitude":61.51139,
    "lbl:longitude":-144.06889,
    "mz:hierarchy_label":1,
    "mz:is_current":-1,
    "mz:note":"Quattroshapes Point Gazetteer import 20170519",
    "qs_pg:aaroncc":"US",
    "qs_pg:gn_country":"US",
    "qs_pg:gn_fcode":"PPL",
    "qs_pg:gn_id":5875280,
    "qs_pg:gn_pop":0,
    "qs_pg:name":"Strelna",
    "qs_pg:name_adm0":"United States",
    "qs_pg:name_adm1":"Alaska",
    "qs_pg:photos":29,
    "qs_pg:photos_1k":6,
    "qs_pg:photos_9k":1,
    "qs_pg:photos_9r":2,
    "qs_pg:photos_all":29,
    "qs_pg:photos_sr":2,
    "qs_pg:pop_sr":0,
    "qs_pg:qs_id":1172930,
    "qs_pg:qs_pg_placetype":"locality",
    "qs_pg:qs_pg_placetype_gp":"Town",
    "qs_pg:woe_adm0":23424977,
    "qs_pg:woe_id":2500872,
    "src:geom":"qs_pg",
    "src:lbl:centroid":"qs_pg",
    "woe:adm0_id":23424977,
    "woe:name_adm0":"United States",
    "woe:name_adm1":"Alaska",
    "woe:placetype":"Town",
    "wof:belongsto":[
        102191575,
        85633793,
        85688573,
        102081911
    ],
    "wof:breaches":[],
    "wof:concordances":{
        "gn:id":5875280,
        "gp:id":2500872,
        "qs_pg:id":1172930
    },
    "wof:country":"US",
    "wof:created":1497298654,
    "wof:geomhash":"a2eff4538c9a3ba073b268862e89ba50",
    "wof:hierarchy":[
        {
            "continent_id":102191575,
            "country_id":85633793,
            "county_id":102081911,
            "locality_id":1125983083,
            "region_id":85688573
        }
    ],
    "wof:id":1125983083,
    "wof:lastmodified":1509404888,
    "wof:name":"Strelna",
    "wof:parent_id":102081911,
    "wof:placetype":"locality",
    "wof:repo":"whosonfirst-data-admin-us",
    "wof:superseded_by":[],
    "wof:supersedes":[],
    "wof:tags":[]
},
  "bbox": [
    -144.06889,
    61.51139,
    -144.06889,
    61.51139
],
  "geometry": {"coordinates":[-144.06889000000001,61.51139],"type":"Point"}
}