{
  "id": 420516455,
  "type": "Feature",
  "properties": {
    "edtf:cessation":"uuuu",
    "edtf:inception":"uuuu",
    "geom:area":0.0,
    "geom:area_square_m":2161519.729328,
    "geom:bbox":"-81.63277,28.220791,-81.63277,28.220791",
    "geom:latitude":28.220791,
    "geom:longitude":-81.63277,
    "iso:country":"US",
    "lbl:latitude":28.220791,
    "lbl:longitude":-81.63277,
    "mz:hierarchy_label":0,
    "mz:is_current":-1,
    "name:eng_x_preferred":[
        "Aylesbury"
    ],
    "src:geom":"mz",
    "src:geom_alt":[
        "zetashapes"
    ],
    "src:lbl":"mapshaper",
    "src:lbl:centroid":"mapshaper",
    "src:population":"zetashapes",
    "wof:belongsto":[
        102191575,
        85633793,
        102085843,
        85688651
    ],
    "wof:breaches":[],
    "wof:concordances":{
        "gp:id":55976280
    },
    "wof:country":"US",
    "wof:geomhash":"5c08afb17fc707709b257d7e34950649",
    "wof:hierarchy":[
        {
            "continent_id":102191575,
            "country_id":85633793,
            "county_id":102085843,
            "locality_id":-1,
            "neighbourhood_id":420516455,
            "region_id":85688651
        }
    ],
    "wof:id":420516455,
    "wof:lastmodified":1533593110,
    "wof:name":"Aylesbury",
    "wof:parent_id":-1,
    "wof:placetype":"neighbourhood",
    "wof:population":898,
    "wof:population_rank":2,
    "wof:repo":"whosonfirst-data-admin-us",
    "wof:superseded_by":[],
    "wof:supersedes":[],
    "wof:tags":[],
    "zs:area_m":2161379.063517,
    "zs:blockids":[
        121050125071033,
        121050125071037,
        121050125071051,
        121050125071045,
        121050125071054,
        121050125071044,
        121050125071041,
        121050125071031,
        121050125071050,
        121050125071055,
        121050125071040,
        121050125072038,
        121050125071049,
        121050125072039,
        121050125071036,
        121050125071053,
        121050125071030,
        121050125071046,
        121050125071032,
        121050125071052,
        121050125071035,
        121050125071047,
        121050125071048,
        121050125071042,
        121050125071004,
        121050125072037,
        121050125071043,
        121050125071038,
        121050125071039,
        121050125071034
    ],
    "zs:housing10":984,
    "zs:id":55976280,
    "zs:label":"Aylesbury",
    "zs:pop10":898
},
  "bbox": [
    -81.63277,
    28.220791,
    -81.63277,
    28.220791
],
  "geometry": {"coordinates":[-81.63276999999999,28.220791],"type":"Point"}
}