{
  "id": 1125401753,
  "type": "Feature",
  "properties": {
    "edtf:cessation":"uuuu",
    "edtf:deprecated":"2017-11-04",
    "edtf:inception":"uuuu",
    "geom:area":0.0,
    "geom:area_square_m":0.0,
    "geom:bbox":"-93.72834,38.76172,-93.72834,38.76172",
    "geom:latitude":38.76172,
    "geom:longitude":-93.72834,
    "gn:gn_country":"US",
    "gn:gn_fcode":"ADMD",
    "gn:gn_pop":18838,
    "gn:population":18838,
    "iso:country":"US",
    "lbl:latitude":38.76172,
    "lbl:longitude":-93.72834,
    "mz:hierarchy_label":1,
    "mz:is_current":0,
    "mz:note":"Quattroshapes Point Gazetteer import 20170519",
    "qs_pg:aaroncc":"US",
    "qs_pg:gn_country":"US",
    "qs_pg:gn_fcode":"ADMD",
    "qs_pg:gn_id":7165063,
    "qs_pg:gn_pop":18838,
    "qs_pg:name":"City of Warrensburg",
    "qs_pg:photos_9r":0,
    "qs_pg:photos_sr":0,
    "qs_pg:pop_sr":6,
    "qs_pg:qs_id":659987,
    "qs_pg:qs_pg_placetype":"localadmin",
    "src:geom":"qs_pg",
    "src:lbl:centroid":"qs_pg",
    "src:population":"geonames",
    "wof:belongsto":[
        85633793
    ],
    "wof:breaches":[],
    "wof:concordances":{
        "gn:id":7165063,
        "qs_pg:id":659987
    },
    "wof:country":"US",
    "wof:created":1497049366,
    "wof:geomhash":"a04c3f8d04bf33690988718bf5200588",
    "wof:hierarchy":[
        {
            "country_id":85633793,
            "localadmin_id":1125401753
        }
    ],
    "wof:id":1125401753,
    "wof:lastmodified":1509752706,
    "wof:name":"City of Warrensburg",
    "wof:parent_id":-1,
    "wof:placetype":"localadmin",
    "wof:population":18838,
    "wof:population_rank":6,
    "wof:repo":"whosonfirst-data-admin-us",
    "wof:superseded_by":[
        85971931
    ],
    "wof:supersedes":[],
    "wof:tags":[]
},
  "bbox": [
    -93.72834,
    38.76172,
    -93.72834,
    38.76172
],
  "geometry": {"coordinates":[-93.72834,38.76172],"type":"Point"}
}