{
  "id": 420560121,
  "type": "Feature",
  "properties": {
    "edtf:cessation":"uuuu",
    "edtf:inception":"uuuu",
    "geom:area":0.0,
    "geom:area_square_m":475727.328079,
    "geom:bbox":"-84.942138,32.445663,-84.942138,32.445663",
    "geom:latitude":32.445663,
    "geom:longitude":-84.942138,
    "iso:country":"US",
    "lbl:latitude":32.445663,
    "lbl:longitude":-84.942138,
    "mz:hierarchy_label":0,
    "mz:is_current":-1,
    "src:geom":"mz",
    "src:geom_alt":[
        "zetashapes"
    ],
    "src:lbl:centroid":"mapshaper",
    "wof:belongsto":[
        102191575,
        85633793,
        85936243,
        102084429,
        85688535
    ],
    "wof:breaches":[],
    "wof:concordances":{
        "gp:id":2423320
    },
    "wof:country":"US",
    "wof:geomhash":"e843058e61496287014cc3161a3d2280",
    "wof:hierarchy":[
        {
            "continent_id":102191575,
            "country_id":85633793,
            "county_id":102084429,
            "locality_id":85936243,
            "neighbourhood_id":420560121,
            "region_id":85688535
        }
    ],
    "wof:id":420560121,
    "wof:lastmodified":1533614494,
    "wof:name":"",
    "wof:parent_id":85936243,
    "wof:placetype":"neighbourhood",
    "wof:repo":"whosonfirst-data-admin-us",
    "wof:superseded_by":[],
    "wof:supersedes":[],
    "wof:tags":[],
    "zs:13215:area_m":475694.600235,
    "zs:13215:blockids":"132150029021010,132150029021007,132150029021014,132150029021015,132150029021016",
    "zs:13215:housing10":48,
    "zs:13215:id":2423320,
    "zs:13215:label":"Holly Hills",
    "zs:13215:pop10":99,
    "zs:id":2423320,
    "zs:name":"Holly Hills",
    "zs:placetype":"neighbourhood",
    "zs:us:counties":[
        "13215"
    ]
},
  "bbox": [
    -84.942138,
    32.445663,
    -84.942138,
    32.445663
],
  "geometry": {"coordinates":[-84.942138,32.445663],"type":"Point"}
}