{
  "id": 1293123521,
  "type": "Feature",
  "properties": {
    "edtf:cessation":"2018-09-06",
    "edtf:inception":"uuuu",
    "geom:area":0.0,
    "geom:area_square_m":0.0,
    "geom:bbox":"-89.64868,31.55461,-89.64868,31.55461",
    "geom:latitude":31.55461,
    "geom:longitude":-89.64868,
    "gn:admin1_code":"MS",
    "gn:admin2_code":"65.0",
    "gn:asciiname":"Double Churches (historical)",
    "gn:country_code":"US",
    "gn:dem":93,
    "gn:elevation":"83.0",
    "gn:feature_class":"P",
    "gn:feature_code":"PPLQ",
    "gn:geonameid":4424623,
    "gn:latitude":31.55461,
    "gn:longitude":-89.64868,
    "gn:modification_date":"2011-12-11",
    "gn:name":"Double Churches (historical)",
    "gn:population":0,
    "gn:timezone":"America/Chicago",
    "iso:country":"US",
    "mz:hierarchy_label":1,
    "mz:is_current":0,
    "src:geom":"geonames",
    "wof:belongsto":[
        102191575,
        85633793,
        85688579,
        102087227
    ],
    "wof:breaches":[],
    "wof:concordances":{
        "gn:id":4424623
    },
    "wof:country":"US",
    "wof:geomhash":"66153db0656a8757c9c83b51167d01d8",
    "wof:hierarchy":[
        {
            "continent_id":102191575,
            "country_id":85633793,
            "county_id":102087227,
            "locality_id":1293123521,
            "region_id":85688579
        }
    ],
    "wof:id":1293123521,
    "wof:lastmodified":1536814171,
    "wof:name":"Double Churches (historical)",
    "wof:parent_id":102087227,
    "wof:placetype":"locality",
    "wof:repo":"whosonfirst-data-admin-us",
    "wof:superseded_by":[],
    "wof:supersedes":[],
    "wof:tags":[]
},
  "bbox": [
    -89.64868,
    31.55461,
    -89.64868,
    31.55461
],
  "geometry": {"coordinates":[-89.64868,31.55461],"type":"Point"}
}