{
  "id": 420550679,
  "type": "Feature",
  "properties": {
    "edtf:cessation":"uuuu",
    "edtf:inception":"uuuu",
    "geom:area":0.0,
    "geom:area_square_m":377526.678426,
    "geom:bbox":"-120.736008,38.799754,-120.736008,38.799754",
    "geom:latitude":38.799754,
    "geom:longitude":-120.736008,
    "iso:country":"US",
    "lbl:latitude":38.799754,
    "lbl:longitude":-120.736008,
    "mz:hierarchy_label":0,
    "mz:is_current":-1,
    "name:eng_x_preferred":[
        "Swans Country"
    ],
    "src:geom":"mz",
    "src:geom_alt":[
        "zetashapes"
    ],
    "src:lbl":"mapshaper",
    "src:lbl:centroid":"mapshaper",
    "src:population":"zetashapes",
    "wof:belongsto":[
        102191575,
        85633793,
        102086953,
        85688637
    ],
    "wof:breaches":[],
    "wof:concordances":{
        "gp:id":55970390
    },
    "wof:country":"US",
    "wof:geomhash":"5fe74e791c7c5fedd8ef07ad5cb6c382",
    "wof:hierarchy":[
        {
            "continent_id":102191575,
            "country_id":85633793,
            "county_id":102086953,
            "locality_id":-1,
            "neighbourhood_id":420550679,
            "region_id":85688637
        }
    ],
    "wof:id":420550679,
    "wof:lastmodified":1533612760,
    "wof:name":"Swans Country",
    "wof:parent_id":-1,
    "wof:placetype":"neighbourhood",
    "wof:population":24,
    "wof:population_rank":1,
    "wof:repo":"whosonfirst-data-admin-us",
    "wof:superseded_by":[],
    "wof:supersedes":[],
    "wof:tags":[],
    "zs:area_m":377500.726571,
    "zs:blockids":[
        60170306033072
    ],
    "zs:housing10":20,
    "zs:id":55970390,
    "zs:label":"Swans Country",
    "zs:pop10":24
},
  "bbox": [
    -120.736008,
    38.799754,
    -120.736008,
    38.799754
],
  "geometry": {"coordinates":[-120.736008,38.799754],"type":"Point"}
}