{
  "id": 1125929321,
  "type": "Feature",
  "properties": {
    "edtf:cessation":"uuuu",
    "edtf:inception":"uuuu",
    "geom:area":0.0,
    "geom:area_square_m":0.0,
    "geom:bbox":"-83.00324,39.83229,-83.00324,39.83229",
    "geom:latitude":39.83229,
    "geom:longitude":-83.00324,
    "gn:gn_country":"US",
    "gn:gn_fcode":"PPL",
    "gn:gn_pop":0,
    "iso:country":"US",
    "lbl:latitude":39.83229,
    "lbl:longitude":-83.00324,
    "mz:hierarchy_label":1,
    "mz:is_current":-1,
    "mz:note":"Quattroshapes Point Gazetteer import 20170519",
    "name:eng_x_preferred":[
        "Shadeville"
    ],
    "name:unk_x_variant":[
        "Shadesville"
    ],
    "qs_pg:aaroncc":"US",
    "qs_pg:gn_country":"US",
    "qs_pg:gn_fcode":"PPL",
    "qs_pg:gn_id":4524427,
    "qs_pg:gn_pop":0,
    "qs_pg:name":"Shadeville",
    "qs_pg:name_adm0":"United States",
    "qs_pg:name_adm1":"Ohio",
    "qs_pg:photos":39,
    "qs_pg:photos_1k":8,
    "qs_pg:photos_9k":1,
    "qs_pg:photos_9r":2,
    "qs_pg:photos_all":39,
    "qs_pg:photos_sr":2,
    "qs_pg:pop_sr":0,
    "qs_pg:qs_id":984775,
    "qs_pg:qs_pg_placetype":"locality",
    "qs_pg:qs_pg_placetype_gp":"Town",
    "qs_pg:woe_adm0":23424977,
    "qs_pg:woe_id":2491205,
    "src:geom":"qs_pg",
    "src:lbl:centroid":"qs_pg",
    "woe:adm0_id":23424977,
    "woe:name_adm0":"United States",
    "woe:name_adm1":"Ohio",
    "woe:placetype":"Town",
    "wof:belongsto":[
        85688485,
        102191575,
        404524633,
        85633793,
        102080969
    ],
    "wof:breaches":[],
    "wof:concordances":{
        "gn:id":4524427,
        "gp:id":2491205,
        "qs_pg:id":984775
    },
    "wof:country":"US",
    "wof:created":1497296749,
    "wof:geomhash":"150888a1f1a3b705132c5a19ae4a0ffb",
    "wof:hierarchy":[
        {
            "continent_id":102191575,
            "country_id":85633793,
            "county_id":102080969,
            "localadmin_id":404524633,
            "locality_id":1125929321,
            "region_id":85688485
        }
    ],
    "wof:id":1125929321,
    "wof:lastmodified":1509401299,
    "wof:name":"Shadeville",
    "wof:parent_id":404524633,
    "wof:placetype":"locality",
    "wof:repo":"whosonfirst-data-admin-us",
    "wof:superseded_by":[],
    "wof:supersedes":[],
    "wof:tags":[]
},
  "bbox": [
    -83.00324,
    39.83229,
    -83.00324,
    39.83229
],
  "geometry": {"coordinates":[-83.00324000000001,39.83229],"type":"Point"}
}