{
  "id": 1125413355,
  "type": "Feature",
  "properties": {
    "edtf:cessation":"2017-05-19",
    "edtf:inception":"uuuu",
    "geom:area":0.0,
    "geom:area_square_m":0.0,
    "geom:bbox":"-76.11864,43.94203,-76.11864,43.94203",
    "geom:latitude":43.94203,
    "geom:longitude":-76.11864,
    "gn:gn_country":"US",
    "gn:gn_fcode":"ADMD",
    "gn:gn_pop":1450,
    "gn:population":1450,
    "iso:country":"US",
    "lbl:latitude":43.94203,
    "lbl:longitude":-76.11864,
    "mz:hierarchy_label":1,
    "mz:is_current":0,
    "mz:note":"Quattroshapes Point Gazetteer import 20170519",
    "qs_pg:aaroncc":"US",
    "qs_pg:gn_country":"US",
    "qs_pg:gn_fcode":"ADMD",
    "qs_pg:gn_id":7161859,
    "qs_pg:gn_pop":1450,
    "qs_pg:name":"Village of Sackets Harbor",
    "qs_pg:photos_9r":0,
    "qs_pg:photos_sr":0,
    "qs_pg:pop_sr":3,
    "qs_pg:qs_id":657404,
    "qs_pg:qs_pg_placetype":"localadmin",
    "src:geom":"qs_pg",
    "src:lbl:centroid":"qs_pg",
    "src:population":"geonames",
    "wof:belongsto":[
        85633793
    ],
    "wof:breaches":[],
    "wof:concordances":{
        "gn:id":7161859,
        "qs_pg:id":657404
    },
    "wof:country":"US",
    "wof:created":1497050821,
    "wof:geomhash":"956ff9f6f1f8b8a8549edb90f706318d",
    "wof:hierarchy":[
        {
            "country_id":85633793,
            "localadmin_id":1125413355
        }
    ],
    "wof:id":1125413355,
    "wof:lastmodified":1505187020,
    "wof:name":"Village of Sackets Harbor",
    "wof:parent_id":-1,
    "wof:placetype":"localadmin",
    "wof:population":1450,
    "wof:population_rank":3,
    "wof:repo":"whosonfirst-data-admin-us",
    "wof:superseded_by":[],
    "wof:supersedes":[],
    "wof:tags":[]
},
  "bbox": [
    -76.11864,
    43.94203,
    -76.11864,
    43.94203
],
  "geometry": {"coordinates":[-76.11864,43.94203],"type":"Point"}
}