{
  "id": 1343977703,
  "type": "Feature",
  "properties": {
    "edtf:cessation":"uuuu",
    "edtf:deprecated":"2019-02-08",
    "edtf:inception":"uuuu",
    "geom:area":0.0,
    "geom:area_square_m":0.0,
    "geom:bbox":"-76.73861,42.30139,-76.73861,42.30139",
    "geom:latitude":42.30139,
    "geom:longitude":-76.73861,
    "gn:admin1_code":"NY",
    "gn:admin2_code":"97",
    "gn:admin3_code":"12914.0",
    "gn:asciiname":"Wildwood Mobile Home Park",
    "gn:country_code":"US",
    "gn:dem":358,
    "gn:elevation":"359.0",
    "gn:feature_class":"P",
    "gn:feature_code":"PPL",
    "gn:geonameid":7235156,
    "gn:latitude":42.30139,
    "gn:longitude":-76.73861,
    "gn:modification_date":"2017-05-23",
    "gn:name":"Wildwood Mobile Home Park",
    "gn:population":0,
    "gn:timezone":"America/New_York",
    "iso:country":"US",
    "mz:hierarchy_label":1,
    "mz:is_current":0,
    "src:geom":"geonames",
    "wof:belongsto":[
        85688543,
        102191575,
        404521411,
        85633793,
        102082397
    ],
    "wof:breaches":[],
    "wof:concordances":{
        "gn:id":7235156
    },
    "wof:country":"US",
    "wof:geomhash":"dd93de0a5588ebf317304b488f6ce87e",
    "wof:hierarchy":[
        {
            "continent_id":102191575,
            "country_id":85633793,
            "county_id":102082397,
            "localadmin_id":404521411,
            "locality_id":1343977703,
            "region_id":85688543
        }
    ],
    "wof:id":1343977703,
    "wof:lastmodified":1549654254,
    "wof:name":"Wildwood Mobile Home Park",
    "wof:parent_id":404521411,
    "wof:placetype":"locality",
    "wof:repo":"whosonfirst-data-admin-us",
    "wof:superseded_by":[
        1376911513
    ],
    "wof:supersedes":[],
    "wof:tags":[]
},
  "bbox": [
    -76.73861,
    42.30139000000001,
    -76.73861,
    42.30139000000001
],
  "geometry": {"coordinates":[-76.73860999999999,42.30139000000001],"type":"Point"}
}