{
  "id": 1343485489,
  "type": "Feature",
  "properties": {
    "edtf:cessation":"2018-09-06",
    "edtf:inception":"uuuu",
    "geom:area":0.0,
    "geom:area_square_m":0.0,
    "geom:bbox":"-87.88697,35.11286,-87.88697,35.11286",
    "geom:latitude":35.11286,
    "geom:longitude":-87.88697,
    "gn:admin1_code":"TN",
    "gn:admin2_code":"181.0",
    "gn:asciiname":"Weatherford (historical)",
    "gn:country_code":"US",
    "gn:dem":211,
    "gn:elevation":"212.0",
    "gn:feature_class":"P",
    "gn:feature_code":"PPLQ",
    "gn:geonameid":4666292,
    "gn:latitude":35.11286,
    "gn:longitude":-87.88697,
    "gn:modification_date":"2011-12-11",
    "gn:name":"Weatherford (historical)",
    "gn:population":0,
    "gn:timezone":"America/Chicago",
    "iso:country":"US",
    "mz:hierarchy_label":1,
    "mz:is_current":0,
    "src:geom":"geonames",
    "wof:belongsto":[
        102191575,
        85633793,
        85688701,
        102087175
    ],
    "wof:breaches":[],
    "wof:concordances":{
        "gn:id":4666292
    },
    "wof:country":"US",
    "wof:geomhash":"d8855cd632c948c36d7cb20d04fb83d2",
    "wof:hierarchy":[
        {
            "continent_id":102191575,
            "country_id":85633793,
            "county_id":102087175,
            "locality_id":1343485489,
            "region_id":85688701
        }
    ],
    "wof:id":1343485489,
    "wof:lastmodified":1536710427,
    "wof:name":"Weatherford (historical)",
    "wof:parent_id":102087175,
    "wof:placetype":"locality",
    "wof:repo":"whosonfirst-data-admin-us",
    "wof:superseded_by":[],
    "wof:supersedes":[],
    "wof:tags":[]
},
  "bbox": [
    -87.88696999999998,
    35.11286,
    -87.88696999999998,
    35.11286
],
  "geometry": {"coordinates":[-87.88696999999998,35.11286],"type":"Point"}
}