{
  "id": 1360101039,
  "type": "Feature",
  "properties": {
    "edtf:cessation":"2018-09-06",
    "edtf:inception":"uuuu",
    "geom:area":0.0,
    "geom:area_square_m":0.0,
    "geom:bbox":"-120.98048,37.21105,-120.98048,37.21105",
    "geom:latitude":37.21105,
    "geom:longitude":-120.98048,
    "gn:admin1_code":"CA",
    "gn:admin2_code":"47",
    "gn:asciiname":"Linora (historical)",
    "gn:country_code":"US",
    "gn:dem":32,
    "gn:elevation":"28.0",
    "gn:feature_class":"P",
    "gn:feature_code":"PPLQ",
    "gn:geonameid":5366647,
    "gn:latitude":37.21105,
    "gn:longitude":-120.98048,
    "gn:modification_date":"2011-12-12",
    "gn:name":"Linora (historical)",
    "gn:population":0,
    "gn:timezone":"America/Los_Angeles",
    "iso:country":"US",
    "mz:hierarchy_label":1,
    "mz:is_current":0,
    "src:geom":"geonames",
    "wof:belongsto":[
        102191575,
        85633793,
        85688637,
        102087591
    ],
    "wof:breaches":[],
    "wof:concordances":{
        "gn:id":5366647
    },
    "wof:country":"US",
    "wof:geomhash":"df5c3ea28135143c3a87698d556456db",
    "wof:hierarchy":[
        {
            "continent_id":102191575,
            "country_id":85633793,
            "county_id":102087591,
            "locality_id":1360101039,
            "region_id":85688637
        }
    ],
    "wof:id":1360101039,
    "wof:lastmodified":1536923289,
    "wof:name":"Linora (historical)",
    "wof:parent_id":102087591,
    "wof:placetype":"locality",
    "wof:repo":"whosonfirst-data-admin-us",
    "wof:superseded_by":[],
    "wof:supersedes":[],
    "wof:tags":[]
},
  "bbox": [
    -120.98048,
    37.21105,
    -120.98048,
    37.21105
],
  "geometry": {"coordinates":[-120.98048,37.21105],"type":"Point"}
}