{
  "id": 1125296503,
  "type": "Feature",
  "properties": {
    "edtf:cessation":"uuuu",
    "edtf:deprecated":"2017-11-04",
    "edtf:inception":"uuuu",
    "geom:area":0.0,
    "geom:area_square_m":0.0,
    "geom:bbox":"-96.88174,31.75656,-96.88174,31.75656",
    "geom:latitude":31.75656,
    "geom:longitude":-96.88174,
    "gn:gn_country":"US",
    "gn:gn_fcode":"ADMD",
    "gn:gn_pop":320,
    "gn:population":320,
    "iso:country":"US",
    "lbl:latitude":31.75656,
    "lbl:longitude":-96.88174,
    "mz:hierarchy_label":1,
    "mz:is_current":0,
    "mz:note":"Quattroshapes Point Gazetteer import 20170519",
    "qs_pg:aaroncc":"US",
    "qs_pg:gn_country":"US",
    "qs_pg:gn_fcode":"ADMD",
    "qs_pg:gn_id":7173903,
    "qs_pg:gn_pop":320,
    "qs_pg:name":"City of Mount Calm",
    "qs_pg:photos_9r":0,
    "qs_pg:photos_sr":0,
    "qs_pg:pop_sr":2,
    "qs_pg:qs_id":666475,
    "qs_pg:qs_pg_placetype":"localadmin",
    "src:geom":"qs_pg",
    "src:lbl:centroid":"qs_pg",
    "src:population":"geonames",
    "wof:belongsto":[
        85633793
    ],
    "wof:breaches":[],
    "wof:concordances":{
        "gn:id":7173903,
        "qs_pg:id":666475
    },
    "wof:country":"US",
    "wof:created":1497043173,
    "wof:geomhash":"57416c3b290e96434b1599717145b008",
    "wof:hierarchy":[
        {
            "country_id":85633793,
            "localadmin_id":1125296503
        }
    ],
    "wof:id":1125296503,
    "wof:lastmodified":1509752473,
    "wof:name":"City of Mount Calm",
    "wof:parent_id":-1,
    "wof:placetype":"localadmin",
    "wof:population":320,
    "wof:population_rank":2,
    "wof:repo":"whosonfirst-data-admin-us",
    "wof:superseded_by":[
        101725387
    ],
    "wof:supersedes":[],
    "wof:tags":[]
},
  "bbox": [
    -96.88174,
    31.75656,
    -96.88174,
    31.75656
],
  "geometry": {"coordinates":[-96.88173999999999,31.75656],"type":"Point"}
}