{
  "id": 1260202507,
  "type": "Feature",
  "properties": {
    "edtf:cessation":"uuuu",
    "edtf:inception":"uuuu",
    "geom:area":0.0,
    "geom:area_square_m":0.0,
    "geom:bbox":"-79.81647,33.08961,-79.81647,33.08961",
    "geom:latitude":33.08961,
    "geom:longitude":-79.81647,
    "gn:admin1_code":"SC",
    "gn:admin2_code":"15.0",
    "gn:asciiname":"New Hope",
    "gn:country_code":"US",
    "gn:dem":11,
    "gn:elevation":"6.0",
    "gn:feature_class":"P",
    "gn:feature_code":"PPL",
    "gn:geonameid":4588987,
    "gn:latitude":33.08961,
    "gn:longitude":-79.81647,
    "gn:modification_date":"2006-01-15",
    "gn:name":"New Hope",
    "gn:population":0,
    "gn:timezone":"America/New_York",
    "iso:country":"US",
    "mz:hierarchy_label":1,
    "mz:is_current":-1,
    "src:geom":"geonames",
    "wof:belongsto":[
        102191575,
        85633793,
        85688683,
        102085397
    ],
    "wof:breaches":[],
    "wof:concordances":{
        "gn:id":4588987
    },
    "wof:country":"US",
    "wof:geomhash":"147f907a45d0cb670dfbe1af39399e11",
    "wof:hierarchy":[
        {
            "continent_id":102191575,
            "country_id":85633793,
            "county_id":102085397,
            "locality_id":1260202507,
            "region_id":85688683
        }
    ],
    "wof:id":1260202507,
    "wof:lastmodified":1536821001,
    "wof:name":"New Hope",
    "wof:parent_id":102085397,
    "wof:placetype":"locality",
    "wof:repo":"whosonfirst-data-admin-us",
    "wof:superseded_by":[],
    "wof:supersedes":[],
    "wof:tags":[]
},
  "bbox": [
    -79.81647,
    33.08961,
    -79.81647,
    33.08961
],
  "geometry": {"coordinates":[-79.81647,33.08961],"type":"Point"}
}