{
  "id": 1226564695,
  "type": "Feature",
  "properties": {
    "edtf:cessation":"uuuu",
    "edtf:inception":"uuuu",
    "geom:area":0.0,
    "geom:area_square_m":0.0,
    "geom:bbox":"-79.1453,37.4057,-79.1453,37.4057",
    "geom:latitude":37.4057,
    "geom:longitude":-79.1453,
    "gn:admin1_code":"VA",
    "gn:admin2_code":"680",
    "gn:asciiname":"Diamond Hill",
    "gn:country_code":"US",
    "gn:dem":219,
    "gn:elevation":"216.0",
    "gn:feature_class":"P",
    "gn:feature_code":"PPL",
    "gn:geonameid":4755830,
    "gn:latitude":37.4057,
    "gn:longitude":-79.1453,
    "gn:modification_date":"2006-01-15",
    "gn:name":"Diamond Hill",
    "gn:population":0,
    "gn:timezone":"America/New_York",
    "iso:country":"US",
    "mz:hierarchy_label":1,
    "mz:is_current":-1,
    "src:geom":"geonames",
    "wof:belongsto":[
        102191575,
        85633793,
        85688747,
        102083815
    ],
    "wof:breaches":[],
    "wof:concordances":{
        "gn:id":4755830
    },
    "wof:country":"US",
    "wof:geomhash":"d3409fa15396c4851c20985b2c94d95a",
    "wof:hierarchy":[
        {
            "continent_id":102191575,
            "country_id":85633793,
            "county_id":102083815,
            "locality_id":1226564695,
            "region_id":85688747
        }
    ],
    "wof:id":1226564695,
    "wof:lastmodified":1536970599,
    "wof:name":"Diamond Hill",
    "wof:parent_id":102083815,
    "wof:placetype":"locality",
    "wof:repo":"whosonfirst-data-admin-us",
    "wof:superseded_by":[],
    "wof:supersedes":[],
    "wof:tags":[]
},
  "bbox": [
    -79.1453,
    37.4057,
    -79.1453,
    37.4057
],
  "geometry": {"coordinates":[-79.14530000000001,37.4057],"type":"Point"}
}