{
  "id": 1276359127,
  "type": "Feature",
  "properties": {
    "edtf:cessation":"2018-09-07",
    "edtf:inception":"uuuu",
    "geom:area":0.0,
    "geom:area_square_m":0.0,
    "geom:bbox":"-106.56671,48.35558,-106.56671,48.35558",
    "geom:latitude":48.35558,
    "geom:longitude":-106.56671,
    "gn:admin1_code":"MT",
    "gn:admin2_code":"105.0",
    "gn:asciiname":"Rose Hill (historical)",
    "gn:country_code":"US",
    "gn:dem":821,
    "gn:elevation":"823.0",
    "gn:feature_class":"P",
    "gn:feature_code":"PPLQ",
    "gn:geonameid":5674687,
    "gn:latitude":48.35558,
    "gn:longitude":-106.56671,
    "gn:modification_date":"2011-12-12",
    "gn:name":"Rose Hill (historical)",
    "gn:population":0,
    "gn:timezone":"America/Denver",
    "iso:country":"US",
    "mz:hierarchy_label":1,
    "mz:is_current":0,
    "src:geom":"geonames",
    "wof:belongsto":[
        102191575,
        85633793,
        85688617,
        102085109
    ],
    "wof:breaches":[],
    "wof:concordances":{
        "gn:id":5674687
    },
    "wof:country":"US",
    "wof:geomhash":"0cf3edc14d94080a2bd43377e51d7a5f",
    "wof:hierarchy":[
        {
            "continent_id":102191575,
            "country_id":85633793,
            "county_id":102085109,
            "locality_id":1276359127,
            "region_id":85688617
        }
    ],
    "wof:id":1276359127,
    "wof:lastmodified":1536743807,
    "wof:name":"Rose Hill (historical)",
    "wof:parent_id":102085109,
    "wof:placetype":"locality",
    "wof:repo":"whosonfirst-data-admin-us",
    "wof:superseded_by":[],
    "wof:supersedes":[],
    "wof:tags":[]
},
  "bbox": [
    -106.56671,
    48.35558,
    -106.56671,
    48.35558
],
  "geometry": {"coordinates":[-106.56671,48.35558],"type":"Point"}
}