{
  "id": 1125361207,
  "type": "Feature",
  "properties": {
    "edtf:cessation":"2017-05-19",
    "edtf:inception":"uuuu",
    "geom:area":0.0,
    "geom:area_square_m":0.0,
    "geom:bbox":"-84.39425,39.74404,-84.39425,39.74404",
    "geom:latitude":39.74404,
    "geom:longitude":-84.39425,
    "gn:gn_country":"US",
    "gn:gn_fcode":"ADMD",
    "gn:gn_pop":3995,
    "gn:population":3995,
    "iso:country":"US",
    "lbl:latitude":39.74404,
    "lbl:longitude":-84.39425,
    "mz:hierarchy_label":1,
    "mz:is_current":0,
    "mz:note":"Quattroshapes Point Gazetteer import 20170519",
    "qs_pg:aaroncc":"US",
    "qs_pg:gn_country":"US",
    "qs_pg:gn_fcode":"ADMD",
    "qs_pg:gn_id":7167124,
    "qs_pg:gn_pop":3995,
    "qs_pg:name":"Village of New Lebanon",
    "qs_pg:photos_9r":0,
    "qs_pg:photos_sr":0,
    "qs_pg:pop_sr":4,
    "qs_pg:qs_id":532759,
    "qs_pg:qs_pg_placetype":"localadmin",
    "src:geom":"qs_pg",
    "src:lbl:centroid":"qs_pg",
    "src:population":"geonames",
    "wof:belongsto":[
        85633793
    ],
    "wof:breaches":[],
    "wof:concordances":{
        "gn:id":7167124,
        "qs_pg:id":532759
    },
    "wof:country":"US",
    "wof:created":1497046801,
    "wof:geomhash":"f6ae94e6af780486939983b88354875e",
    "wof:hierarchy":[
        {
            "country_id":85633793,
            "localadmin_id":1125361207
        }
    ],
    "wof:id":1125361207,
    "wof:lastmodified":1505187074,
    "wof:name":"Village of New Lebanon",
    "wof:parent_id":-1,
    "wof:placetype":"localadmin",
    "wof:population":3995,
    "wof:population_rank":4,
    "wof:repo":"whosonfirst-data-admin-us",
    "wof:superseded_by":[],
    "wof:supersedes":[],
    "wof:tags":[]
},
  "bbox": [
    -84.39425,
    39.74404,
    -84.39425,
    39.74404
],
  "geometry": {"coordinates":[-84.39425,39.74404],"type":"Point"}
}