{
  "id": 1276674243,
  "type": "Feature",
  "properties": {
    "edtf:cessation":"uuuu",
    "edtf:inception":"uuuu",
    "geom:area":0.0,
    "geom:area_square_m":0.0,
    "geom:bbox":"-90.57761,35.12953,-90.57761,35.12953",
    "geom:latitude":35.12953,
    "geom:longitude":-90.57761,
    "gn:admin1_code":"AR",
    "gn:admin2_code":"123.0",
    "gn:admin3_code":"91539.0",
    "gn:asciiname":"Midway",
    "gn:country_code":"US",
    "gn:dem":63,
    "gn:elevation":"63.0",
    "gn:feature_class":"P",
    "gn:feature_code":"PPL",
    "gn:geonameid":4121447,
    "gn:latitude":35.12953,
    "gn:longitude":-90.57761,
    "gn:modification_date":"2017-05-23",
    "gn:name":"Midway",
    "gn:population":0,
    "gn:timezone":"America/Chicago",
    "iso:country":"US",
    "mz:hierarchy_label":1,
    "mz:is_current":-1,
    "src:geom":"geonames",
    "wof:belongsto":[
        102191575,
        85633793,
        85688549,
        102082037
    ],
    "wof:breaches":[],
    "wof:concordances":{
        "gn:id":4121447
    },
    "wof:country":"US",
    "wof:geomhash":"77f30998e33016b24a204a1ff84fd34d",
    "wof:hierarchy":[
        {
            "continent_id":102191575,
            "country_id":85633793,
            "county_id":102082037,
            "locality_id":1276674243,
            "region_id":85688549
        }
    ],
    "wof:id":1276674243,
    "wof:lastmodified":1536818024,
    "wof:name":"Midway",
    "wof:parent_id":102082037,
    "wof:placetype":"locality",
    "wof:repo":"whosonfirst-data-admin-us",
    "wof:superseded_by":[],
    "wof:supersedes":[],
    "wof:tags":[]
},
  "bbox": [
    -90.57761,
    35.12953,
    -90.57761,
    35.12953
],
  "geometry": {"coordinates":[-90.57761000000001,35.12953],"type":"Point"}
}