{
  "id": 1125420329,
  "type": "Feature",
  "properties": {
    "edtf:cessation":"uuuu",
    "edtf:deprecated":"2017-11-04",
    "edtf:inception":"uuuu",
    "geom:area":0.0,
    "geom:area_square_m":0.0,
    "geom:bbox":"-83.75428,32.64881,-83.75428,32.64881",
    "geom:latitude":32.64881,
    "geom:longitude":-83.75428,
    "gn:gn_country":"US",
    "gn:gn_fcode":"ADMD",
    "gn:gn_pop":4512,
    "gn:population":4512,
    "iso:country":"US",
    "lbl:latitude":32.64881,
    "lbl:longitude":-83.75428,
    "mz:hierarchy_label":1,
    "mz:is_current":0,
    "mz:note":"Quattroshapes Point Gazetteer import 20170519",
    "qs_pg:aaroncc":"US",
    "qs_pg:gn_country":"US",
    "qs_pg:gn_fcode":"ADMD",
    "qs_pg:gn_id":7169689,
    "qs_pg:gn_pop":4512,
    "qs_pg:name":"City of Byron",
    "qs_pg:photos_9r":0,
    "qs_pg:photos_sr":0,
    "qs_pg:pop_sr":4,
    "qs_pg:qs_id":662369,
    "qs_pg:qs_pg_placetype":"localadmin",
    "src:geom":"qs_pg",
    "src:lbl:centroid":"qs_pg",
    "src:population":"geonames",
    "wof:belongsto":[
        85633793
    ],
    "wof:breaches":[],
    "wof:concordances":{
        "gn:id":7169689,
        "qs_pg:id":662369
    },
    "wof:country":"US",
    "wof:created":1497052100,
    "wof:geomhash":"fdadb7ea4768d8d0b5734ec5989095f9",
    "wof:hierarchy":[
        {
            "country_id":85633793,
            "localadmin_id":1125420329
        }
    ],
    "wof:id":1125420329,
    "wof:lastmodified":1509752757,
    "wof:name":"City of Byron",
    "wof:parent_id":-1,
    "wof:placetype":"localadmin",
    "wof:population":4512,
    "wof:population_rank":4,
    "wof:repo":"whosonfirst-data-admin-us",
    "wof:superseded_by":[
        85936245
    ],
    "wof:supersedes":[],
    "wof:tags":[]
},
  "bbox": [
    -83.75428,
    32.64881,
    -83.75428,
    32.64881
],
  "geometry": {"coordinates":[-83.75427999999999,32.64881],"type":"Point"}
}