{
  "id": 1343892715,
  "type": "Feature",
  "properties": {
    "edtf:cessation":"uuuu",
    "edtf:inception":"uuuu",
    "geom:area":0.0,
    "geom:area_square_m":0.0,
    "geom:bbox":"-108.53676,38.06582,-108.53676,38.06582",
    "geom:latitude":38.06582,
    "geom:longitude":-108.53676,
    "gn:admin1_code":"CO",
    "gn:admin2_code":"113.0",
    "gn:asciiname":"Basin",
    "gn:country_code":"US",
    "gn:dem":1994,
    "gn:elevation":"1990.0",
    "gn:feature_class":"P",
    "gn:feature_code":"PPL",
    "gn:geonameid":5412829,
    "gn:latitude":38.06582,
    "gn:longitude":-108.53676,
    "gn:modification_date":"2006-01-15",
    "gn:name":"Basin",
    "gn:population":0,
    "gn:timezone":"America/Denver",
    "iso:country":"US",
    "mz:hierarchy_label":1,
    "mz:is_current":-1,
    "src:geom":"geonames",
    "wof:belongsto":[
        102191575,
        85633793,
        85688603,
        102084125
    ],
    "wof:breaches":[],
    "wof:concordances":{
        "gn:id":5412829
    },
    "wof:country":"US",
    "wof:geomhash":"fac630d2a490e2931b0d4e8ee20578d0",
    "wof:hierarchy":[
        {
            "continent_id":102191575,
            "country_id":85633793,
            "county_id":102084125,
            "locality_id":1343892715,
            "region_id":85688603
        }
    ],
    "wof:id":1343892715,
    "wof:lastmodified":1536617830,
    "wof:name":"Basin",
    "wof:parent_id":102084125,
    "wof:placetype":"locality",
    "wof:repo":"whosonfirst-data-admin-us",
    "wof:superseded_by":[],
    "wof:supersedes":[],
    "wof:tags":[]
},
  "bbox": [
    -108.53676000000002,
    38.06582,
    -108.53676000000002,
    38.06582
],
  "geometry": {"coordinates":[-108.53676000000002,38.06582],"type":"Point"}
}