{
  "id": 1327041113,
  "type": "Feature",
  "properties": {
    "edtf:cessation":"2018-09-06",
    "edtf:inception":"uuuu",
    "geom:area":0.0,
    "geom:area_square_m":0.0,
    "geom:bbox":"-104.71329,46.15722,-104.71329,46.15722",
    "geom:latitude":46.15722,
    "geom:longitude":-104.71329,
    "gn:admin1_code":"MT",
    "gn:admin2_code":"25.0",
    "gn:asciiname":"MacKenzie (historical)",
    "gn:country_code":"US",
    "gn:dem":865,
    "gn:elevation":"869.0",
    "gn:feature_class":"P",
    "gn:feature_code":"PPLQ",
    "gn:geonameid":5664243,
    "gn:latitude":46.15722,
    "gn:longitude":-104.71329,
    "gn:modification_date":"2011-12-12",
    "gn:name":"MacKenzie (historical)",
    "gn:population":0,
    "gn:timezone":"America/Denver",
    "iso:country":"US",
    "mz:hierarchy_label":1,
    "mz:is_current":0,
    "name:eng_x_preferred":[
        "MacKenzie (historical)"
    ],
    "name:und_x_variant":[
        "McKenzie"
    ],
    "src:geom":"geonames",
    "wof:belongsto":[
        102191575,
        85633793,
        85688617,
        102085159
    ],
    "wof:breaches":[],
    "wof:concordances":{
        "gn:id":5664243
    },
    "wof:country":"US",
    "wof:geomhash":"3bcd546abaea72704327e15b4412e13f",
    "wof:hierarchy":[
        {
            "continent_id":102191575,
            "country_id":85633793,
            "county_id":102085159,
            "locality_id":1327041113,
            "region_id":85688617
        }
    ],
    "wof:id":1327041113,
    "wof:lastmodified":1537713086,
    "wof:name":"MacKenzie (historical)",
    "wof:parent_id":102085159,
    "wof:placetype":"locality",
    "wof:repo":"whosonfirst-data-admin-us",
    "wof:superseded_by":[],
    "wof:supersedes":[],
    "wof:tags":[]
},
  "bbox": [
    -104.71329,
    46.15722,
    -104.71329,
    46.15722
],
  "geometry": {"coordinates":[-104.71329,46.15722],"type":"Point"}
}