{
  "id": 1125403079,
  "type": "Feature",
  "properties": {
    "edtf:cessation":"uuuu",
    "edtf:deprecated":"2017-11-04",
    "edtf:inception":"uuuu",
    "geom:area":0.0,
    "geom:area_square_m":0.0,
    "geom:bbox":"-90.85345,34.3086,-90.85345,34.3086",
    "geom:latitude":34.3086,
    "geom:longitude":-90.85345,
    "gn:gn_country":"US",
    "gn:gn_fcode":"ADMD",
    "gn:gn_pop":636,
    "gn:population":636,
    "iso:country":"US",
    "lbl:latitude":34.3086,
    "lbl:longitude":-90.85345,
    "mz:hierarchy_label":1,
    "mz:is_current":0,
    "mz:note":"Quattroshapes Point Gazetteer import 20170519",
    "qs_pg:aaroncc":"US",
    "qs_pg:gn_country":"US",
    "qs_pg:gn_fcode":"ADMD",
    "qs_pg:gn_id":7169403,
    "qs_pg:gn_pop":636,
    "qs_pg:name":"City of Elaine",
    "qs_pg:photos_9r":0,
    "qs_pg:photos_sr":0,
    "qs_pg:pop_sr":2,
    "qs_pg:qs_id":662084,
    "qs_pg:qs_pg_placetype":"localadmin",
    "src:geom":"qs_pg",
    "src:lbl:centroid":"qs_pg",
    "src:population":"geonames",
    "wof:belongsto":[
        85633793
    ],
    "wof:breaches":[],
    "wof:concordances":{
        "gn:id":7169403,
        "qs_pg:id":662084
    },
    "wof:country":"US",
    "wof:created":1497049447,
    "wof:geomhash":"630afc5b3000a86d5179b6b93bd9d841",
    "wof:hierarchy":[
        {
            "country_id":85633793,
            "localadmin_id":1125403079
        }
    ],
    "wof:id":1125403079,
    "wof:lastmodified":1509752707,
    "wof:name":"City of Elaine",
    "wof:parent_id":-1,
    "wof:placetype":"localadmin",
    "wof:population":636,
    "wof:population_rank":2,
    "wof:repo":"whosonfirst-data-admin-us",
    "wof:superseded_by":[
        85919729
    ],
    "wof:supersedes":[],
    "wof:tags":[]
},
  "bbox": [
    -90.85345,
    34.3086,
    -90.85345,
    34.3086
],
  "geometry": {"coordinates":[-90.85345,34.3086],"type":"Point"}
}