{
  "id": 420542803,
  "type": "Feature",
  "properties": {
    "edtf:cessation":"uuuu",
    "edtf:inception":"uuuu",
    "geom:area":0.0,
    "geom:area_square_m":2104804.589173,
    "geom:bbox":"-96.901823,32.579208,-96.901823,32.579208",
    "geom:latitude":32.579208,
    "geom:longitude":-96.901823,
    "iso:country":"US",
    "lbl:latitude":32.579208,
    "lbl:longitude":-96.901823,
    "mz:hierarchy_label":0,
    "mz:is_current":-1,
    "name:eng_x_preferred":[
        "Shamrock"
    ],
    "src:geom":"mz",
    "src:geom_alt":[
        "quattroshapes_pg",
        "zetashapes"
    ],
    "src:lbl":"mapshaper",
    "src:population":"zetashapes",
    "wof:belongsto":[
        102191575,
        85633793,
        101725679,
        102080647,
        85688753
    ],
    "wof:breaches":[],
    "wof:concordances":{
        "gn:id":4728083,
        "gp:id":2491568,
        "qs_pg:id":1264651
    },
    "wof:country":"US",
    "wof:geomhash":"f206f505e929cf1d8fc388cc4e47c410",
    "wof:hierarchy":[
        {
            "continent_id":102191575,
            "country_id":85633793,
            "county_id":102080647,
            "locality_id":101725679,
            "neighbourhood_id":420542803,
            "region_id":85688753
        }
    ],
    "wof:id":420542803,
    "wof:lastmodified":1533601184,
    "wof:name":"Shamrock",
    "wof:parent_id":101725679,
    "wof:placetype":"neighbourhood",
    "wof:population":1105,
    "wof:population_rank":3,
    "wof:repo":"whosonfirst-data-admin-us",
    "wof:superseded_by":[],
    "wof:supersedes":[],
    "wof:tags":[],
    "zs:area_m":2104645.981975,
    "zs:blockids":[
        481130166123021,
        481130166123017,
        481130166123001,
        481130166122011
    ],
    "zs:housing10":346,
    "zs:id":2491568,
    "zs:label":"Shamrock",
    "zs:pop10":1105
},
  "bbox": [
    -96.901823,
    32.579208,
    -96.901823,
    32.579208
],
  "geometry": {"coordinates":[-96.90182299999999,32.579208],"type":"Point"}
}