{
  "id": 420514949,
  "type": "Feature",
  "properties": {
    "edtf:cessation":"uuuu",
    "edtf:inception":"uuuu",
    "geom:area":0.0,
    "geom:area_square_m":12306270.231233,
    "geom:bbox":"-82.130013,26.683203,-82.130013,26.683203",
    "geom:latitude":26.683203,
    "geom:longitude":-82.130013,
    "iso:country":"US",
    "lbl:latitude":26.683203,
    "lbl:longitude":-82.130013,
    "mz:hierarchy_label":0,
    "mz:is_current":-1,
    "name:eng_x_preferred":[
        "Plantation"
    ],
    "src:geom":"mz",
    "src:geom_alt":[
        "quattroshapes_pg",
        "zetashapes"
    ],
    "src:lbl":"mapshaper",
    "src:lbl:centroid":"mapshaper",
    "src:population":"zetashapes",
    "wd:wordcount":3474,
    "wof:belongsto":[
        102191575,
        85633793,
        85934523,
        102084769,
        85688651
    ],
    "wof:breaches":[],
    "wof:concordances":{
        "gp:id":55975185,
        "qs_pg:id":996391,
        "wd:id":"Q188913"
    },
    "wof:country":"US",
    "wof:geomhash":"12fa7c063df563fc6f9c7a15be29a4f3",
    "wof:hierarchy":[
        {
            "continent_id":102191575,
            "country_id":85633793,
            "county_id":102084769,
            "locality_id":85934523,
            "neighbourhood_id":420514949,
            "region_id":85688651
        }
    ],
    "wof:id":420514949,
    "wof:lastmodified":1533592644,
    "wof:name":"Plantation",
    "wof:parent_id":85934523,
    "wof:placetype":"neighbourhood",
    "wof:population":286,
    "wof:population_rank":2,
    "wof:repo":"whosonfirst-data-admin-us",
    "wof:superseded_by":[],
    "wof:supersedes":[],
    "wof:tags":[],
    "zs:area_m":12305447.192189,
    "zs:blockids":[
        120710701023028,
        120710701023016,
        120710701023017,
        120710701023094,
        120710701023089,
        120710701023011,
        120710701023044,
        120710701023046,
        120710701023098,
        120710701023048,
        120710701023049,
        120710701023041,
        120710701023026,
        120710701023022,
        120710701023012,
        120710701023019,
        120710701023023,
        120710701023027,
        120710701023045,
        120710701023047,
        120710701023039,
        120710701023025,
        120710701023014,
        120710701023021,
        120710701023010,
        120710701023020,
        120710701023015,
        120710701023030
    ],
    "zs:housing10":156,
    "zs:id":55975185,
    "zs:label":"Plantation",
    "zs:pop10":286
},
  "bbox": [
    -82.130013,
    26.683203,
    -82.130013,
    26.683203
],
  "geometry": {"coordinates":[-82.13001300000001,26.683203],"type":"Point"}
}