{
  "id": 1125353237,
  "type": "Feature",
  "properties": {
    "edtf:cessation":"2017-05-19",
    "edtf:inception":"uuuu",
    "geom:area":0.0,
    "geom:area_square_m":0.0,
    "geom:bbox":"-111.96325,38.8661,-111.96325,38.8661",
    "geom:latitude":38.8661,
    "geom:longitude":-111.96325,
    "gn:gn_country":"US",
    "gn:gn_fcode":"ADMD",
    "gn:gn_pop":429,
    "gn:population":429,
    "iso:country":"US",
    "lbl:latitude":38.8661,
    "lbl:longitude":-111.96325,
    "mz:hierarchy_label":1,
    "mz:is_current":0,
    "mz:note":"Quattroshapes Point Gazetteer import 20170519",
    "qs_pg:aaroncc":"US",
    "qs_pg:gn_country":"US",
    "qs_pg:gn_fcode":"ADMD",
    "qs_pg:gn_id":7175683,
    "qs_pg:gn_pop":429,
    "qs_pg:name":"Town of Sigurd",
    "qs_pg:photos_9r":0,
    "qs_pg:photos_sr":0,
    "qs_pg:pop_sr":2,
    "qs_pg:qs_id":668196,
    "qs_pg:qs_pg_placetype":"localadmin",
    "src:geom":"qs_pg",
    "src:lbl:centroid":"qs_pg",
    "src:population":"geonames",
    "wof:belongsto":[
        85633793
    ],
    "wof:breaches":[],
    "wof:concordances":{
        "gn:id":7175683,
        "qs_pg:id":668196
    },
    "wof:country":"US",
    "wof:created":1497046310,
    "wof:geomhash":"0b340b43d479db5756a8e1c6c6eed9d7",
    "wof:hierarchy":[
        {
            "country_id":85633793,
            "localadmin_id":1125353237
        }
    ],
    "wof:id":1125353237,
    "wof:lastmodified":1505187155,
    "wof:name":"Town of Sigurd",
    "wof:parent_id":-1,
    "wof:placetype":"localadmin",
    "wof:population":429,
    "wof:population_rank":2,
    "wof:repo":"whosonfirst-data-admin-us",
    "wof:superseded_by":[],
    "wof:supersedes":[],
    "wof:tags":[]
},
  "bbox": [
    -111.96325,
    38.8661,
    -111.96325,
    38.8661
],
  "geometry": {"coordinates":[-111.96325,38.8661],"type":"Point"}
}