{
  "id": 1327247359,
  "type": "Feature",
  "properties": {
    "edtf:cessation":"uuuu",
    "edtf:inception":"uuuu",
    "geom:area":0.0,
    "geom:area_square_m":0.0,
    "geom:bbox":"-84.87715,32.51958,-84.87715,32.51958",
    "geom:latitude":32.51958,
    "geom:longitude":-84.87715,
    "gn:admin1_code":"GA",
    "gn:admin2_code":"215.0",
    "gn:asciiname":"Farmington",
    "gn:country_code":"US",
    "gn:dem":105,
    "gn:elevation":"97.0",
    "gn:feature_class":"P",
    "gn:feature_code":"PPL",
    "gn:geonameid":4194424,
    "gn:latitude":32.51958,
    "gn:longitude":-84.87715,
    "gn:modification_date":"2010-02-15",
    "gn:name":"Farmington",
    "gn:population":0,
    "gn:timezone":"America/New_York",
    "iso:country":"US",
    "mz:hierarchy_label":1,
    "mz:is_current":-1,
    "src:geom":"geonames",
    "wof:belongsto":[
        102191575,
        85633793,
        85688535,
        102084429
    ],
    "wof:breaches":[],
    "wof:concordances":{
        "gn:id":4194424
    },
    "wof:country":"US",
    "wof:geomhash":"9ad25ea5ef2c1f417719dedde5dbccbb",
    "wof:hierarchy":[
        {
            "continent_id":102191575,
            "country_id":85633793,
            "county_id":102084429,
            "locality_id":1327247359,
            "region_id":85688535
        }
    ],
    "wof:id":1327247359,
    "wof:lastmodified":1536948229,
    "wof:name":"Farmington",
    "wof:parent_id":102084429,
    "wof:placetype":"locality",
    "wof:repo":"whosonfirst-data-admin-us",
    "wof:superseded_by":[],
    "wof:supersedes":[],
    "wof:tags":[]
},
  "bbox": [
    -84.87715,
    32.51958,
    -84.87715,
    32.51958
],
  "geometry": {"coordinates":[-84.87715,32.51958],"type":"Point"}
}