{
  "id": 1276568671,
  "type": "Feature",
  "properties": {
    "edtf:cessation":"uuuu",
    "edtf:inception":"uuuu",
    "geom:area":0.0,
    "geom:area_square_m":0.0,
    "geom:bbox":"-88.16615,38.2006,-88.16615,38.2006",
    "geom:latitude":38.2006,
    "geom:longitude":-88.16615,
    "gn:admin1_code":"IL",
    "gn:admin2_code":"193",
    "gn:admin3_code":"9902.0",
    "gn:asciiname":"Centerville",
    "gn:country_code":"US",
    "gn:dem":159,
    "gn:elevation":"155.0",
    "gn:feature_class":"P",
    "gn:feature_code":"PPL",
    "gn:geonameid":4235504,
    "gn:latitude":38.2006,
    "gn:longitude":-88.16615,
    "gn:modification_date":"2017-05-23",
    "gn:name":"Centerville",
    "gn:population":0,
    "gn:timezone":"America/Chicago",
    "iso:country":"US",
    "mz:hierarchy_label":1,
    "mz:is_current":-1,
    "src:geom":"geonames",
    "wof:belongsto":[
        85688697,
        102191575,
        404498947,
        85633793,
        102083525
    ],
    "wof:breaches":[],
    "wof:concordances":{
        "gn:id":4235504
    },
    "wof:country":"US",
    "wof:geomhash":"70439152d8ac1df5f528af7d2ea2060f",
    "wof:hierarchy":[
        {
            "continent_id":102191575,
            "country_id":85633793,
            "county_id":102083525,
            "localadmin_id":404498947,
            "locality_id":1276568671,
            "region_id":85688697
        }
    ],
    "wof:id":1276568671,
    "wof:lastmodified":1536960809,
    "wof:name":"Centerville",
    "wof:parent_id":404498947,
    "wof:placetype":"locality",
    "wof:repo":"whosonfirst-data-admin-us",
    "wof:superseded_by":[],
    "wof:supersedes":[],
    "wof:tags":[]
},
  "bbox": [
    -88.16615,
    38.2006,
    -88.16615,
    38.2006
],
  "geometry": {"coordinates":[-88.16615,38.2006],"type":"Point"}
}