{
  "id": 1126089679,
  "type": "Feature",
  "properties": {
    "edtf:cessation":"uuuu",
    "edtf:inception":"uuuu",
    "geom:area":0.0,
    "geom:area_square_m":0.0,
    "geom:bbox":"-86.60665,33.63621,-86.60665,33.63621",
    "geom:latitude":33.63621,
    "geom:longitude":-86.60665,
    "gn:gn_country":"US",
    "gn:gn_fcode":"PPLX",
    "gn:gn_pop":0,
    "iso:country":"US",
    "lbl:latitude":33.63621,
    "lbl:longitude":-86.60665,
    "mz:hierarchy_label":1,
    "mz:is_current":-1,
    "mz:note":"Quattroshapes Point Gazetteer import 20170519",
    "qs_pg:aaroncc":"US",
    "qs_pg:gn_country":"US",
    "qs_pg:gn_fcode":"PPLX",
    "qs_pg:gn_id":4098533,
    "qs_pg:gn_pop":0,
    "qs_pg:name":"Woodward",
    "qs_pg:name_adm0":"United States",
    "qs_pg:name_adm1":"Alabama",
    "qs_pg:photos":185,
    "qs_pg:photos_1k":37,
    "qs_pg:photos_9k":1,
    "qs_pg:photos_9r":4,
    "qs_pg:photos_all":185,
    "qs_pg:photos_sr":4,
    "qs_pg:pop_sr":0,
    "qs_pg:qs_id":209657,
    "qs_pg:qs_pg_placetype":"neighbourhood",
    "qs_pg:qs_pg_placetype_gp":"Suburb",
    "qs_pg:woe_adm0":23424977,
    "qs_pg:woe_id":2523846,
    "src:geom":"qs_pg",
    "src:lbl:centroid":"qs_pg",
    "woe:adm0_id":23424977,
    "woe:name_adm0":"United States",
    "woe:name_adm1":"Alabama",
    "woe:placetype":"Suburb",
    "wof:belongsto":[
        102191575,
        85633793,
        85913473,
        102085481,
        85688675
    ],
    "wof:breaches":[],
    "wof:concordances":{
        "gn:id":4098533,
        "gp:id":2523846,
        "qs_pg:id":209657
    },
    "wof:country":"US",
    "wof:created":1497313484,
    "wof:geomhash":"596bafb6f0e57157f86fbdf3d54b0098",
    "wof:hierarchy":[
        {
            "continent_id":102191575,
            "country_id":85633793,
            "county_id":102085481,
            "locality_id":85913473,
            "neighbourhood_id":1126089679,
            "region_id":85688675
        }
    ],
    "wof:id":1126089679,
    "wof:lastmodified":1509411585,
    "wof:name":"Woodward",
    "wof:parent_id":85913473,
    "wof:placetype":"neighbourhood",
    "wof:repo":"whosonfirst-data-admin-us",
    "wof:superseded_by":[],
    "wof:supersedes":[],
    "wof:tags":[]
},
  "bbox": [
    -86.60665,
    33.63621,
    -86.60665,
    33.63621
],
  "geometry": {"coordinates":[-86.60665,33.63621],"type":"Point"}
}