{
  "id": 1125345857,
  "type": "Feature",
  "properties": {
    "edtf:cessation":"uuuu",
    "edtf:deprecated":"2017-11-04",
    "edtf:inception":"uuuu",
    "geom:area":0.0,
    "geom:area_square_m":0.0,
    "geom:bbox":"-85.20725,40.37443,-85.20725,40.37443",
    "geom:latitude":40.37443,
    "geom:longitude":-85.20725,
    "gn:gn_country":"US",
    "gn:gn_fcode":"ADMD",
    "gn:gn_pop":2362,
    "gn:population":2362,
    "iso:country":"US",
    "lbl:latitude":40.37443,
    "lbl:longitude":-85.20725,
    "mz:hierarchy_label":1,
    "mz:is_current":0,
    "mz:note":"Quattroshapes Point Gazetteer import 20170519",
    "qs_pg:aaroncc":"US",
    "qs_pg:gn_country":"US",
    "qs_pg:gn_fcode":"ADMD",
    "qs_pg:gn_id":7163486,
    "qs_pg:gn_pop":2362,
    "qs_pg:name":"City of Dunkirk",
    "qs_pg:photos_9r":0,
    "qs_pg:photos_sr":0,
    "qs_pg:pop_sr":4,
    "qs_pg:qs_id":658454,
    "qs_pg:qs_pg_placetype":"localadmin",
    "src:geom":"qs_pg",
    "src:lbl:centroid":"qs_pg",
    "src:population":"geonames",
    "wof:belongsto":[
        85633793
    ],
    "wof:breaches":[],
    "wof:concordances":{
        "gn:id":7163486,
        "qs_pg:id":658454
    },
    "wof:country":"US",
    "wof:created":1497045913,
    "wof:geomhash":"26c090d057a52e9f44594e537c4c9e04",
    "wof:hierarchy":[
        {
            "country_id":85633793,
            "localadmin_id":1125345857
        }
    ],
    "wof:id":1125345857,
    "wof:lastmodified":1509752591,
    "wof:name":"City of Dunkirk",
    "wof:parent_id":-1,
    "wof:placetype":"localadmin",
    "wof:population":2362,
    "wof:population_rank":4,
    "wof:repo":"whosonfirst-data-admin-us",
    "wof:superseded_by":[
        85942245
    ],
    "wof:supersedes":[],
    "wof:tags":[]
},
  "bbox": [
    -85.20725,
    40.37443,
    -85.20725,
    40.37443
],
  "geometry": {"coordinates":[-85.20725,40.37443],"type":"Point"}
}