{
  "id": 1126089105,
  "type": "Feature",
  "properties": {
    "edtf:cessation":"uuuu",
    "edtf:deprecated":"2018-08-15",
    "edtf:inception":"uuuu",
    "edtf:superseded":"2018-08-15",
    "geom:area":0.0,
    "geom:area_square_m":0.0,
    "geom:bbox":"-76.85301,41.74896,-76.85301,41.74896",
    "geom:latitude":41.74896,
    "geom:longitude":-76.85301,
    "gn:gn_country":"US",
    "gn:gn_fcode":"PPL",
    "gn:gn_pop":0,
    "iso:country":"US",
    "lbl:latitude":41.74896,
    "lbl:longitude":-76.85301,
    "mz:hierarchy_label":1,
    "mz:is_current":0,
    "mz:note":"Quattroshapes Point Gazetteer import 20170519",
    "qs_pg:aaroncc":"US",
    "qs_pg:gn_country":"US",
    "qs_pg:gn_fcode":"PPL",
    "qs_pg:gn_id":5185626,
    "qs_pg:gn_pop":0,
    "qs_pg:name":"Covert",
    "qs_pg:name_adm0":"United States",
    "qs_pg:name_adm1":"Pennsylvania",
    "qs_pg:photos":8,
    "qs_pg:photos_1k":2,
    "qs_pg:photos_9k":1,
    "qs_pg:photos_9r":1,
    "qs_pg:photos_all":8,
    "qs_pg:photos_sr":1,
    "qs_pg:pop_sr":0,
    "qs_pg:qs_id":1325811,
    "qs_pg:qs_pg_placetype":"neighbourhood",
    "qs_pg:qs_pg_placetype_gp":"Suburb",
    "qs_pg:woe_adm0":23424977,
    "qs_pg:woe_id":2386234,
    "src:geom":"qs_pg",
    "src:lbl:centroid":"qs_pg",
    "woe:adm0_id":23424977,
    "woe:name_adm0":"United States",
    "woe:name_adm1":"Pennsylvania",
    "woe:placetype":"Suburb",
    "wof:belongsto":[
        102191575,
        404482711,
        85633793,
        102081319,
        85688481
    ],
    "wof:breaches":[],
    "wof:concordances":{
        "gn:id":5185626,
        "gp:id":2386234,
        "qs_pg:id":1325811
    },
    "wof:country":"US",
    "wof:created":1497313347,
    "wof:geomhash":"cf6c47e7c9a1d095e8b8123879a7b94a",
    "wof:hierarchy":[
        {
            "continent_id":102191575,
            "country_id":85633793,
            "county_id":102081319,
            "localadmin_id":404482711,
            "locality_id":-1,
            "neighbourhood_id":1126089105,
            "region_id":85688481
        }
    ],
    "wof:id":1126089105,
    "wof:lastmodified":1534379739,
    "wof:name":"Covert",
    "wof:parent_id":-1,
    "wof:placetype":"neighbourhood",
    "wof:repo":"whosonfirst-data-admin-us",
    "wof:superseded_by":[
        420536747
    ],
    "wof:supersedes":[],
    "wof:tags":[]
},
  "bbox": [
    -76.85301,
    41.74896,
    -76.85301,
    41.74896
],
  "geometry": {"coordinates":[-76.85301,41.74896],"type":"Point"}
}