{
  "id": 1326649781,
  "type": "Feature",
  "properties": {
    "edtf:cessation":"uuuu",
    "edtf:inception":"uuuu",
    "geom:area":0.0,
    "geom:area_square_m":0.0,
    "geom:bbox":"-86.08802,37.74895,-86.08802,37.74895",
    "geom:latitude":37.74895,
    "geom:longitude":-86.08802,
    "gn:admin1_code":"KY",
    "gn:admin2_code":"93",
    "gn:asciiname":"Four Corners",
    "gn:country_code":"US",
    "gn:dem":235,
    "gn:elevation":"235.0",
    "gn:feature_class":"P",
    "gn:feature_code":"PPL",
    "gn:geonameid":4292100,
    "gn:latitude":37.74895,
    "gn:longitude":-86.08802,
    "gn:modification_date":"2006-01-15",
    "gn:name":"Four Corners",
    "gn:population":0,
    "gn:timezone":"America/New_York",
    "iso:country":"US",
    "mz:hierarchy_label":1,
    "mz:is_current":-1,
    "name:eng_x_preferred":[
        "Four Corners"
    ],
    "name:und_x_variant":[
        "Miller Corners"
    ],
    "src:geom":"geonames",
    "wof:belongsto":[
        102191575,
        85633793,
        85688641,
        102084595
    ],
    "wof:breaches":[],
    "wof:concordances":{
        "gn:id":4292100
    },
    "wof:country":"US",
    "wof:geomhash":"243ee734916778b1fe2656778de7e69a",
    "wof:hierarchy":[
        {
            "continent_id":102191575,
            "country_id":85633793,
            "county_id":102084595,
            "locality_id":1326649781,
            "region_id":85688641
        }
    ],
    "wof:id":1326649781,
    "wof:lastmodified":1537712381,
    "wof:name":"Four Corners",
    "wof:parent_id":102084595,
    "wof:placetype":"locality",
    "wof:repo":"whosonfirst-data-admin-us",
    "wof:superseded_by":[],
    "wof:supersedes":[],
    "wof:tags":[]
},
  "bbox": [
    -86.08802,
    37.74895,
    -86.08802,
    37.74895
],
  "geometry": {"coordinates":[-86.08802,37.74895],"type":"Point"}
}