{
  "id": 1125270403,
  "type": "Feature",
  "properties": {
    "edtf:cessation":"2017-05-19",
    "edtf:inception":"uuuu",
    "geom:area":0.0,
    "geom:area_square_m":0.0,
    "geom:bbox":"-84.36339,35.74084,-84.36339,35.74084",
    "geom:latitude":35.74084,
    "geom:longitude":-84.36339,
    "gn:gn_country":"US",
    "gn:gn_fcode":"ADMD",
    "gn:gn_pop":5381,
    "gn:population":5381,
    "iso:country":"US",
    "lbl:latitude":35.74084,
    "lbl:longitude":-84.36339,
    "mz:hierarchy_label":1,
    "mz:is_current":0,
    "mz:note":"Quattroshapes Point Gazetteer import 20170519",
    "qs_pg:aaroncc":"US",
    "qs_pg:gn_country":"US",
    "qs_pg:gn_fcode":"ADMD",
    "qs_pg:gn_id":7171288,
    "qs_pg:gn_pop":5381,
    "qs_pg:name":"Town of Loudon",
    "qs_pg:photos_9r":0,
    "qs_pg:photos_sr":0,
    "qs_pg:pop_sr":5,
    "qs_pg:qs_id":1154113,
    "qs_pg:qs_pg_placetype":"localadmin",
    "src:geom":"qs_pg",
    "src:lbl:centroid":"qs_pg",
    "src:population":"geonames",
    "wof:belongsto":[
        85633793
    ],
    "wof:breaches":[],
    "wof:concordances":{
        "gn:id":7171288,
        "qs_pg:id":1154113
    },
    "wof:country":"US",
    "wof:created":1497042102,
    "wof:geomhash":"ba2906eae759d10d2c59c02cb194369c",
    "wof:hierarchy":[
        {
            "country_id":85633793,
            "localadmin_id":1125270403
        }
    ],
    "wof:id":1125270403,
    "wof:lastmodified":1505187104,
    "wof:name":"Town of Loudon",
    "wof:parent_id":-1,
    "wof:placetype":"localadmin",
    "wof:population":5381,
    "wof:population_rank":5,
    "wof:repo":"whosonfirst-data-admin-us",
    "wof:superseded_by":[],
    "wof:supersedes":[],
    "wof:tags":[]
},
  "bbox": [
    -84.36339,
    35.74084,
    -84.36339,
    35.74084
],
  "geometry": {"coordinates":[-84.36339,35.74084],"type":"Point"}
}