{
  "id": 1259802923,
  "type": "Feature",
  "properties": {
    "edtf:cessation":"uuuu",
    "edtf:inception":"uuuu",
    "geom:area":0.0,
    "geom:area_square_m":0.0,
    "geom:bbox":"-79.847,41.47367,-79.847,41.47367",
    "geom:latitude":41.47367,
    "geom:longitude":-79.847,
    "gn:admin1_code":"PA",
    "gn:admin2_code":"121.0",
    "gn:admin3_code":"37480.0",
    "gn:asciiname":"Mason",
    "gn:country_code":"US",
    "gn:dem":379,
    "gn:elevation":"368.0",
    "gn:feature_class":"P",
    "gn:feature_code":"PPL",
    "gn:geonameid":5200093,
    "gn:latitude":41.47367,
    "gn:longitude":-79.847,
    "gn:modification_date":"2017-05-23",
    "gn:name":"Mason",
    "gn:population":0,
    "gn:timezone":"America/New_York",
    "iso:country":"US",
    "mz:hierarchy_label":1,
    "mz:is_current":-1,
    "src:geom":"geonames",
    "wof:belongsto":[
        85688481,
        102191575,
        404487563,
        85633793,
        102081279
    ],
    "wof:breaches":[],
    "wof:concordances":{
        "gn:id":5200093
    },
    "wof:country":"US",
    "wof:geomhash":"f850aedb24759622098dc2bc53162a3d",
    "wof:hierarchy":[
        {
            "continent_id":102191575,
            "country_id":85633793,
            "county_id":102081279,
            "localadmin_id":404487563,
            "locality_id":1259802923,
            "region_id":85688481
        }
    ],
    "wof:id":1259802923,
    "wof:lastmodified":1536894989,
    "wof:name":"Mason",
    "wof:parent_id":404487563,
    "wof:placetype":"locality",
    "wof:repo":"whosonfirst-data-admin-us",
    "wof:superseded_by":[],
    "wof:supersedes":[],
    "wof:tags":[]
},
  "bbox": [
    -79.847,
    41.47367,
    -79.847,
    41.47367
],
  "geometry": {"coordinates":[-79.84699999999999,41.47367],"type":"Point"}
}