{
  "id": 85829255,
  "type": "Feature",
  "properties": {"wof:repo":"whosonfirst-data-admin-us",
    "src:geom":"quattroshapes",
    "wof:geomhash":"4fcd3ac8df4ba9f9a79388f0d5cc7092",
    "wof:id":85829255
},
  "bbox": [
    -111.92375442799636,
    40.777748090271956,
    -111.89575195299994,
    40.8061377802001
],
  "geometry": {"coordinates":[[[-111.90153815567623,40.80537657552517],[-111.90106466998088,40.80512349214834],[-111.90106042803745,40.80512866097122],[-111.89989488085922,40.80050967760209],[-111.89983724228938,40.80040308468280],[-111.89852156321251,40.79518938386168],[-111.89840641890419,40.79509812892510],[-111.89683219463191,40.79301881010007],[-111.89575195299994,40.79301881010007],[-111.89575195587179,40.78885994232581],[-111.89849853499993,40.78885994450008],[-111.89849853499993,40.78678040586270],[-111.89849853499993,40.78470081840003],[-111.89849853499993,40.78448315206360],[-111.90124511699989,40.78327402651050],[-111.90124511699989,40.78196814653923],[-111.90124511699989,40.78054143190009],[-111.90232543256730,40.78054143190009],[-111.90232548189903,40.78054136675016],[-111.90673828099992,40.78054136675016],[-111.90885339724935,40.77774809027196],[-111.91223144500003,40.77824375394650],[-111.91497802699990,40.77945277853095],[-111.91576685639257,40.78003150639968],[-111.91688537507105,40.78014513220036],[-111.92002235328715,40.78202822980496],[-111.92375442799636,40.78695705721482],[-111.92087318082253,40.78885987937511],[-111.91772460899989,40.79301874497527],[-111.91772460900006,40.79301881010007],[-111.91223144500003,40.79301881010007],[-111.91223139569556,40.79301881010016],[-111.91018302670540,40.79572444675372],[-111.91034016085945,40.79717735007520],[-111.90751501868903,40.80588522895353],[-111.90731589322010,40.80594563300409],[-111.90536498999990,40.80613778020010],[-111.90341408677966,40.80594563300409],[-111.90153815567623,40.80537657552517]]],"type":"Polygon"}
}