{
  "id": 1125308569,
  "type": "Feature",
  "properties": {
    "edtf:cessation":"uuuu",
    "edtf:deprecated":"2017-11-04",
    "edtf:inception":"uuuu",
    "geom:area":0.0,
    "geom:area_square_m":0.0,
    "geom:bbox":"-96.73033,43.54664,-96.73033,43.54664",
    "geom:latitude":43.54664,
    "geom:longitude":-96.73033,
    "gn:gn_country":"US",
    "gn:gn_fcode":"ADMD",
    "gn:gn_pop":153888,
    "gn:population":153888,
    "iso:country":"US",
    "lbl:latitude":43.54664,
    "lbl:longitude":-96.73033,
    "mz:hierarchy_label":1,
    "mz:is_current":0,
    "mz:note":"Quattroshapes Point Gazetteer import 20170519",
    "qs_pg:aaroncc":"US",
    "qs_pg:gn_country":"US",
    "qs_pg:gn_fcode":"ADMD",
    "qs_pg:gn_id":5231856,
    "qs_pg:gn_pop":153888,
    "qs_pg:name":"City of Sioux Falls",
    "qs_pg:photos_9r":0,
    "qs_pg:photos_sr":0,
    "qs_pg:pop_sr":9,
    "qs_pg:qs_id":608359,
    "qs_pg:qs_pg_placetype":"localadmin",
    "src:geom":"qs_pg",
    "src:lbl:centroid":"qs_pg",
    "src:population":"geonames",
    "wof:belongsto":[
        85633793
    ],
    "wof:breaches":[],
    "wof:concordances":{
        "gn:id":5231856,
        "qs_pg:id":608359
    },
    "wof:country":"US",
    "wof:created":1497043841,
    "wof:geomhash":"4bb90a5c022cd5923422722cc74a466e",
    "wof:hierarchy":[
        {
            "country_id":85633793,
            "localadmin_id":1125308569
        }
    ],
    "wof:id":1125308569,
    "wof:lastmodified":1509752519,
    "wof:name":"City of Sioux Falls",
    "wof:parent_id":-1,
    "wof:placetype":"localadmin",
    "wof:population":153888,
    "wof:population_rank":9,
    "wof:repo":"whosonfirst-data-admin-us",
    "wof:superseded_by":[
        101721785
    ],
    "wof:supersedes":[],
    "wof:tags":[]
},
  "bbox": [
    -96.73033,
    43.54664,
    -96.73033,
    43.54664
],
  "geometry": {"coordinates":[-96.73033,43.54664],"type":"Point"}
}