{
  "id": 1125351071,
  "type": "Feature",
  "properties": {
    "edtf:cessation":"2017-05-19",
    "edtf:inception":"uuuu",
    "geom:area":0.0,
    "geom:area_square_m":0.0,
    "geom:bbox":"-90.62204,32.10604,-90.62204,32.10604",
    "geom:latitude":32.10604,
    "geom:longitude":-90.62204,
    "gn:gn_country":"US",
    "gn:gn_fcode":"ADMD",
    "gn:gn_pop":820,
    "gn:population":820,
    "iso:country":"US",
    "lbl:latitude":32.10604,
    "lbl:longitude":-90.62204,
    "mz:hierarchy_label":1,
    "mz:is_current":0,
    "mz:note":"Quattroshapes Point Gazetteer import 20170519",
    "qs_pg:aaroncc":"US",
    "qs_pg:gn_country":"US",
    "qs_pg:gn_fcode":"ADMD",
    "qs_pg:gn_id":7172007,
    "qs_pg:gn_pop":820,
    "qs_pg:name":"Town of Utica",
    "qs_pg:photos_9r":0,
    "qs_pg:photos_sr":0,
    "qs_pg:pop_sr":2,
    "qs_pg:qs_id":664613,
    "qs_pg:qs_pg_placetype":"localadmin",
    "src:geom":"qs_pg",
    "src:lbl:centroid":"qs_pg",
    "src:population":"geonames",
    "wof:belongsto":[
        85633793
    ],
    "wof:breaches":[],
    "wof:concordances":{
        "gn:id":7172007,
        "qs_pg:id":664613
    },
    "wof:country":"US",
    "wof:created":1497046202,
    "wof:geomhash":"f97fcf18e63cbe7bb140626b0668d4d7",
    "wof:hierarchy":[
        {
            "country_id":85633793,
            "localadmin_id":1125351071
        }
    ],
    "wof:id":1125351071,
    "wof:lastmodified":1505187113,
    "wof:name":"Town of Utica",
    "wof:parent_id":-1,
    "wof:placetype":"localadmin",
    "wof:population":820,
    "wof:population_rank":2,
    "wof:repo":"whosonfirst-data-admin-us",
    "wof:superseded_by":[],
    "wof:supersedes":[],
    "wof:tags":[]
},
  "bbox": [
    -90.62204,
    32.10604,
    -90.62204,
    32.10604
],
  "geometry": {"coordinates":[-90.62204,32.10604],"type":"Point"}
}