{
  "id": 85896669,
  "type": "Feature",
  "properties": {
    "edtf:cessation":"uuuu",
    "edtf:inception":"uuuu",
    "geom:area":0.0,
    "geom:area_square_m":13956629.983658,
    "geom:bbox":"-83.278579,42.503101,-83.278579,42.503101",
    "geom:latitude":42.503101,
    "geom:longitude":-83.278579,
    "gn:id":"",
    "iso:country":"US",
    "lbl:latitude":42.503101,
    "lbl:longitude":-83.278579,
    "mps:latitude":42.505035,
    "mps:longitude":-83.272554,
    "mz:hierarchy_label":0,
    "mz:is_current":-1,
    "mz:is_funky":0,
    "mz:is_hard_boundary":0,
    "mz:is_landuse_aoi":0,
    "mz:is_official":0,
    "mz:max_zoom":18.0,
    "mz:min_zoom":14.0,
    "mz:tier_locality":1,
    "name:eng_x_preferred":[
        "Georgetown"
    ],
    "name:unk_x_variant":[
        "Georgetown"
    ],
    "qs:gn_adm0_cc":"US",
    "qs:gn_id":0,
    "qs:gn_local":4985891,
    "qs:gn_nam_loc":"Beverly Hills, Oakland, Michigan, US",
    "qs:gn_namadm1":"MI",
    "qs:local_max":257,
    "qs:local_sum":438,
    "qs:localhoods":4,
    "qs:name":"Georgetown",
    "qs:name_adm0":"United States",
    "qs:name_adm1":"Michigan",
    "qs:name_adm2":"Oakland",
    "qs:name_local":"Beverly Hills",
    "qs:photo_max":191,
    "qs:photo_sum":257,
    "qs:placetype":"Suburb",
    "qs:quad_count":14,
    "qs:woe_adm0":23424977,
    "qs:woe_adm1":2347581,
    "qs:woe_adm2":12588776,
    "qs:woe_lau":0,
    "qs:woe_local":2363795,
    "qs:woe_ver":"7.10.0",
    "src:geom":"mz",
    "src:geom_alt":[
        "quattroshapes",
        "quattroshapes_pg"
    ],
    "src:lbl:centroid":"yerbashapes",
    "src:population":"zetashapes",
    "wof:belongsto":[
        102191575,
        404508305,
        85633793,
        85951991,
        102083713,
        85688599
    ],
    "wof:breaches":[],
    "wof:concordances":{
        "gp:id":56021910,
        "qs:id":1090901,
        "qs_pg:id":1090901
    },
    "wof:country":"US",
    "wof:geomhash":"35767739ec263ebf719c019e4ff05da6",
    "wof:hierarchy":[
        {
            "continent_id":102191575,
            "country_id":85633793,
            "county_id":102083713,
            "localadmin_id":404508305,
            "locality_id":85951991,
            "neighbourhood_id":85896669,
            "region_id":85688599
        }
    ],
    "wof:id":85896669,
    "wof:lang":[
        "eng"
    ],
    "wof:lastmodified":1532373835,
    "wof:name":"Georgetown",
    "wof:parent_id":85951991,
    "wof:placetype":"neighbourhood",
    "wof:population":12904,
    "wof:population_rank":6,
    "wof:repo":"whosonfirst-data-admin-us",
    "wof:superseded_by":[],
    "wof:supersedes":[],
    "wof:tags":[],
    "zs:blockids":[
        261251612003008,
        261251608002003,
        261251608001005,
        261251590001024,
        261251608001007,
        261251603003000,
        261251608003019,
        261251611003007,
        261251611003000,
        261251611001011,
        261251612002010,
        261251612002014,
        261251612002011,
        261251590002013,
        261251609001000,
        261251590002019,
        261251590002029,
        261251590002027,
        261251609002010,
        261251590001018,
        261251608002014,
        261251608002001,
        261251590001026,
        261251608002017,
        261251608003007,
        261251611003023,
        261251611001004,
        261251611003027,
        261251590001010,
        261251603003001,
        261251616002039,
        261251580002012,
        261251580002013,
        261251603002002,
        261251590002002,
        261251608003025,
        261251603002009,
        261251590002022,
        261251607002009,
        261251612003009,
        261251590001011,
        261251608003006,
        261251608001003,
        261251608001006,
        261251612003003,
        261251607002003,
        261251612003000,
        261251612003007,
        261251603002004,
        261251611003009,
        261251608003008,
        261251611003001,
        261251608002011,
        261251612002008,
        261251609002000,
        261251590001009,
        261251609002008,
        261251609002013,
        261251608002005,
        261251590002030,
        261251611003003,
        261251611003012,
        261251603002000,
        261251609003001,
        261251611003002,
        261251603002010,
        261251590001012,
        261251580002008,
        261251607002017,
        261251608002002,
        261251612003002,
        261251603002001,
        261251611003006,
        261251611003013,
        261251608003023,
        261251608003024,
        261251590002000,
        261251590003006,
        261251590002009,
        261251590001023,
        261251590003001,
        261251608002010,
        261251608003010,
        261251611001010,
        261251611003028,
        261251608002020,
        261251580002011,
        261251609003009,
        261251609003011,
        261251608003015,
        261251609003019,
        261251608003016,
        261251616002016,
        261251616002037,
        261251611003020,
        261251608002016,
        261251580002010,
        261251580002009,
        261251608001014,
        261251608001015,
        261251608001012,
        261251608002000,
        261251608002021,
        261251609002007,
        261251608003026,
        261251609003000,
        261251590001006,
        261251609001001,
        261251590003007,
        261251590003000,
        261251609003002,
        261251590001017,
        261251616002015,
        261251607002019,
        261251590001007,
        261251590001019,
        261251609002001,
        261251611001000,
        261251611001007,
        261251608002007,
        261251616002014,
        261251611003021,
        261251608003021,
        261251608003022,
        261251608002008,
        261251608002019,
        261251608003018,
        261251608001011,
        261251611003016,
        261251607002008,
        261251590001025,
        261251612003001,
        261251580002014,
        261251608001008,
        261251611003010,
        261251608001009,
        261251608001017,
        261251612002020,
        261251590002024,
        261251608002015,
        261251609002003,
        261251590002004,
        261251590002028,
        261251590002025,
        261251590001015,
        261251611001017,
        261251611001009,
        261251611003025,
        261251590001020,
        261251590003002,
        261251590003008,
        261251611001013,
        261251611003026,
        261251590001016,
        261251590001013,
        261251608003000,
        261251609003014,
        261251608002006,
        261251611003018,
        261251580002007,
        261251608002004,
        261251608003004,
        261251608003002,
        261251612003004,
        261251612002006,
        261251609003020,
        261251603002003,
        261251611003008,
        261251603003002,
        261251608001010,
        261251612002013,
        261251590003004,
        261251590003003,
        261251609002004,
        261251608003003,
        261251590003005,
        261251611001008,
        261251608003017,
        261251611001001,
        261251607002004,
        261251608003011,
        261251611001012,
        261251607002018,
        261251609002009,
        261251611001005,
        261251611003024,
        261251608001002,
        261251608003009,
        261251609003012,
        261251608003020,
        261251611003011,
        261251608001013,
        261251612002009,
        261251609003018,
        261251611003014,
        261251611003005,
        261251612002007,
        261251590002007,
        261251609002002,
        261251590001014,
        261251608002012,
        261251608003014,
        261251611001002,
        261251608001001,
        261251608002009,
        261251590002026,
        261251608002013,
        261251590002001,
        261251608003012,
        261251608003013,
        261251590001022,
        261251611003019,
        261251608001000,
        261251608003005,
        261251608001016,
        261251612003005,
        261251612003006,
        261251590002021,
        261251609002005,
        261251608001004,
        261251608003001,
        261251590001008,
        261251611001006,
        261251611001003,
        261251609002012,
        261251609003016,
        261251590001021,
        261251590002010,
        261251608002018,
        261251611003022,
        261251611003004,
        261251611003017,
        261251611003015
    ],
    "zs:housing10":6479,
    "zs:pop10":12904
},
  "bbox": [
    -83.278579,
    42.503101,
    -83.278579,
    42.503101
],
  "geometry": {"coordinates":[-83.27857899999999,42.503101],"type":"Point"}
}