{
  "id": 1125282053,
  "type": "Feature",
  "properties": {
    "edtf:cessation":"2017-05-19",
    "edtf:inception":"uuuu",
    "geom:area":0.0,
    "geom:area_square_m":0.0,
    "geom:bbox":"-81.48636,35.84737,-81.48636,35.84737",
    "geom:latitude":35.84737,
    "geom:longitude":-81.48636,
    "gn:gn_country":"US",
    "gn:gn_fcode":"ADMD",
    "gn:gn_pop":3776,
    "gn:population":3776,
    "iso:country":"US",
    "lbl:latitude":35.84737,
    "lbl:longitude":-81.48636,
    "mz:hierarchy_label":1,
    "mz:is_current":0,
    "mz:note":"Quattroshapes Point Gazetteer import 20170519",
    "qs_pg:aaroncc":"US",
    "qs_pg:gn_country":"US",
    "qs_pg:gn_fcode":"ADMD",
    "qs_pg:gn_id":7171123,
    "qs_pg:gn_pop":3776,
    "qs_pg:name":"Town of Hudson",
    "qs_pg:photos_9r":0,
    "qs_pg:photos_sr":0,
    "qs_pg:pop_sr":4,
    "qs_pg:qs_id":663774,
    "qs_pg:qs_pg_placetype":"localadmin",
    "src:geom":"qs_pg",
    "src:lbl:centroid":"qs_pg",
    "src:population":"geonames",
    "wof:belongsto":[
        85633793
    ],
    "wof:breaches":[],
    "wof:concordances":{
        "gn:id":7171123,
        "qs_pg:id":663774
    },
    "wof:country":"US",
    "wof:created":1497042539,
    "wof:geomhash":"6e86676acf080d4b94cbb98e2022656d",
    "wof:hierarchy":[
        {
            "country_id":85633793,
            "localadmin_id":1125282053
        }
    ],
    "wof:id":1125282053,
    "wof:lastmodified":1505187102,
    "wof:name":"Town of Hudson",
    "wof:parent_id":-1,
    "wof:placetype":"localadmin",
    "wof:population":3776,
    "wof:population_rank":4,
    "wof:repo":"whosonfirst-data-admin-us",
    "wof:superseded_by":[],
    "wof:supersedes":[],
    "wof:tags":[]
},
  "bbox": [
    -81.48636,
    35.84737,
    -81.48636,
    35.84737
],
  "geometry": {"coordinates":[-81.48636,35.84737],"type":"Point"}
}