{
  "id": 404476495,
  "type": "Feature",
  "properties": {
    "edtf:cessation":"uuuu",
    "edtf:inception":"uuuu",
    "geom:area":0.003361,
    "geom:area_square_m":30693630.227776,
    "geom:bbox":"-71.607759,42.367329,-71.472678,42.411981",
    "geom:latitude":42.38868,
    "geom:longitude":-71.546455,
    "iso:country":"US",
    "lbl:latitude":42.391902,
    "lbl:longitude":-71.558738,
    "mz:hierarchy_label":1,
    "mz:is_current":-1,
    "name:eng_x_preferred":[
        "Hudson"
    ],
    "qs:a0":"United States",
    "qs:a1":"Massachusetts",
    "qs:a1_lc":"25",
    "qs:a2":"Middlesex",
    "qs:a2_lc":"25017",
    "qs:adm0":"United States",
    "qs:adm0_a3":"USA",
    "qs:la":"Hudson",
    "qs:la_lc":"2501731540",
    "qs:level":"localadmin",
    "qs:pop":19063,
    "qs:source":"US Census",
    "qs:type":"town",
    "src:geom":"quattroshapes",
    "src:population":"quattroshapes",
    "wof:belongsto":[
        102191575,
        85633793,
        85688645,
        102084643
    ],
    "wof:breaches":[],
    "wof:concordances":{},
    "wof:country":"US",
    "wof:geomhash":"77810aecad4bfb07365a975ab7238274",
    "wof:hierarchy":[
        {
            "continent_id":102191575,
            "country_id":85633793,
            "county_id":102084643,
            "localadmin_id":404476495,
            "region_id":85688645
        }
    ],
    "wof:id":404476495,
    "wof:lastmodified":1505339457,
    "wof:name":"Hudson",
    "wof:parent_id":102084643,
    "wof:placetype":"localadmin",
    "wof:population":19063,
    "wof:population_rank":6,
    "wof:repo":"whosonfirst-data-admin-us",
    "wof:superseded_by":[],
    "wof:supersedes":[],
    "wof:tags":[]
},
  "bbox": [
    -71.607759,
    42.367329,
    -71.472678,
    42.411981
],
  "geometry": {"coordinates":[[[-71.52142000000001,42.375837],[-71.52830899999999,42.375119],[-71.529399,42.374998],[-71.554078,42.372416],[-71.562051,42.371581],[-71.56861000000001,42.370888],[-71.570143,42.370724],[-71.576747,42.370037],[-71.592406,42.368393],[-71.594261,42.368143],[-71.60318700000001,42.367329],[-71.607759,42.370022],[-71.58794,42.38219],[-71.58015,42.386998],[-71.602537,42.396942],[-71.604251,42.397703],[-71.603725,42.397962],[-71.58543,42.40702],[-71.579054,42.408199],[-71.56458600000001,42.410934],[-71.56042100000001,42.411757],[-71.559046,42.411981],[-71.551051,42.409239],[-71.544561,42.407064],[-71.53442200000001,42.403657],[-71.528049,42.401524],[-71.526822,42.396065],[-71.52396,42.396739],[-71.51792399999999,42.398154],[-71.510805,42.397524],[-71.50255199999999,42.397419],[-71.50026099999999,42.395446],[-71.492977,42.396398],[-71.49088,42.395261],[-71.489919,42.396332],[-71.487206,42.395991],[-71.48773799999999,42.394968],[-71.486116,42.393271],[-71.472678,42.390025],[-71.475498,42.380655],[-71.475505,42.380632],[-71.490154,42.379091],[-71.515118,42.376501],[-71.52142000000001,42.375837]]],"type":"Polygon"}
}