{
  "id": 420529513,
  "type": "Feature",
  "properties": {
    "edtf:cessation":"uuuu",
    "edtf:inception":"uuuu",
    "geom:area":0.0,
    "geom:area_square_m":8529336.096558,
    "geom:bbox":"-74.487718,41.273805,-74.487718,41.273805",
    "geom:latitude":41.273805,
    "geom:longitude":-74.487718,
    "gn:gn_country":"US",
    "gn:gn_fcode":"PPL",
    "gn:gn_pop":0,
    "iso:country":"US",
    "lbl:latitude":41.273805,
    "lbl:longitude":-74.487718,
    "mz:hierarchy_label":0,
    "mz:is_current":-1,
    "name:eng_x_preferred":[
        "Newport"
    ],
    "qs_pg:aaroncc":"US",
    "qs_pg:gn_country":"US",
    "qs_pg:gn_fcode":"PPL",
    "qs_pg:gn_id":5128686,
    "qs_pg:gn_pop":0,
    "qs_pg:name":"Newport",
    "qs_pg:name_adm0":"United States",
    "qs_pg:name_adm1":"New York",
    "qs_pg:photos":1,
    "qs_pg:photos_1k":1,
    "qs_pg:photos_9k":1,
    "qs_pg:photos_9r":1,
    "qs_pg:photos_all":1,
    "qs_pg:photos_sr":1,
    "qs_pg:pop_sr":0,
    "qs_pg:qs_id":478465,
    "qs_pg:qs_pg_placetype":"neighbourhood",
    "qs_pg:qs_pg_placetype_gp":"Suburb",
    "qs_pg:woe_adm0":23424977,
    "qs_pg:woe_id":2459568,
    "src:geom":"mz",
    "src:geom_alt":[
        "zetashapes"
    ],
    "src:lbl":"mapshaper",
    "src:lbl:centroid":"mapshaper",
    "src:population":"zetashapes",
    "wof:belongsto":[
        102191575,
        404522923,
        85633793,
        102083061,
        85688543
    ],
    "wof:breaches":[],
    "wof:concordances":{
        "gn:id":5128686,
        "gp:id":2459568,
        "qs_pg:id":478465
    },
    "wof:country":"US",
    "wof:geomhash":"0cb98abf6000fb44b76f49f9fa50f248",
    "wof:hierarchy":[
        {
            "continent_id":102191575,
            "country_id":85633793,
            "county_id":102083061,
            "localadmin_id":404522923,
            "locality_id":-1,
            "neighbourhood_id":420529513,
            "region_id":85688543
        }
    ],
    "wof:id":420529513,
    "wof:lastmodified":1534379761,
    "wof:name":"Newport",
    "wof:parent_id":-1,
    "wof:placetype":"neighbourhood",
    "wof:population":302,
    "wof:population_rank":2,
    "wof:repo":"whosonfirst-data-admin-us",
    "wof:superseded_by":[],
    "wof:supersedes":[
        1126107067
    ],
    "wof:tags":[],
    "zs:area_m":8528651.063151,
    "zs:blockids":[
        360710145011073,
        360710145012009,
        360710145011062,
        360710145011063,
        360710145012008,
        360710145011074
    ],
    "zs:housing10":107,
    "zs:id":2459568,
    "zs:label":"Newport",
    "zs:pop10":302
},
  "bbox": [
    -74.487718,
    41.273805,
    -74.487718,
    41.273805
],
  "geometry": {"coordinates":[-74.487718,41.273805],"type":"Point"}
}