{
  "id": 1209831285,
  "type": "Feature",
  "properties": {
    "edtf:cessation":"uuuu",
    "edtf:inception":"uuuu",
    "geom:area":0.0,
    "geom:area_square_m":0.0,
    "geom:bbox":"-90.02262,42.59389,-90.02262,42.59389",
    "geom:latitude":42.59389,
    "geom:longitude":-90.02262,
    "gn:admin1_code":"WI",
    "gn:admin2_code":"65.0",
    "gn:admin3_code":"30600.0",
    "gn:asciiname":"Riverside",
    "gn:country_code":"US",
    "gn:dem":246,
    "gn:elevation":"247.0",
    "gn:feature_class":"P",
    "gn:feature_code":"PPL",
    "gn:geonameid":5269038,
    "gn:latitude":42.59389,
    "gn:longitude":-90.02262,
    "gn:modification_date":"2017-05-23",
    "gn:name":"Riverside",
    "gn:population":0,
    "gn:timezone":"America/Chicago",
    "iso:country":"US",
    "mz:hierarchy_label":1,
    "mz:is_current":-1,
    "src:geom":"geonames",
    "wof:belongsto":[
        85688517,
        102191575,
        404493497,
        85633793,
        102081865
    ],
    "wof:breaches":[],
    "wof:concordances":{
        "gn:id":5269038
    },
    "wof:country":"US",
    "wof:geomhash":"b93d02bf8c6f4e045c94599fa9049e8b",
    "wof:hierarchy":[
        {
            "continent_id":102191575,
            "country_id":85633793,
            "county_id":102081865,
            "localadmin_id":404493497,
            "locality_id":1209831285,
            "region_id":85688517
        }
    ],
    "wof:id":1209831285,
    "wof:lastmodified":1536368018,
    "wof:name":"Riverside",
    "wof:parent_id":404493497,
    "wof:placetype":"locality",
    "wof:repo":"whosonfirst-data-admin-us",
    "wof:superseded_by":[],
    "wof:supersedes":[],
    "wof:tags":[]
},
  "bbox": [
    -90.02261999999997,
    42.59389,
    -90.02261999999997,
    42.59389
],
  "geometry": {"coordinates":[-90.02261999999997,42.59389],"type":"Point"}
}