{
  "id": 1276893709,
  "type": "Feature",
  "properties": {
    "edtf:cessation":"uuuu",
    "edtf:inception":"uuuu",
    "geom:area":0.0,
    "geom:area_square_m":0.0,
    "geom:bbox":"-96.19056,36.59758,-96.19056,36.59758",
    "geom:latitude":36.59758,
    "geom:longitude":-96.19056,
    "gn:admin1_code":"OK",
    "gn:admin2_code":"113.0",
    "gn:asciiname":"Tallant",
    "gn:country_code":"US",
    "gn:dem":232,
    "gn:elevation":"229.0",
    "gn:feature_class":"P",
    "gn:feature_code":"PPL",
    "gn:geonameid":4552738,
    "gn:latitude":36.59758,
    "gn:longitude":-96.19056,
    "gn:modification_date":"2006-01-15",
    "gn:name":"Tallant",
    "gn:population":0,
    "gn:timezone":"America/Chicago",
    "iso:country":"US",
    "mz:hierarchy_label":1,
    "mz:is_current":-1,
    "src:geom":"geonames",
    "wof:belongsto":[
        102191575,
        85633793,
        85688585,
        102083951
    ],
    "wof:breaches":[],
    "wof:concordances":{
        "gn:id":4552738
    },
    "wof:country":"US",
    "wof:geomhash":"1d6467732c7a0151c1713686bf818704",
    "wof:hierarchy":[
        {
            "continent_id":102191575,
            "country_id":85633793,
            "county_id":102083951,
            "locality_id":1276893709,
            "region_id":85688585
        }
    ],
    "wof:id":1276893709,
    "wof:lastmodified":1537021688,
    "wof:name":"Tallant",
    "wof:parent_id":102083951,
    "wof:placetype":"locality",
    "wof:repo":"whosonfirst-data-admin-us",
    "wof:superseded_by":[],
    "wof:supersedes":[],
    "wof:tags":[]
},
  "bbox": [
    -96.19056,
    36.59758,
    -96.19056,
    36.59758
],
  "geometry": {"coordinates":[-96.19056,36.59758],"type":"Point"}
}