{
  "id": 1293312399,
  "type": "Feature",
  "properties": {
    "edtf:cessation":"2018-09-06",
    "edtf:inception":"uuuu",
    "geom:area":0.0,
    "geom:area_square_m":0.0,
    "geom:bbox":"-85.68358,34.05899,-85.68358,34.05899",
    "geom:latitude":34.05899,
    "geom:longitude":-85.68358,
    "gn:admin1_code":"AL",
    "gn:admin2_code":"19.0",
    "gn:asciiname":"Ricks (historical)",
    "gn:country_code":"US",
    "gn:dem":184,
    "gn:elevation":"183.0",
    "gn:feature_class":"P",
    "gn:feature_code":"PPLQ",
    "gn:geonameid":4086028,
    "gn:latitude":34.05899,
    "gn:longitude":-85.68358,
    "gn:modification_date":"2011-12-11",
    "gn:name":"Ricks (historical)",
    "gn:population":0,
    "gn:timezone":"America/Chicago",
    "iso:country":"US",
    "mz:hierarchy_label":1,
    "mz:is_current":0,
    "name:eng_x_preferred":[
        "Ricks (historical)"
    ],
    "name:und_x_variant":[
        "Rick"
    ],
    "src:geom":"geonames",
    "wof:belongsto":[
        102191575,
        85633793,
        85688675,
        102085467
    ],
    "wof:breaches":[],
    "wof:concordances":{
        "gn:id":4086028
    },
    "wof:country":"US",
    "wof:geomhash":"a89a9a72edadd88014804c7afe1f1901",
    "wof:hierarchy":[
        {
            "continent_id":102191575,
            "country_id":85633793,
            "county_id":102085467,
            "locality_id":1293312399,
            "region_id":85688675
        }
    ],
    "wof:id":1293312399,
    "wof:lastmodified":1537712231,
    "wof:name":"Ricks (historical)",
    "wof:parent_id":102085467,
    "wof:placetype":"locality",
    "wof:repo":"whosonfirst-data-admin-us",
    "wof:superseded_by":[],
    "wof:supersedes":[],
    "wof:tags":[]
},
  "bbox": [
    -85.68358,
    34.05899,
    -85.68358,
    34.05899
],
  "geometry": {"coordinates":[-85.68358000000001,34.05899],"type":"Point"}
}