{
  "id": 1125288203,
  "type": "Feature",
  "properties": {
    "edtf:cessation":"2017-05-19",
    "edtf:inception":"uuuu",
    "geom:area":0.0,
    "geom:area_square_m":0.0,
    "geom:bbox":"-111.90097,39.95187,-111.90097,39.95187",
    "geom:latitude":39.95187,
    "geom:longitude":-111.90097,
    "gn:gn_country":"US",
    "gn:gn_fcode":"ADMD",
    "gn:gn_pop":921,
    "gn:population":921,
    "iso:country":"US",
    "lbl:latitude":39.95187,
    "lbl:longitude":-111.90097,
    "mz:hierarchy_label":1,
    "mz:is_current":0,
    "mz:note":"Quattroshapes Point Gazetteer import 20170519",
    "qs_pg:aaroncc":"US",
    "qs_pg:gn_country":"US",
    "qs_pg:gn_fcode":"ADMD",
    "qs_pg:gn_id":7175108,
    "qs_pg:gn_pop":921,
    "qs_pg:name":"Town of Goshen",
    "qs_pg:photos_9r":0,
    "qs_pg:photos_sr":0,
    "qs_pg:pop_sr":2,
    "qs_pg:qs_id":667652,
    "qs_pg:qs_pg_placetype":"localadmin",
    "src:geom":"qs_pg",
    "src:lbl:centroid":"qs_pg",
    "src:population":"geonames",
    "wof:belongsto":[
        85633793
    ],
    "wof:breaches":[],
    "wof:concordances":{
        "gn:id":7175108,
        "qs_pg:id":667652
    },
    "wof:country":"US",
    "wof:created":1497042801,
    "wof:geomhash":"d2049ceb4c8fa8a3828349d475610cf7",
    "wof:hierarchy":[
        {
            "country_id":85633793,
            "localadmin_id":1125288203
        }
    ],
    "wof:id":1125288203,
    "wof:lastmodified":1505187148,
    "wof:name":"Town of Goshen",
    "wof:parent_id":-1,
    "wof:placetype":"localadmin",
    "wof:population":921,
    "wof:population_rank":2,
    "wof:repo":"whosonfirst-data-admin-us",
    "wof:superseded_by":[],
    "wof:supersedes":[],
    "wof:tags":[]
},
  "bbox": [
    -111.90097,
    39.95187,
    -111.90097,
    39.95187
],
  "geometry": {"coordinates":[-111.90097,39.95187],"type":"Point"}
}