{
  "id": 420536431,
  "type": "Feature",
  "properties": {
    "edtf:cessation":"uuuu",
    "edtf:inception":"uuuu",
    "geom:area":0.0,
    "geom:area_square_m":13167284.631016,
    "geom:bbox":"-79.588776,40.65717,-79.588776,40.65717",
    "geom:latitude":40.65717,
    "geom:longitude":-79.588776,
    "iso:country":"US",
    "lbl:latitude":40.65717,
    "lbl:longitude":-79.588776,
    "mz:hierarchy_label":0,
    "mz:is_current":-1,
    "name:eng_x_preferred":[
        "Georgetown"
    ],
    "src:geom":"mz",
    "src:geom_alt":[
        "zetashapes"
    ],
    "src:lbl":"mapshaper",
    "src:population":"zetashapes",
    "wof:belongsto":[
        102191575,
        404484279,
        85633793,
        102081371,
        85688481
    ],
    "wof:breaches":[],
    "wof:concordances":{
        "gp:id":2409651
    },
    "wof:country":"US",
    "wof:geomhash":"d983d5ff5de4d8f65b8b605c9498866c",
    "wof:hierarchy":[
        {
            "continent_id":102191575,
            "country_id":85633793,
            "county_id":102081371,
            "localadmin_id":404484279,
            "locality_id":-1,
            "neighbourhood_id":420536431,
            "region_id":85688481
        }
    ],
    "wof:id":420536431,
    "wof:lastmodified":1533599311,
    "wof:name":"Georgetown",
    "wof:parent_id":-1,
    "wof:placetype":"neighbourhood",
    "wof:population":1723,
    "wof:population_rank":3,
    "wof:repo":"whosonfirst-data-admin-us",
    "wof:superseded_by":[],
    "wof:supersedes":[],
    "wof:tags":[],
    "zs:area_m":13166400.007592,
    "zs:blockids":[
        420059518001004,
        420059518001010,
        420059513003012,
        420059518001063,
        420059518001064,
        420059518001057,
        420059513003017,
        420059513001017,
        420059513001005,
        420059513003014,
        420059518001047,
        420059518002015,
        420059518001051,
        420059518001041,
        420059518001054,
        420059518001019,
        420059518001042,
        420059518001009,
        420059513003011,
        420059513003019,
        420059513001006,
        420059518002000,
        420059518002003,
        420059513003018,
        420059518002011,
        420059518001046,
        420059518001049,
        420059518001048,
        420059518002026,
        420059518002002,
        420059518002010,
        420059513003020,
        420059513003015,
        420059518001016,
        420059518001039,
        420059518001050,
        420059518001020,
        420059518001021,
        420059518001045,
        420059518001052,
        420059513001007,
        420059518001056,
        420059513001004,
        420059518001055,
        420059518002025,
        420059513003013,
        420059518002020,
        420059513002039,
        420059513001000,
        420059514001008,
        420059518002006,
        420059518002005,
        420059518001044,
        420059518001001,
        420059518001003,
        420059518002013,
        420059518002004,
        420059518001000,
        420059518001018,
        420059513003016,
        420059518001024,
        420059518001002,
        420059518001013,
        420059513001008,
        420059518001014,
        420059518001023,
        420059518001017,
        420059518002001,
        420059518002012,
        420059518001012,
        420059518001015,
        420059518003012,
        420059518003013,
        420059518001053,
        420059518001038,
        420059513001016,
        420059518002007,
        420059513002032,
        420059518001022,
        420059518001006,
        420059513002028,
        420059518002022,
        420059518001058,
        420059518001011,
        420059513001018,
        420059518001007,
        420059518002018,
        420059518001008,
        420059513001001,
        420059513002029,
        420059513001009,
        420059518001040,
        420059518002014,
        420059518001005
    ],
    "zs:housing10":802,
    "zs:id":2409651,
    "zs:label":"Georgetown",
    "zs:pop10":1723
},
  "bbox": [
    -79.588776,
    40.65717,
    -79.588776,
    40.65717
],
  "geometry": {"coordinates":[-79.588776,40.65717],"type":"Point"}
}