{
  "id": 1125347763,
  "type": "Feature",
  "properties": {
    "edtf:cessation":"uuuu",
    "edtf:deprecated":"2017-11-04",
    "edtf:inception":"uuuu",
    "geom:area":0.0,
    "geom:area_square_m":0.0,
    "geom:bbox":"-117.16897,44.76784,-117.16897,44.76784",
    "geom:latitude":44.76784,
    "geom:longitude":-117.16897,
    "gn:gn_country":"US",
    "gn:gn_fcode":"ADMD",
    "gn:gn_pop":156,
    "gn:population":156,
    "iso:country":"US",
    "lbl:latitude":44.76784,
    "lbl:longitude":-117.16897,
    "mz:hierarchy_label":1,
    "mz:is_current":0,
    "mz:note":"Quattroshapes Point Gazetteer import 20170519",
    "qs_pg:aaroncc":"US",
    "qs_pg:gn_country":"US",
    "qs_pg:gn_fcode":"ADMD",
    "qs_pg:gn_id":7173745,
    "qs_pg:gn_pop":156,
    "qs_pg:name":"City of Richland",
    "qs_pg:photos_9r":0,
    "qs_pg:photos_sr":0,
    "qs_pg:pop_sr":1,
    "qs_pg:qs_id":666315,
    "qs_pg:qs_pg_placetype":"localadmin",
    "src:geom":"qs_pg",
    "src:lbl:centroid":"qs_pg",
    "src:population":"geonames",
    "wof:belongsto":[
        85633793
    ],
    "wof:breaches":[],
    "wof:concordances":{
        "gn:id":7173745,
        "qs_pg:id":666315
    },
    "wof:country":"US",
    "wof:created":1497046018,
    "wof:geomhash":"5b994efdce82ff5e891cadcbbf9d0917",
    "wof:hierarchy":[
        {
            "country_id":85633793,
            "localadmin_id":1125347763
        }
    ],
    "wof:id":1125347763,
    "wof:lastmodified":1509752603,
    "wof:name":"City of Richland",
    "wof:parent_id":-1,
    "wof:placetype":"localadmin",
    "wof:population":156,
    "wof:population_rank":1,
    "wof:repo":"whosonfirst-data-admin-us",
    "wof:superseded_by":[
        101715985
    ],
    "wof:supersedes":[],
    "wof:tags":[]
},
  "bbox": [
    -117.16897,
    44.76784,
    -117.16897,
    44.76784
],
  "geometry": {"coordinates":[-117.16897,44.76784],"type":"Point"}
}