{
  "id": 1125275261,
  "type": "Feature",
  "properties": {
    "edtf:cessation":"uuuu",
    "edtf:deprecated":"2017-11-04",
    "edtf:inception":"uuuu",
    "geom:area":0.0,
    "geom:area_square_m":0.0,
    "geom:bbox":"-84.97737,30.42544,-84.97737,30.42544",
    "geom:latitude":30.42544,
    "geom:longitude":-84.97737,
    "gn:gn_country":"US",
    "gn:gn_fcode":"ADMD",
    "gn:gn_pop":996,
    "gn:population":996,
    "iso:country":"US",
    "lbl:latitude":30.42544,
    "lbl:longitude":-84.97737,
    "mz:hierarchy_label":1,
    "mz:is_current":0,
    "mz:note":"Quattroshapes Point Gazetteer import 20170519",
    "qs_pg:aaroncc":"US",
    "qs_pg:gn_country":"US",
    "qs_pg:gn_fcode":"ADMD",
    "qs_pg:gn_id":7169665,
    "qs_pg:gn_pop":996,
    "qs_pg:name":"City of Bristol",
    "qs_pg:photos_9r":0,
    "qs_pg:photos_sr":0,
    "qs_pg:pop_sr":2,
    "qs_pg:qs_id":662345,
    "qs_pg:qs_pg_placetype":"localadmin",
    "src:geom":"qs_pg",
    "src:lbl:centroid":"qs_pg",
    "src:population":"geonames",
    "wof:belongsto":[
        85633793
    ],
    "wof:breaches":[],
    "wof:concordances":{
        "gn:id":7169665,
        "qs_pg:id":662345
    },
    "wof:country":"US",
    "wof:created":1497042284,
    "wof:geomhash":"845c55eef35587495838f48b707abe7a",
    "wof:hierarchy":[
        {
            "country_id":85633793,
            "localadmin_id":1125275261
        }
    ],
    "wof:id":1125275261,
    "wof:lastmodified":1509752418,
    "wof:name":"City of Bristol",
    "wof:parent_id":-1,
    "wof:placetype":"localadmin",
    "wof:population":996,
    "wof:population_rank":2,
    "wof:repo":"whosonfirst-data-admin-us",
    "wof:superseded_by":[
        85933545
    ],
    "wof:supersedes":[],
    "wof:tags":[]
},
  "bbox": [
    -84.97737,
    30.42544,
    -84.97737,
    30.42544
],
  "geometry": {"coordinates":[-84.97736999999999,30.42544],"type":"Point"}
}