{
  "id": 1326746597,
  "type": "Feature",
  "properties": {
    "edtf:cessation":"2018-09-07",
    "edtf:inception":"uuuu",
    "geom:area":0.0,
    "geom:area_square_m":0.0,
    "geom:bbox":"-116.78377,46.9249,-116.78377,46.9249",
    "geom:latitude":46.9249,
    "geom:longitude":-116.78377,
    "gn:admin1_code":"ID",
    "gn:admin2_code":"57.0",
    "gn:asciiname":"Chambers (historical)",
    "gn:country_code":"US",
    "gn:dem":779,
    "gn:elevation":"782.0",
    "gn:feature_class":"P",
    "gn:feature_code":"PPLQ",
    "gn:geonameid":5588548,
    "gn:latitude":46.9249,
    "gn:longitude":-116.78377,
    "gn:modification_date":"2011-12-11",
    "gn:name":"Chambers (historical)",
    "gn:population":0,
    "gn:timezone":"America/Los_Angeles",
    "iso:country":"US",
    "mz:hierarchy_label":1,
    "mz:is_current":0,
    "src:geom":"geonames",
    "wof:belongsto":[
        102191575,
        85633793,
        85688657,
        102085077
    ],
    "wof:breaches":[],
    "wof:concordances":{
        "gn:id":5588548
    },
    "wof:country":"US",
    "wof:geomhash":"93c35d410d2894ab229e0b7b2b3d8974",
    "wof:hierarchy":[
        {
            "continent_id":102191575,
            "country_id":85633793,
            "county_id":102085077,
            "locality_id":1326746597,
            "region_id":85688657
        }
    ],
    "wof:id":1326746597,
    "wof:lastmodified":1536674943,
    "wof:name":"Chambers (historical)",
    "wof:parent_id":102085077,
    "wof:placetype":"locality",
    "wof:repo":"whosonfirst-data-admin-us",
    "wof:superseded_by":[],
    "wof:supersedes":[],
    "wof:tags":[]
},
  "bbox": [
    -116.78377,
    46.9249,
    -116.78377,
    46.9249
],
  "geometry": {"coordinates":[-116.78377,46.9249],"type":"Point"}
}