{
  "id": 1259417425,
  "type": "Feature",
  "properties": {
    "edtf:cessation":"2018-09-06",
    "edtf:inception":"uuuu",
    "geom:area":0.0,
    "geom:area_square_m":0.0,
    "geom:bbox":"-114.86473,38.03329,-114.86473,38.03329",
    "geom:latitude":38.03329,
    "geom:longitude":-114.86473,
    "gn:admin1_code":"NV",
    "gn:admin2_code":"17.0",
    "gn:asciiname":"Coyote (historical)",
    "gn:country_code":"US",
    "gn:dem":1595,
    "gn:elevation":"1592.0",
    "gn:feature_class":"P",
    "gn:feature_code":"PPLQ",
    "gn:geonameid":5502418,
    "gn:latitude":38.03329,
    "gn:longitude":-114.86473,
    "gn:modification_date":"2011-12-11",
    "gn:name":"Coyote (historical)",
    "gn:population":0,
    "gn:timezone":"America/Los_Angeles",
    "iso:country":"US",
    "mz:hierarchy_label":1,
    "mz:is_current":0,
    "src:geom":"geonames",
    "wof:belongsto":[
        102191575,
        85633793,
        85688531,
        102081549
    ],
    "wof:breaches":[],
    "wof:concordances":{
        "gn:id":5502418
    },
    "wof:country":"US",
    "wof:geomhash":"b129272f0820aca00776bc706ffa90ed",
    "wof:hierarchy":[
        {
            "continent_id":102191575,
            "country_id":85633793,
            "county_id":102081549,
            "locality_id":1259417425,
            "region_id":85688531
        }
    ],
    "wof:id":1259417425,
    "wof:lastmodified":1536953781,
    "wof:name":"Coyote (historical)",
    "wof:parent_id":102081549,
    "wof:placetype":"locality",
    "wof:repo":"whosonfirst-data-admin-us",
    "wof:superseded_by":[],
    "wof:supersedes":[],
    "wof:tags":[]
},
  "bbox": [
    -114.86473,
    38.03329,
    -114.86473,
    38.03329
],
  "geometry": {"coordinates":[-114.86472999999999,38.03329],"type":"Point"}
}