{
  "id": 1259602639,
  "type": "Feature",
  "properties": {
    "edtf:cessation":"2018-09-07",
    "edtf:inception":"uuuu",
    "geom:area":0.0,
    "geom:area_square_m":0.0,
    "geom:bbox":"-83.02756,37.45229,-83.02756,37.45229",
    "geom:latitude":37.45229,
    "geom:longitude":-83.02756,
    "gn:admin1_code":"KY",
    "gn:admin2_code":"119",
    "gn:asciiname":"Baker Camp (historical)",
    "gn:country_code":"US",
    "gn:dem":316,
    "gn:elevation":"303.0",
    "gn:feature_class":"P",
    "gn:feature_code":"PPLQ",
    "gn:geonameid":7141364,
    "gn:latitude":37.45229,
    "gn:longitude":-83.02756,
    "gn:modification_date":"2014-10-08",
    "gn:name":"Baker Camp (historical)",
    "gn:population":0,
    "gn:timezone":"America/New_York",
    "iso:country":"US",
    "mz:hierarchy_label":1,
    "mz:is_current":0,
    "src:geom":"geonames",
    "wof:belongsto":[
        102191575,
        85633793,
        85688641,
        102085453
    ],
    "wof:breaches":[],
    "wof:concordances":{
        "gn:id":7141364
    },
    "wof:country":"US",
    "wof:geomhash":"277ef1de6b5e27ed3658154ef1212e41",
    "wof:hierarchy":[
        {
            "continent_id":102191575,
            "country_id":85633793,
            "county_id":102085453,
            "locality_id":1259602639,
            "region_id":85688641
        }
    ],
    "wof:id":1259602639,
    "wof:lastmodified":1536687234,
    "wof:name":"Baker Camp (historical)",
    "wof:parent_id":102085453,
    "wof:placetype":"locality",
    "wof:repo":"whosonfirst-data-admin-us",
    "wof:superseded_by":[],
    "wof:supersedes":[],
    "wof:tags":[]
},
  "bbox": [
    -83.02756,
    37.45229000000001,
    -83.02756,
    37.45229000000001
],
  "geometry": {"coordinates":[-83.02755999999999,37.45229000000001],"type":"Point"}
}