{
  "id": 1226362071,
  "type": "Feature",
  "properties": {
    "edtf:cessation":"uuuu",
    "edtf:inception":"uuuu",
    "geom:area":0.0,
    "geom:area_square_m":0.0,
    "geom:bbox":"-112.22109,44.00741,-112.22109,44.00741",
    "geom:latitude":44.00741,
    "geom:longitude":-112.22109,
    "gn:admin1_code":"ID",
    "gn:admin2_code":"51.0",
    "gn:asciiname":"Camas",
    "gn:country_code":"US",
    "gn:dem":1474,
    "gn:elevation":"1469.0",
    "gn:feature_class":"P",
    "gn:feature_code":"PPL",
    "gn:geonameid":5587754,
    "gn:latitude":44.00741,
    "gn:longitude":-112.22109,
    "gn:modification_date":"2006-01-15",
    "gn:name":"Camas",
    "gn:population":0,
    "gn:timezone":"America/Boise",
    "iso:country":"US",
    "mz:hierarchy_label":1,
    "mz:is_current":-1,
    "name:eng_x_preferred":[
        "Camas"
    ],
    "name:und_x_variant":[
        "Lava"
    ],
    "src:geom":"geonames",
    "wof:belongsto":[
        102191575,
        85633793,
        85688657,
        102086033
    ],
    "wof:breaches":[],
    "wof:concordances":{
        "gn:id":5587754
    },
    "wof:country":"US",
    "wof:geomhash":"8c0c90664a4109524b192f121df323de",
    "wof:hierarchy":[
        {
            "continent_id":102191575,
            "country_id":85633793,
            "county_id":102086033,
            "locality_id":1226362071,
            "region_id":85688657
        }
    ],
    "wof:id":1226362071,
    "wof:lastmodified":1537713073,
    "wof:name":"Camas",
    "wof:parent_id":102086033,
    "wof:placetype":"locality",
    "wof:repo":"whosonfirst-data-admin-us",
    "wof:superseded_by":[],
    "wof:supersedes":[],
    "wof:tags":[]
},
  "bbox": [
    -112.22109,
    44.00741,
    -112.22109,
    44.00741
],
  "geometry": {"coordinates":[-112.22109,44.00741],"type":"Point"}
}