{
  "id": 1209122329,
  "type": "Feature",
  "properties": {
    "edtf:cessation":"uuuu",
    "edtf:inception":"uuuu",
    "geom:area":0.0,
    "geom:area_square_m":0.0,
    "geom:bbox":"-82.9182,34.59038,-82.9182,34.59038",
    "geom:latitude":34.59038,
    "geom:longitude":-82.9182,
    "gn:admin1_code":"SC",
    "gn:admin2_code":"73.0",
    "gn:asciiname":"Timberlake",
    "gn:country_code":"US",
    "gn:dem":238,
    "gn:elevation":"232.0",
    "gn:feature_class":"P",
    "gn:feature_code":"PPL",
    "gn:geonameid":4598684,
    "gn:latitude":34.59038,
    "gn:longitude":-82.9182,
    "gn:modification_date":"2010-02-17",
    "gn:name":"Timberlake",
    "gn:population":0,
    "gn:timezone":"America/New_York",
    "iso:country":"US",
    "mz:hierarchy_label":1,
    "mz:is_current":-1,
    "src:geom":"geonames",
    "wof:belongsto":[
        85633793
    ],
    "wof:breaches":[],
    "wof:concordances":{
        "gn:id":4598684
    },
    "wof:country":"US",
    "wof:geomhash":"750f85036aac90be617f246d370409c2",
    "wof:hierarchy":[
        {
            "country_id":85633793,
            "locality_id":1209122329
        }
    ],
    "wof:id":1209122329,
    "wof:lastmodified":1536297063,
    "wof:name":"Timberlake",
    "wof:parent_id":85633793,
    "wof:placetype":"locality",
    "wof:repo":"whosonfirst-data-admin-us",
    "wof:superseded_by":[],
    "wof:supersedes":[],
    "wof:tags":[]
},
  "bbox": [
    -82.9182,
    34.59038,
    -82.9182,
    34.59038
],
  "geometry": {"coordinates":[-82.9182,34.59038],"type":"Point"}
}