{
  "id": 420512191,
  "type": "Feature",
  "properties": {
    "edtf:cessation":"uuuu",
    "edtf:inception":"uuuu",
    "geom:area":0.0,
    "geom:bbox":"-85.395412,29.748293,-85.395412,29.748293",
    "geom:latitude":29.748293,
    "geom:longitude":-85.395412,
    "iso:country":"US",
    "lbl:latitude":29.748293,
    "lbl:longitude":-85.395412,
    "mz:hierarchy_label":0,
    "mz:is_current":-1,
    "name:eng_x_preferred":[
        "Sanbar Bay"
    ],
    "src:geom":"mz",
    "src:geom_alt":[
        "zetashapes"
    ],
    "src:lbl":"mapshaper",
    "src:lbl:centroid":"mapshaper",
    "wof:belongsto":[
        102191575,
        85633793,
        102085757,
        85688651
    ],
    "wof:breaches":[],
    "wof:concordances":{
        "gp:id":56020035
    },
    "wof:country":"US",
    "wof:geomhash":"6131fd2ac0656341dc5e14c2524020ca",
    "wof:hierarchy":[
        {
            "continent_id":102191575,
            "country_id":85633793,
            "county_id":102085757,
            "locality_id":-1,
            "neighbourhood_id":420512191,
            "region_id":85688651
        }
    ],
    "wof:id":420512191,
    "wof:lastmodified":1533591797,
    "wof:name":"Sanbar Bay",
    "wof:parent_id":-1,
    "wof:placetype":"neighbourhood",
    "wof:repo":"whosonfirst-data-admin-us",
    "wof:superseded_by":[],
    "wof:supersedes":[],
    "wof:tags":[],
    "zs:area_m":16458.123574,
    "zs:blockids":[
        120459603005214,
        120459603005215
    ],
    "zs:housing10":0,
    "zs:id":56020035,
    "zs:label":"Sanbar Bay",
    "zs:pop10":0
},
  "bbox": [
    -85.395412,
    29.748293,
    -85.395412,
    29.748293
],
  "geometry": {"coordinates":[-85.39541199999999,29.748293],"type":"Point"}
}