{
  "id": 420559921,
  "type": "Feature",
  "properties": {
    "edtf:cessation":"uuuu",
    "edtf:inception":"uuuu",
    "geom:area":0.0,
    "geom:area_square_m":5933230.523346,
    "geom:bbox":"-81.542082,28.448726,-81.542082,28.448726",
    "geom:latitude":28.448726,
    "geom:longitude":-81.542082,
    "iso:country":"US",
    "lbl:latitude":28.448726,
    "lbl:longitude":-81.542082,
    "mz:hierarchy_label":0,
    "mz:is_current":-1,
    "src:geom":"mz",
    "src:geom_alt":[
        "zetashapes"
    ],
    "src:lbl:centroid":"mapshaper",
    "wof:belongsto":[
        102191575,
        85633793,
        85935301,
        102085847,
        85688651
    ],
    "wof:breaches":[],
    "wof:concordances":{
        "gp:id":55980199
    },
    "wof:country":"US",
    "wof:geomhash":"7ee45b26ad66e80579f07963164359bd",
    "wof:hierarchy":[
        {
            "continent_id":102191575,
            "country_id":85633793,
            "county_id":102085847,
            "locality_id":85935301,
            "neighbourhood_id":420559921,
            "region_id":85688651
        }
    ],
    "wof:id":420559921,
    "wof:lastmodified":1533614453,
    "wof:name":"",
    "wof:parent_id":85935301,
    "wof:placetype":"neighbourhood",
    "wof:repo":"whosonfirst-data-admin-us",
    "wof:superseded_by":[],
    "wof:supersedes":[],
    "wof:tags":[],
    "zs:12095:area_m":5932822.269955,
    "zs:12095:blockids":"120950171082002,120950171082004,120950171031010,120950171082001,120950171082005,120950171082007,120950171031000,120950171082008,120950171082003",
    "zs:12095:housing10":631,
    "zs:12095:id":55980199,
    "zs:12095:label":"Cypress Chase North",
    "zs:12095:pop10":1693,
    "zs:id":55980199,
    "zs:name":"Cypress Chase North",
    "zs:placetype":"neighbourhood",
    "zs:us:counties":[
        "12095"
    ]
},
  "bbox": [
    -81.542082,
    28.448726,
    -81.542082,
    28.448726
],
  "geometry": {"coordinates":[-81.54208199999999,28.448726],"type":"Point"}
}