{
  "id": 1242803687,
  "type": "Feature",
  "properties": {
    "edtf:cessation":"uuuu",
    "edtf:inception":"uuuu",
    "geom:area":0.0,
    "geom:area_square_m":0.0,
    "geom:bbox":"-92.91881,43.23497,-92.91881,43.23497",
    "geom:latitude":43.23497,
    "geom:longitude":-92.91881,
    "gn:admin1_code":"IA",
    "gn:admin2_code":"131.0",
    "gn:admin3_code":"90555.0",
    "gn:asciiname":"Rock Creek",
    "gn:country_code":"US",
    "gn:dem":344,
    "gn:elevation":"343.0",
    "gn:feature_class":"P",
    "gn:feature_code":"PPL",
    "gn:geonameid":4873308,
    "gn:latitude":43.23497,
    "gn:longitude":-92.91881,
    "gn:modification_date":"2017-05-23",
    "gn:name":"Rock Creek",
    "gn:population":0,
    "gn:timezone":"America/Chicago",
    "iso:country":"US",
    "mz:hierarchy_label":1,
    "mz:is_current":-1,
    "src:geom":"geonames",
    "wof:belongsto":[
        102191575,
        85633793,
        85688713,
        102086521
    ],
    "wof:breaches":[],
    "wof:concordances":{
        "gn:id":4873308
    },
    "wof:country":"US",
    "wof:geomhash":"602d7675cb173ce37ced9d2537335328",
    "wof:hierarchy":[
        {
            "continent_id":102191575,
            "country_id":85633793,
            "county_id":102086521,
            "locality_id":1242803687,
            "region_id":85688713
        }
    ],
    "wof:id":1242803687,
    "wof:lastmodified":1536738005,
    "wof:name":"Rock Creek",
    "wof:parent_id":102086521,
    "wof:placetype":"locality",
    "wof:repo":"whosonfirst-data-admin-us",
    "wof:superseded_by":[],
    "wof:supersedes":[],
    "wof:tags":[]
},
  "bbox": [
    -92.91881,
    43.23497,
    -92.91881,
    43.23497
],
  "geometry": {"coordinates":[-92.91880999999999,43.23497],"type":"Point"}
}