{
  "id": 1309820017,
  "type": "Feature",
  "properties": {
    "edtf:cessation":"2018-09-07",
    "edtf:inception":"uuuu",
    "geom:area":0.0,
    "geom:area_square_m":0.0,
    "geom:bbox":"-121.4058,39.69627,-121.4058,39.69627",
    "geom:latitude":39.69627,
    "geom:longitude":-121.4058,
    "gn:admin1_code":"CA",
    "gn:admin2_code":"7.0",
    "gn:asciiname":"Brush (historical)",
    "gn:country_code":"US",
    "gn:dem":251,
    "gn:elevation":"275.0",
    "gn:feature_class":"P",
    "gn:feature_code":"PPLQ",
    "gn:geonameid":5331168,
    "gn:latitude":39.69627,
    "gn:longitude":-121.4058,
    "gn:modification_date":"2011-12-12",
    "gn:name":"Brush (historical)",
    "gn:population":0,
    "gn:timezone":"America/Los_Angeles",
    "iso:country":"US",
    "mz:hierarchy_label":1,
    "mz:is_current":0,
    "src:geom":"geonames",
    "wof:belongsto":[
        102191575,
        85633793,
        85688637,
        102086941
    ],
    "wof:breaches":[],
    "wof:concordances":{
        "gn:id":5331168
    },
    "wof:country":"US",
    "wof:geomhash":"164219b9d2ddc6aa4a1d49347497a30e",
    "wof:hierarchy":[
        {
            "continent_id":102191575,
            "country_id":85633793,
            "county_id":102086941,
            "locality_id":1309820017,
            "region_id":85688637
        }
    ],
    "wof:id":1309820017,
    "wof:lastmodified":1536910938,
    "wof:name":"Brush (historical)",
    "wof:parent_id":102086941,
    "wof:placetype":"locality",
    "wof:repo":"whosonfirst-data-admin-us",
    "wof:superseded_by":[],
    "wof:supersedes":[],
    "wof:tags":[]
},
  "bbox": [
    -121.4058,
    39.69627,
    -121.4058,
    39.69627
],
  "geometry": {"coordinates":[-121.4058,39.69627],"type":"Point"}
}