{
  "id": 420517657,
  "type": "Feature",
  "properties": {
    "edtf:cessation":"uuuu",
    "edtf:inception":"uuuu",
    "geom:area":0.0,
    "geom:area_square_m":545153.176177,
    "geom:bbox":"-83.42642,33.959527,-83.42642,33.959527",
    "geom:latitude":33.959527,
    "geom:longitude":-83.42642,
    "iso:country":"US",
    "lbl:latitude":33.959527,
    "lbl:longitude":-83.42642,
    "mz:hierarchy_label":0,
    "mz:is_current":-1,
    "name:eng_x_preferred":[
        "Tara Way"
    ],
    "src:geom":"mz",
    "src:geom_alt":[
        "quattroshapes_pg",
        "zetashapes"
    ],
    "src:lbl":"mapshaper",
    "src:lbl:centroid":"mapshaper",
    "src:population":"zetashapes",
    "wof:belongsto":[
        102191575,
        85633793,
        85936177,
        102081713,
        85688535
    ],
    "wof:breaches":[],
    "wof:concordances":{
        "gn:id":4225763,
        "gp:id":2504103,
        "qs_pg:id":1321134
    },
    "wof:country":"US",
    "wof:geomhash":"fe07c95327c70afd66d8b3c88c2fc23b",
    "wof:hierarchy":[
        {
            "continent_id":102191575,
            "country_id":85633793,
            "county_id":102081713,
            "locality_id":85936177,
            "neighbourhood_id":420517657,
            "region_id":85688535
        }
    ],
    "wof:id":420517657,
    "wof:lastmodified":1533593485,
    "wof:name":"Tara Way",
    "wof:parent_id":85936177,
    "wof:placetype":"neighbourhood",
    "wof:population":352,
    "wof:population_rank":2,
    "wof:repo":"whosonfirst-data-admin-us",
    "wof:superseded_by":[],
    "wof:supersedes":[],
    "wof:tags":[],
    "zs:area_m":545115.713561,
    "zs:blockids":[
        130590017001023,
        130590017001025,
        130590017001007,
        130590017001026
    ],
    "zs:housing10":137,
    "zs:id":2504103,
    "zs:label":"Tara Way",
    "zs:pop10":352
},
  "bbox": [
    -83.42642,
    33.959527,
    -83.42642,
    33.959527
],
  "geometry": {"coordinates":[-83.42641999999999,33.959527],"type":"Point"}
}