{
  "id": 1125335341,
  "type": "Feature",
  "properties": {
    "edtf:cessation":"2017-05-19",
    "edtf:inception":"uuuu",
    "geom:area":0.0,
    "geom:area_square_m":0.0,
    "geom:bbox":"-89.54623,44.51997,-89.54623,44.51997",
    "geom:latitude":44.51997,
    "geom:longitude":-89.54623,
    "gn:gn_country":"US",
    "gn:gn_fcode":"ADMD",
    "gn:gn_pop":491,
    "gn:population":491,
    "iso:country":"US",
    "lbl:latitude":44.51997,
    "lbl:longitude":-89.54623,
    "mz:hierarchy_label":1,
    "mz:is_current":0,
    "mz:note":"Quattroshapes Point Gazetteer import 20170519",
    "qs_pg:aaroncc":"US",
    "qs_pg:gn_country":"US",
    "qs_pg:gn_fcode":"ADMD",
    "qs_pg:gn_id":5266252,
    "qs_pg:gn_pop":491,
    "qs_pg:name":"Village of Park Ridge",
    "qs_pg:photos_9r":0,
    "qs_pg:photos_sr":0,
    "qs_pg:pop_sr":2,
    "qs_pg:qs_id":609696,
    "qs_pg:qs_pg_placetype":"localadmin",
    "src:geom":"qs_pg",
    "src:lbl:centroid":"qs_pg",
    "src:population":"geonames",
    "wof:belongsto":[
        85633793
    ],
    "wof:breaches":[],
    "wof:concordances":{
        "gn:id":5266252,
        "qs_pg:id":609696
    },
    "wof:country":"US",
    "wof:created":1497045372,
    "wof:geomhash":"e6ce7085ede9cad9968d9ba2e373a871",
    "wof:hierarchy":[
        {
            "country_id":85633793,
            "localadmin_id":1125335341
        }
    ],
    "wof:id":1125335341,
    "wof:lastmodified":1505186992,
    "wof:name":"Village of Park Ridge",
    "wof:parent_id":-1,
    "wof:placetype":"localadmin",
    "wof:population":491,
    "wof:population_rank":2,
    "wof:repo":"whosonfirst-data-admin-us",
    "wof:superseded_by":[],
    "wof:supersedes":[],
    "wof:tags":[]
},
  "bbox": [
    -89.54623,
    44.51997,
    -89.54623,
    44.51997
],
  "geometry": {"coordinates":[-89.54622999999999,44.51997],"type":"Point"}
}