{
  "id": 1126090255,
  "type": "Feature",
  "properties": {
    "edtf:cessation":"uuuu",
    "edtf:deprecated":"2018-08-15",
    "edtf:inception":"uuuu",
    "edtf:superseded":"2018-08-15",
    "geom:area":0.0,
    "geom:area_square_m":0.0,
    "geom:bbox":"-75.3749,40.68288,-75.3749,40.68288",
    "geom:latitude":40.68288,
    "geom:longitude":-75.3749,
    "gn:gn_country":"US",
    "gn:gn_fcode":"PPL",
    "gn:gn_pop":0,
    "iso:country":"US",
    "lbl:latitude":40.68288,
    "lbl:longitude":-75.3749,
    "mz:hierarchy_label":1,
    "mz:is_current":0,
    "mz:note":"Quattroshapes Point Gazetteer import 20170519",
    "name:eng_x_preferred":[
        "Hanoverville"
    ],
    "name:unk_x_variant":[
        "Haines Taverns"
    ],
    "qs_pg:aaroncc":"US",
    "qs_pg:gn_country":"US",
    "qs_pg:gn_fcode":"PPL",
    "qs_pg:gn_id":5192593,
    "qs_pg:gn_pop":0,
    "qs_pg:name":"Hanoverville",
    "qs_pg:name_adm0":"United States",
    "qs_pg:name_adm1":"Pennsylvania",
    "qs_pg:photos":141,
    "qs_pg:photos_1k":29,
    "qs_pg:photos_9k":1,
    "qs_pg:photos_9r":3,
    "qs_pg:photos_all":141,
    "qs_pg:photos_sr":3,
    "qs_pg:pop_sr":0,
    "qs_pg:qs_id":1678,
    "qs_pg:qs_pg_placetype":"neighbourhood",
    "qs_pg:qs_pg_placetype_gp":"Suburb",
    "qs_pg:woe_adm0":23424977,
    "qs_pg:woe_id":2417160,
    "src:geom":"qs_pg",
    "src:lbl:centroid":"qs_pg",
    "woe:adm0_id":23424977,
    "woe:name_adm0":"United States",
    "woe:name_adm1":"Pennsylvania",
    "woe:placetype":"Suburb",
    "wof:belongsto":[
        102191575,
        404486365,
        85633793,
        102081395,
        85688481
    ],
    "wof:breaches":[],
    "wof:concordances":{
        "gn:id":5192593,
        "gp:id":2417160,
        "qs_pg:id":1678
    },
    "wof:country":"US",
    "wof:created":1497313605,
    "wof:geomhash":"b470003ee62d4de137eddf52e41ad080",
    "wof:hierarchy":[
        {
            "continent_id":102191575,
            "country_id":85633793,
            "county_id":102081395,
            "localadmin_id":404486365,
            "locality_id":-1,
            "neighbourhood_id":1126090255,
            "region_id":85688481
        }
    ],
    "wof:id":1126090255,
    "wof:lastmodified":1534379767,
    "wof:name":"Hanoverville",
    "wof:parent_id":-1,
    "wof:placetype":"neighbourhood",
    "wof:repo":"whosonfirst-data-admin-us",
    "wof:superseded_by":[
        420539303
    ],
    "wof:supersedes":[],
    "wof:tags":[]
},
  "bbox": [
    -75.3749,
    40.68288,
    -75.3749,
    40.68288
],
  "geometry": {"coordinates":[-75.3749,40.68288],"type":"Point"}
}