{
  "id": 1125343193,
  "type": "Feature",
  "properties": {
    "edtf:cessation":"2017-05-19",
    "edtf:inception":"uuuu",
    "geom:area":0.0,
    "geom:area_square_m":0.0,
    "geom:bbox":"-89.7556,37.22169,-89.7556,37.22169",
    "geom:latitude":37.22169,
    "geom:longitude":-89.7556,
    "gn:gn_country":"US",
    "gn:gn_fcode":"ADMD",
    "gn:gn_pop":116,
    "gn:population":116,
    "iso:country":"US",
    "lbl:latitude":37.22169,
    "lbl:longitude":-89.7556,
    "mz:hierarchy_label":1,
    "mz:is_current":0,
    "mz:note":"Quattroshapes Point Gazetteer import 20170519",
    "qs_pg:aaroncc":"US",
    "qs_pg:gn_country":"US",
    "qs_pg:gn_fcode":"ADMD",
    "qs_pg:gn_id":7165688,
    "qs_pg:gn_pop":116,
    "qs_pg:name":"Village of Allenville",
    "qs_pg:photos_9r":0,
    "qs_pg:photos_sr":0,
    "qs_pg:pop_sr":1,
    "qs_pg:qs_id":660564,
    "qs_pg:qs_pg_placetype":"localadmin",
    "src:geom":"qs_pg",
    "src:lbl:centroid":"qs_pg",
    "src:population":"geonames",
    "wof:belongsto":[
        85633793
    ],
    "wof:breaches":[],
    "wof:concordances":{
        "gn:id":7165688,
        "qs_pg:id":660564
    },
    "wof:country":"US",
    "wof:created":1497045780,
    "wof:geomhash":"2f7f0923f1388506acdb60a82286971f",
    "wof:hierarchy":[
        {
            "country_id":85633793,
            "localadmin_id":1125343193
        }
    ],
    "wof:id":1125343193,
    "wof:lastmodified":1505187057,
    "wof:name":"Village of Allenville",
    "wof:parent_id":-1,
    "wof:placetype":"localadmin",
    "wof:population":116,
    "wof:population_rank":1,
    "wof:repo":"whosonfirst-data-admin-us",
    "wof:superseded_by":[],
    "wof:supersedes":[],
    "wof:tags":[]
},
  "bbox": [
    -89.7556,
    37.22169,
    -89.7556,
    37.22169
],
  "geometry": {"coordinates":[-89.7556,37.22169],"type":"Point"}
}