{
  "id": 1125367419,
  "type": "Feature",
  "properties": {
    "edtf:cessation":"2017-05-19",
    "edtf:inception":"uuuu",
    "geom:area":0.0,
    "geom:area_square_m":0.0,
    "geom:bbox":"-80.61708,24.93565,-80.61708,24.93565",
    "geom:latitude":24.93565,
    "geom:longitude":-80.61708,
    "gn:gn_country":"US",
    "gn:gn_fcode":"ADMD",
    "gn:gn_pop":6119,
    "gn:population":6119,
    "iso:country":"US",
    "lbl:latitude":24.93565,
    "lbl:longitude":-80.61708,
    "mz:hierarchy_label":1,
    "mz:is_current":0,
    "mz:note":"Quattroshapes Point Gazetteer import 20170519",
    "qs_pg:aaroncc":"US",
    "qs_pg:gn_country":"US",
    "qs_pg:gn_fcode":"ADMD",
    "qs_pg:gn_id":7172685,
    "qs_pg:gn_pop":6119,
    "qs_pg:name":"Village of Islamorada, Village of Islands",
    "qs_pg:photos_9r":0,
    "qs_pg:photos_sr":0,
    "qs_pg:pop_sr":5,
    "qs_pg:qs_id":665279,
    "qs_pg:qs_pg_placetype":"localadmin",
    "src:geom":"qs_pg",
    "src:lbl:centroid":"qs_pg",
    "src:population":"geonames",
    "wof:belongsto":[
        85633793
    ],
    "wof:breaches":[],
    "wof:concordances":{
        "gn:id":7172685,
        "qs_pg:id":665279
    },
    "wof:country":"US",
    "wof:created":1497047164,
    "wof:geomhash":"d634fe7a73a99119ba7fd10ac640f2b0",
    "wof:hierarchy":[
        {
            "country_id":85633793,
            "localadmin_id":1125367419
        }
    ],
    "wof:id":1125367419,
    "wof:lastmodified":1505187120,
    "wof:name":"Village of Islamorada, Village of Islands",
    "wof:parent_id":-1,
    "wof:placetype":"localadmin",
    "wof:population":6119,
    "wof:population_rank":5,
    "wof:repo":"whosonfirst-data-admin-us",
    "wof:superseded_by":[],
    "wof:supersedes":[],
    "wof:tags":[]
},
  "bbox": [
    -80.61708,
    24.93565,
    -80.61708,
    24.93565
],
  "geometry": {"coordinates":[-80.61708,24.93565],"type":"Point"}
}