{
  "id": 1276466713,
  "type": "Feature",
  "properties": {
    "edtf:cessation":"uuuu",
    "edtf:deprecated":"2019-02-08",
    "edtf:inception":"uuuu",
    "geom:area":0.0,
    "geom:area_square_m":0.0,
    "geom:bbox":"-77.9066,34.3927,-77.9066,34.3927",
    "geom:latitude":34.3927,
    "geom:longitude":-77.9066,
    "gn:admin1_code":"NC",
    "gn:admin2_code":"141",
    "gn:admin3_code":"92744.0",
    "gn:asciiname":"Himobile Mobile Home Park",
    "gn:country_code":"US",
    "gn:dem":12,
    "gn:elevation":"8.0",
    "gn:feature_class":"P",
    "gn:feature_code":"PPL",
    "gn:geonameid":7230486,
    "gn:latitude":34.3927,
    "gn:longitude":-77.9066,
    "gn:modification_date":"2017-05-23",
    "gn:name":"Himobile Mobile Home Park",
    "gn:population":0,
    "gn:timezone":"America/New_York",
    "iso:country":"US",
    "mz:hierarchy_label":1,
    "mz:is_current":0,
    "src:geom":"geonames",
    "wof:belongsto":[
        102191575,
        85633793,
        85688773,
        102087779
    ],
    "wof:breaches":[],
    "wof:concordances":{
        "gn:id":7230486
    },
    "wof:country":"US",
    "wof:geomhash":"99f2c3b70e9083f990987765fa905478",
    "wof:hierarchy":[
        {
            "continent_id":102191575,
            "country_id":85633793,
            "county_id":102087779,
            "locality_id":1276466713,
            "region_id":85688773
        }
    ],
    "wof:id":1276466713,
    "wof:lastmodified":1549654074,
    "wof:name":"Himobile Mobile Home Park",
    "wof:parent_id":102087779,
    "wof:placetype":"locality",
    "wof:repo":"whosonfirst-data-admin-us",
    "wof:superseded_by":[
        1376905309
    ],
    "wof:supersedes":[],
    "wof:tags":[]
},
  "bbox": [
    -77.9066,
    34.3927,
    -77.9066,
    34.3927
],
  "geometry": {"coordinates":[-77.9066,34.3927],"type":"Point"}
}