{
  "id": 1125292195,
  "type": "Feature",
  "properties": {
    "edtf:cessation":"2017-05-19",
    "edtf:inception":"uuuu",
    "geom:area":0.0,
    "geom:area_square_m":0.0,
    "geom:bbox":"-112.10024,38.70399,-112.10024,38.70399",
    "geom:latitude":38.70399,
    "geom:longitude":-112.10024,
    "gn:gn_country":"US",
    "gn:gn_fcode":"ADMD",
    "gn:gn_pop":528,
    "gn:population":528,
    "iso:country":"US",
    "lbl:latitude":38.70399,
    "lbl:longitude":-112.10024,
    "mz:hierarchy_label":1,
    "mz:is_current":0,
    "mz:note":"Quattroshapes Point Gazetteer import 20170519",
    "qs_pg:aaroncc":"US",
    "qs_pg:gn_country":"US",
    "qs_pg:gn_fcode":"ADMD",
    "qs_pg:gn_id":7175593,
    "qs_pg:gn_pop":528,
    "qs_pg:name":"Town of Central Valley",
    "qs_pg:photos_9r":0,
    "qs_pg:photos_sr":0,
    "qs_pg:pop_sr":2,
    "qs_pg:qs_id":668118,
    "qs_pg:qs_pg_placetype":"localadmin",
    "src:geom":"qs_pg",
    "src:lbl:centroid":"qs_pg",
    "src:population":"geonames",
    "wof:belongsto":[
        85633793
    ],
    "wof:breaches":[],
    "wof:concordances":{
        "gn:id":7175593,
        "qs_pg:id":668118
    },
    "wof:country":"US",
    "wof:created":1497042975,
    "wof:geomhash":"d96c8695718b033acf57149c98643b2e",
    "wof:hierarchy":[
        {
            "country_id":85633793,
            "localadmin_id":1125292195
        }
    ],
    "wof:id":1125292195,
    "wof:lastmodified":1505187154,
    "wof:name":"Town of Central Valley",
    "wof:parent_id":-1,
    "wof:placetype":"localadmin",
    "wof:population":528,
    "wof:population_rank":2,
    "wof:repo":"whosonfirst-data-admin-us",
    "wof:superseded_by":[],
    "wof:supersedes":[],
    "wof:tags":[]
},
  "bbox": [
    -112.10024,
    38.70399,
    -112.10024,
    38.70399
],
  "geometry": {"coordinates":[-112.10024,38.70399],"type":"Point"}
}