{
  "id": 1125389761,
  "type": "Feature",
  "properties": {
    "edtf:cessation":"2017-05-19",
    "edtf:inception":"uuuu",
    "geom:area":0.0,
    "geom:area_square_m":0.0,
    "geom:bbox":"-96.46478,45.29524,-96.46478,45.29524",
    "geom:latitude":45.29524,
    "geom:longitude":-96.46478,
    "gn:gn_country":"US",
    "gn:gn_fcode":"ADMD",
    "gn:gn_pop":0,
    "iso:country":"US",
    "lbl:latitude":45.29524,
    "lbl:longitude":-96.46478,
    "mz:hierarchy_label":1,
    "mz:is_current":0,
    "mz:note":"Quattroshapes Point Gazetteer import 20170519",
    "name:eng_x_preferred":[
        "Big Stone Township"
    ],
    "name:eng_x_variant":[
        "Township of Big Stone"
    ],
    "name:unk_x_variant":[
        "Bigstone Township"
    ],
    "qs_pg:aaroncc":"US",
    "qs_pg:gn_country":"US",
    "qs_pg:gn_fcode":"ADMD",
    "qs_pg:gn_id":5226350,
    "qs_pg:gn_pop":0,
    "qs_pg:name":"Township of Big Stone",
    "qs_pg:photos_9r":0,
    "qs_pg:photos_sr":0,
    "qs_pg:pop_sr":0,
    "qs_pg:qs_id":1035845,
    "qs_pg:qs_pg_placetype":"localadmin",
    "src:geom":"qs_pg",
    "src:lbl:centroid":"qs_pg",
    "wof:belongsto":[
        85633793
    ],
    "wof:breaches":[],
    "wof:concordances":{
        "gn:id":5226350,
        "qs_pg:id":1035845
    },
    "wof:country":"US",
    "wof:created":1497048635,
    "wof:geomhash":"a494d751f0afb90d3ddd613a204ac95e",
    "wof:hierarchy":[
        {
            "country_id":85633793,
            "localadmin_id":1125389761
        }
    ],
    "wof:id":1125389761,
    "wof:lastmodified":1505248163,
    "wof:name":"Township of Big Stone",
    "wof:parent_id":-1,
    "wof:placetype":"localadmin",
    "wof:repo":"whosonfirst-data-admin-us",
    "wof:superseded_by":[],
    "wof:supersedes":[],
    "wof:tags":[]
},
  "bbox": [
    -96.46478,
    45.29524,
    -96.46478,
    45.29524
],
  "geometry": {"coordinates":[-96.46478,45.29524],"type":"Point"}
}