{
  "id": 1125421907,
  "type": "Feature",
  "properties": {
    "edtf:cessation":"2017-05-19",
    "edtf:inception":"uuuu",
    "geom:area":0.0,
    "geom:area_square_m":0.0,
    "geom:bbox":"-75.26991,39.90789,-75.26991,39.90789",
    "geom:latitude":39.90789,
    "geom:longitude":-75.26991,
    "gn:gn_country":"US",
    "gn:gn_fcode":"ADMD",
    "gn:gn_pop":5697,
    "gn:population":5697,
    "iso:country":"US",
    "lbl:latitude":39.90789,
    "lbl:longitude":-75.26991,
    "mz:hierarchy_label":1,
    "mz:is_current":0,
    "mz:note":"Quattroshapes Point Gazetteer import 20170519",
    "qs_pg:aaroncc":"US",
    "qs_pg:gn_country":"US",
    "qs_pg:gn_fcode":"ADMD",
    "qs_pg:gn_id":4561186,
    "qs_pg:gn_pop":5697,
    "qs_pg:name":"Borough of Sharon Hill",
    "qs_pg:photos_9r":0,
    "qs_pg:photos_sr":0,
    "qs_pg:pop_sr":5,
    "qs_pg:qs_id":98618,
    "qs_pg:qs_pg_placetype":"localadmin",
    "src:geom":"qs_pg",
    "src:lbl:centroid":"qs_pg",
    "src:population":"geonames",
    "wof:belongsto":[
        85633793
    ],
    "wof:breaches":[],
    "wof:concordances":{
        "gn:id":4561186,
        "qs_pg:id":98618
    },
    "wof:country":"US",
    "wof:created":1497052420,
    "wof:geomhash":"adb0c50e613ada1126bcd342ec493e25",
    "wof:hierarchy":[
        {
            "country_id":85633793,
            "localadmin_id":1125421907
        }
    ],
    "wof:id":1125421907,
    "wof:lastmodified":1505186917,
    "wof:name":"Borough of Sharon Hill",
    "wof:parent_id":-1,
    "wof:placetype":"localadmin",
    "wof:population":5697,
    "wof:population_rank":5,
    "wof:repo":"whosonfirst-data-admin-us",
    "wof:superseded_by":[],
    "wof:supersedes":[],
    "wof:tags":[]
},
  "bbox": [
    -75.26991,
    39.90789,
    -75.26991,
    39.90789
],
  "geometry": {"coordinates":[-75.26991,39.90789],"type":"Point"}
}