{
  "id": 1126106419,
  "type": "Feature",
  "properties": {
    "edtf:cessation":"uuuu",
    "edtf:deprecated":"2018-08-15",
    "edtf:inception":"uuuu",
    "edtf:superseded":"2018-08-15",
    "geom:area":0.0,
    "geom:area_square_m":0.0,
    "geom:bbox":"-72.76981,42.53759,-72.76981,42.53759",
    "geom:latitude":42.53759,
    "geom:longitude":-72.76981,
    "gn:gn_country":"US",
    "gn:gn_fcode":"PPL",
    "gn:gn_pop":0,
    "iso:country":"US",
    "lbl:latitude":42.53759,
    "lbl:longitude":-72.76981,
    "mz:hierarchy_label":1,
    "mz:is_current":0,
    "mz:note":"Quattroshapes Point Gazetteer import 20170519",
    "qs_pg:aaroncc":"US",
    "qs_pg:gn_country":"US",
    "qs_pg:gn_fcode":"PPL",
    "qs_pg:gn_id":4930239,
    "qs_pg:gn_pop":0,
    "qs_pg:name":"Beldingville",
    "qs_pg:name_adm0":"United States",
    "qs_pg:name_adm1":"Massachusetts",
    "qs_pg:photos":42,
    "qs_pg:photos_1k":9,
    "qs_pg:photos_9k":1,
    "qs_pg:photos_9r":2,
    "qs_pg:photos_all":42,
    "qs_pg:photos_sr":2,
    "qs_pg:pop_sr":0,
    "qs_pg:qs_id":472292,
    "qs_pg:qs_pg_placetype":"neighbourhood",
    "qs_pg:qs_pg_placetype_gp":"Suburb",
    "qs_pg:woe_adm0":23424977,
    "qs_pg:woe_id":2361582,
    "src:geom":"qs_pg",
    "src:lbl:centroid":"qs_pg",
    "woe:adm0_id":23424977,
    "woe:name_adm0":"United States",
    "woe:name_adm1":"Massachusetts",
    "woe:placetype":"Suburb",
    "wof:belongsto":[
        102191575,
        404475955,
        85633793,
        102084457,
        85688645
    ],
    "wof:breaches":[],
    "wof:concordances":{
        "gn:id":4930239,
        "gp:id":2361582,
        "qs_pg:id":472292
    },
    "wof:country":"US",
    "wof:created":1497317129,
    "wof:geomhash":"e72ac150ec9ba130606e73d101b20a3f",
    "wof:hierarchy":[
        {
            "continent_id":102191575,
            "country_id":85633793,
            "county_id":102084457,
            "localadmin_id":404475955,
            "locality_id":-1,
            "neighbourhood_id":1126106419,
            "region_id":85688645
        }
    ],
    "wof:id":1126106419,
    "wof:lastmodified":1534379529,
    "wof:name":"Beldingville",
    "wof:parent_id":-1,
    "wof:placetype":"neighbourhood",
    "wof:repo":"whosonfirst-data-admin-us",
    "wof:superseded_by":[
        85805371
    ],
    "wof:supersedes":[],
    "wof:tags":[]
},
  "bbox": [
    -72.76981,
    42.53759,
    -72.76981,
    42.53759
],
  "geometry": {"coordinates":[-72.76981000000001,42.53759],"type":"Point"}
}