{
  "id": 1126075625,
  "type": "Feature",
  "properties": {
    "edtf:cessation":"uuuu",
    "edtf:inception":"uuuu",
    "geom:area":0.0,
    "geom:area_square_m":0.0,
    "geom:bbox":"-85.18383,32.79624,-85.18383,32.79624",
    "geom:latitude":32.79624,
    "geom:longitude":-85.18383,
    "gn:gn_country":"US",
    "gn:gn_fcode":"PPLX",
    "gn:gn_pop":0,
    "iso:country":"US",
    "lbl:latitude":32.79624,
    "lbl:longitude":-85.18383,
    "mz:hierarchy_label":1,
    "mz:is_current":-1,
    "mz:note":"Quattroshapes Point Gazetteer import 20170519",
    "name:eng_x_preferred":[
        "Fairfax"
    ],
    "name:unk_x_variant":[
        "Valley"
    ],
    "qs_pg:aaroncc":"US",
    "qs_pg:gn_country":"US",
    "qs_pg:gn_fcode":"PPLX",
    "qs_pg:gn_id":4061196,
    "qs_pg:gn_pop":0,
    "qs_pg:name":"Fairfax",
    "qs_pg:name_adm0":"United States",
    "qs_pg:name_adm1":"Alabama",
    "qs_pg:photos":34,
    "qs_pg:photos_1k":7,
    "qs_pg:photos_9k":1,
    "qs_pg:photos_9r":2,
    "qs_pg:photos_all":34,
    "qs_pg:photos_sr":2,
    "qs_pg:pop_sr":0,
    "qs_pg:qs_id":111687,
    "qs_pg:qs_pg_placetype":"neighbourhood",
    "qs_pg:qs_pg_placetype_gp":"Suburb",
    "qs_pg:woe_adm0":23424977,
    "qs_pg:woe_id":2401341,
    "src:geom":"qs_pg",
    "src:lbl:centroid":"qs_pg",
    "woe:adm0_id":23424977,
    "woe:name_adm0":"United States",
    "woe:name_adm1":"Alabama",
    "woe:placetype":"Suburb",
    "wof:belongsto":[
        102191575,
        85633793,
        85914185,
        102085637,
        85688675
    ],
    "wof:breaches":[],
    "wof:concordances":{
        "gn:id":4061196,
        "gp:id":2401341,
        "qs_pg:id":111687
    },
    "wof:country":"US",
    "wof:created":1497310918,
    "wof:geomhash":"45f2fd3e650579a20a552279bb55f975",
    "wof:hierarchy":[
        {
            "continent_id":102191575,
            "country_id":85633793,
            "county_id":102085637,
            "locality_id":85914185,
            "neighbourhood_id":1126075625,
            "region_id":85688675
        }
    ],
    "wof:id":1126075625,
    "wof:lastmodified":1509410895,
    "wof:name":"Fairfax",
    "wof:parent_id":85914185,
    "wof:placetype":"neighbourhood",
    "wof:repo":"whosonfirst-data-admin-us",
    "wof:superseded_by":[],
    "wof:supersedes":[],
    "wof:tags":[]
},
  "bbox": [
    -85.18383,
    32.79624,
    -85.18383,
    32.79624
],
  "geometry": {"coordinates":[-85.18383,32.79624],"type":"Point"}
}