{
  "id": 420517645,
  "type": "Feature",
  "properties": {
    "edtf:cessation":"uuuu",
    "edtf:inception":"uuuu",
    "geom:area":0.0,
    "geom:area_square_m":4956458.844598,
    "geom:bbox":"-83.445507,33.964548,-83.445507,33.964548",
    "geom:latitude":33.964548,
    "geom:longitude":-83.445507,
    "iso:country":"US",
    "lbl:latitude":33.964548,
    "lbl:longitude":-83.445507,
    "mz:hierarchy_label":0,
    "mz:is_current":-1,
    "name:eng_x_preferred":[
        "Westchester"
    ],
    "src:geom":"mz",
    "src:geom_alt":[
        "quattroshapes_pg",
        "zetashapes"
    ],
    "src:lbl":"mapshaper",
    "src:lbl:centroid":"mapshaper",
    "src:population":"zetashapes",
    "wof:belongsto":[
        102191575,
        85633793,
        85936177,
        102081713,
        85688535
    ],
    "wof:breaches":[],
    "wof:concordances":{
        "gn:id":4230340,
        "gp:id":2518047,
        "qs_pg:id":1336764
    },
    "wof:country":"US",
    "wof:geomhash":"a90de68db7fd5bbad15df419d0552591",
    "wof:hierarchy":[
        {
            "continent_id":102191575,
            "country_id":85633793,
            "county_id":102081713,
            "locality_id":85936177,
            "neighbourhood_id":420517645,
            "region_id":85688535
        }
    ],
    "wof:id":420517645,
    "wof:lastmodified":1533593481,
    "wof:name":"Westchester",
    "wof:parent_id":85936177,
    "wof:placetype":"neighbourhood",
    "wof:population":3378,
    "wof:population_rank":4,
    "wof:repo":"whosonfirst-data-admin-us",
    "wof:superseded_by":[],
    "wof:supersedes":[],
    "wof:tags":[],
    "zs:area_m":4956117.64126,
    "zs:blockids":[
        130591306003000,
        130591306002000,
        130591306003009,
        130591306003004,
        130591305001012,
        130591306002010,
        130591306003012,
        130591306002009,
        130591304002010,
        130591304002016,
        130591306003013,
        130591304002011,
        130591304001024,
        130591306002004,
        130591306003005,
        130591306003008,
        130591306002005,
        130591306003010,
        130591306003006,
        130591306003007,
        130591306003002,
        130591306002002,
        130591306002021,
        130591304002015,
        130591306003001,
        130591304001026,
        130591306003003,
        130591305001018,
        130591306003014,
        130591306002001,
        130591305001010,
        130591306002003,
        130591305001009,
        130591304001022
    ],
    "zs:housing10":1535,
    "zs:id":2518047,
    "zs:label":"Westchester",
    "zs:pop10":3378
},
  "bbox": [
    -83.445507,
    33.964548,
    -83.445507,
    33.964548
],
  "geometry": {"coordinates":[-83.44550700000001,33.964548],"type":"Point"}
}