{
  "id": 1108936885,
  "type": "Feature",
  "properties": {
    "edtf:cessation":"uuuu",
    "edtf:inception":"uuuu",
    "geom:area":0.0,
    "geom:area_square_m":0.0,
    "geom:bbox":"-76.187555562,36.8349126134,-76.187555562,36.8349126134",
    "geom:latitude":36.834913,
    "geom:longitude":-76.187556,
    "iso:country":"US",
    "lbl:latitude":36.834913,
    "lbl:longitude":-76.187556,
    "mz:hierarchy_label":1,
    "mz:is_funky":0,
    "mz:is_hard_boundary":0,
    "mz:is_landuse_aoi":0,
    "mz:is_official":0,
    "mz:max_zoom":18.0,
    "mz:min_zoom":14.0,
    "mz:tier_metro":15,
    "src:lbl:centroid":"mz",
    "wof:belongsto":[
        102191575,
        85633793,
        101728745,
        102081929,
        85688747
    ],
    "wof:breaches":[],
    "wof:concordances":{},
    "wof:country":"US",
    "wof:created":1491359300,
    "wof:geomhash":"4e04693ee87c58cb09eb549ced53b1fb",
    "wof:hierarchy":[
        {
            "continent_id":102191575,
            "country_id":85633793,
            "county_id":102081929,
            "locality_id":101728745,
            "neighbourhood_id":1108936885,
            "region_id":85688747
        }
    ],
    "wof:id":1108936885,
    "wof:lastmodified":1492123411,
    "wof:name":"Arrowhead",
    "wof:parent_id":101728745,
    "wof:placetype":"neighbourhood",
    "wof:repo":"whosonfirst-data-admin-us",
    "wof:superseded_by":[],
    "wof:supersedes":[],
    "wof:tags":[]
},
  "bbox": [
    -76.18755556204259,
    36.8349126133804,
    -76.18755556204259,
    36.8349126133804
],
  "geometry": {"coordinates":[-76.18755556204259,36.8349126133804],"type":"Point"}
}