{
  "id": 1193148001,
  "type": "Feature",
  "properties": {
    "edtf:cessation":"uuuu",
    "edtf:inception":"uuuu",
    "geom:area":0.0,
    "geom:area_square_m":0.0,
    "geom:bbox":"-84.53472,39.37611,-84.53472,39.37611",
    "geom:latitude":39.37611,
    "geom:longitude":-84.53472,
    "gn:admin1_code":"OH",
    "gn:admin2_code":"17",
    "gn:admin3_code":"25984.0",
    "gn:asciiname":"Homewood",
    "gn:country_code":"US",
    "gn:dem":228,
    "gn:elevation":"229.0",
    "gn:feature_class":"P",
    "gn:feature_code":"PPL",
    "gn:geonameid":7150124,
    "gn:latitude":39.37611,
    "gn:longitude":-84.53472,
    "gn:modification_date":"2017-05-23",
    "gn:name":"Homewood",
    "gn:population":0,
    "gn:timezone":"America/New_York",
    "iso:country":"US",
    "mz:hierarchy_label":1,
    "mz:is_current":-1,
    "src:geom":"geonames",
    "wof:belongsto":[
        85688485,
        102191575,
        404524783,
        85633793,
        102084743
    ],
    "wof:breaches":[],
    "wof:concordances":{
        "gn:id":7150124
    },
    "wof:country":"US",
    "wof:geomhash":"de35d693f56b3be7c0379f4a26409d36",
    "wof:hierarchy":[
        {
            "continent_id":102191575,
            "country_id":85633793,
            "county_id":102084743,
            "localadmin_id":404524783,
            "locality_id":1193148001,
            "region_id":85688485
        }
    ],
    "wof:id":1193148001,
    "wof:lastmodified":1536381316,
    "wof:name":"Homewood",
    "wof:parent_id":404524783,
    "wof:placetype":"locality",
    "wof:repo":"whosonfirst-data-admin-us",
    "wof:superseded_by":[],
    "wof:supersedes":[],
    "wof:tags":[]
},
  "bbox": [
    -84.53472,
    39.37611,
    -84.53472,
    39.37611
],
  "geometry": {"coordinates":[-84.53471999999999,39.37611],"type":"Point"}
}