{
  "id": 1126066949,
  "type": "Feature",
  "properties": {
    "edtf:cessation":"uuuu",
    "edtf:deprecated":"2018-08-15",
    "edtf:inception":"uuuu",
    "edtf:superseded":"2018-08-15",
    "geom:area":0.0,
    "geom:area_square_m":0.0,
    "geom:bbox":"-77.7725,42.97673,-77.7725,42.97673",
    "geom:latitude":42.97673,
    "geom:longitude":-77.7725,
    "gn:gn_country":"US",
    "gn:gn_fcode":"PPL",
    "gn:gn_pop":0,
    "iso:country":"US",
    "lbl:latitude":42.97673,
    "lbl:longitude":-77.7725,
    "mz:hierarchy_label":1,
    "mz:is_current":0,
    "mz:note":"Quattroshapes Point Gazetteer import 20170519",
    "qs_pg:aaroncc":"US",
    "qs_pg:gn_country":"US",
    "qs_pg:gn_fcode":"PPL",
    "qs_pg:gn_id":5126261,
    "qs_pg:gn_pop":0,
    "qs_pg:name":"Maxwell",
    "qs_pg:name_adm0":"United States",
    "qs_pg:name_adm1":"New York",
    "qs_pg:photos":8,
    "qs_pg:photos_1k":2,
    "qs_pg:photos_9k":1,
    "qs_pg:photos_9r":1,
    "qs_pg:photos_all":8,
    "qs_pg:photos_sr":1,
    "qs_pg:pop_sr":0,
    "qs_pg:qs_id":974794,
    "qs_pg:qs_pg_placetype":"neighbourhood",
    "qs_pg:qs_pg_placetype_gp":"Suburb",
    "qs_pg:woe_adm0":23424977,
    "qs_pg:woe_id":2447083,
    "src:geom":"qs_pg",
    "src:lbl:centroid":"qs_pg",
    "woe:adm0_id":23424977,
    "woe:name_adm0":"United States",
    "woe:name_adm1":"New York",
    "woe:placetype":"Suburb",
    "wof:belongsto":[
        102191575,
        404521979,
        85633793,
        102082381,
        85688543
    ],
    "wof:breaches":[],
    "wof:concordances":{
        "gn:id":5126261,
        "gp:id":2447083,
        "qs_pg:id":974794
    },
    "wof:country":"US",
    "wof:created":1497309024,
    "wof:geomhash":"bf856efa40bb07f5460d42b3d92ff1ef",
    "wof:hierarchy":[
        {
            "continent_id":102191575,
            "country_id":85633793,
            "county_id":102082381,
            "localadmin_id":404521979,
            "locality_id":-1,
            "neighbourhood_id":1126066949,
            "region_id":85688543
        }
    ],
    "wof:id":1126066949,
    "wof:lastmodified":1534379712,
    "wof:name":"Maxwell",
    "wof:parent_id":-1,
    "wof:placetype":"neighbourhood",
    "wof:repo":"whosonfirst-data-admin-us",
    "wof:superseded_by":[
        420528953
    ],
    "wof:supersedes":[],
    "wof:tags":[]
},
  "bbox": [
    -77.7725,
    42.97673,
    -77.7725,
    42.97673
],
  "geometry": {"coordinates":[-77.77249999999999,42.97673],"type":"Point"}
}