{
  "id": 1125304099,
  "type": "Feature",
  "properties": {
    "edtf:cessation":"uuuu",
    "edtf:deprecated":"2017-11-04",
    "edtf:inception":"uuuu",
    "geom:area":0.0,
    "geom:area_square_m":0.0,
    "geom:bbox":"-74.36487,40.7151,-74.36487,40.7151",
    "geom:latitude":40.7151,
    "geom:longitude":-74.36487,
    "gn:gn_country":"US",
    "gn:gn_fcode":"ADMD",
    "gn:gn_pop":21457,
    "gn:population":21457,
    "iso:country":"US",
    "lbl:latitude":40.7151,
    "lbl:longitude":-74.36487,
    "mz:hierarchy_label":1,
    "mz:is_current":0,
    "mz:note":"Quattroshapes Point Gazetteer import 20170519",
    "qs_pg:aaroncc":"US",
    "qs_pg:gn_country":"US",
    "qs_pg:gn_fcode":"ADMD",
    "qs_pg:gn_id":5105135,
    "qs_pg:gn_pop":21457,
    "qs_pg:name":"City of Summit",
    "qs_pg:photos_9r":0,
    "qs_pg:photos_sr":0,
    "qs_pg:pop_sr":7,
    "qs_pg:qs_id":604783,
    "qs_pg:qs_pg_placetype":"localadmin",
    "src:geom":"qs_pg",
    "src:lbl:centroid":"qs_pg",
    "src:population":"geonames",
    "wof:belongsto":[
        85633793
    ],
    "wof:breaches":[],
    "wof:concordances":{
        "gn:id":5105135,
        "qs_pg:id":604783
    },
    "wof:country":"US",
    "wof:created":1497043596,
    "wof:geomhash":"cb38af8c969439400ffe057c91d0ab75",
    "wof:hierarchy":[
        {
            "country_id":85633793,
            "localadmin_id":1125304099
        }
    ],
    "wof:id":1125304099,
    "wof:lastmodified":1509752514,
    "wof:name":"City of Summit",
    "wof:parent_id":-1,
    "wof:placetype":"localadmin",
    "wof:population":21457,
    "wof:population_rank":7,
    "wof:repo":"whosonfirst-data-admin-us",
    "wof:superseded_by":[
        85975829
    ],
    "wof:supersedes":[],
    "wof:tags":[]
},
  "bbox": [
    -74.36487,
    40.7151,
    -74.36487,
    40.7151
],
  "geometry": {"coordinates":[-74.36487,40.7151],"type":"Point"}
}