{
  "id": 404510953,
  "type": "Feature",
  "properties": {
    "edtf:cessation":"uuuu",
    "edtf:inception":"uuuu",
    "geom:area":0.000113,
    "geom:area_square_m":993178.521745,
    "geom:bbox":"-92.862861,44.746524,-92.846786,44.757484",
    "geom:latitude":44.752524,
    "geom:longitude":-92.852904,
    "iso:country":"US",
    "lbl:latitude":44.752083,
    "lbl:longitude":-92.852253,
    "mz:hierarchy_label":1,
    "name:eng_x_preferred":[
        "Hastings"
    ],
    "qs:a0":"United States",
    "qs:a1":"Minnesota",
    "qs:a1_lc":"27",
    "qs:a2":"Washington",
    "qs:a2_lc":"27163",
    "qs:adm0":"United States",
    "qs:adm0_a3":"USA",
    "qs:la":"Hastings",
    "qs:la_lc":"2716327530",
    "qs:level":"localadmin",
    "qs:source":"US Census",
    "qs:type":"city",
    "src:geom":"quattroshapes",
    "wof:belongsto":[
        102191575,
        85633793,
        85688727,
        102087659
    ],
    "wof:breaches":[],
    "wof:concordances":{},
    "wof:country":"US",
    "wof:geomhash":"a9ad5071b3a675e6763e91d737887646",
    "wof:hierarchy":[
        {
            "continent_id":102191575,
            "country_id":85633793,
            "county_id":102087659,
            "localadmin_id":404510953,
            "region_id":85688727
        }
    ],
    "wof:id":404510953,
    "wof:lastmodified":1479843736,
    "wof:name":"Hastings",
    "wof:parent_id":102087659,
    "wof:placetype":"localadmin",
    "wof:repo":"whosonfirst-data-admin-us",
    "wof:superseded_by":[],
    "wof:supersedes":[],
    "wof:tags":[]
},
  "bbox": [
    -92.862861,
    44.746524,
    -92.846786,
    44.757484
],
  "geometry": {"coordinates":[[[-92.852628,44.747095],[-92.8553,44.747715],[-92.858707,44.753021],[-92.862861,44.757484],[-92.860671,44.756966],[-92.847673,44.75725],[-92.84678599999999,44.746685],[-92.84774899999999,44.746636],[-92.849934,44.746524],[-92.852628,44.747095]]],"type":"Polygon"}
}