{
  "id": 1343272929,
  "type": "Feature",
  "properties": {
    "edtf:cessation":"2018-09-06",
    "edtf:inception":"uuuu",
    "geom:area":0.0,
    "geom:area_square_m":0.0,
    "geom:bbox":"-121.54302,38.99017,-121.54302,38.99017",
    "geom:latitude":38.99017,
    "geom:longitude":-121.54302,
    "gn:admin1_code":"CA",
    "gn:admin2_code":"115.0",
    "gn:asciiname":"Algodon (historical)",
    "gn:country_code":"US",
    "gn:dem":13,
    "gn:elevation":"16.0",
    "gn:feature_class":"P",
    "gn:feature_code":"PPLQ",
    "gn:geonameid":5323056,
    "gn:latitude":38.99017,
    "gn:longitude":-121.54302,
    "gn:modification_date":"2011-12-12",
    "gn:name":"Algodon (historical)",
    "gn:population":0,
    "gn:timezone":"America/Los_Angeles",
    "iso:country":"US",
    "mz:hierarchy_label":1,
    "mz:is_current":0,
    "src:geom":"geonames",
    "wof:belongsto":[
        102191575,
        85633793,
        85688637,
        102082893
    ],
    "wof:breaches":[],
    "wof:concordances":{
        "gn:id":5323056
    },
    "wof:country":"US",
    "wof:geomhash":"e878ed9ea7a0858fbed4547591ca0eed",
    "wof:hierarchy":[
        {
            "continent_id":102191575,
            "country_id":85633793,
            "county_id":102082893,
            "locality_id":1343272929,
            "region_id":85688637
        }
    ],
    "wof:id":1343272929,
    "wof:lastmodified":1537016133,
    "wof:name":"Algodon (historical)",
    "wof:parent_id":102082893,
    "wof:placetype":"locality",
    "wof:repo":"whosonfirst-data-admin-us",
    "wof:superseded_by":[],
    "wof:supersedes":[],
    "wof:tags":[]
},
  "bbox": [
    -121.54302,
    38.99017,
    -121.54302,
    38.99017
],
  "geometry": {"coordinates":[-121.54302,38.99017],"type":"Point"}
}