{
  "id": 85873597,
  "type": "Feature",
  "properties": {"wof:repo":"whosonfirst-data-admin-us",
    "src:geom":"quattroshapes",
    "wof:geomhash":"86c32ee7cafad9179de8d8eecb2596cc",
    "wof:id":85873597
},
  "bbox": [
    -80.0529468937838,
    40.411404646675194,
    -80.02282234155126,
    40.4344048808001
],
  "geometry": {"coordinates":[[[-80.03540039061656,40.43440481577532],[-80.03540039061551,40.43022363450007],[-80.02990722659993,40.43022363450007],[-80.02990722658518,40.42879887487503],[-80.02990722658421,40.42604212830001],[-80.02441406249989,40.42604212830001],[-80.02441406249972,40.42604206327540],[-80.02282234155126,40.42395111517541],[-80.02441401305413,40.42186036200002],[-80.02441406249972,40.42186029705037],[-80.02990722658421,40.42186029705037],[-80.02990722658518,40.41910297156493],[-80.02990722659993,40.41767833590002],[-80.03265380859980,40.41767833590002],[-80.03265380859972,40.41558721910963],[-80.03540039060005,40.41558721360612],[-80.03540039060005,40.41349604970009],[-80.03648506120697,40.41349604970009],[-80.03701582453164,40.41140464667519],[-80.04364013672492,40.41140464667519],[-80.04364013672492,40.41407069974773],[-80.04638671877899,40.41767827087524],[-80.04638671878519,40.41767833590002],[-80.04638671878422,40.42186029705037],[-80.05079526996033,40.42186029705037],[-80.05079531940513,40.42186036200002],[-80.05187988280005,40.42186036200002],[-80.05187988279997,40.42328502125005],[-80.05294689378380,40.42468662402878],[-80.05259295799209,40.42546151891784],[-80.05187988279997,40.42602355505787],[-80.05187988280005,40.42604212830001],[-80.05185631826876,40.42604212829993],[-80.04843785349908,40.42873651560350],[-80.04827613495058,40.43022361825039],[-80.04792346102346,40.43130467056855],[-80.04378551976396,40.43402280635993],[-80.04364013672492,40.43440481577532],[-80.04089355469989,40.43440481577532],[-80.04089355469989,40.43440488080010],[-80.03540039060005,40.43440488080010],[-80.03540039061656,40.43440481577532]]],"type":"Polygon"}
}