{
  "id": 1343297023,
  "type": "Feature",
  "properties": {
    "edtf:cessation":"uuuu",
    "edtf:inception":"uuuu",
    "geom:area":0.0,
    "geom:area_square_m":0.0,
    "geom:bbox":"-106.26336,39.0436,-106.26336,39.0436",
    "geom:latitude":39.0436,
    "geom:longitude":-106.26336,
    "gn:admin1_code":"CO",
    "gn:admin2_code":"15.0",
    "gn:asciiname":"Granite",
    "gn:country_code":"US",
    "gn:dem":2774,
    "gn:elevation":"2747.0",
    "gn:feature_class":"P",
    "gn:feature_code":"PPL",
    "gn:geonameid":5423626,
    "gn:latitude":39.0436,
    "gn:longitude":-106.26336,
    "gn:modification_date":"2006-01-15",
    "gn:name":"Granite",
    "gn:population":0,
    "gn:timezone":"America/Denver",
    "iso:country":"US",
    "mz:hierarchy_label":1,
    "mz:is_current":-1,
    "src:geom":"geonames",
    "wof:belongsto":[
        102191575,
        85633793,
        85688603,
        102085255
    ],
    "wof:breaches":[],
    "wof:concordances":{
        "gn:id":5423626,
        "wk:page":"Granite%2C_Colorado"
    },
    "wof:country":"US",
    "wof:geomhash":"9b158643908b16cf56b15cd2fdb94e22",
    "wof:hierarchy":[
        {
            "continent_id":102191575,
            "country_id":85633793,
            "county_id":102085255,
            "locality_id":1343297023,
            "region_id":85688603
        }
    ],
    "wof:id":1343297023,
    "wof:lastmodified":1537575644,
    "wof:name":"Granite",
    "wof:parent_id":102085255,
    "wof:placetype":"locality",
    "wof:repo":"whosonfirst-data-admin-us",
    "wof:superseded_by":[],
    "wof:supersedes":[],
    "wof:tags":[]
},
  "bbox": [
    -106.26336,
    39.0436,
    -106.26336,
    39.0436
],
  "geometry": {"coordinates":[-106.26336000000001,39.0436],"type":"Point"}
}