{
  "id": 85891647,
  "type": "Feature",
  "properties": {"wof:repo":"whosonfirst-data-admin-us",
    "src:geom":"quattroshapes",
    "wof:geomhash":"6e770397c38444796f776024a967556d",
    "wof:id":85891647
},
  "bbox": [
    -83.70208740232493,
    42.29356412665035,
    -83.67886108548294,
    42.31798883535045
],
  "geometry": {"coordinates":[[[-83.68986476214087,42.31423657900180],[-83.68853737390367,42.31387756620009],[-83.68835449220003,42.31387756620009],[-83.68835449220003,42.31382810299785],[-83.68830883214883,42.31381575352653],[-83.68685252841442,42.31184635985012],[-83.68542539196710,42.31184635985012],[-83.68292220791523,42.30981541570198],[-83.68286132809990,42.30981541570003],[-83.68286132811448,42.30976602122681],[-83.68286132811437,42.30575300300002],[-83.68286132811650,42.30575293746702],[-83.67985672204236,42.30169026267524],[-83.67886108548294,42.30101715995029],[-83.68011474609995,42.29762732575020],[-83.68011474609995,42.29356412665035],[-83.68286132809990,42.29356412665035],[-83.68835449217499,42.29356412665035],[-83.68835449218741,42.29356419220005],[-83.68835449218423,42.29762732575020],[-83.69278533802770,42.29762732575020],[-83.69278538651139,42.29762739130008],[-83.69384765620006,42.29762739130008],[-83.69384765620717,42.29906357594382],[-83.69384765621550,42.30169026267524],[-83.69827855055530,42.30169026267524],[-83.69827858946303,42.30169032219607],[-83.69934082029991,42.30169032820007],[-83.69934082029991,42.30372168458511],[-83.69934082029991,42.30575300300002],[-83.69934082029991,42.30778423031472],[-83.70208740231897,42.30778423586210],[-83.70208740231277,42.30981541570003],[-83.70208740232493,42.31001365263339],[-83.69934082029991,42.31125168181150],[-83.69934082029991,42.31382810297093],[-83.69934082029991,42.31387756620009],[-83.69490974015605,42.31387756620009],[-83.69390859254429,42.31793938895024],[-83.69384765622493,42.31798883535045],[-83.69366508960888,42.31793945450002],[-83.69233725792890,42.31758030089902],[-83.69110107772252,42.31590853640162],[-83.68986476214087,42.31423657900180]]],"type":"Polygon"}
}