{
  "id": 85869123,
  "type": "Feature",
  "properties": {"wof:repo":"whosonfirst-data-admin-us",
    "src:geom":"quattroshapes",
    "wof:geomhash":"61af61657102c7df7358a24c4b4f8d72",
    "wof:id":85869123
},
  "bbox": [
    -121.86035156214575,
    37.23688866860007,
    -121.81091308599986,
    37.280350407747136
],
  "geometry": {"coordinates":[[[[-121.82815602617555,37.25410981911376],[-121.82976835714234,37.25362752358875],[-121.83013915999990,37.25403126576381],[-121.83045939154138,37.25437994425008],[-121.83039246947436,37.25547303082537],[-121.83045939622207,37.25656607025039],[-121.83013915999982,37.25691476724833],[-121.82895370779266,37.25661688810528],[-121.82893637842929,37.25656608610002],[-121.82876586899988,37.25606622809828],[-121.82856352009975,37.25547303092840],[-121.82807562794977,37.25461486398574],[-121.82815602617555,37.25410981911376]]],[[[-121.82189941400000,37.28035040774714],[-121.81839705111310,37.27888317116334],[-121.81744692553062,37.27649506048631],[-121.81876135288451,37.27264088393294],[-121.82013154897123,37.27190295700369],[-121.82189936350707,37.26968150970008],[-121.82189941400000,37.26968144625029],[-121.82189941400000,37.26671918173305],[-121.82189941400000,37.26530995560003],[-121.82189941400000,37.26203112113093],[-121.82094671418469,37.26203112119613],[-121.82052612299989,37.26203112350007],[-121.82052612299989,37.26150265839745],[-121.82052612299989,37.26093814780008],[-121.81640624999997,37.26093814780008],[-121.81640624999989,37.25952888574137],[-121.81640624999989,37.25656608610002],[-121.81091308600003,37.25656608610002],[-121.81091308599986,37.25656602267529],[-121.81091308600003,37.25360294178672],[-121.81091308600003,37.25219377070006],[-121.81091308600003,37.24782120160002],[-121.81203479053917,37.24782120160002],[-121.81340135856101,37.24610443667886],[-121.81365966799993,37.24605808052270],[-121.81522666447472,37.24633929337003],[-121.81640624999997,37.24485751308843],[-121.81640624999997,37.24344837870007],[-121.81752800505939,37.24344837870007],[-121.81926860742405,37.24126185622534],[-121.81926879678997,37.24126171350022],[-121.82189941400000,37.24126171350022],[-121.82198537677050,37.24120772318231],[-121.82241197631092,37.23852858960262],[-121.82464599599996,37.23759322879408],[-121.82464599599996,37.23688866860007],[-121.82739257800003,37.23688866860007],[-121.82739257800003,37.23759322879425],[-121.82823399335234,37.23794552065110],[-121.82876586899997,37.23861358822400],[-121.82876586899997,37.23875940755785],[-121.82952032525210,37.23907530200002],[-121.83288573737326,37.23907529831673],[-121.83372713435762,37.23801841648944],[-121.83625138583949,37.23907530200002],[-121.83709262616961,37.23942752313255],[-121.83716862616089,37.23940843041846],[-121.84086741424159,37.24173148079657],[-121.83950067266045,37.24344836673043],[-121.83837890599989,37.24344836954489],[-121.83563232116362,37.24344837062137],[-121.83476205439803,37.24454156855026],[-121.83288574200006,37.24454156855026],[-121.83288574200006,37.24782120160002],[-121.83013915999982,37.24782120160002],[-121.83013915774376,37.25000750816692],[-121.83012473461946,37.25002562431878],[-121.82926092263591,37.25024266229865],[-121.82820025923010,37.25000751790002],[-121.82739257800003,37.25000751790002],[-121.82739257800003,37.25219377070006],[-121.82402738860409,37.25219377070006],[-121.82318626196624,37.25254600554508],[-121.82464599932115,37.25437995349424],[-121.82491201741260,37.25471416058966],[-121.82503281960751,37.25547302710035],[-121.82485881554064,37.25656608610002],[-121.82739257800003,37.25656608610002],[-121.82739257800003,37.25875213727885],[-121.83013915999982,37.25875214265251],[-121.83013915999982,37.26093813853984],[-121.83288574200006,37.26093813792380],[-121.83400736199914,37.26093813668771],[-121.83537319454214,37.26265422663360],[-121.83680806612475,37.26291178282393],[-121.83837885548112,37.26093814780008],[-121.83837890599989,37.26093808432525],[-121.83837890599989,37.25656608610002],[-121.83837890599989,37.25656602267529],[-121.84387206999992,37.25656602267529],[-121.84429771035906,37.25656602267529],[-121.84544300061521,37.25896427181519],[-121.84916760082177,37.25963280414086],[-121.84936523399986,37.26004667400413],[-121.85149373881379,37.26093814780008],[-121.85485839799998,37.26093814780008],[-121.85485839799998,37.26203108387550],[-121.85485839799998,37.26530995560003],[-121.85485839799998,37.26671918173305],[-121.85485839799998,37.26968144625029],[-121.85923005970949,37.26968144625029],[-121.85923011020182,37.26968150970008],[-121.86035156200001,37.26968150970008],[-121.86035156214575,37.27109075425454],[-121.86035156214575,37.27264349273749],[-121.86035156200001,37.27405281000003],[-121.85760497999985,37.27405281000003],[-121.85760497999993,37.27623835566901],[-121.85485839799998,37.27623836490011],[-121.85485839799998,37.27842385650007],[-121.85048659351924,37.27842385650007],[-121.84936523399995,37.27842385650007],[-121.84936523399995,37.27733107897515],[-121.84661865199982,37.27733107897515],[-121.84661865199982,37.27623836490011],[-121.84661865199982,37.27405280395242],[-121.84387206999992,37.27405280118059],[-121.84387206999992,37.27189835411504],[-121.84384018661066,37.27186719160008],[-121.84112548799988,37.27186718313361],[-121.83966651133238,37.27003376288323],[-121.83958868088558,37.27001420237704],[-121.83837890599989,37.27077431892532],[-121.83807672961555,37.27096418009121],[-121.83563232399993,37.26994027986616],[-121.83288574199989,37.27109075420215],[-121.83288574199989,37.27264349284256],[-121.83288574200006,37.27405281000003],[-121.82851398803285,37.27405281000003],[-121.82739257799994,37.27828075296385],[-121.82735463837747,37.27842379302515],[-121.82520477345068,37.28004489715565],[-121.82464599599979,37.27996686805122],[-121.82189941400000,37.28035040774714]]]],"type":"MultiPolygon"}
}