{
  "id": 1309823033,
  "type": "Feature",
  "properties": {
    "edtf:cessation":"uuuu",
    "edtf:inception":"uuuu",
    "geom:area":0.0,
    "geom:area_square_m":0.0,
    "geom:bbox":"-82.65111,40.89306,-82.65111,40.89306",
    "geom:latitude":40.89306,
    "geom:longitude":-82.65111,
    "gn:admin1_code":"OH",
    "gn:admin2_code":"139",
    "gn:admin3_code":"71830.0",
    "gn:asciiname":"Carefree Estates",
    "gn:country_code":"US",
    "gn:dem":334,
    "gn:elevation":"336.0",
    "gn:feature_class":"P",
    "gn:feature_code":"PPL",
    "gn:geonameid":7236594,
    "gn:latitude":40.89306,
    "gn:longitude":-82.65111,
    "gn:modification_date":"2017-05-23",
    "gn:name":"Carefree Estates",
    "gn:population":0,
    "gn:timezone":"America/New_York",
    "iso:country":"US",
    "mz:hierarchy_label":1,
    "mz:is_current":-1,
    "src:geom":"geonames",
    "wof:belongsto":[
        85688485,
        102191575,
        404525927,
        85633793,
        102083681
    ],
    "wof:breaches":[],
    "wof:concordances":{
        "gn:id":7236594
    },
    "wof:country":"US",
    "wof:geomhash":"1b3b4d6dfb840568c5a34c98a9135bb1",
    "wof:hierarchy":[
        {
            "continent_id":102191575,
            "country_id":85633793,
            "county_id":102083681,
            "localadmin_id":404525927,
            "locality_id":1309823033,
            "region_id":85688485
        }
    ],
    "wof:id":1309823033,
    "wof:lastmodified":1536906509,
    "wof:name":"Carefree Estates",
    "wof:parent_id":404525927,
    "wof:placetype":"locality",
    "wof:repo":"whosonfirst-data-admin-us",
    "wof:superseded_by":[],
    "wof:supersedes":[],
    "wof:tags":[]
},
  "bbox": [
    -82.65111,
    40.89306,
    -82.65111,
    40.89306
],
  "geometry": {"coordinates":[-82.65111,40.89306],"type":"Point"}
}