{
  "id": 1259401899,
  "type": "Feature",
  "properties": {
    "edtf:cessation":"uuuu",
    "edtf:inception":"uuuu",
    "geom:area":0.0,
    "geom:area_square_m":0.0,
    "geom:bbox":"-80.94982,39.67341,-80.94982,39.67341",
    "geom:latitude":39.67341,
    "geom:longitude":-80.94982,
    "gn:admin1_code":"OH",
    "gn:admin2_code":"111",
    "gn:admin3_code":"57988.0",
    "gn:asciiname":"Morton",
    "gn:country_code":"US",
    "gn:dem":393,
    "gn:elevation":"400.0",
    "gn:feature_class":"P",
    "gn:feature_code":"PPL",
    "gn:geonameid":4518746,
    "gn:latitude":39.67341,
    "gn:longitude":-80.94982,
    "gn:modification_date":"2017-05-23",
    "gn:name":"Morton",
    "gn:population":0,
    "gn:timezone":"America/New_York",
    "iso:country":"US",
    "mz:hierarchy_label":1,
    "mz:is_current":-1,
    "src:geom":"geonames",
    "wof:belongsto":[
        85688485,
        102191575,
        404526723,
        85633793,
        102083663
    ],
    "wof:breaches":[],
    "wof:concordances":{
        "gn:id":4518746
    },
    "wof:country":"US",
    "wof:geomhash":"56ce208f6bab629600f9ad8d590f20af",
    "wof:hierarchy":[
        {
            "continent_id":102191575,
            "country_id":85633793,
            "county_id":102083663,
            "localadmin_id":404526723,
            "locality_id":1259401899,
            "region_id":85688485
        }
    ],
    "wof:id":1259401899,
    "wof:lastmodified":1536975382,
    "wof:name":"Morton",
    "wof:parent_id":404526723,
    "wof:placetype":"locality",
    "wof:repo":"whosonfirst-data-admin-us",
    "wof:superseded_by":[],
    "wof:supersedes":[],
    "wof:tags":[]
},
  "bbox": [
    -80.94981999999997,
    39.67341,
    -80.94981999999997,
    39.67341
],
  "geometry": {"coordinates":[-80.94981999999997,39.67341],"type":"Point"}
}