{
  "id": 420516127,
  "type": "Feature",
  "properties": {
    "edtf:cessation":"uuuu",
    "edtf:inception":"uuuu",
    "geom:area":0.0,
    "geom:area_square_m":1068224.849093,
    "geom:bbox":"-82.729114,28.06818,-82.729114,28.06818",
    "geom:latitude":28.06818,
    "geom:longitude":-82.729114,
    "iso:country":"US",
    "lbl:latitude":28.06818,
    "lbl:longitude":-82.729114,
    "mz:hierarchy_label":0,
    "mz:is_current":-1,
    "name:eng_x_preferred":[
        "Steeplechase"
    ],
    "src:geom":"mz",
    "src:geom_alt":[
        "zetashapes"
    ],
    "src:lbl":"mapshaper",
    "src:lbl:centroid":"mapshaper",
    "src:population":"zetashapes",
    "wd:wordcount":2689,
    "wof:belongsto":[
        102191575,
        85633793,
        85933967,
        102085759,
        85688651
    ],
    "wof:breaches":[],
    "wof:concordances":{
        "gp:id":55980479,
        "wd:id":"Q2300237"
    },
    "wof:country":"US",
    "wof:geomhash":"c0da03eba11beee6bb9bb43058c6941a",
    "wof:hierarchy":[
        {
            "continent_id":102191575,
            "country_id":85633793,
            "county_id":102085759,
            "locality_id":85933967,
            "neighbourhood_id":420516127,
            "region_id":85688651
        }
    ],
    "wof:id":420516127,
    "wof:lastmodified":1533593009,
    "wof:name":"Steeplechase",
    "wof:parent_id":85933967,
    "wof:placetype":"neighbourhood",
    "wof:population":2022,
    "wof:population_rank":4,
    "wof:repo":"whosonfirst-data-admin-us",
    "wof:superseded_by":[],
    "wof:supersedes":[],
    "wof:tags":[],
    "zs:area_m":1068151.295188,
    "zs:blockids":[
        121030273154007,
        121030273171010,
        121030273171007,
        121030273171008,
        121030273151027,
        121030273154004,
        121030273154008,
        121030273151028,
        121030273151011,
        121030273171009,
        121030273151014,
        121030273151012,
        121030273151022,
        121030273151025,
        121030273171006,
        121030273171000,
        121030273171004,
        121030273151009,
        121030273151017,
        121030273151026,
        121030273154010,
        121030273171005,
        121030273151024,
        121030273151006,
        121030273171001,
        121030273171013,
        121030273151016,
        121030273142018,
        121030273154006,
        121030273171003
    ],
    "zs:housing10":913,
    "zs:id":55980479,
    "zs:label":"Steeplechase",
    "zs:pop10":2022
},
  "bbox": [
    -82.729114,
    28.06818,
    -82.729114,
    28.06818
],
  "geometry": {"coordinates":[-82.729114,28.06818],"type":"Point"}
}