{
  "id": 85878605,
  "type": "Feature",
  "properties": {"wof:repo":"whosonfirst-data-admin-us",
    "src:geom":"quattroshapes",
    "wof:geomhash":"6e4c7cbc702681ed8c894e5ecfa17070",
    "wof:id":85878605
},
  "bbox": [
    -105.084228516,
    39.7409862911754,
    -105.0653955270044,
    39.771194956464996
],
  "geometry": {"coordinates":[[[[-105.07873535199988,39.74098629117540],[-105.08422851600000,39.74098629117540],[-105.08422851600000,39.74098635590006],[-105.08422851600000,39.74521008857523],[-105.08422851600000,39.74521015330008],[-105.08422851600000,39.74943369180009],[-105.08422851600000,39.75365664772512],[-105.07926624270692,39.75580816813532],[-105.07873535199988,39.75511764556809],[-105.07648924819711,39.75365690665045],[-105.07488105478348,39.75156521463938],[-105.07324218799994,39.75085467473664],[-105.06996467786234,39.74943369180009],[-105.06914513257951,39.74907837333761],[-105.07049560283912,39.74732194509529],[-105.07049560519042,39.74521014712884],[-105.07324218799994,39.74521014154993],[-105.07324218799994,39.74098635590006],[-105.07488110857449,39.74098635590006],[-105.07488113843505,39.74098629117540],[-105.07873535199988,39.74098629117540]]],[[[-105.06774902325003,39.75999124342520],[-105.07819432427087,39.75999124342520],[-105.07926579341529,39.76417282180725],[-105.07492828407658,39.76981594714057],[-105.07174851306502,39.77119495646500],[-105.06988885839715,39.77053510032655],[-105.06539552700440,39.76635953825978],[-105.06596759560534,39.76114992531821],[-105.06774902325003,39.75999124342520]]]],"type":"MultiPolygon"}
}