{
  "id": 1343787583,
  "type": "Feature",
  "properties": {
    "edtf:cessation":"uuuu",
    "edtf:inception":"uuuu",
    "geom:area":0.0,
    "geom:area_square_m":0.0,
    "geom:bbox":"-93.891,30.09771,-93.891,30.09771",
    "geom:latitude":30.09771,
    "geom:longitude":-93.891,
    "gn:admin1_code":"TX",
    "gn:admin2_code":"361.0",
    "gn:asciiname":"Oilla",
    "gn:country_code":"US",
    "gn:dem":11,
    "gn:elevation":"3.0",
    "gn:feature_class":"P",
    "gn:feature_code":"PPL",
    "gn:geonameid":4716188,
    "gn:latitude":30.09771,
    "gn:longitude":-93.891,
    "gn:modification_date":"2006-01-15",
    "gn:name":"Oilla",
    "gn:population":0,
    "gn:timezone":"America/Chicago",
    "iso:country":"US",
    "mz:hierarchy_label":1,
    "mz:is_current":-1,
    "src:geom":"geonames",
    "wof:belongsto":[
        102191575,
        85633793,
        85688753,
        102081453
    ],
    "wof:breaches":[],
    "wof:concordances":{
        "gn:id":4716188
    },
    "wof:country":"US",
    "wof:geomhash":"533e545c77bafdc8b3c454d82d917d78",
    "wof:hierarchy":[
        {
            "continent_id":102191575,
            "country_id":85633793,
            "county_id":102081453,
            "locality_id":1343787583,
            "region_id":85688753
        }
    ],
    "wof:id":1343787583,
    "wof:lastmodified":1536772496,
    "wof:name":"Oilla",
    "wof:parent_id":102081453,
    "wof:placetype":"locality",
    "wof:repo":"whosonfirst-data-admin-us",
    "wof:superseded_by":[],
    "wof:supersedes":[],
    "wof:tags":[]
},
  "bbox": [
    -93.891,
    30.09771,
    -93.891,
    30.09771
],
  "geometry": {"coordinates":[-93.89100000000001,30.09771],"type":"Point"}
}