{
  "id": 1276783369,
  "type": "Feature",
  "properties": {
    "edtf:cessation":"2018-09-07",
    "edtf:inception":"uuuu",
    "geom:area":0.0,
    "geom:area_square_m":0.0,
    "geom:bbox":"-80.01452,39.05343,-80.01452,39.05343",
    "geom:latitude":39.05343,
    "geom:longitude":-80.01452,
    "gn:admin1_code":"WV",
    "gn:admin2_code":"1",
    "gn:asciiname":"Clements (historical)",
    "gn:country_code":"US",
    "gn:dem":492,
    "gn:elevation":"486.0",
    "gn:feature_class":"P",
    "gn:feature_code":"PPLQ",
    "gn:geonameid":4802411,
    "gn:latitude":39.05343,
    "gn:longitude":-80.01452,
    "gn:modification_date":"2011-12-12",
    "gn:name":"Clements (historical)",
    "gn:population":0,
    "gn:timezone":"America/New_York",
    "iso:country":"US",
    "mz:hierarchy_label":1,
    "mz:is_current":0,
    "src:geom":"geonames",
    "wof:belongsto":[
        102191575,
        85633793,
        85688589,
        102082593
    ],
    "wof:breaches":[],
    "wof:concordances":{
        "gn:id":4802411
    },
    "wof:country":"US",
    "wof:geomhash":"70bd13ea7f49f0ffa13c9c57b223552d",
    "wof:hierarchy":[
        {
            "continent_id":102191575,
            "country_id":85633793,
            "county_id":102082593,
            "locality_id":1276783369,
            "region_id":85688589
        }
    ],
    "wof:id":1276783369,
    "wof:lastmodified":1536672905,
    "wof:name":"Clements (historical)",
    "wof:parent_id":102082593,
    "wof:placetype":"locality",
    "wof:repo":"whosonfirst-data-admin-us",
    "wof:superseded_by":[],
    "wof:supersedes":[],
    "wof:tags":[]
},
  "bbox": [
    -80.01451999999998,
    39.05343,
    -80.01451999999998,
    39.05343
],
  "geometry": {"coordinates":[-80.01451999999998,39.05343],"type":"Point"}
}