{
  "id": 1309734607,
  "type": "Feature",
  "properties": {
    "edtf:cessation":"uuuu",
    "edtf:inception":"uuuu",
    "geom:area":0.0,
    "geom:area_square_m":0.0,
    "geom:bbox":"-82.58124,34.83178,-82.58124,34.83178",
    "geom:latitude":34.83178,
    "geom:longitude":-82.58124,
    "gn:admin1_code":"SC",
    "gn:admin2_code":"77.0",
    "gn:asciiname":"Glenwood",
    "gn:country_code":"US",
    "gn:dem":314,
    "gn:elevation":"321.0",
    "gn:feature_class":"P",
    "gn:feature_code":"PPL",
    "gn:geonameid":4579902,
    "gn:latitude":34.83178,
    "gn:longitude":-82.58124,
    "gn:modification_date":"2006-01-15",
    "gn:name":"Glenwood",
    "gn:population":0,
    "gn:timezone":"America/New_York",
    "iso:country":"US",
    "mz:hierarchy_label":1,
    "mz:is_current":-1,
    "src:geom":"geonames",
    "wof:belongsto":[
        102191575,
        85633793,
        85688683,
        102085671
    ],
    "wof:breaches":[],
    "wof:concordances":{
        "gn:id":4579902
    },
    "wof:country":"US",
    "wof:geomhash":"41c0aea437b9606c62fedc3341862edd",
    "wof:hierarchy":[
        {
            "continent_id":102191575,
            "country_id":85633793,
            "county_id":102085671,
            "locality_id":1309734607,
            "region_id":85688683
        }
    ],
    "wof:id":1309734607,
    "wof:lastmodified":1537032383,
    "wof:name":"Glenwood",
    "wof:parent_id":102085671,
    "wof:placetype":"locality",
    "wof:repo":"whosonfirst-data-admin-us",
    "wof:superseded_by":[],
    "wof:supersedes":[],
    "wof:tags":[]
},
  "bbox": [
    -82.58124000000002,
    34.83178,
    -82.58124000000002,
    34.83178
],
  "geometry": {"coordinates":[-82.58124000000002,34.83178],"type":"Point"}
}