{
  "id": 1293401155,
  "type": "Feature",
  "properties": {
    "edtf:cessation":"uuuu",
    "edtf:inception":"uuuu",
    "geom:area":0.0,
    "geom:area_square_m":0.0,
    "geom:bbox":"-114.24402,48.31302,-114.24402,48.31302",
    "geom:latitude":48.31302,
    "geom:longitude":-114.24402,
    "gn:admin1_code":"MT",
    "gn:admin2_code":"29.0",
    "gn:asciiname":"La Salle",
    "gn:country_code":"US",
    "gn:dem":905,
    "gn:elevation":"906.0",
    "gn:feature_class":"P",
    "gn:feature_code":"PPL",
    "gn:geonameid":5661299,
    "gn:latitude":48.31302,
    "gn:longitude":-114.24402,
    "gn:modification_date":"2006-01-15",
    "gn:name":"La Salle",
    "gn:population":0,
    "gn:timezone":"America/Denver",
    "iso:country":"US",
    "mz:hierarchy_label":1,
    "mz:is_current":-1,
    "src:geom":"geonames",
    "wof:belongsto":[
        102191575,
        85633793,
        85688617,
        102085177
    ],
    "wof:breaches":[],
    "wof:concordances":{
        "gn:id":5661299
    },
    "wof:country":"US",
    "wof:geomhash":"d0bceba6aa713b8b3d2622c55d4480be",
    "wof:hierarchy":[
        {
            "continent_id":102191575,
            "country_id":85633793,
            "county_id":102085177,
            "locality_id":1293401155,
            "region_id":85688617
        }
    ],
    "wof:id":1293401155,
    "wof:lastmodified":1536911778,
    "wof:name":"La Salle",
    "wof:parent_id":102085177,
    "wof:placetype":"locality",
    "wof:repo":"whosonfirst-data-admin-us",
    "wof:superseded_by":[],
    "wof:supersedes":[],
    "wof:tags":[]
},
  "bbox": [
    -114.24402,
    48.31302,
    -114.24402,
    48.31302
],
  "geometry": {"coordinates":[-114.24402000000001,48.31302],"type":"Point"}
}