{
  "id": 1108935849,
  "type": "Feature",
  "properties": {
    "edtf:cessation":"uuuu",
    "edtf:inception":"uuuu",
    "geom:area":0.0,
    "geom:area_square_m":0.0,
    "geom:bbox":"-106.595732808,35.1126029658,-106.595732808,35.1126029658",
    "geom:latitude":35.112603,
    "geom:longitude":-106.595733,
    "iso:country":"US",
    "lbl:latitude":35.112603,
    "lbl:longitude":-106.595733,
    "mz:hierarchy_label":1,
    "mz:is_funky":0,
    "mz:is_hard_boundary":0,
    "mz:is_landuse_aoi":0,
    "mz:is_official":0,
    "mz:max_zoom":18.0,
    "mz:min_zoom":15.0,
    "mz:tier_metro":15,
    "src:lbl:centroid":"mz",
    "wof:belongsto":[
        102191575,
        85633793,
        85976715,
        102081199,
        85688493
    ],
    "wof:breaches":[],
    "wof:concordances":{},
    "wof:country":"US",
    "wof:created":1491358647,
    "wof:geomhash":"3cfc2f58c03c1cd3420d2b8f866476cd",
    "wof:hierarchy":[
        {
            "continent_id":102191575,
            "country_id":85633793,
            "county_id":102081199,
            "locality_id":85976715,
            "neighbourhood_id":1108935849,
            "region_id":85688493
        }
    ],
    "wof:id":1108935849,
    "wof:lastmodified":1492123351,
    "wof:name":"Bel Air",
    "wof:parent_id":85976715,
    "wof:placetype":"neighbourhood",
    "wof:repo":"whosonfirst-data-admin-us",
    "wof:superseded_by":[],
    "wof:supersedes":[],
    "wof:tags":[]
},
  "bbox": [
    -106.59573280804426,
    35.11260296579275,
    -106.59573280804426,
    35.11260296579275
],
  "geometry": {"coordinates":[-106.59573280804426,35.11260296579275],"type":"Point"}
}