{
  "id": 1125880045,
  "type": "Feature",
  "properties": {
    "edtf:cessation":"uuuu",
    "edtf:inception":"uuuu",
    "geom:area":0.0,
    "geom:area_square_m":0.0,
    "geom:bbox":"-123.06077,44.2844925,-123.06077,44.2844925",
    "geom:latitude":44.284492,
    "geom:longitude":-123.06077,
    "gn:gn_country":null,
    "iso:country":"US",
    "lbl:latitude":44.284492,
    "lbl:longitude":-123.06077,
    "mz:hierarchy_label":1,
    "mz:is_current":-1,
    "mz:note":"Quattroshapes Point Gazetteer import 20170519",
    "qs_pg:aaroncc":"US",
    "qs_pg:gn_country":null,
    "qs_pg:name":"Rowland",
    "qs_pg:name_adm0":"United States",
    "qs_pg:name_adm1":"Oregon",
    "qs_pg:photos":26,
    "qs_pg:photos_1k":5,
    "qs_pg:photos_9k":1,
    "qs_pg:photos_9r":2,
    "qs_pg:photos_all":26,
    "qs_pg:photos_sr":2,
    "qs_pg:pop_sr":0,
    "qs_pg:qs_id":209702,
    "qs_pg:qs_pg_placetype":"locality",
    "qs_pg:qs_pg_placetype_gp":"Town",
    "qs_pg:woe_adm0":23424977,
    "qs_pg:woe_id":2485310,
    "src:geom":"qs_pg",
    "src:lbl:centroid":"qs_pg",
    "woe:adm0_id":23424977,
    "woe:name_adm0":"United States",
    "woe:name_adm1":"Oregon",
    "woe:placetype":"Town",
    "wof:belongsto":[
        102191575,
        85633793,
        85688513,
        102081639
    ],
    "wof:breaches":[],
    "wof:concordances":{
        "gp:id":2485310,
        "qs_pg:id":209702
    },
    "wof:country":"US",
    "wof:created":1497294755,
    "wof:geomhash":"eb33f95fba6a772b856c990c4f9b31e1",
    "wof:hierarchy":[
        {
            "continent_id":102191575,
            "country_id":85633793,
            "county_id":102081639,
            "locality_id":1125880045,
            "region_id":85688513
        }
    ],
    "wof:id":1125880045,
    "wof:lastmodified":1509398062,
    "wof:name":"Rowland",
    "wof:parent_id":102081639,
    "wof:placetype":"locality",
    "wof:repo":"whosonfirst-data-admin-us",
    "wof:superseded_by":[],
    "wof:supersedes":[],
    "wof:tags":[]
},
  "bbox": [
    -123.06077,
    44.2844925,
    -123.06077,
    44.2844925
],
  "geometry": {"coordinates":[-123.06077000000001,44.2844925],"type":"Point"}
}