{
  "id": 420534617,
  "type": "Feature",
  "properties": {
    "edtf:cessation":"uuuu",
    "edtf:inception":"uuuu",
    "geom:area":0.0,
    "geom:area_square_m":416883.98497,
    "geom:bbox":"-81.543921,41.531909,-81.543921,41.531909",
    "geom:latitude":41.531909,
    "geom:longitude":-81.543921,
    "iso:country":"US",
    "lbl:latitude":41.531909,
    "lbl:longitude":-81.543921,
    "mz:hierarchy_label":0,
    "mz:is_current":-1,
    "name:eng_x_preferred":[
        "Monticello"
    ],
    "src:geom":"mz",
    "src:geom_alt":[
        "zetashapes"
    ],
    "src:lbl":"mapshaper",
    "src:lbl:centroid":"mapshaper",
    "src:population":"zetashapes",
    "wof:belongsto":[
        85688485,
        102191575,
        404525063,
        85633793,
        101712565,
        102084837
    ],
    "wof:breaches":[],
    "wof:concordances":{
        "gp:id":56022303
    },
    "wof:country":"US",
    "wof:geomhash":"120b439591c11f55f78839025addbfef",
    "wof:hierarchy":[
        {
            "continent_id":102191575,
            "country_id":85633793,
            "county_id":102084837,
            "localadmin_id":404525063,
            "locality_id":101712565,
            "neighbourhood_id":420534617,
            "region_id":85688485
        }
    ],
    "wof:id":420534617,
    "wof:lastmodified":1533598739,
    "wof:name":"Monticello",
    "wof:parent_id":101712565,
    "wof:placetype":"neighbourhood",
    "wof:population":1239,
    "wof:population_rank":3,
    "wof:repo":"whosonfirst-data-admin-us",
    "wof:superseded_by":[],
    "wof:supersedes":[],
    "wof:tags":[],
    "zs:area_m":416855.091348,
    "zs:blockids":[
        390351404001006,
        390351404002000,
        390351404002001,
        390351404001000,
        390351405002009,
        390351405003001,
        390351405003002,
        390351404001001,
        390351405002008,
        390351404001008,
        390351404002002
    ],
    "zs:housing10":592,
    "zs:id":56022303,
    "zs:label":"Monticello",
    "zs:pop10":1239
},
  "bbox": [
    -81.543921,
    41.531909,
    -81.543921,
    41.531909
],
  "geometry": {"coordinates":[-81.543921,41.531909],"type":"Point"}
}