{
  "id": 1125348781,
  "type": "Feature",
  "properties": {
    "edtf:cessation":"2017-05-19",
    "edtf:inception":"uuuu",
    "geom:area":0.0,
    "geom:area_square_m":0.0,
    "geom:bbox":"-89.54039,38.55604,-89.54039,38.55604",
    "geom:latitude":38.55604,
    "geom:longitude":-89.54039,
    "gn:gn_country":"US",
    "gn:gn_fcode":"ADMD",
    "gn:gn_pop":1269,
    "gn:population":1269,
    "iso:country":"US",
    "lbl:latitude":38.55604,
    "lbl:longitude":-89.54039,
    "mz:hierarchy_label":1,
    "mz:is_current":0,
    "mz:note":"Quattroshapes Point Gazetteer import 20170519",
    "qs_pg:aaroncc":"US",
    "qs_pg:gn_country":"US",
    "qs_pg:gn_fcode":"ADMD",
    "qs_pg:gn_id":7166641,
    "qs_pg:gn_pop":1269,
    "qs_pg:name":"Village of Germantown",
    "qs_pg:photos_9r":0,
    "qs_pg:photos_sr":0,
    "qs_pg:pop_sr":3,
    "qs_pg:qs_id":661444,
    "qs_pg:qs_pg_placetype":"localadmin",
    "src:geom":"qs_pg",
    "src:lbl:centroid":"qs_pg",
    "src:population":"geonames",
    "wof:belongsto":[
        85633793
    ],
    "wof:breaches":[],
    "wof:concordances":{
        "gn:id":7166641,
        "qs_pg:id":661444
    },
    "wof:country":"US",
    "wof:created":1497046070,
    "wof:geomhash":"f0bb9efc6fc20493db6945324c5d8407",
    "wof:hierarchy":[
        {
            "country_id":85633793,
            "localadmin_id":1125348781
        }
    ],
    "wof:id":1125348781,
    "wof:lastmodified":1505187068,
    "wof:name":"Village of Germantown",
    "wof:parent_id":-1,
    "wof:placetype":"localadmin",
    "wof:population":1269,
    "wof:population_rank":3,
    "wof:repo":"whosonfirst-data-admin-us",
    "wof:superseded_by":[],
    "wof:supersedes":[],
    "wof:tags":[]
},
  "bbox": [
    -89.54039,
    38.55604,
    -89.54039,
    38.55604
],
  "geometry": {"coordinates":[-89.54039,38.55604],"type":"Point"}
}