{
  "id": 85870147,
  "type": "Feature",
  "properties": {"wof:repo":"whosonfirst-data-admin-us",
    "src:geom":"quattroshapes",
    "wof:geomhash":"6e3397a1ce6e7114c475abc58d8b8d14",
    "wof:id":85870147
},
  "bbox": [
    -76.5664672851999,
    39.27797793902401,
    -76.55740401115372,
    39.28860951669317
],
  "geometry": {"coordinates":[[[-76.55740401115372,39.28222989736739],[-76.55767802831565,39.28116789777529],[-76.56097412109989,39.28116790449401],[-76.56097412109997,39.27904189440008],[-76.56097412109989,39.27880602212868],[-76.56289713773862,39.27797793902401],[-76.56289716110419,39.27797796920929],[-76.56317167303374,39.27904189440008],[-76.56372070309993,39.27904189440008],[-76.56372070309993,39.28116791390009],[-76.56646728519991,39.28116791390009],[-76.56646728518427,39.28187719733918],[-76.56646728518331,39.28329386083760],[-76.56646728518606,39.28541975133760],[-76.56646728518641,39.28754557599407],[-76.56372070120207,39.28754557998484],[-76.56289723135893,39.28860951669317],[-76.56097412109989,39.28778126760014],[-76.56097412109997,39.28754558540007],[-76.56097412109989,39.28541975325730],[-76.55822753908640,39.28541974999396],[-76.55822753908882,39.28329386442087],[-76.55740401115372,39.28222989736739]]],"type":"Polygon"}
}