{
  "id": 1209531409,
  "type": "Feature",
  "properties": {
    "edtf:cessation":"uuuu",
    "edtf:inception":"uuuu",
    "geom:area":0.0,
    "geom:area_square_m":0.0,
    "geom:bbox":"-95.82219,33.52066,-95.82219,33.52066",
    "geom:latitude":33.52066,
    "geom:longitude":-95.82219,
    "gn:admin1_code":"TX",
    "gn:admin2_code":"277",
    "gn:asciiname":"Harmon",
    "gn:country_code":"US",
    "gn:dem":168,
    "gn:elevation":"168.0",
    "gn:feature_class":"P",
    "gn:feature_code":"PPL",
    "gn:geonameid":4696248,
    "gn:latitude":33.52066,
    "gn:longitude":-95.82219,
    "gn:modification_date":"2006-01-15",
    "gn:name":"Harmon",
    "gn:population":0,
    "gn:timezone":"America/Chicago",
    "iso:country":"US",
    "mz:hierarchy_label":1,
    "mz:is_current":-1,
    "src:geom":"geonames",
    "wof:belongsto":[
        85633793
    ],
    "wof:breaches":[],
    "wof:concordances":{
        "gn:id":4696248
    },
    "wof:country":"US",
    "wof:geomhash":"88c64746f5704081ffc84479cf546311",
    "wof:hierarchy":[
        {
            "country_id":85633793,
            "locality_id":1209531409
        }
    ],
    "wof:id":1209531409,
    "wof:lastmodified":1536284269,
    "wof:name":"Harmon",
    "wof:parent_id":85633793,
    "wof:placetype":"locality",
    "wof:repo":"whosonfirst-data-admin-us",
    "wof:superseded_by":[],
    "wof:supersedes":[],
    "wof:tags":[]
},
  "bbox": [
    -95.82219,
    33.52066,
    -95.82219,
    33.52066
],
  "geometry": {"coordinates":[-95.82219000000001,33.52066],"type":"Point"}
}