{
  "id": 1209122629,
  "type": "Feature",
  "properties": {
    "edtf:cessation":"uuuu",
    "edtf:inception":"uuuu",
    "geom:area":0.0,
    "geom:area_square_m":0.0,
    "geom:bbox":"-82.07485,37.65511,-82.07485,37.65511",
    "geom:latitude":37.65511,
    "geom:longitude":-82.07485,
    "gn:admin1_code":"WV",
    "gn:admin2_code":"59.0",
    "gn:asciiname":"Musick",
    "gn:country_code":"US",
    "gn:dem":342,
    "gn:elevation":"335.0",
    "gn:feature_class":"P",
    "gn:feature_code":"PPL",
    "gn:geonameid":4816244,
    "gn:latitude":37.65511,
    "gn:longitude":-82.07485,
    "gn:modification_date":"2006-01-15",
    "gn:name":"Musick",
    "gn:population":0,
    "gn:timezone":"America/New_York",
    "iso:country":"US",
    "mz:hierarchy_label":1,
    "mz:is_current":-1,
    "src:geom":"geonames",
    "wof:belongsto":[
        85633793
    ],
    "wof:breaches":[],
    "wof:concordances":{
        "gn:id":4816244,
        "wk:page":"Musick%2C_West_Virginia"
    },
    "wof:country":"US",
    "wof:geomhash":"5fddca7abe5f3f78259407033ff02a2a",
    "wof:hierarchy":[
        {
            "country_id":85633793,
            "locality_id":1209122629
        }
    ],
    "wof:id":1209122629,
    "wof:lastmodified":1537575455,
    "wof:name":"Musick",
    "wof:parent_id":85633793,
    "wof:placetype":"locality",
    "wof:repo":"whosonfirst-data-admin-us",
    "wof:superseded_by":[],
    "wof:supersedes":[],
    "wof:tags":[]
},
  "bbox": [
    -82.07485,
    37.65511,
    -82.07485,
    37.65511
],
  "geometry": {"coordinates":[-82.07485,37.65511],"type":"Point"}
}