{
  "id": 1226158667,
  "type": "Feature",
  "properties": {
    "edtf:cessation":"2018-09-07",
    "edtf:inception":"uuuu",
    "geom:area":0.0,
    "geom:area_square_m":0.0,
    "geom:bbox":"-90.61511,35.26675,-90.61511,35.26675",
    "geom:latitude":35.26675,
    "geom:longitude":-90.61511,
    "gn:admin1_code":"AR",
    "gn:admin2_code":"37.0",
    "gn:admin3_code":"93408.0",
    "gn:asciiname":"Belknap (historical)",
    "gn:country_code":"US",
    "gn:dem":63,
    "gn:elevation":"63.0",
    "gn:feature_class":"P",
    "gn:feature_code":"PPLQ",
    "gn:geonameid":4101078,
    "gn:latitude":35.26675,
    "gn:longitude":-90.61511,
    "gn:modification_date":"2017-05-23",
    "gn:name":"Belknap (historical)",
    "gn:population":0,
    "gn:timezone":"America/Chicago",
    "iso:country":"US",
    "mz:hierarchy_label":1,
    "mz:is_current":0,
    "src:geom":"geonames",
    "wof:belongsto":[
        102191575,
        85633793,
        85688549,
        102083223
    ],
    "wof:breaches":[],
    "wof:concordances":{
        "gn:id":4101078
    },
    "wof:country":"US",
    "wof:geomhash":"0623e88596c34da6dbc27a0eb58a8336",
    "wof:hierarchy":[
        {
            "continent_id":102191575,
            "country_id":85633793,
            "county_id":102083223,
            "locality_id":1226158667,
            "region_id":85688549
        }
    ],
    "wof:id":1226158667,
    "wof:lastmodified":1537056550,
    "wof:name":"Belknap (historical)",
    "wof:parent_id":102083223,
    "wof:placetype":"locality",
    "wof:repo":"whosonfirst-data-admin-us",
    "wof:superseded_by":[],
    "wof:supersedes":[],
    "wof:tags":[]
},
  "bbox": [
    -90.61511,
    35.26675,
    -90.61511,
    35.26675
],
  "geometry": {"coordinates":[-90.61511,35.26675],"type":"Point"}
}