{
  "id": 1125388157,
  "type": "Feature",
  "properties": {
    "edtf:cessation":"2017-05-19",
    "edtf:inception":"uuuu",
    "geom:area":0.0,
    "geom:area_square_m":0.0,
    "geom:bbox":"-87.62925,44.26222,-87.62925,44.26222",
    "geom:latitude":44.26222,
    "geom:longitude":-87.62925,
    "gn:gn_country":"US",
    "gn:gn_fcode":"ADMD",
    "gn:gn_pop":0,
    "gn:population":1266,
    "iso:country":"US",
    "lbl:latitude":44.26222,
    "lbl:longitude":-87.62925,
    "mz:hierarchy_label":1,
    "mz:is_current":0,
    "mz:note":"Quattroshapes Point Gazetteer import 20170519",
    "qs_pg:aaroncc":"US",
    "qs_pg:gn_country":"US",
    "qs_pg:gn_fcode":"ADMD",
    "qs_pg:gn_id":5263210,
    "qs_pg:gn_pop":0,
    "qs_pg:name":"Town of Mishicot",
    "qs_pg:photos_9r":0,
    "qs_pg:photos_sr":0,
    "qs_pg:pop_sr":0,
    "qs_pg:qs_id":377768,
    "qs_pg:qs_pg_placetype":"localadmin",
    "src:geom":"qs_pg",
    "src:lbl:centroid":"qs_pg",
    "src:population":"geonames",
    "wof:belongsto":[
        85633793
    ],
    "wof:breaches":[],
    "wof:concordances":{
        "gn:id":5263210,
        "qs_pg:id":377768
    },
    "wof:country":"US",
    "wof:created":1497048534,
    "wof:geomhash":"770bf57efe7bb4029e2e7ad183c200cc",
    "wof:hierarchy":[
        {
            "country_id":85633793,
            "localadmin_id":1125388157
        }
    ],
    "wof:id":1125388157,
    "wof:lastmodified":1505186991,
    "wof:name":"Town of Mishicot",
    "wof:parent_id":-1,
    "wof:placetype":"localadmin",
    "wof:population":1266,
    "wof:population_rank":3,
    "wof:repo":"whosonfirst-data-admin-us",
    "wof:superseded_by":[],
    "wof:supersedes":[],
    "wof:tags":[]
},
  "bbox": [
    -87.62925,
    44.26222,
    -87.62925,
    44.26222
],
  "geometry": {"coordinates":[-87.62925,44.26222],"type":"Point"}
}