{
  "id": 404495795,
  "type": "Feature",
  "properties": {
    "edtf:cessation":"uuuu",
    "edtf:inception":"uuuu",
    "geom:area":0.009301,
    "geom:area_square_m":86224679.138689,
    "geom:bbox":"-73.207688,41.367696,-73.077366,41.489409",
    "geom:latitude":41.431336,
    "geom:longitude":-73.135031,
    "iso:country":"US",
    "lbl:latitude":41.433104,
    "lbl:longitude":-73.128621,
    "mz:hierarchy_label":1,
    "mz:is_current":-1,
    "name:eng_x_preferred":[
        "Oxford"
    ],
    "qs:a0":"United States",
    "qs:a1":"Connecticut",
    "qs:a1_lc":"09",
    "qs:a2":"New Haven",
    "qs:a2_lc":"09009",
    "qs:adm0":"United States",
    "qs:adm0_a3":"USA",
    "qs:la":"Oxford",
    "qs:la_lc":"0900958300",
    "qs:level":"localadmin",
    "qs:pop":12683,
    "qs:source":"US Census",
    "qs:type":"town",
    "src:geom":"quattroshapes",
    "src:population":"quattroshapes",
    "wof:belongsto":[
        102191575,
        85633793,
        85688629,
        102086923
    ],
    "wof:breaches":[],
    "wof:concordances":{},
    "wof:country":"US",
    "wof:geomhash":"9400923b0b188bf8c680adb889928c40",
    "wof:hierarchy":[
        {
            "continent_id":102191575,
            "country_id":85633793,
            "county_id":102086923,
            "localadmin_id":404495795,
            "region_id":85688629
        }
    ],
    "wof:id":404495795,
    "wof:lastmodified":1505339590,
    "wof:name":"Oxford",
    "wof:parent_id":102086923,
    "wof:placetype":"localadmin",
    "wof:population":12683,
    "wof:population_rank":6,
    "wof:repo":"whosonfirst-data-admin-us",
    "wof:superseded_by":[],
    "wof:supersedes":[],
    "wof:tags":[]
},
  "bbox": [
    -73.207688,
    41.367696,
    -73.077366,
    41.489409
],
  "geometry": {"coordinates":[[[-73.207688,41.420544],[-73.206529,41.421322],[-73.198424,41.42646],[-73.19386900000001,41.429139],[-73.188928,41.431732],[-73.184856,41.434098],[-73.177102,41.439153],[-73.164641,41.447855],[-73.163928,41.448885],[-73.165963,41.451899],[-73.16506800000001,41.453076],[-73.165852,41.456748],[-73.16470099999999,41.458309],[-73.162097,41.457579],[-73.160049,41.461433],[-73.158311,41.461927],[-73.15763099999999,41.464952],[-73.15908899999999,41.468105],[-73.159679,41.471132],[-73.156552,41.477892],[-73.156126,41.482672],[-73.15788999999999,41.489409],[-73.125017,41.487552],[-73.10423400000001,41.489396],[-73.104319,41.483595],[-73.10335499999999,41.481737],[-73.096446,41.477623],[-73.077366,41.465189],[-73.078613,41.457784],[-73.083455,41.439135],[-73.085032,41.436922],[-73.08640200000001,41.433728],[-73.092698,41.41345],[-73.083585,41.403766],[-73.088725,41.399688],[-73.095634,41.398997],[-73.107541,41.398615],[-73.11052599999999,41.398104],[-73.113601,41.389298],[-73.114262,41.388186],[-73.11583299999999,41.386264],[-73.120029,41.383991],[-73.126941,41.379406],[-73.147555,41.367696],[-73.150955,41.370196],[-73.157055,41.376696],[-73.158832,41.379684],[-73.157977,41.382959],[-73.161253,41.383853],[-73.166556,41.383196],[-73.171441,41.383948],[-73.173356,41.383596],[-73.181168,41.389611],[-73.183269,41.391711],[-73.187957,41.397296],[-73.187557,41.399596],[-73.185357,41.402196],[-73.18485699999999,41.406296],[-73.18655699999999,41.408596],[-73.190257,41.410296],[-73.19675700000001,41.411396],[-73.19975700000001,41.413196],[-73.20155699999999,41.415796],[-73.207688,41.420544]]],"type":"Polygon"}
}