{
  "id": 1126109425,
  "type": "Feature",
  "properties": {
    "edtf:cessation":"uuuu",
    "edtf:deprecated":"2017-06-14",
    "edtf:inception":"uuuu",
    "geom:area":0.0,
    "geom:area_square_m":0.0,
    "geom:bbox":"-121.885787,37.333705,-121.885787,37.333705",
    "geom:latitude":37.333705,
    "geom:longitude":-121.885787,
    "gn:gn_country":null,
    "iso:country":"US",
    "lbl:latitude":37.333705,
    "lbl:longitude":-121.885787,
    "mz:hierarchy_label":1,
    "mz:is_current":0,
    "mz:note":"Quattroshapes Point Gazetteer import 20170519",
    "qs_pg:aaroncc":"US",
    "qs_pg:gn_country":null,
    "qs_pg:name":"Carlton",
    "qs_pg:name_adm0":"United States",
    "qs_pg:name_adm1":"California",
    "qs_pg:photos":5,
    "qs_pg:photos_1k":1,
    "qs_pg:photos_9k":1,
    "qs_pg:photos_9r":1,
    "qs_pg:photos_all":5,
    "qs_pg:photos_sr":1,
    "qs_pg:pop_sr":0,
    "qs_pg:qs_id":524505,
    "qs_pg:qs_pg_placetype":"neighbourhood",
    "qs_pg:qs_pg_placetype_gp":"Suburb",
    "qs_pg:woe_adm0":23424977,
    "qs_pg:woe_id":55971058,
    "src:geom":"qs_pg",
    "src:lbl:centroid":"qs_pg",
    "woe:adm0_id":23424977,
    "woe:name_adm0":"United States",
    "woe:name_adm1":"California",
    "woe:placetype":"Suburb",
    "wof:belongsto":[
        85633793
    ],
    "wof:breaches":[],
    "wof:concordances":{
        "gp:id":55971058,
        "qs_pg:id":524505
    },
    "wof:country":"US",
    "wof:created":1497317890,
    "wof:geomhash":"eabad2053229b873271c08ada852343a",
    "wof:hierarchy":[
        {
            "country_id":85633793,
            "neighbourhood_id":1126109425
        }
    ],
    "wof:id":1126109425,
    "wof:lastmodified":1511998876,
    "wof:name":"Carlton",
    "wof:parent_id":-1,
    "wof:placetype":"neighbourhood",
    "wof:repo":"whosonfirst-data-admin-us",
    "wof:superseded_by":[
        85887689
    ],
    "wof:supersedes":[],
    "wof:tags":[]
},
  "bbox": [
    -121.885787,
    37.333705,
    -121.885787,
    37.333705
],
  "geometry": {"coordinates":[-121.88578699999999,37.333705],"type":"Point"}
}