{
  "id": 1209541661,
  "type": "Feature",
  "properties": {
    "edtf:cessation":"2018-09-06",
    "edtf:inception":"uuuu",
    "geom:area":0.0,
    "geom:area_square_m":0.0,
    "geom:bbox":"-87.28057,35.13203,-87.28057,35.13203",
    "geom:latitude":35.13203,
    "geom:longitude":-87.28057,
    "gn:admin1_code":"TN",
    "gn:admin2_code":"99.0",
    "gn:asciiname":"Shady Grove (historical)",
    "gn:country_code":"US",
    "gn:dem":258,
    "gn:elevation":"248.0",
    "gn:feature_class":"P",
    "gn:feature_code":"PPLQ",
    "gn:geonameid":4656694,
    "gn:latitude":35.13203,
    "gn:longitude":-87.28057,
    "gn:modification_date":"2011-12-11",
    "gn:name":"Shady Grove (historical)",
    "gn:population":0,
    "gn:timezone":"America/Chicago",
    "iso:country":"US",
    "mz:hierarchy_label":1,
    "mz:is_current":0,
    "src:geom":"geonames",
    "wof:belongsto":[
        85633793
    ],
    "wof:breaches":[],
    "wof:concordances":{
        "gn:id":4656694
    },
    "wof:country":"US",
    "wof:geomhash":"7b48af6e16011ee34d83bfcb38c0ec9e",
    "wof:hierarchy":[
        {
            "country_id":85633793,
            "locality_id":1209541661
        }
    ],
    "wof:id":1209541661,
    "wof:lastmodified":1536283969,
    "wof:name":"Shady Grove (historical)",
    "wof:parent_id":85633793,
    "wof:placetype":"locality",
    "wof:repo":"whosonfirst-data-admin-us",
    "wof:superseded_by":[],
    "wof:supersedes":[],
    "wof:tags":[]
},
  "bbox": [
    -87.28057,
    35.13203,
    -87.28057,
    35.13203
],
  "geometry": {"coordinates":[-87.28057,35.13203],"type":"Point"}
}