{
  "id": 1108935677,
  "type": "Feature",
  "properties": {
    "edtf:cessation":"uuuu",
    "edtf:inception":"uuuu",
    "geom:area":0.0,
    "geom:area_square_m":0.0,
    "geom:bbox":"-93.5131038331,41.6259624375,-93.5131038331,41.6259624375",
    "geom:latitude":41.625962,
    "geom:longitude":-93.513104,
    "iso:country":"US",
    "lbl:latitude":41.625962,
    "lbl:longitude":-93.513104,
    "mz:hierarchy_label":1,
    "mz:is_funky":0,
    "mz:is_hard_boundary":0,
    "mz:is_landuse_aoi":0,
    "mz:is_official":0,
    "mz:max_zoom":18.0,
    "mz:min_zoom":15.0,
    "mz:tier_metro":15,
    "src:lbl:centroid":"mz",
    "wof:belongsto":[
        102191575,
        85633793,
        85944061,
        102086603,
        85688713
    ],
    "wof:breaches":[],
    "wof:concordances":{},
    "wof:country":"US",
    "wof:created":1491358525,
    "wof:geomhash":"d6a79116ce3da64cac8aec648d40931a",
    "wof:hierarchy":[
        {
            "continent_id":102191575,
            "country_id":85633793,
            "county_id":102086603,
            "locality_id":85944061,
            "neighbourhood_id":1108935677,
            "region_id":85688713
        }
    ],
    "wof:id":1108935677,
    "wof:lastmodified":1492123344,
    "wof:name":"Brook Run",
    "wof:parent_id":85944061,
    "wof:placetype":"neighbourhood",
    "wof:repo":"whosonfirst-data-admin-us",
    "wof:superseded_by":[],
    "wof:supersedes":[],
    "wof:tags":[]
},
  "bbox": [
    -93.5131038331374,
    41.62596243753507,
    -93.5131038331374,
    41.62596243753507
],
  "geometry": {"coordinates":[-93.51310383313739,41.62596243753507],"type":"Point"}
}