{
  "id": 1209231111,
  "type": "Feature",
  "properties": {
    "edtf:cessation":"2018-09-06",
    "edtf:inception":"uuuu",
    "geom:area":0.0,
    "geom:area_square_m":0.0,
    "geom:bbox":"-75.42881,38.9115,-75.42881,38.9115",
    "geom:latitude":38.9115,
    "geom:longitude":-75.42881,
    "gn:admin1_code":"DE",
    "gn:admin2_code":"5.0",
    "gn:asciiname":"South Milford (historical)",
    "gn:country_code":"US",
    "gn:dem":6,
    "gn:elevation":"6.0",
    "gn:feature_class":"P",
    "gn:feature_code":"PPLQ",
    "gn:geonameid":4144792,
    "gn:latitude":38.9115,
    "gn:longitude":-75.42881,
    "gn:modification_date":"2011-12-12",
    "gn:name":"South Milford (historical)",
    "gn:population":0,
    "gn:timezone":"America/New_York",
    "iso:country":"US",
    "mz:hierarchy_label":1,
    "mz:is_current":0,
    "src:geom":"geonames",
    "wof:belongsto":[
        85633793
    ],
    "wof:breaches":[],
    "wof:concordances":{
        "gn:id":4144792
    },
    "wof:country":"US",
    "wof:geomhash":"f0527072a378bfc4da0584d7f7575b37",
    "wof:hierarchy":[
        {
            "country_id":85633793,
            "locality_id":1209231111
        }
    ],
    "wof:id":1209231111,
    "wof:lastmodified":1536293638,
    "wof:name":"South Milford (historical)",
    "wof:parent_id":85633793,
    "wof:placetype":"locality",
    "wof:repo":"whosonfirst-data-admin-us",
    "wof:superseded_by":[],
    "wof:supersedes":[],
    "wof:tags":[]
},
  "bbox": [
    -75.42881,
    38.9115,
    -75.42881,
    38.9115
],
  "geometry": {"coordinates":[-75.42881,38.9115],"type":"Point"}
}