{
  "id": 1209839925,
  "type": "Feature",
  "properties": {
    "edtf:cessation":"uuuu",
    "edtf:inception":"uuuu",
    "geom:area":0.0,
    "geom:area_square_m":0.0,
    "geom:bbox":"-92.27319,31.60156,-92.27319,31.60156",
    "geom:latitude":31.60156,
    "geom:longitude":-92.27319,
    "gn:admin1_code":"LA",
    "gn:admin2_code":"59.0",
    "gn:asciiname":"White Sulphur Springs",
    "gn:country_code":"US",
    "gn:dem":34,
    "gn:elevation":"29.0",
    "gn:feature_class":"P",
    "gn:feature_code":"PPL",
    "gn:geonameid":4346090,
    "gn:latitude":31.60156,
    "gn:longitude":-92.27319,
    "gn:modification_date":"2006-01-15",
    "gn:name":"White Sulphur Springs",
    "gn:population":0,
    "gn:timezone":"America/Chicago",
    "iso:country":"US",
    "mz:hierarchy_label":1,
    "mz:is_current":-1,
    "src:geom":"geonames",
    "wof:belongsto":[
        102191575,
        85633793,
        85688735,
        102082459
    ],
    "wof:breaches":[],
    "wof:concordances":{
        "gn:id":4346090
    },
    "wof:country":"US",
    "wof:geomhash":"7bb3189be9635af5f6555768f30fe7e4",
    "wof:hierarchy":[
        {
            "continent_id":102191575,
            "country_id":85633793,
            "county_id":102082459,
            "locality_id":1209839925,
            "region_id":85688735
        }
    ],
    "wof:id":1209839925,
    "wof:lastmodified":1536393181,
    "wof:name":"White Sulphur Springs",
    "wof:parent_id":102082459,
    "wof:placetype":"locality",
    "wof:repo":"whosonfirst-data-admin-us",
    "wof:superseded_by":[],
    "wof:supersedes":[],
    "wof:tags":[]
},
  "bbox": [
    -92.27319,
    31.60156,
    -92.27319,
    31.60156
],
  "geometry": {"coordinates":[-92.27319,31.60156],"type":"Point"}
}