{
  "id": 1276460157,
  "type": "Feature",
  "properties": {
    "edtf:cessation":"uuuu",
    "edtf:inception":"uuuu",
    "geom:area":0.0,
    "geom:area_square_m":0.0,
    "geom:bbox":"-92.99712,35.1487,-92.99712,35.1487",
    "geom:latitude":35.1487,
    "geom:longitude":-92.99712,
    "gn:admin1_code":"AR",
    "gn:admin2_code":"149.0",
    "gn:admin3_code":"91410.0",
    "gn:asciiname":"Whitehall",
    "gn:country_code":"US",
    "gn:dem":95,
    "gn:elevation":"92.0",
    "gn:feature_class":"P",
    "gn:feature_code":"PPL",
    "gn:geonameid":4136314,
    "gn:latitude":35.1487,
    "gn:longitude":-92.99712,
    "gn:modification_date":"2017-05-23",
    "gn:name":"Whitehall",
    "gn:population":0,
    "gn:timezone":"America/Chicago",
    "iso:country":"US",
    "mz:hierarchy_label":1,
    "mz:is_current":-1,
    "src:geom":"geonames",
    "wof:belongsto":[
        102191575,
        85633793,
        85688549,
        102083263
    ],
    "wof:breaches":[],
    "wof:concordances":{
        "gn:id":4136314
    },
    "wof:country":"US",
    "wof:geomhash":"ced612d988a2a105284d03cfe7b65c69",
    "wof:hierarchy":[
        {
            "continent_id":102191575,
            "country_id":85633793,
            "county_id":102083263,
            "locality_id":1276460157,
            "region_id":85688549
        }
    ],
    "wof:id":1276460157,
    "wof:lastmodified":1536605833,
    "wof:name":"Whitehall",
    "wof:parent_id":102083263,
    "wof:placetype":"locality",
    "wof:repo":"whosonfirst-data-admin-us",
    "wof:superseded_by":[],
    "wof:supersedes":[],
    "wof:tags":[]
},
  "bbox": [
    -92.99712,
    35.1487,
    -92.99712,
    35.1487
],
  "geometry": {"coordinates":[-92.99712,35.1487],"type":"Point"}
}