{
  "id": 1209030873,
  "type": "Feature",
  "properties": {
    "edtf:cessation":"uuuu",
    "edtf:inception":"uuuu",
    "geom:area":0.0,
    "geom:area_square_m":0.0,
    "geom:bbox":"-89.19757,36.43812,-89.19757,36.43812",
    "geom:latitude":36.43812,
    "geom:longitude":-89.19757,
    "gn:admin1_code":"TN",
    "gn:admin2_code":"131",
    "gn:asciiname":"Fremont",
    "gn:country_code":"US",
    "gn:dem":154,
    "gn:elevation":"155.0",
    "gn:feature_class":"P",
    "gn:feature_code":"PPL",
    "gn:geonameid":4623758,
    "gn:latitude":36.43812,
    "gn:longitude":-89.19757,
    "gn:modification_date":"2006-01-15",
    "gn:name":"Fremont",
    "gn:population":0,
    "gn:timezone":"America/Chicago",
    "iso:country":"US",
    "mz:hierarchy_label":1,
    "mz:is_current":-1,
    "name:eng_x_preferred":[
        "Fremont"
    ],
    "name:und_x_variant":[
        "Freemont"
    ],
    "src:geom":"geonames",
    "wof:belongsto":[
        85633793
    ],
    "wof:breaches":[],
    "wof:concordances":{
        "gn:id":4623758
    },
    "wof:country":"US",
    "wof:geomhash":"332003f98c44bf8672dbda9568c29539",
    "wof:hierarchy":[
        {
            "country_id":85633793,
            "locality_id":1209030873
        }
    ],
    "wof:id":1209030873,
    "wof:lastmodified":1537712621,
    "wof:name":"Fremont",
    "wof:parent_id":85633793,
    "wof:placetype":"locality",
    "wof:repo":"whosonfirst-data-admin-us",
    "wof:superseded_by":[],
    "wof:supersedes":[],
    "wof:tags":[]
},
  "bbox": [
    -89.19757,
    36.43812,
    -89.19757,
    36.43812
],
  "geometry": {"coordinates":[-89.19757,36.43812],"type":"Point"}
}