{
  "id": 1125348981,
  "type": "Feature",
  "properties": {
    "edtf:cessation":"2017-05-19",
    "edtf:inception":"uuuu",
    "geom:area":0.0,
    "geom:area_square_m":0.0,
    "geom:bbox":"-114.8925,47.19354,-114.8925,47.19354",
    "geom:latitude":47.19354,
    "geom:longitude":-114.8925,
    "gn:gn_country":"US",
    "gn:gn_fcode":"ADMD",
    "gn:gn_pop":812,
    "gn:population":812,
    "iso:country":"US",
    "lbl:latitude":47.19354,
    "lbl:longitude":-114.8925,
    "mz:hierarchy_label":1,
    "mz:is_current":0,
    "mz:note":"Quattroshapes Point Gazetteer import 20170519",
    "qs_pg:aaroncc":"US",
    "qs_pg:gn_country":"US",
    "qs_pg:gn_fcode":"ADMD",
    "qs_pg:gn_id":7175757,
    "qs_pg:gn_pop":812,
    "qs_pg:name":"Town of Superior",
    "qs_pg:photos_9r":0,
    "qs_pg:photos_sr":0,
    "qs_pg:pop_sr":2,
    "qs_pg:qs_id":668267,
    "qs_pg:qs_pg_placetype":"localadmin",
    "src:geom":"qs_pg",
    "src:lbl:centroid":"qs_pg",
    "src:population":"geonames",
    "wof:belongsto":[
        85633793
    ],
    "wof:breaches":[],
    "wof:concordances":{
        "gn:id":7175757,
        "qs_pg:id":668267
    },
    "wof:country":"US",
    "wof:created":1497046081,
    "wof:geomhash":"95e7eacb08308fd8a661ad33bbc9368d",
    "wof:hierarchy":[
        {
            "country_id":85633793,
            "localadmin_id":1125348981
        }
    ],
    "wof:id":1125348981,
    "wof:lastmodified":1505187156,
    "wof:name":"Town of Superior",
    "wof:parent_id":-1,
    "wof:placetype":"localadmin",
    "wof:population":812,
    "wof:population_rank":2,
    "wof:repo":"whosonfirst-data-admin-us",
    "wof:superseded_by":[],
    "wof:supersedes":[],
    "wof:tags":[]
},
  "bbox": [
    -114.8925,
    47.19354,
    -114.8925,
    47.19354
],
  "geometry": {"coordinates":[-114.8925,47.19354],"type":"Point"}
}