{
  "id": 1209121957,
  "type": "Feature",
  "properties": {
    "edtf:cessation":"uuuu",
    "edtf:inception":"uuuu",
    "geom:area":0.0,
    "geom:area_square_m":0.0,
    "geom:bbox":"-86.69664,31.66571,-86.69664,31.66571",
    "geom:latitude":31.66571,
    "geom:longitude":-86.69664,
    "gn:admin1_code":"AL",
    "gn:admin2_code":"13",
    "gn:asciiname":"East Chapman",
    "gn:country_code":"US",
    "gn:dem":106,
    "gn:elevation":"100.0",
    "gn:feature_class":"P",
    "gn:feature_code":"PPL",
    "gn:geonameid":4059845,
    "gn:latitude":31.66571,
    "gn:longitude":-86.69664,
    "gn:modification_date":"2006-01-15",
    "gn:name":"East Chapman",
    "gn:population":0,
    "gn:timezone":"America/Chicago",
    "iso:country":"US",
    "mz:hierarchy_label":1,
    "mz:is_current":-1,
    "src:geom":"geonames",
    "wof:belongsto":[
        85633793
    ],
    "wof:breaches":[],
    "wof:concordances":{
        "gn:id":4059845
    },
    "wof:country":"US",
    "wof:geomhash":"250df333db077ef52c6f3a82aa45309e",
    "wof:hierarchy":[
        {
            "country_id":85633793,
            "locality_id":1209121957
        }
    ],
    "wof:id":1209121957,
    "wof:lastmodified":1536297072,
    "wof:name":"East Chapman",
    "wof:parent_id":85633793,
    "wof:placetype":"locality",
    "wof:repo":"whosonfirst-data-admin-us",
    "wof:superseded_by":[],
    "wof:supersedes":[],
    "wof:tags":[]
},
  "bbox": [
    -86.69664,
    31.66571,
    -86.69664,
    31.66571
],
  "geometry": {"coordinates":[-86.69664,31.66571],"type":"Point"}
}