{
  "id": 85847451,
  "type": "Feature",
  "properties": {"wof:repo":"whosonfirst-data-admin-us",
    "src:geom":"quattroshapes",
    "wof:geomhash":"3f9a2a3b2e077c9594c71dcca9d03579",
    "wof:id":85847451
},
  "bbox": [
    -86.95854736325003,
    36.15227043590002,
    -86.91108154295,
    36.22547117770007
],
  "geometry": {"coordinates":[[[[-86.94659646002975,36.15246258309612],[-86.94854736324987,36.15227043590002],[-86.95049826646999,36.15246258309612],[-86.95237419757370,36.15303164057504],[-86.95410306558023,36.15395573977709],[-86.95561843106168,36.15519936808809],[-86.95686205937295,36.15671473356998],[-86.95778615857500,36.15844360157634],[-86.95835521605400,36.16031953267978],[-86.95854736325003,36.16227043590017],[-86.95835521605400,36.16422133912030],[-86.95778615857500,36.16609727022373],[-86.95686205937295,36.16782613823035],[-86.95561843106168,36.16934150371199],[-86.95410306558023,36.17058513202308],[-86.95237419757370,36.17150923122539],[-86.95049826646999,36.17207828870421],[-86.94854736324987,36.17227043590006],[-86.94659646002975,36.17207828870421],[-86.94472052892621,36.17150923122539],[-86.94299166091969,36.17058513202308],[-86.94147629543806,36.16934150371199],[-86.94023266712696,36.16782613823035],[-86.93930856792483,36.16609727022373],[-86.93873951044600,36.16422133912030],[-86.93854736324988,36.16227043590017],[-86.93873951044600,36.16031953267978],[-86.93930856792483,36.15844360157634],[-86.94023266712696,36.15671473356998],[-86.94147629543806,36.15519936808809],[-86.94299166091969,36.15395573977709],[-86.94472052892621,36.15303164057504],[-86.94659646002975,36.15246258309612]]],[[[-86.94659646002992,36.19679904439603],[-86.94854736325004,36.19660689719993],[-86.95049826646999,36.19679904439603],[-86.95237419757370,36.19736810187496],[-86.95410306558023,36.19829220107700],[-86.95561843106168,36.19953582938835],[-86.95686205937295,36.20105119486989],[-86.95778615857500,36.20278006287661],[-86.95835521605400,36.20465599398004],[-86.95854736325003,36.20660689720007],[-86.95835521605400,36.20855780042021],[-86.95778615857500,36.21043373152391],[-86.95686205937295,36.21216259953026],[-86.95561843106168,36.21367796501190],[-86.95410306558023,36.21492159332315],[-86.95237419757370,36.21584569252521],[-86.95049826646999,36.21641475000412],[-86.94854736325004,36.21660689720015],[-86.94659646002992,36.21641475000412],[-86.94472052892621,36.21584569252521],[-86.94299166091969,36.21492159332315],[-86.94147629543806,36.21367796501190],[-86.94023266712696,36.21216259953026],[-86.93930856792483,36.21043373152391],[-86.93873951044600,36.20855780042021],[-86.93854736324988,36.20660689720007],[-86.93873951044600,36.20465599398004],[-86.93930856792483,36.20278006287661],[-86.94023266712696,36.20105119486989],[-86.94147629543806,36.19953582938835],[-86.94299166091969,36.19829220107700],[-86.94472052892621,36.19736810187496],[-86.94659646002992,36.19679904439603]]],[[[-86.91913063972976,36.20123131014610],[-86.92108154294999,36.20103916295008],[-86.92303244617020,36.20123131014610],[-86.92490837727354,36.20180036762493],[-86.92663724528018,36.20272446682715],[-86.92815261076180,36.20396809513834],[-86.92939623907307,36.20548346061996],[-86.93032033827501,36.20721232862658],[-86.93088939575404,36.20908825973002],[-86.93108154294987,36.21103916295014],[-86.93088939575404,36.21299006617018],[-86.93080897728782,36.21325517032525],[-86.93088939575404,36.21352027447979],[-86.93108154294987,36.21547117769992],[-86.93088939575404,36.21742208092031],[-86.93032033827501,36.21929801202376],[-86.92939623907307,36.22102688003038],[-86.92815261076180,36.22254224551200],[-86.92663724528018,36.22378587382300],[-86.92490837727354,36.22470997302523],[-86.92303244617020,36.22527903050397],[-86.92108154294999,36.22547117770007],[-86.91913063972976,36.22527903050397],[-86.91725470862633,36.22470997302523],[-86.91552584061981,36.22378587382300],[-86.91401047513799,36.22254224551200],[-86.91276684682691,36.22102688003038],[-86.91184274762486,36.21929801202376],[-86.91127369014595,36.21742208092031],[-86.91108154295000,36.21547117769992],[-86.91127369014595,36.21352027447979],[-86.91135410861204,36.21325517032525],[-86.91127369014595,36.21299006617018],[-86.91108154295000,36.21103916295014],[-86.91127369014595,36.20908825973002],[-86.91184274762486,36.20721232862658],[-86.91276684682691,36.20548346061996],[-86.91401047513799,36.20396809513834],[-86.91552584061981,36.20272446682715],[-86.91725470862633,36.20180036762493],[-86.91913063972976,36.20123131014610]]]],"type":"MultiPolygon"}
}