{
  "id": 420539055,
  "type": "Feature",
  "properties": {
    "edtf:cessation":"uuuu",
    "edtf:inception":"uuuu",
    "geom:area":0.0,
    "geom:area_square_m":1566309.076272,
    "geom:bbox":"-80.115472,41.253063,-80.115472,41.253063",
    "geom:latitude":41.253063,
    "geom:longitude":-80.115472,
    "iso:country":"US",
    "lbl:latitude":41.253063,
    "lbl:longitude":-80.115472,
    "mz:hierarchy_label":0,
    "mz:is_current":-1,
    "name:eng_x_preferred":[
        "Bowie"
    ],
    "src:geom":"mz",
    "src:geom_alt":[
        "zetashapes"
    ],
    "src:lbl":"mapshaper",
    "src:lbl:centroid":"mapshaper",
    "src:population":"zetashapes",
    "wof:belongsto":[
        102191575,
        404483735,
        85633793,
        102080965,
        85688481
    ],
    "wof:breaches":[],
    "wof:concordances":{
        "gp:id":2367436
    },
    "wof:country":"US",
    "wof:geomhash":"7e20461dbea5a5cb4ea9bf7fb74e04b9",
    "wof:hierarchy":[
        {
            "continent_id":102191575,
            "country_id":85633793,
            "county_id":102080965,
            "localadmin_id":404483735,
            "locality_id":-1,
            "neighbourhood_id":420539055,
            "region_id":85688481
        }
    ],
    "wof:id":420539055,
    "wof:lastmodified":1533600070,
    "wof:name":"Bowie",
    "wof:parent_id":-1,
    "wof:placetype":"neighbourhood",
    "wof:population":31,
    "wof:population_rank":1,
    "wof:repo":"whosonfirst-data-admin-us",
    "wof:superseded_by":[],
    "wof:supersedes":[],
    "wof:tags":[],
    "zs:area_m":1566201.157138,
    "zs:blockids":[
        420850325021113
    ],
    "zs:housing10":11,
    "zs:id":2367436,
    "zs:label":"Bowie",
    "zs:pop10":31
},
  "bbox": [
    -80.115472,
    41.253063,
    -80.115472,
    41.253063
],
  "geometry": {"coordinates":[-80.115472,41.253063],"type":"Point"}
}