{
  "id": 85851581,
  "type": "Feature",
  "properties": {"wof:repo":"whosonfirst-data-admin-us",
    "src:geom":"quattroshapes",
    "wof:geomhash":"b3072d0eea7ed395add57d620873c806",
    "wof:id":85851581
},
  "bbox": [
    -111.95998608789017,
    33.61004451300029,
    -111.93224946787171,
    33.63865285565326
],
  "geometry": {"coordinates":[[[-111.93969726599988,33.63748918247536],[-111.93779335932899,33.63520236952533],[-111.93420410174986,33.63520236952533],[-111.93288048842442,33.63440748392178],[-111.93234817664114,33.63291572352531],[-111.93224946787171,33.63208587570384],[-111.93420410199968,33.62973835135008],[-111.93420410200005,33.62834199140011],[-111.93695068400001,33.62834199140011],[-111.93695068400001,33.62605502082887],[-111.93969726748981,33.62605501727971],[-111.93969726599988,33.62376800120009],[-111.93969726599988,33.62237160063601],[-111.93969726599988,33.61919376820006],[-111.93969726599988,33.61919370747530],[-111.93659642200339,33.61547002475740],[-111.93790314254812,33.61233181162528],[-111.94328551231649,33.61233181162528],[-111.94519037944764,33.61004457370009],[-111.94519042999991,33.61004451300029],[-111.95068359399994,33.61004451300029],[-111.95343017599981,33.61004451300029],[-111.95343017599981,33.61132114339138],[-111.95617675800005,33.61461923162554],[-111.95617680852854,33.61461929230003],[-111.95998608789017,33.61919346465035],[-111.95998568348290,33.61919370747530],[-111.95617675800005,33.62376794050002],[-111.95617675800005,33.62376800120009],[-111.95617670745560,33.62376800120009],[-111.95343017599981,33.62706637890393],[-111.95343017599981,33.62834193067543],[-111.95343017599981,33.62961688931587],[-111.95068359399994,33.63291567800032],[-111.95068359399994,33.63291573870002],[-111.95068359399994,33.63748918247509],[-111.95068359399994,33.63748924320002],[-111.94519042999991,33.63748924320002],[-111.94519037944286,33.63748924320002],[-111.94511048411516,33.63758520676468],[-111.94066609256109,33.63865285565326],[-111.93969731655679,33.63748924320012],[-111.93969726599988,33.63748924320002],[-111.93969726599988,33.63748918247536]]],"type":"Polygon"}
}