{
  "id": 85818347,
  "type": "Feature",
  "properties": {
    "edtf:cessation":"uuuu",
    "edtf:inception":"uuuu",
    "geom:area":0.0,
    "geom:area_square_m":2194300.130502,
    "geom:bbox":"-80.404394,37.227337,-80.404394,37.227337",
    "geom:latitude":37.227337,
    "geom:longitude":-80.404394,
    "gn:elevation":660,
    "gn:gn_country":"US",
    "gn:gn_fcode":"PPLX",
    "gn:gn_pop":0,
    "iso:country":"US",
    "lbl:latitude":37.227337,
    "lbl:longitude":-80.404394,
    "mps:latitude":37.228562,
    "mps:longitude":-80.401139,
    "mz:hierarchy_label":0,
    "mz:is_current":-1,
    "mz:is_funky":0,
    "mz:is_hard_boundary":0,
    "mz:is_landuse_aoi":0,
    "mz:is_official":0,
    "mz:max_zoom":18.0,
    "mz:min_zoom":15.0,
    "mz:tier_locality":3,
    "name:eng_x_preferred":[
        "Evergreen"
    ],
    "name:unk_x_variant":[
        "Evergreen"
    ],
    "qs:gn_adm0_cc":"US",
    "qs:gn_fcode":"PPLX",
    "qs:gn_local":4747845,
    "qs:gn_nam_loc":"Blacksburg, Montgomery, Virginia, US",
    "qs:gn_namadm1":"VA",
    "qs:gn_name":"Evergreen",
    "qs:local_max":5389,
    "qs:local_sum":19335,
    "qs:localhoods":26,
    "qs:name":"Evergreen",
    "qs:name_adm0":"United States",
    "qs:name_adm1":"Virginia",
    "qs:name_adm2":"Montgomery",
    "qs:name_local":"Blacksburg",
    "qs:photo_max":97,
    "qs:photo_sum":140,
    "qs:placetype":"Suburb",
    "qs:quad_count":8,
    "qs:woe_adm0":23424977,
    "qs:woe_adm1":2347605,
    "qs:woe_adm2":12590387,
    "qs:woe_lau":0,
    "qs:woe_local":2365044,
    "qs:woe_ver":"7.10.0",
    "qs_pg:aaroncc":"US",
    "qs_pg:gn_country":"US",
    "qs_pg:gn_fcode":"PPLX",
    "qs_pg:gn_id":4757917,
    "qs_pg:gn_pop":0,
    "qs_pg:name":"Evergreen",
    "qs_pg:name_adm0":"United States",
    "qs_pg:name_adm1":"Virginia",
    "qs_pg:photos":10,
    "qs_pg:photos_1k":2,
    "qs_pg:photos_9k":1,
    "qs_pg:photos_9r":1,
    "qs_pg:photos_all":10,
    "qs_pg:photos_sr":1,
    "qs_pg:pop_sr":0,
    "qs_pg:qs_id":471625,
    "qs_pg:qs_pg_placetype":"neighbourhood",
    "qs_pg:qs_pg_placetype_gp":"Suburb",
    "qs_pg:woe_adm0":23424977,
    "qs_pg:woe_id":2400902,
    "src:geom":"mz",
    "src:geom_alt":[
        "zetashapes",
        "quattroshapes"
    ],
    "src:lbl:centroid":"yerbashapes",
    "src:population":"zetashapes",
    "wof:belongsto":[
        85688747,
        102191575,
        85633793,
        101728705,
        102087271
    ],
    "wof:breaches":[],
    "wof:concordances":{
        "gn:id":4757917,
        "gp:id":2400902,
        "qs:id":471625,
        "qs_pg:id":471625
    },
    "wof:country":"US",
    "wof:geomhash":"a6847e5b2ad4a2c9f671160356f1ab77",
    "wof:hierarchy":[
        {
            "continent_id":102191575,
            "country_id":85633793,
            "county_id":102087271,
            "locality_id":101728705,
            "neighbourhood_id":85818347,
            "region_id":85688747
        }
    ],
    "wof:id":85818347,
    "wof:lang":[
        "eng"
    ],
    "wof:lastmodified":1534379481,
    "wof:name":"Evergreen",
    "wof:parent_id":101728705,
    "wof:placetype":"neighbourhood",
    "wof:population":588,
    "wof:population_rank":2,
    "wof:repo":"whosonfirst-data-admin-us",
    "wof:superseded_by":[],
    "wof:supersedes":[
        1126084115
    ],
    "wof:tags":[],
    "zs:blockids":[
        511210206002011,
        511210206002012,
        511210207001049,
        511210207001054,
        511210207001048,
        511210206002001,
        511210206002004,
        511210207001047,
        511210206002029,
        511210207001055,
        511210206002007,
        511210207001053,
        511210207001056,
        511210207002000,
        511210206002013,
        511210207001050,
        511210206002006
    ],
    "zs:housing10":315,
    "zs:pop10":588
},
  "bbox": [
    -80.404394,
    37.227337,
    -80.404394,
    37.227337
],
  "geometry": {"coordinates":[-80.404394,37.227337],"type":"Point"}
}