{
  "id": 1125407753,
  "type": "Feature",
  "properties": {
    "edtf:cessation":"uuuu",
    "edtf:deprecated":"2017-11-04",
    "edtf:inception":"uuuu",
    "geom:area":0.0,
    "geom:area_square_m":0.0,
    "geom:bbox":"-90.4062,39.29481,-90.4062,39.29481",
    "geom:latitude":39.29481,
    "geom:longitude":-90.4062,
    "gn:gn_country":"US",
    "gn:gn_fcode":"ADMD",
    "gn:gn_pop":2484,
    "gn:population":2484,
    "iso:country":"US",
    "lbl:latitude":39.29481,
    "lbl:longitude":-90.4062,
    "mz:hierarchy_label":1,
    "mz:is_current":0,
    "mz:note":"Quattroshapes Point Gazetteer import 20170519",
    "qs_pg:aaroncc":"US",
    "qs_pg:gn_country":"US",
    "qs_pg:gn_fcode":"ADMD",
    "qs_pg:gn_id":7163082,
    "qs_pg:gn_pop":2484,
    "qs_pg:name":"City of Carrollton",
    "qs_pg:photos_9r":0,
    "qs_pg:photos_sr":0,
    "qs_pg:pop_sr":4,
    "qs_pg:qs_id":658048,
    "qs_pg:qs_pg_placetype":"localadmin",
    "src:geom":"qs_pg",
    "src:lbl:centroid":"qs_pg",
    "src:population":"geonames",
    "wof:belongsto":[
        85633793
    ],
    "wof:breaches":[],
    "wof:concordances":{
        "gn:id":7163082,
        "qs_pg:id":658048
    },
    "wof:country":"US",
    "wof:created":1497049754,
    "wof:geomhash":"f5cd804a3c838bbe9a6c82f11f2d1732",
    "wof:hierarchy":[
        {
            "country_id":85633793,
            "localadmin_id":1125407753
        }
    ],
    "wof:id":1125407753,
    "wof:lastmodified":1509752713,
    "wof:name":"City of Carrollton",
    "wof:parent_id":-1,
    "wof:placetype":"localadmin",
    "wof:population":2484,
    "wof:population_rank":4,
    "wof:repo":"whosonfirst-data-admin-us",
    "wof:superseded_by":[
        85940653
    ],
    "wof:supersedes":[],
    "wof:tags":[]
},
  "bbox": [
    -90.4062,
    39.29481,
    -90.4062,
    39.29481
],
  "geometry": {"coordinates":[-90.4062,39.29481],"type":"Point"}
}