{
  "id": 1209234211,
  "type": "Feature",
  "properties": {
    "edtf:cessation":"2018-09-06",
    "edtf:inception":"uuuu",
    "geom:area":0.0,
    "geom:area_square_m":0.0,
    "geom:bbox":"-76.89469,41.22925,-76.89469,41.22925",
    "geom:latitude":41.22925,
    "geom:longitude":-76.89469,
    "gn:admin1_code":"PA",
    "gn:admin2_code":"81.0",
    "gn:admin3_code":"14336.0",
    "gn:asciiname":"Loyalsock (historical)",
    "gn:country_code":"US",
    "gn:dem":170,
    "gn:elevation":"157.0",
    "gn:feature_class":"P",
    "gn:feature_code":"PPLQ",
    "gn:geonameid":5199221,
    "gn:latitude":41.22925,
    "gn:longitude":-76.89469,
    "gn:modification_date":"2017-05-23",
    "gn:name":"Loyalsock (historical)",
    "gn:population":0,
    "gn:timezone":"America/New_York",
    "iso:country":"US",
    "mz:hierarchy_label":1,
    "mz:is_current":0,
    "src:geom":"geonames",
    "wof:belongsto":[
        85633793
    ],
    "wof:breaches":[],
    "wof:concordances":{
        "gn:id":5199221
    },
    "wof:country":"US",
    "wof:geomhash":"f3a569bbb73c395cbe7719e72e72fb5d",
    "wof:hierarchy":[
        {
            "country_id":85633793,
            "locality_id":1209234211
        }
    ],
    "wof:id":1209234211,
    "wof:lastmodified":1536293540,
    "wof:name":"Loyalsock (historical)",
    "wof:parent_id":85633793,
    "wof:placetype":"locality",
    "wof:repo":"whosonfirst-data-admin-us",
    "wof:superseded_by":[],
    "wof:supersedes":[],
    "wof:tags":[]
},
  "bbox": [
    -76.89469,
    41.22925,
    -76.89469,
    41.22925
],
  "geometry": {"coordinates":[-76.89469,41.22925],"type":"Point"}
}