{
  "id": 1125902447,
  "type": "Feature",
  "properties": {
    "edtf:cessation":"uuuu",
    "edtf:inception":"uuuu",
    "geom:area":0.0,
    "geom:area_square_m":0.0,
    "geom:bbox":"-75.69632,39.57178,-75.69632,39.57178",
    "geom:latitude":39.57178,
    "geom:longitude":-75.69632,
    "gn:gn_country":"US",
    "gn:gn_fcode":"PPL",
    "gn:gn_pop":0,
    "iso:country":"US",
    "lbl:latitude":39.57178,
    "lbl:longitude":-75.69632,
    "mz:hierarchy_label":1,
    "mz:is_current":-1,
    "mz:note":"Quattroshapes Point Gazetteer import 20170519",
    "name:eng_x_preferred":[
        "Kirkwood"
    ],
    "name:unk_x_variant":[
        "Kemps Corner"
    ],
    "qs_pg:aaroncc":"US",
    "qs_pg:gn_country":"US",
    "qs_pg:gn_fcode":"PPL",
    "qs_pg:gn_id":4143264,
    "qs_pg:gn_pop":0,
    "qs_pg:name":"Kirkwood",
    "qs_pg:name_adm0":"United States",
    "qs_pg:name_adm1":"Delaware",
    "qs_pg:photos":23,
    "qs_pg:photos_1k":5,
    "qs_pg:photos_9k":1,
    "qs_pg:photos_9r":1,
    "qs_pg:photos_all":23,
    "qs_pg:photos_sr":1,
    "qs_pg:pop_sr":0,
    "qs_pg:qs_id":1188838,
    "qs_pg:qs_pg_placetype":"locality",
    "qs_pg:qs_pg_placetype_gp":"Town",
    "qs_pg:woe_adm0":23424977,
    "qs_pg:woe_id":2433109,
    "src:geom":"qs_pg",
    "src:lbl:centroid":"qs_pg",
    "woe:adm0_id":23424977,
    "woe:name_adm0":"United States",
    "woe:name_adm1":"Delaware",
    "woe:placetype":"Town",
    "wof:belongsto":[
        102191575,
        85633793,
        85688611,
        102083891
    ],
    "wof:breaches":[],
    "wof:concordances":{
        "gn:id":4143264,
        "gp:id":2433109,
        "qs_pg:id":1188838
    },
    "wof:country":"US",
    "wof:created":1497295863,
    "wof:geomhash":"ca4a2da1185fc23bd0d9bf93491a3c3a",
    "wof:hierarchy":[
        {
            "continent_id":102191575,
            "country_id":85633793,
            "county_id":102083891,
            "locality_id":1125902447,
            "region_id":85688611
        }
    ],
    "wof:id":1125902447,
    "wof:lastmodified":1509399514,
    "wof:name":"Kirkwood",
    "wof:parent_id":102083891,
    "wof:placetype":"locality",
    "wof:repo":"whosonfirst-data-admin-us",
    "wof:superseded_by":[],
    "wof:supersedes":[],
    "wof:tags":[]
},
  "bbox": [
    -75.69632,
    39.57178,
    -75.69632,
    39.57178
],
  "geometry": {"coordinates":[-75.69632,39.57178],"type":"Point"}
}