{
  "id": 1309922249,
  "type": "Feature",
  "properties": {
    "edtf:cessation":"2018-09-07",
    "edtf:inception":"uuuu",
    "geom:area":0.0,
    "geom:area_square_m":0.0,
    "geom:bbox":"-82.8271,36.29593,-82.8271,36.29593",
    "geom:latitude":36.29593,
    "geom:longitude":-82.8271,
    "gn:admin1_code":"TN",
    "gn:admin2_code":"59",
    "gn:asciiname":"Mount Hope (historical)",
    "gn:country_code":"US",
    "gn:dem":369,
    "gn:elevation":"369.0",
    "gn:feature_class":"P",
    "gn:feature_code":"PPLQ",
    "gn:geonameid":4643310,
    "gn:latitude":36.29593,
    "gn:longitude":-82.8271,
    "gn:modification_date":"2011-12-12",
    "gn:name":"Mount Hope (historical)",
    "gn:population":0,
    "gn:timezone":"America/New_York",
    "iso:country":"US",
    "mz:hierarchy_label":1,
    "mz:is_current":0,
    "src:geom":"geonames",
    "wof:belongsto":[
        102191575,
        85633793,
        85688701,
        102086377
    ],
    "wof:breaches":[],
    "wof:concordances":{
        "gn:id":4643310
    },
    "wof:country":"US",
    "wof:geomhash":"ed4e79be47f25774233bc2667452ed84",
    "wof:hierarchy":[
        {
            "continent_id":102191575,
            "country_id":85633793,
            "county_id":102086377,
            "locality_id":1309922249,
            "region_id":85688701
        }
    ],
    "wof:id":1309922249,
    "wof:lastmodified":1536763556,
    "wof:name":"Mount Hope (historical)",
    "wof:parent_id":102086377,
    "wof:placetype":"locality",
    "wof:repo":"whosonfirst-data-admin-us",
    "wof:superseded_by":[],
    "wof:supersedes":[],
    "wof:tags":[]
},
  "bbox": [
    -82.8271,
    36.29593,
    -82.8271,
    36.29593
],
  "geometry": {"coordinates":[-82.8271,36.29593],"type":"Point"}
}