{
  "id": 1242794023,
  "type": "Feature",
  "properties": {
    "edtf:cessation":"uuuu",
    "edtf:inception":"uuuu",
    "geom:area":0.0,
    "geom:area_square_m":0.0,
    "geom:bbox":"-96.09468,30.52076,-96.09468,30.52076",
    "geom:latitude":30.52076,
    "geom:longitude":-96.09468,
    "gn:admin1_code":"TX",
    "gn:admin2_code":"185.0",
    "gn:asciiname":"Piedmont",
    "gn:country_code":"US",
    "gn:dem":70,
    "gn:elevation":"66.0",
    "gn:feature_class":"P",
    "gn:feature_code":"PPL",
    "gn:geonameid":4718843,
    "gn:latitude":30.52076,
    "gn:longitude":-96.09468,
    "gn:modification_date":"2006-01-15",
    "gn:name":"Piedmont",
    "gn:population":0,
    "gn:timezone":"America/Chicago",
    "iso:country":"US",
    "mz:hierarchy_label":1,
    "mz:is_current":-1,
    "src:geom":"geonames",
    "wof:belongsto":[
        102191575,
        85633793,
        85688753,
        102081945
    ],
    "wof:breaches":[],
    "wof:concordances":{
        "gn:id":4718843
    },
    "wof:country":"US",
    "wof:geomhash":"4a61ab842cdd47bfc9aa3171b62a5f28",
    "wof:hierarchy":[
        {
            "continent_id":102191575,
            "country_id":85633793,
            "county_id":102081945,
            "locality_id":1242794023,
            "region_id":85688753
        }
    ],
    "wof:id":1242794023,
    "wof:lastmodified":1536751848,
    "wof:name":"Piedmont",
    "wof:parent_id":102081945,
    "wof:placetype":"locality",
    "wof:repo":"whosonfirst-data-admin-us",
    "wof:superseded_by":[],
    "wof:supersedes":[],
    "wof:tags":[]
},
  "bbox": [
    -96.09468,
    30.52076,
    -96.09468,
    30.52076
],
  "geometry": {"coordinates":[-96.09468,30.52076],"type":"Point"}
}