{
  "id": 420531295,
  "type": "Feature",
  "properties": {
    "edtf:cessation":"uuuu",
    "edtf:inception":"uuuu",
    "geom:area":0.0,
    "geom:area_square_m":2483833.27111,
    "geom:bbox":"-78.93426,35.067672,-78.93426,35.067672",
    "geom:latitude":35.067672,
    "geom:longitude":-78.93426,
    "iso:country":"US",
    "lbl:latitude":35.067672,
    "lbl:longitude":-78.93426,
    "mz:hierarchy_label":0,
    "mz:is_current":-1,
    "name:deu_x_preferred":[
        "Scotti Hill"
    ],
    "name:eng_x_preferred":[
        "Scotty Hills"
    ],
    "name:fin_x_preferred":[
        "Scotti Hill"
    ],
    "name:ita_x_preferred":[
        "Scotti Hill"
    ],
    "name:por_x_preferred":[
        "Scotti Hill"
    ],
    "name:spa_x_preferred":[
        "Scotti Hill"
    ],
    "name:swe_x_preferred":[
        "Scotti Hill"
    ],
    "src:geom":"mz",
    "src:geom_alt":[
        "quattroshapes_pg",
        "zetashapes"
    ],
    "src:lbl":"mapshaper",
    "src:lbl:centroid":"mapshaper",
    "src:population":"zetashapes",
    "wd:wordcount":466,
    "wof:belongsto":[
        102191575,
        85633793,
        85981411,
        102080897,
        85688773
    ],
    "wof:breaches":[],
    "wof:concordances":{
        "gn:id":4490651,
        "gp:id":2490088,
        "qs_pg:id":481707,
        "wd:id":"Q1370996"
    },
    "wof:country":"US",
    "wof:geomhash":"970cd18d96ba93b7c3d5f25ae5f5c56f",
    "wof:hierarchy":[
        {
            "continent_id":102191575,
            "country_id":85633793,
            "county_id":102080897,
            "locality_id":85981411,
            "neighbourhood_id":420531295,
            "region_id":85688773
        }
    ],
    "wof:id":420531295,
    "wof:lastmodified":1533597649,
    "wof:name":"Scotty Hills",
    "wof:parent_id":85981411,
    "wof:placetype":"neighbourhood",
    "wof:population":1581,
    "wof:population_rank":3,
    "wof:repo":"whosonfirst-data-admin-us",
    "wof:superseded_by":[],
    "wof:supersedes":[],
    "wof:tags":[],
    "zs:area_m":2483662.706448,
    "zs:blockids":[
        370510021003002,
        370510021001015,
        370510007011000,
        370510021003015,
        370510007012009,
        370510021003022,
        370510007012013,
        370510021003013,
        370510021001017,
        370510021003021,
        370510007011009,
        370510007011010,
        370510007012014,
        370510021001016,
        370510021001018,
        370510007011001,
        370510007012005,
        370510021003012,
        370510007012015,
        370510021003003,
        370510021003014,
        370510007012007,
        370510007012006,
        370510007012011,
        370510021001026,
        370510021001025,
        370510021001019
    ],
    "zs:housing10":665,
    "zs:id":2490088,
    "zs:label":"Scotty Hills",
    "zs:pop10":1581
},
  "bbox": [
    -78.93426,
    35.067672,
    -78.93426,
    35.067672
],
  "geometry": {"coordinates":[-78.93425999999999,35.067672],"type":"Point"}
}