{
  "id": 420548959,
  "type": "Feature",
  "properties": {
    "edtf:cessation":"uuuu",
    "edtf:inception":"uuuu",
    "geom:area":0.0,
    "geom:area_square_m":999252.888757,
    "geom:bbox":"-122.530872,45.623359,-122.530872,45.623359",
    "geom:latitude":45.623359,
    "geom:longitude":-122.530872,
    "iso:country":"US",
    "lbl:latitude":45.623359,
    "lbl:longitude":-122.530872,
    "mz:hierarchy_label":0,
    "mz:is_current":-1,
    "name:eng_x_preferred":[
        "Airport Green"
    ],
    "src:geom":"mz",
    "src:geom_alt":[
        "quattroshapes_pg",
        "zetashapes"
    ],
    "src:lbl":"mapshaper",
    "src:lbl:centroid":"mapshaper",
    "src:population":"zetashapes",
    "wof:belongsto":[
        102191575,
        85633793,
        101730071,
        102084251,
        85688623
    ],
    "wof:breaches":[],
    "wof:concordances":{
        "gp:id":55862325,
        "qs_pg:id":383113
    },
    "wof:country":"US",
    "wof:geomhash":"f3ee932ff203440481f62e22da2a6dbb",
    "wof:hierarchy":[
        {
            "continent_id":102191575,
            "country_id":85633793,
            "county_id":102084251,
            "locality_id":101730071,
            "neighbourhood_id":420548959,
            "region_id":85688623
        }
    ],
    "wof:id":420548959,
    "wof:lastmodified":1533603915,
    "wof:name":"Airport Green",
    "wof:parent_id":101730071,
    "wof:placetype":"neighbourhood",
    "wof:population":516,
    "wof:population_rank":2,
    "wof:repo":"whosonfirst-data-admin-us",
    "wof:superseded_by":[],
    "wof:supersedes":[],
    "wof:tags":[],
    "zs:area_m":999183.614455,
    "zs:blockids":[
        530110413184002,
        530110413184005,
        530110413184003,
        530110413184006,
        530110413184000
    ],
    "zs:housing10":199,
    "zs:id":55862325,
    "zs:label":"Airport Green",
    "zs:pop10":516
},
  "bbox": [
    -122.530872,
    45.623359,
    -122.530872,
    45.623359
],
  "geometry": {"coordinates":[-122.530872,45.623359],"type":"Point"}
}