{
  "id": 1259406893,
  "type": "Feature",
  "properties": {
    "edtf:cessation":"uuuu",
    "edtf:inception":"uuuu",
    "geom:area":0.0,
    "geom:area_square_m":0.0,
    "geom:bbox":"-88.59808,30.77102,-88.59808,30.77102",
    "geom:latitude":30.77102,
    "geom:longitude":-88.59808,
    "gn:admin1_code":"MS",
    "gn:admin2_code":"39.0",
    "gn:asciiname":"Barton",
    "gn:country_code":"US",
    "gn:dem":39,
    "gn:elevation":"39.0",
    "gn:feature_class":"P",
    "gn:feature_code":"PPL",
    "gn:geonameid":4417069,
    "gn:latitude":30.77102,
    "gn:longitude":-88.59808,
    "gn:modification_date":"2006-01-15",
    "gn:name":"Barton",
    "gn:population":0,
    "gn:timezone":"America/Chicago",
    "iso:country":"US",
    "mz:hierarchy_label":1,
    "mz:is_current":-1,
    "src:geom":"geonames",
    "wof:belongsto":[
        102191575,
        85633793,
        85688579,
        102082441
    ],
    "wof:breaches":[],
    "wof:concordances":{
        "gn:id":4417069
    },
    "wof:country":"US",
    "wof:geomhash":"aac7bc8258614a360314b434467bca07",
    "wof:hierarchy":[
        {
            "continent_id":102191575,
            "country_id":85633793,
            "county_id":102082441,
            "locality_id":1259406893,
            "region_id":85688579
        }
    ],
    "wof:id":1259406893,
    "wof:lastmodified":1536968576,
    "wof:name":"Barton",
    "wof:parent_id":102082441,
    "wof:placetype":"locality",
    "wof:repo":"whosonfirst-data-admin-us",
    "wof:superseded_by":[],
    "wof:supersedes":[],
    "wof:tags":[]
},
  "bbox": [
    -88.59808000000002,
    30.77102,
    -88.59808000000002,
    30.77102
],
  "geometry": {"coordinates":[-88.59808000000002,30.77102],"type":"Point"}
}