{
  "id": 1209933537,
  "type": "Feature",
  "properties": {
    "edtf:cessation":"2018-09-06",
    "edtf:inception":"uuuu",
    "geom:area":0.0,
    "geom:area_square_m":0.0,
    "geom:bbox":"-84.49606,41.24561,-84.49606,41.24561",
    "geom:latitude":41.24561,
    "geom:longitude":-84.49606,
    "gn:admin1_code":"OH",
    "gn:admin2_code":"125.0",
    "gn:admin3_code":"25298.0",
    "gn:asciiname":"Renollet (historical)",
    "gn:country_code":"US",
    "gn:dem":216,
    "gn:elevation":"218.0",
    "gn:feature_class":"P",
    "gn:feature_code":"PPLQ",
    "gn:geonameid":5167914,
    "gn:latitude":41.24561,
    "gn:longitude":-84.49606,
    "gn:modification_date":"2017-05-23",
    "gn:name":"Renollet (historical)",
    "gn:population":0,
    "gn:timezone":"America/New_York",
    "iso:country":"US",
    "mz:hierarchy_label":1,
    "mz:is_current":0,
    "name:eng_x_preferred":[
        "Renollet (historical)"
    ],
    "name:und_x_variant":[
        "Sunnyside",
        "Toronto"
    ],
    "src:geom":"geonames",
    "wof:belongsto":[
        85688485,
        102191575,
        404525945,
        85633793,
        102083727
    ],
    "wof:breaches":[],
    "wof:concordances":{
        "gn:id":5167914
    },
    "wof:country":"US",
    "wof:geomhash":"6cab64c635000c4bf16d922a8f473430",
    "wof:hierarchy":[
        {
            "continent_id":102191575,
            "country_id":85633793,
            "county_id":102083727,
            "localadmin_id":404525945,
            "locality_id":1209933537,
            "region_id":85688485
        }
    ],
    "wof:id":1209933537,
    "wof:lastmodified":1537712923,
    "wof:name":"Renollet (historical)",
    "wof:parent_id":404525945,
    "wof:placetype":"locality",
    "wof:repo":"whosonfirst-data-admin-us",
    "wof:superseded_by":[],
    "wof:supersedes":[],
    "wof:tags":[]
},
  "bbox": [
    -84.49606,
    41.24561,
    -84.49606,
    41.24561
],
  "geometry": {"coordinates":[-84.49606,41.24561],"type":"Point"}
}