{
  "id": 420535357,
  "type": "Feature",
  "properties": {
    "edtf:cessation":"uuuu",
    "edtf:inception":"uuuu",
    "geom:area":0.0,
    "geom:area_square_m":1334120.110066,
    "geom:bbox":"-81.904251,40.96789,-81.904251,40.96789",
    "geom:latitude":40.96789,
    "geom:longitude":-81.904251,
    "iso:country":"US",
    "lbl:latitude":40.96789,
    "lbl:longitude":-81.904251,
    "mz:hierarchy_label":0,
    "mz:is_current":-1,
    "name:eng_x_preferred":[
        "Jackson"
    ],
    "src:geom":"mz",
    "src:geom_alt":[
        "quattroshapes_pg",
        "zetashapes"
    ],
    "src:lbl":"mapshaper",
    "src:lbl:centroid":"mapshaper",
    "src:population":"zetashapes",
    "wof:belongsto":[
        85688485,
        102191575,
        404524195,
        85633793,
        85983015,
        102084731
    ],
    "wof:breaches":[],
    "wof:concordances":{
        "gn:id":5158953,
        "gp:id":2428159,
        "qs_pg:id":45466
    },
    "wof:country":"US",
    "wof:geomhash":"19df75ecfe0ad16d3590734f11875280",
    "wof:hierarchy":[
        {
            "continent_id":102191575,
            "country_id":85633793,
            "county_id":102084731,
            "localadmin_id":404524195,
            "locality_id":85983015,
            "neighbourhood_id":420535357,
            "region_id":85688485
        }
    ],
    "wof:id":420535357,
    "wof:lastmodified":1533598995,
    "wof:name":"Jackson",
    "wof:parent_id":85983015,
    "wof:placetype":"neighbourhood",
    "wof:population":104,
    "wof:population_rank":1,
    "wof:repo":"whosonfirst-data-admin-us",
    "wof:superseded_by":[],
    "wof:supersedes":[],
    "wof:tags":[],
    "zs:area_m":1334027.942643,
    "zs:blockids":[
        391690024002030
    ],
    "zs:housing10":44,
    "zs:id":2428159,
    "zs:label":"Jackson",
    "zs:pop10":104
},
  "bbox": [
    -81.904251,
    40.96789,
    -81.904251,
    40.96789
],
  "geometry": {"coordinates":[-81.904251,40.96789],"type":"Point"}
}