{
  "id": 420537715,
  "type": "Feature",
  "properties": {
    "edtf:cessation":"uuuu",
    "edtf:inception":"uuuu",
    "geom:area":0.0,
    "geom:area_square_m":4194957.796071,
    "geom:bbox":"-77.282325,40.186133,-77.282325,40.186133",
    "geom:latitude":40.186133,
    "geom:longitude":-77.282325,
    "iso:country":"US",
    "lbl:latitude":40.186133,
    "lbl:longitude":-77.282325,
    "mz:hierarchy_label":0,
    "mz:is_current":-1,
    "name:eng_x_preferred":[
        "Greason"
    ],
    "src:geom":"mz",
    "src:geom_alt":[
        "quattroshapes_pg",
        "zetashapes"
    ],
    "src:lbl":"mapshaper",
    "src:population":"zetashapes",
    "wd:wordcount":73,
    "wof:belongsto":[
        102191575,
        404486553,
        85633793,
        102081359,
        85688481
    ],
    "wof:breaches":[],
    "wof:concordances":{
        "gn:id":5191787,
        "gp:id":2413565,
        "qs_pg:id":1161121,
        "wd:id":"Q16870287"
    },
    "wof:country":"US",
    "wof:geomhash":"482f36024d84ddd4b72de2cdcb72ad17",
    "wof:hierarchy":[
        {
            "continent_id":102191575,
            "country_id":85633793,
            "county_id":102081359,
            "localadmin_id":404486553,
            "locality_id":-1,
            "neighbourhood_id":420537715,
            "region_id":85688481
        }
    ],
    "wof:id":420537715,
    "wof:lastmodified":1533599680,
    "wof:name":"Greason",
    "wof:parent_id":-1,
    "wof:placetype":"neighbourhood",
    "wof:population":382,
    "wof:population_rank":2,
    "wof:repo":"whosonfirst-data-admin-us",
    "wof:superseded_by":[],
    "wof:supersedes":[],
    "wof:tags":[],
    "zs:area_m":4194669.283637,
    "zs:blockids":[
        420410128001038,
        420410128001081,
        420410128001035,
        420410128001034,
        420410128001036,
        420410128001037,
        420410128001009
    ],
    "zs:housing10":152,
    "zs:id":2413565,
    "zs:label":"Greason",
    "zs:pop10":382
},
  "bbox": [
    -77.282325,
    40.186133,
    -77.282325,
    40.186133
],
  "geometry": {"coordinates":[-77.282325,40.186133],"type":"Point"}
}