{
  "id": 1125345383,
  "type": "Feature",
  "properties": {
    "edtf:cessation":"2017-05-19",
    "edtf:inception":"uuuu",
    "geom:area":0.0,
    "geom:area_square_m":0.0,
    "geom:bbox":"-92.65848,32.8272,-92.65848,32.8272",
    "geom:latitude":32.8272,
    "geom:longitude":-92.65848,
    "gn:gn_country":"US",
    "gn:gn_fcode":"ADMD",
    "gn:gn_pop":1689,
    "gn:population":1689,
    "iso:country":"US",
    "lbl:latitude":32.8272,
    "lbl:longitude":-92.65848,
    "mz:hierarchy_label":1,
    "mz:is_current":0,
    "mz:note":"Quattroshapes Point Gazetteer import 20170519",
    "qs_pg:aaroncc":"US",
    "qs_pg:gn_country":"US",
    "qs_pg:gn_fcode":"ADMD",
    "qs_pg:gn_id":7170620,
    "qs_pg:gn_pop":1689,
    "qs_pg:name":"Town of Bernice",
    "qs_pg:photos_9r":0,
    "qs_pg:photos_sr":0,
    "qs_pg:pop_sr":3,
    "qs_pg:qs_id":663280,
    "qs_pg:qs_pg_placetype":"localadmin",
    "src:geom":"qs_pg",
    "src:lbl:centroid":"qs_pg",
    "src:population":"geonames",
    "wof:belongsto":[
        85633793
    ],
    "wof:breaches":[],
    "wof:concordances":{
        "gn:id":7170620,
        "qs_pg:id":663280
    },
    "wof:country":"US",
    "wof:created":1497045889,
    "wof:geomhash":"72ce9ceebd59e086a4ec010e1b01c471",
    "wof:hierarchy":[
        {
            "country_id":85633793,
            "localadmin_id":1125345383
        }
    ],
    "wof:id":1125345383,
    "wof:lastmodified":1505187096,
    "wof:name":"Town of Bernice",
    "wof:parent_id":-1,
    "wof:placetype":"localadmin",
    "wof:population":1689,
    "wof:population_rank":3,
    "wof:repo":"whosonfirst-data-admin-us",
    "wof:superseded_by":[],
    "wof:supersedes":[],
    "wof:tags":[]
},
  "bbox": [
    -92.65848,
    32.8272,
    -92.65848,
    32.8272
],
  "geometry": {"coordinates":[-92.65848,32.8272],"type":"Point"}
}