{
  "id": 1125297575,
  "type": "Feature",
  "properties": {
    "edtf:cessation":"2017-05-19",
    "edtf:inception":"uuuu",
    "geom:area":0.0,
    "geom:area_square_m":0.0,
    "geom:bbox":"-107.23578,40.48581,-107.23578,40.48581",
    "geom:latitude":40.48581,
    "geom:longitude":-107.23578,
    "gn:gn_country":"US",
    "gn:gn_fcode":"ADMD",
    "gn:gn_pop":1810,
    "gn:population":1810,
    "iso:country":"US",
    "lbl:latitude":40.48581,
    "lbl:longitude":-107.23578,
    "mz:hierarchy_label":1,
    "mz:is_current":0,
    "mz:note":"Quattroshapes Point Gazetteer import 20170519",
    "qs_pg:aaroncc":"US",
    "qs_pg:gn_country":"US",
    "qs_pg:gn_fcode":"ADMD",
    "qs_pg:gn_id":7175156,
    "qs_pg:gn_pop":1810,
    "qs_pg:name":"Town of Hayden",
    "qs_pg:photos_9r":0,
    "qs_pg:photos_sr":0,
    "qs_pg:pop_sr":3,
    "qs_pg:qs_id":667696,
    "qs_pg:qs_pg_placetype":"localadmin",
    "src:geom":"qs_pg",
    "src:lbl:centroid":"qs_pg",
    "src:population":"geonames",
    "wof:belongsto":[
        85633793
    ],
    "wof:breaches":[],
    "wof:concordances":{
        "gn:id":7175156,
        "qs_pg:id":667696
    },
    "wof:country":"US",
    "wof:created":1497043235,
    "wof:geomhash":"76b3bdc81c768ae4a3d4b6bc0bc13ece",
    "wof:hierarchy":[
        {
            "country_id":85633793,
            "localadmin_id":1125297575
        }
    ],
    "wof:id":1125297575,
    "wof:lastmodified":1505187149,
    "wof:name":"Town of Hayden",
    "wof:parent_id":-1,
    "wof:placetype":"localadmin",
    "wof:population":1810,
    "wof:population_rank":3,
    "wof:repo":"whosonfirst-data-admin-us",
    "wof:superseded_by":[],
    "wof:supersedes":[],
    "wof:tags":[]
},
  "bbox": [
    -107.23578,
    40.48581,
    -107.23578,
    40.48581
],
  "geometry": {"coordinates":[-107.23578000000001,40.48581],"type":"Point"}
}