{
  "id": 1125277079,
  "type": "Feature",
  "properties": {
    "edtf:cessation":"uuuu",
    "edtf:deprecated":"2017-11-04",
    "edtf:inception":"uuuu",
    "geom:area":0.0,
    "geom:area_square_m":0.0,
    "geom:bbox":"-87.35702,36.77488,-87.35702,36.77488",
    "geom:latitude":36.77488,
    "geom:longitude":-87.35702,
    "gn:gn_country":"US",
    "gn:gn_fcode":"ADMD",
    "gn:gn_pop":869,
    "gn:population":869,
    "iso:country":"US",
    "lbl:latitude":36.77488,
    "lbl:longitude":-87.35702,
    "mz:hierarchy_label":1,
    "mz:is_current":0,
    "mz:note":"Quattroshapes Point Gazetteer import 20170519",
    "qs_pg:aaroncc":"US",
    "qs_pg:gn_country":"US",
    "qs_pg:gn_fcode":"ADMD",
    "qs_pg:gn_id":7170051,
    "qs_pg:gn_pop":869,
    "qs_pg:name":"City of Pembroke",
    "qs_pg:photos_9r":0,
    "qs_pg:photos_sr":0,
    "qs_pg:pop_sr":2,
    "qs_pg:qs_id":662724,
    "qs_pg:qs_pg_placetype":"localadmin",
    "src:geom":"qs_pg",
    "src:lbl:centroid":"qs_pg",
    "src:population":"geonames",
    "wof:belongsto":[
        85633793
    ],
    "wof:breaches":[],
    "wof:concordances":{
        "gn:id":7170051,
        "qs_pg:id":662724
    },
    "wof:country":"US",
    "wof:created":1497042362,
    "wof:geomhash":"21e8394ca3c6615fe3741ac9f17b2422",
    "wof:hierarchy":[
        {
            "country_id":85633793,
            "localadmin_id":1125277079
        }
    ],
    "wof:id":1125277079,
    "wof:lastmodified":1509752427,
    "wof:name":"City of Pembroke",
    "wof:parent_id":-1,
    "wof:placetype":"localadmin",
    "wof:population":869,
    "wof:population_rank":2,
    "wof:repo":"whosonfirst-data-admin-us",
    "wof:superseded_by":[
        85946963
    ],
    "wof:supersedes":[],
    "wof:tags":[]
},
  "bbox": [
    -87.35702,
    36.77488,
    -87.35702,
    36.77488
],
  "geometry": {"coordinates":[-87.35702000000001,36.77488],"type":"Point"}
}