{
  "id": 1125309023,
  "type": "Feature",
  "properties": {
    "edtf:cessation":"2017-05-19",
    "edtf:inception":"uuuu",
    "geom:area":0.0,
    "geom:area_square_m":0.0,
    "geom:bbox":"-92.17019,45.32357,-92.17019,45.32357",
    "geom:latitude":45.32357,
    "geom:longitude":-92.17019,
    "gn:gn_country":"US",
    "gn:gn_fcode":"ADMD",
    "gn:gn_pop":571,
    "gn:population":571,
    "iso:country":"US",
    "lbl:latitude":45.32357,
    "lbl:longitude":-92.17019,
    "mz:hierarchy_label":1,
    "mz:is_current":0,
    "mz:note":"Quattroshapes Point Gazetteer import 20170519",
    "qs_pg:aaroncc":"US",
    "qs_pg:gn_country":"US",
    "qs_pg:gn_fcode":"ADMD",
    "qs_pg:gn_id":5248872,
    "qs_pg:gn_pop":571,
    "qs_pg:name":"Village of Clayton",
    "qs_pg:photos_9r":0,
    "qs_pg:photos_sr":0,
    "qs_pg:pop_sr":2,
    "qs_pg:qs_id":608978,
    "qs_pg:qs_pg_placetype":"localadmin",
    "src:geom":"qs_pg",
    "src:lbl:centroid":"qs_pg",
    "src:population":"geonames",
    "wof:belongsto":[
        85633793
    ],
    "wof:breaches":[],
    "wof:concordances":{
        "gn:id":5248872,
        "qs_pg:id":608978
    },
    "wof:country":"US",
    "wof:created":1497043868,
    "wof:geomhash":"a102c5b0570f0ac435a05bc82f11c312",
    "wof:hierarchy":[
        {
            "country_id":85633793,
            "localadmin_id":1125309023
        }
    ],
    "wof:id":1125309023,
    "wof:lastmodified":1505186987,
    "wof:name":"Village of Clayton",
    "wof:parent_id":-1,
    "wof:placetype":"localadmin",
    "wof:population":571,
    "wof:population_rank":2,
    "wof:repo":"whosonfirst-data-admin-us",
    "wof:superseded_by":[],
    "wof:supersedes":[],
    "wof:tags":[]
},
  "bbox": [
    -92.17019,
    45.32357,
    -92.17019,
    45.32357
],
  "geometry": {"coordinates":[-92.17019000000001,45.32357],"type":"Point"}
}