{
  "id": 1125317615,
  "type": "Feature",
  "properties": {
    "edtf:cessation":"2017-05-19",
    "edtf:inception":"uuuu",
    "geom:area":0.0,
    "geom:area_square_m":0.0,
    "geom:bbox":"-89.40894,39.84992,-89.40894,39.84992",
    "geom:latitude":39.84992,
    "geom:longitude":-89.40894,
    "gn:gn_country":"US",
    "gn:gn_fcode":"ADMD",
    "gn:gn_pop":503,
    "gn:population":503,
    "iso:country":"US",
    "lbl:latitude":39.84992,
    "lbl:longitude":-89.40894,
    "mz:hierarchy_label":1,
    "mz:is_current":0,
    "mz:note":"Quattroshapes Point Gazetteer import 20170519",
    "qs_pg:aaroncc":"US",
    "qs_pg:gn_country":"US",
    "qs_pg:gn_fcode":"ADMD",
    "qs_pg:gn_id":7165256,
    "qs_pg:gn_pop":503,
    "qs_pg:name":"Village of Buffalo",
    "qs_pg:photos_9r":0,
    "qs_pg:photos_sr":0,
    "qs_pg:pop_sr":2,
    "qs_pg:qs_id":660176,
    "qs_pg:qs_pg_placetype":"localadmin",
    "src:geom":"qs_pg",
    "src:lbl:centroid":"qs_pg",
    "src:population":"geonames",
    "wof:belongsto":[
        85633793
    ],
    "wof:breaches":[],
    "wof:concordances":{
        "gn:id":7165256,
        "qs_pg:id":660176
    },
    "wof:country":"US",
    "wof:created":1497044355,
    "wof:geomhash":"321f77b33722710f42e9d1bd5b210894",
    "wof:hierarchy":[
        {
            "country_id":85633793,
            "localadmin_id":1125317615
        }
    ],
    "wof:id":1125317615,
    "wof:lastmodified":1505187053,
    "wof:name":"Village of Buffalo",
    "wof:parent_id":-1,
    "wof:placetype":"localadmin",
    "wof:population":503,
    "wof:population_rank":2,
    "wof:repo":"whosonfirst-data-admin-us",
    "wof:superseded_by":[],
    "wof:supersedes":[],
    "wof:tags":[]
},
  "bbox": [
    -89.40894,
    39.84992,
    -89.40894,
    39.84992
],
  "geometry": {"coordinates":[-89.40894,39.84992],"type":"Point"}
}