{
  "id": 420559237,
  "type": "Feature",
  "properties": {
    "edtf:cessation":"uuuu",
    "edtf:inception":"uuuu",
    "geom:area":0.0,
    "geom:area_square_m":1107828.079256,
    "geom:bbox":"-83.388438,42.455898,-83.388438,42.455898",
    "geom:latitude":42.455898,
    "geom:longitude":-83.388438,
    "iso:country":"US",
    "lbl:latitude":42.455898,
    "lbl:longitude":-83.388438,
    "mz:hierarchy_label":0,
    "mz:is_current":-1,
    "src:geom":"mz",
    "src:geom_alt":[
        "zetashapes"
    ],
    "src:lbl:centroid":"mapshaper",
    "wof:belongsto":[
        85688599,
        102191575,
        404508187,
        85633793,
        85951999,
        102083713
    ],
    "wof:breaches":[],
    "wof:concordances":{
        "gp:id":56021845
    },
    "wof:country":"US",
    "wof:geomhash":"d3cca6616482a2abb243a1547b6df6f0",
    "wof:hierarchy":[
        {
            "continent_id":102191575,
            "country_id":85633793,
            "county_id":102083713,
            "localadmin_id":404508187,
            "locality_id":85951999,
            "neighbourhood_id":420559237,
            "region_id":85688599
        }
    ],
    "wof:id":420559237,
    "wof:lastmodified":1533614296,
    "wof:name":"",
    "wof:parent_id":85951999,
    "wof:placetype":"neighbourhood",
    "wof:repo":"whosonfirst-data-admin-us",
    "wof:superseded_by":[],
    "wof:supersedes":[],
    "wof:tags":[],
    "zs:26125:area_m":1107751.714691,
    "zs:26125:blockids":"261251685001002,261251685001000,261251685001003,261251686003003,261251651003021,261251685002008,261251686003001,261251685002009,261251685001004,261251685001005,261251685002012,261251651003012,261251685001020,261251651003009,261251685001006,261251685002011,261251651003020,261251685001001,261251651003014,261251685002010,261251686003002",
    "zs:26125:housing10":1163,
    "zs:26125:id":56021845,
    "zs:26125:label":"Alta-Loma",
    "zs:26125:pop10":1726,
    "zs:id":56021845,
    "zs:name":"Alta-Loma",
    "zs:placetype":"neighbourhood",
    "zs:us:counties":[
        "26125"
    ]
},
  "bbox": [
    -83.388438,
    42.455898,
    -83.388438,
    42.455898
],
  "geometry": {"coordinates":[-83.38843799999999,42.455898],"type":"Point"}
}