{
  "id": 1226053547,
  "type": "Feature",
  "properties": {
    "edtf:cessation":"uuuu",
    "edtf:inception":"uuuu",
    "geom:area":0.0,
    "geom:area_square_m":0.0,
    "geom:bbox":"-106.26054,31.62317,-106.26054,31.62317",
    "geom:latitude":31.62317,
    "geom:longitude":-106.26054,
    "gn:admin1_code":"TX",
    "gn:admin2_code":"141.0",
    "gn:asciiname":"Aljo Estates Colonia",
    "gn:country_code":"US",
    "gn:dem":1106,
    "gn:elevation":"1112.0",
    "gn:feature_class":"P",
    "gn:feature_code":"PPL",
    "gn:geonameid":5516158,
    "gn:latitude":31.62317,
    "gn:longitude":-106.26054,
    "gn:modification_date":"2006-01-15",
    "gn:name":"Aljo Estates Colonia",
    "gn:population":0,
    "gn:timezone":"America/Denver",
    "iso:country":"US",
    "mz:hierarchy_label":1,
    "mz:is_current":-1,
    "src:geom":"geonames",
    "wof:belongsto":[
        102191575,
        85633793,
        85688753,
        102085989
    ],
    "wof:breaches":[],
    "wof:concordances":{
        "gn:id":5516158
    },
    "wof:country":"US",
    "wof:geomhash":"d4918acdd7e6034f21fc5df34a79a30e",
    "wof:hierarchy":[
        {
            "continent_id":102191575,
            "country_id":85633793,
            "county_id":102085989,
            "locality_id":1226053547,
            "region_id":85688753
        }
    ],
    "wof:id":1226053547,
    "wof:lastmodified":1536714163,
    "wof:name":"Aljo Estates Colonia",
    "wof:parent_id":102085989,
    "wof:placetype":"locality",
    "wof:repo":"whosonfirst-data-admin-us",
    "wof:superseded_by":[],
    "wof:supersedes":[],
    "wof:tags":[]
},
  "bbox": [
    -106.26054,
    31.62317,
    -106.26054,
    31.62317
],
  "geometry": {"coordinates":[-106.26054000000001,31.62317],"type":"Point"}
}