{
  "id": 1293124929,
  "type": "Feature",
  "properties": {
    "edtf:cessation":"2018-09-06",
    "edtf:inception":"uuuu",
    "geom:area":0.0,
    "geom:area_square_m":0.0,
    "geom:bbox":"-89.29923,32.52181,-89.29923,32.52181",
    "geom:latitude":32.52181,
    "geom:longitude":-89.29923,
    "gn:admin1_code":"MS",
    "gn:admin2_code":"101.0",
    "gn:asciiname":"Greenfield (historical)",
    "gn:country_code":"US",
    "gn:dem":134,
    "gn:elevation":"134.0",
    "gn:feature_class":"P",
    "gn:feature_code":"PPLQ",
    "gn:geonameid":4428425,
    "gn:latitude":32.52181,
    "gn:longitude":-89.29923,
    "gn:modification_date":"2011-12-11",
    "gn:name":"Greenfield (historical)",
    "gn:population":0,
    "gn:timezone":"America/Chicago",
    "iso:country":"US",
    "mz:hierarchy_label":1,
    "mz:is_current":0,
    "src:geom":"geonames",
    "wof:belongsto":[
        102191575,
        85633793,
        85688579,
        102080631
    ],
    "wof:breaches":[],
    "wof:concordances":{
        "gn:id":4428425
    },
    "wof:country":"US",
    "wof:geomhash":"d2b837858ffe326b5d56f9c7135416b3",
    "wof:hierarchy":[
        {
            "continent_id":102191575,
            "country_id":85633793,
            "county_id":102080631,
            "locality_id":1293124929,
            "region_id":85688579
        }
    ],
    "wof:id":1293124929,
    "wof:lastmodified":1536812304,
    "wof:name":"Greenfield (historical)",
    "wof:parent_id":102080631,
    "wof:placetype":"locality",
    "wof:repo":"whosonfirst-data-admin-us",
    "wof:superseded_by":[],
    "wof:supersedes":[],
    "wof:tags":[]
},
  "bbox": [
    -89.29923000000002,
    32.52181,
    -89.29923000000002,
    32.52181
],
  "geometry": {"coordinates":[-89.29923000000002,32.52181],"type":"Point"}
}