{
  "id": 1259809467,
  "type": "Feature",
  "properties": {
    "edtf:cessation":"uuuu",
    "edtf:inception":"uuuu",
    "geom:area":0.0,
    "geom:area_square_m":0.0,
    "geom:bbox":"-86.63193,32.81902,-86.63193,32.81902",
    "geom:latitude":32.81902,
    "geom:longitude":-86.63193,
    "gn:admin1_code":"AL",
    "gn:admin2_code":"21.0",
    "gn:asciiname":"Samaria",
    "gn:country_code":"US",
    "gn:dem":189,
    "gn:elevation":"193.0",
    "gn:feature_class":"P",
    "gn:feature_code":"PPL",
    "gn:geonameid":4088333,
    "gn:latitude":32.81902,
    "gn:longitude":-86.63193,
    "gn:modification_date":"2006-01-15",
    "gn:name":"Samaria",
    "gn:population":0,
    "gn:timezone":"America/Chicago",
    "iso:country":"US",
    "mz:hierarchy_label":1,
    "mz:is_current":-1,
    "src:geom":"geonames",
    "wof:belongsto":[
        102191575,
        85633793,
        85688675,
        102085653
    ],
    "wof:breaches":[],
    "wof:concordances":{
        "gn:id":4088333
    },
    "wof:country":"US",
    "wof:geomhash":"edbaecb762c791c56d91c1d44680b743",
    "wof:hierarchy":[
        {
            "continent_id":102191575,
            "country_id":85633793,
            "county_id":102085653,
            "locality_id":1259809467,
            "region_id":85688675
        }
    ],
    "wof:id":1259809467,
    "wof:lastmodified":1536885390,
    "wof:name":"Samaria",
    "wof:parent_id":102085653,
    "wof:placetype":"locality",
    "wof:repo":"whosonfirst-data-admin-us",
    "wof:superseded_by":[],
    "wof:supersedes":[],
    "wof:tags":[]
},
  "bbox": [
    -86.63193000000003,
    32.81902,
    -86.63193000000003,
    32.81902
],
  "geometry": {"coordinates":[-86.63193000000003,32.81902],"type":"Point"}
}