{
  "id": 1125348195,
  "type": "Feature",
  "properties": {
    "edtf:cessation":"2017-05-19",
    "edtf:inception":"uuuu",
    "geom:area":0.0,
    "geom:area_square_m":0.0,
    "geom:bbox":"-87.65753,41.6648,-87.65753,41.6648",
    "geom:latitude":41.6648,
    "geom:longitude":-87.65753,
    "gn:gn_country":"US",
    "gn:gn_fcode":"ADMD",
    "gn:gn_pop":7835,
    "gn:population":7835,
    "iso:country":"US",
    "lbl:latitude":41.6648,
    "lbl:longitude":-87.65753,
    "mz:hierarchy_label":1,
    "mz:is_current":0,
    "mz:note":"Quattroshapes Point Gazetteer import 20170519",
    "qs_pg:aaroncc":"US",
    "qs_pg:gn_country":"US",
    "qs_pg:gn_fcode":"ADMD",
    "qs_pg:gn_id":7317467,
    "qs_pg:gn_pop":7835,
    "qs_pg:name":"Village of Calumet Park",
    "qs_pg:photos_9r":0,
    "qs_pg:photos_sr":0,
    "qs_pg:pop_sr":5,
    "qs_pg:qs_id":683482,
    "qs_pg:qs_pg_placetype":"localadmin",
    "src:geom":"qs_pg",
    "src:lbl:centroid":"qs_pg",
    "src:population":"geonames",
    "wof:belongsto":[
        85633793
    ],
    "wof:breaches":[],
    "wof:concordances":{
        "gn:id":7317467,
        "qs_pg:id":683482
    },
    "wof:country":"US",
    "wof:created":1497046042,
    "wof:geomhash":"fd6eacb45df69c8c0734d0c91fa01faf",
    "wof:hierarchy":[
        {
            "country_id":85633793,
            "localadmin_id":1125348195
        }
    ],
    "wof:id":1125348195,
    "wof:lastmodified":1505187172,
    "wof:name":"Village of Calumet Park",
    "wof:parent_id":-1,
    "wof:placetype":"localadmin",
    "wof:population":7835,
    "wof:population_rank":5,
    "wof:repo":"whosonfirst-data-admin-us",
    "wof:superseded_by":[],
    "wof:supersedes":[],
    "wof:tags":[]
},
  "bbox": [
    -87.65753,
    41.6648,
    -87.65753,
    41.6648
],
  "geometry": {"coordinates":[-87.65752999999999,41.6648],"type":"Point"}
}