{
  "id": 420553043,
  "type": "Feature",
  "properties": {
    "edtf:cessation":"uuuu",
    "edtf:inception":"uuuu",
    "geom:area":0.0,
    "geom:area_square_m":266839.373831,
    "geom:bbox":"-119.188633,34.227122,-119.188633,34.227122",
    "geom:latitude":34.227122,
    "geom:longitude":-119.188633,
    "iso:country":"US",
    "lbl:latitude":34.227122,
    "lbl:longitude":-119.188633,
    "mz:hierarchy_label":0,
    "mz:is_current":-1,
    "name:eng_x_preferred":[
        "Sierra Linda"
    ],
    "src:geom":"mz",
    "src:geom_alt":[
        "zetashapes"
    ],
    "src:lbl":"mapshaper",
    "src:lbl:centroid":"mapshaper",
    "src:population":"zetashapes",
    "wof:belongsto":[
        102191575,
        85633793,
        85923231,
        102086933,
        85688637
    ],
    "wof:breaches":[],
    "wof:concordances":{
        "gp:id":55860914
    },
    "wof:country":"US",
    "wof:geomhash":"44da01c3b403ed924119a185946b8d83",
    "wof:hierarchy":[
        {
            "continent_id":102191575,
            "country_id":85633793,
            "county_id":102086933,
            "locality_id":85923231,
            "neighbourhood_id":420553043,
            "region_id":85688637
        }
    ],
    "wof:id":420553043,
    "wof:lastmodified":1533613319,
    "wof:name":"Sierra Linda",
    "wof:parent_id":85923231,
    "wof:placetype":"neighbourhood",
    "wof:population":718,
    "wof:population_rank":2,
    "wof:repo":"whosonfirst-data-admin-us",
    "wof:superseded_by":[],
    "wof:supersedes":[],
    "wof:tags":[],
    "zs:area_m":266821.136247,
    "zs:blockids":[
        61110030131007,
        61110030111009,
        61110030111001,
        61110030131014,
        61110030111002,
        61110030131006,
        61110030111008,
        61110030111007,
        61110030131015,
        61110030111010,
        61110030131013,
        61110030131020
    ],
    "zs:housing10":193,
    "zs:id":55860914,
    "zs:label":"Sierra Linda",
    "zs:pop10":718
},
  "bbox": [
    -119.188633,
    34.227122,
    -119.188633,
    34.227122
],
  "geometry": {"coordinates":[-119.188633,34.227122],"type":"Point"}
}