{
  "id": 1327055863,
  "type": "Feature",
  "properties": {
    "edtf:cessation":"uuuu",
    "edtf:inception":"uuuu",
    "geom:area":0.0,
    "geom:area_square_m":0.0,
    "geom:bbox":"-90.00813,29.7341,-90.00813,29.7341",
    "geom:latitude":29.7341,
    "geom:longitude":-90.00813,
    "gn:admin1_code":"LA",
    "gn:admin2_code":"75.0",
    "gn:asciiname":"Star",
    "gn:country_code":"US",
    "gn:dem":2,
    "gn:elevation":"2.0",
    "gn:feature_class":"P",
    "gn:feature_code":"PPL",
    "gn:geonameid":4342516,
    "gn:latitude":29.7341,
    "gn:longitude":-90.00813,
    "gn:modification_date":"2006-01-15",
    "gn:name":"Star",
    "gn:population":0,
    "gn:timezone":"America/Chicago",
    "iso:country":"US",
    "mz:hierarchy_label":1,
    "mz:is_current":-1,
    "src:geom":"geonames",
    "wof:belongsto":[
        102191575,
        85633793,
        85688735,
        102082451
    ],
    "wof:breaches":[],
    "wof:concordances":{
        "gn:id":4342516
    },
    "wof:country":"US",
    "wof:geomhash":"f561011e9ffe7957d3656333493b997e",
    "wof:hierarchy":[
        {
            "continent_id":102191575,
            "country_id":85633793,
            "county_id":102082451,
            "locality_id":1327055863,
            "region_id":85688735
        }
    ],
    "wof:id":1327055863,
    "wof:lastmodified":1536726978,
    "wof:name":"Star",
    "wof:parent_id":102082451,
    "wof:placetype":"locality",
    "wof:repo":"whosonfirst-data-admin-us",
    "wof:superseded_by":[],
    "wof:supersedes":[],
    "wof:tags":[]
},
  "bbox": [
    -90.00813000000002,
    29.7341,
    -90.00813000000002,
    29.7341
],
  "geometry": {"coordinates":[-90.00813000000002,29.7341],"type":"Point"}
}