{
  "id": 1259708141,
  "type": "Feature",
  "properties": {
    "edtf:cessation":"uuuu",
    "edtf:inception":"uuuu",
    "geom:area":0.0,
    "geom:area_square_m":0.0,
    "geom:bbox":"-79.11782,33.691,-79.11782,33.691",
    "geom:latitude":33.691,
    "geom:longitude":-79.11782,
    "gn:admin1_code":"SC",
    "gn:admin2_code":"51.0",
    "gn:asciiname":"Klondike",
    "gn:country_code":"US",
    "gn:dem":0,
    "gn:elevation":"4.0",
    "gn:feature_class":"P",
    "gn:feature_code":"PPL",
    "gn:geonameid":4584188,
    "gn:latitude":33.691,
    "gn:longitude":-79.11782,
    "gn:modification_date":"2006-01-15",
    "gn:name":"Klondike",
    "gn:population":0,
    "gn:timezone":"America/New_York",
    "iso:country":"US",
    "mz:hierarchy_label":1,
    "mz:is_current":-1,
    "name:eng_x_preferred":[
        "Klondike"
    ],
    "name:und_x_variant":[
        "Klondyke",
        "Klondike Crossroads"
    ],
    "src:geom":"geonames",
    "wof:belongsto":[
        102191575,
        85633793,
        85688683,
        102085687
    ],
    "wof:breaches":[],
    "wof:concordances":{
        "gn:id":4584188
    },
    "wof:country":"US",
    "wof:geomhash":"bad697746e013cfafe80f928aeb5a738",
    "wof:hierarchy":[
        {
            "continent_id":102191575,
            "country_id":85633793,
            "county_id":102085687,
            "locality_id":1259708141,
            "region_id":85688683
        }
    ],
    "wof:id":1259708141,
    "wof:lastmodified":1537712594,
    "wof:name":"Klondike",
    "wof:parent_id":102085687,
    "wof:placetype":"locality",
    "wof:repo":"whosonfirst-data-admin-us",
    "wof:superseded_by":[],
    "wof:supersedes":[],
    "wof:tags":[]
},
  "bbox": [
    -79.11782,
    33.691,
    -79.11782,
    33.691
],
  "geometry": {"coordinates":[-79.11781999999999,33.691],"type":"Point"}
}