{
  "id": 420519435,
  "type": "Feature",
  "properties": {
    "edtf:cessation":"uuuu",
    "edtf:inception":"uuuu",
    "geom:area":0.0,
    "geom:area_square_m":88126.206627,
    "geom:bbox":"-85.140316,41.03062,-85.140316,41.03062",
    "geom:latitude":41.03062,
    "geom:longitude":-85.140316,
    "iso:country":"US",
    "lbl:latitude":41.03062,
    "lbl:longitude":-85.140316,
    "mz:hierarchy_label":0,
    "mz:is_current":-1,
    "name:eng_x_preferred":[
        "Lincolnshire"
    ],
    "src:geom":"mz",
    "src:geom_alt":[
        "quattroshapes_pg",
        "zetashapes"
    ],
    "src:lbl":"mapshaper",
    "src:lbl:centroid":"mapshaper",
    "src:population":"zetashapes",
    "wof:belongsto":[
        85688709,
        102191575,
        404501177,
        85633793,
        85942149,
        102087177
    ],
    "wof:breaches":[],
    "wof:concordances":{
        "gn:id":4922826,
        "gp:id":2439602,
        "qs_pg:id":988906
    },
    "wof:country":"US",
    "wof:geomhash":"3a3b2a9d3da62f87a02848345f6a5bd4",
    "wof:hierarchy":[
        {
            "continent_id":102191575,
            "country_id":85633793,
            "county_id":102087177,
            "localadmin_id":404501177,
            "locality_id":85942149,
            "neighbourhood_id":420519435,
            "region_id":85688709
        }
    ],
    "wof:id":420519435,
    "wof:lastmodified":1533594041,
    "wof:name":"Lincolnshire",
    "wof:parent_id":85942149,
    "wof:placetype":"neighbourhood",
    "wof:population":160,
    "wof:population_rank":1,
    "wof:repo":"whosonfirst-data-admin-us",
    "wof:superseded_by":[],
    "wof:supersedes":[],
    "wof:tags":[],
    "zs:area_m":88120.143245,
    "zs:blockids":[
        180030036003001,
        180030036003002
    ],
    "zs:housing10":59,
    "zs:id":2439602,
    "zs:label":"Lincolnshire",
    "zs:pop10":160
},
  "bbox": [
    -85.140316,
    41.03062,
    -85.140316,
    41.03062
],
  "geometry": {"coordinates":[-85.140316,41.03062],"type":"Point"}
}