{
  "id": 1125416783,
  "type": "Feature",
  "properties": {
    "edtf:cessation":"uuuu",
    "edtf:deprecated":"2017-11-04",
    "edtf:inception":"uuuu",
    "geom:area":0.0,
    "geom:area_square_m":0.0,
    "geom:bbox":"-101.48015,32.2387,-101.48015,32.2387",
    "geom:latitude":32.2387,
    "geom:longitude":-101.48015,
    "gn:gn_country":"US",
    "gn:gn_fcode":"ADMD",
    "gn:gn_pop":27282,
    "gn:population":27282,
    "iso:country":"US",
    "lbl:latitude":32.2387,
    "lbl:longitude":-101.48015,
    "mz:hierarchy_label":1,
    "mz:is_current":0,
    "mz:note":"Quattroshapes Point Gazetteer import 20170519",
    "qs_pg:aaroncc":"US",
    "qs_pg:gn_country":"US",
    "qs_pg:gn_fcode":"ADMD",
    "qs_pg:gn_id":7173021,
    "qs_pg:gn_pop":27282,
    "qs_pg:name":"City of Big Spring",
    "qs_pg:photos_9r":0,
    "qs_pg:photos_sr":0,
    "qs_pg:pop_sr":7,
    "qs_pg:qs_id":665583,
    "qs_pg:qs_pg_placetype":"localadmin",
    "src:geom":"qs_pg",
    "src:lbl:centroid":"qs_pg",
    "src:population":"geonames",
    "wof:belongsto":[
        85633793
    ],
    "wof:breaches":[],
    "wof:concordances":{
        "gn:id":7173021,
        "qs_pg:id":665583
    },
    "wof:country":"US",
    "wof:created":1497051488,
    "wof:geomhash":"f3291ecc6ff2cd7980b11f30a9f49daf",
    "wof:hierarchy":[
        {
            "country_id":85633793,
            "localadmin_id":1125416783
        }
    ],
    "wof:id":1125416783,
    "wof:lastmodified":1509752747,
    "wof:name":"City of Big Spring",
    "wof:parent_id":-1,
    "wof:placetype":"localadmin",
    "wof:population":27282,
    "wof:population_rank":7,
    "wof:repo":"whosonfirst-data-admin-us",
    "wof:superseded_by":[
        101725545
    ],
    "wof:supersedes":[],
    "wof:tags":[]
},
  "bbox": [
    -101.48015,
    32.2387,
    -101.48015,
    32.2387
],
  "geometry": {"coordinates":[-101.48014999999999,32.2387],"type":"Point"}
}