{
  "id": 1126061849,
  "type": "Feature",
  "properties": {
    "edtf:cessation":"uuuu",
    "edtf:deprecated":"2018-08-15",
    "edtf:inception":"uuuu",
    "edtf:superseded":"2018-08-15",
    "geom:area":0.0,
    "geom:area_square_m":0.0,
    "geom:bbox":"-77.4407,38.3167,-77.4407,38.3167",
    "geom:latitude":38.3167,
    "geom:longitude":-77.4407,
    "gn:gn_country":"US",
    "gn:gn_fcode":"PPL",
    "gn:gn_pop":0,
    "iso:country":"US",
    "lbl:latitude":38.3167,
    "lbl:longitude":-77.4407,
    "mz:hierarchy_label":1,
    "mz:is_current":0,
    "mz:note":"Quattroshapes Point Gazetteer import 20170519",
    "qs_pg:aaroncc":"US",
    "qs_pg:gn_country":"US",
    "qs_pg:gn_fcode":"PPL",
    "qs_pg:gn_id":7198442,
    "qs_pg:gn_pop":0,
    "qs_pg:name":"Ridge Pointe",
    "qs_pg:name_adm0":"United States",
    "qs_pg:name_adm1":"Virginia",
    "qs_pg:photos":110,
    "qs_pg:photos_1k":22,
    "qs_pg:photos_9k":1,
    "qs_pg:photos_9r":3,
    "qs_pg:photos_all":110,
    "qs_pg:photos_sr":3,
    "qs_pg:pop_sr":0,
    "qs_pg:qs_id":907667,
    "qs_pg:qs_pg_placetype":"neighbourhood",
    "qs_pg:qs_pg_placetype_gp":"Suburb",
    "qs_pg:woe_adm0":23424977,
    "qs_pg:woe_id":55995258,
    "src:geom":"qs_pg",
    "src:lbl:centroid":"qs_pg",
    "woe:adm0_id":23424977,
    "woe:name_adm0":"United States",
    "woe:name_adm1":"Virginia",
    "woe:placetype":"Suburb",
    "wof:belongsto":[
        85688747,
        102191575,
        85633793,
        102081931
    ],
    "wof:breaches":[],
    "wof:concordances":{
        "gn:id":7198442,
        "gp:id":55995258,
        "qs_pg:id":907667
    },
    "wof:country":"US",
    "wof:created":1497308273,
    "wof:geomhash":"53c79c5c842f283af5923570b614afca",
    "wof:hierarchy":[
        {
            "continent_id":102191575,
            "country_id":85633793,
            "county_id":102081931,
            "locality_id":-1,
            "neighbourhood_id":1126061849,
            "region_id":85688747
        }
    ],
    "wof:id":1126061849,
    "wof:lastmodified":1534379710,
    "wof:name":"Ridge Pointe",
    "wof:parent_id":-1,
    "wof:placetype":"neighbourhood",
    "wof:repo":"whosonfirst-data-admin-us",
    "wof:superseded_by":[
        420547245
    ],
    "wof:supersedes":[],
    "wof:tags":[]
},
  "bbox": [
    -77.4407,
    38.3167,
    -77.4407,
    38.3167
],
  "geometry": {"coordinates":[-77.44070000000001,38.3167],"type":"Point"}
}