{
  "id": 1242697031,
  "type": "Feature",
  "properties": {
    "edtf:cessation":"2018-09-06",
    "edtf:inception":"uuuu",
    "geom:area":0.0,
    "geom:area_square_m":0.0,
    "geom:bbox":"-83.24355,38.20341,-83.24355,38.20341",
    "geom:latitude":38.20341,
    "geom:longitude":-83.24355,
    "gn:admin1_code":"KY",
    "gn:admin2_code":"043",
    "gn:asciiname":"Globe Community (historical)",
    "gn:country_code":"US",
    "gn:dem":319,
    "gn:elevation":"312.0",
    "gn:feature_class":"P",
    "gn:feature_code":"PPLQ",
    "gn:geonameid":7140995,
    "gn:latitude":38.20341,
    "gn:longitude":-83.24355,
    "gn:modification_date":"2014-10-08",
    "gn:name":"Globe Community (historical)",
    "gn:population":0,
    "gn:timezone":"America/New_York",
    "iso:country":"US",
    "mz:hierarchy_label":1,
    "mz:is_current":0,
    "src:geom":"geonames",
    "wof:belongsto":[
        102191575,
        85633793,
        85688641,
        102084617
    ],
    "wof:breaches":[],
    "wof:concordances":{
        "gn:id":7140995
    },
    "wof:country":"US",
    "wof:geomhash":"57289c23a764f9d91d4c15eb609517dc",
    "wof:hierarchy":[
        {
            "continent_id":102191575,
            "country_id":85633793,
            "county_id":102084617,
            "locality_id":1242697031,
            "region_id":85688641
        }
    ],
    "wof:id":1242697031,
    "wof:lastmodified":1536891413,
    "wof:name":"Globe Community (historical)",
    "wof:parent_id":102084617,
    "wof:placetype":"locality",
    "wof:repo":"whosonfirst-data-admin-us",
    "wof:superseded_by":[],
    "wof:supersedes":[],
    "wof:tags":[]
},
  "bbox": [
    -83.24355,
    38.20341,
    -83.24355,
    38.20341
],
  "geometry": {"coordinates":[-83.24355,38.20341],"type":"Point"}
}