{
  "id": 1226062241,
  "type": "Feature",
  "properties": {
    "edtf:cessation":"uuuu",
    "edtf:inception":"uuuu",
    "geom:area":0.0,
    "geom:area_square_m":0.0,
    "geom:bbox":"-84.11519,32.33571,-84.11519,32.33571",
    "geom:latitude":32.33571,
    "geom:longitude":-84.11519,
    "gn:admin1_code":"GA",
    "gn:admin2_code":"193.0",
    "gn:asciiname":"Bartlett",
    "gn:country_code":"US",
    "gn:dem":110,
    "gn:elevation":"105.0",
    "gn:feature_class":"P",
    "gn:feature_code":"PPL",
    "gn:geonameid":4181201,
    "gn:latitude":32.33571,
    "gn:longitude":-84.11519,
    "gn:modification_date":"2010-02-15",
    "gn:name":"Bartlett",
    "gn:population":0,
    "gn:timezone":"America/New_York",
    "iso:country":"US",
    "mz:hierarchy_label":1,
    "mz:is_current":-1,
    "src:geom":"geonames",
    "wof:belongsto":[
        102191575,
        85633793,
        85688535,
        102084475
    ],
    "wof:breaches":[],
    "wof:concordances":{
        "gn:id":4181201
    },
    "wof:country":"US",
    "wof:geomhash":"59d8052c15d1f1e41485b63a400e09fa",
    "wof:hierarchy":[
        {
            "continent_id":102191575,
            "country_id":85633793,
            "county_id":102084475,
            "locality_id":1226062241,
            "region_id":85688535
        }
    ],
    "wof:id":1226062241,
    "wof:lastmodified":1536701687,
    "wof:name":"Bartlett",
    "wof:parent_id":102084475,
    "wof:placetype":"locality",
    "wof:repo":"whosonfirst-data-admin-us",
    "wof:superseded_by":[],
    "wof:supersedes":[],
    "wof:tags":[]
},
  "bbox": [
    -84.11519,
    32.33571,
    -84.11519,
    32.33571
],
  "geometry": {"coordinates":[-84.11519,32.33571],"type":"Point"}
}