{
  "id": 1226168569,
  "type": "Feature",
  "properties": {
    "edtf:cessation":"2018-09-07",
    "edtf:inception":"uuuu",
    "geom:area":0.0,
    "geom:area_square_m":0.0,
    "geom:bbox":"-90.02341,30.34408,-90.02341,30.34408",
    "geom:latitude":30.34408,
    "geom:longitude":-90.02341,
    "gn:admin1_code":"LA",
    "gn:admin2_code":"103.0",
    "gn:asciiname":"Nott (historical)",
    "gn:country_code":"US",
    "gn:dem":8,
    "gn:elevation":"5.0",
    "gn:feature_class":"P",
    "gn:feature_code":"PPLQ",
    "gn:geonameid":4335638,
    "gn:latitude":30.34408,
    "gn:longitude":-90.02341,
    "gn:modification_date":"2011-12-12",
    "gn:name":"Nott (historical)",
    "gn:population":0,
    "gn:timezone":"America/Chicago",
    "iso:country":"US",
    "mz:hierarchy_label":1,
    "mz:is_current":0,
    "src:geom":"geonames",
    "wof:belongsto":[
        102191575,
        85633793,
        85688735,
        102082453
    ],
    "wof:breaches":[],
    "wof:concordances":{
        "gn:id":4335638
    },
    "wof:country":"US",
    "wof:geomhash":"f45756e81e1d86fb585d37d4de36210e",
    "wof:hierarchy":[
        {
            "continent_id":102191575,
            "country_id":85633793,
            "county_id":102082453,
            "locality_id":1226168569,
            "region_id":85688735
        }
    ],
    "wof:id":1226168569,
    "wof:lastmodified":1537043056,
    "wof:name":"Nott (historical)",
    "wof:parent_id":102082453,
    "wof:placetype":"locality",
    "wof:repo":"whosonfirst-data-admin-us",
    "wof:superseded_by":[],
    "wof:supersedes":[],
    "wof:tags":[]
},
  "bbox": [
    -90.02341,
    30.34408,
    -90.02341,
    30.34408
],
  "geometry": {"coordinates":[-90.02341,30.34408],"type":"Point"}
}