{
  "id": 1125865373,
  "type": "Feature",
  "properties": {
    "edtf:cessation":"uuuu",
    "edtf:inception":"uuuu",
    "geom:area":0.0,
    "geom:area_square_m":0.0,
    "geom:bbox":"-122.500991,44.487076,-122.500991,44.487076",
    "geom:latitude":44.487076,
    "geom:longitude":-122.500991,
    "gn:gn_country":null,
    "iso:country":"US",
    "lbl:latitude":44.487076,
    "lbl:longitude":-122.500991,
    "mz:hierarchy_label":1,
    "mz:is_current":-1,
    "mz:note":"Quattroshapes Point Gazetteer import 20170519",
    "qs_pg:aaroncc":"US",
    "qs_pg:gn_country":null,
    "qs_pg:name":"Roberts",
    "qs_pg:name_adm0":"United States",
    "qs_pg:name_adm1":"Oregon",
    "qs_pg:photos":185,
    "qs_pg:photos_1k":37,
    "qs_pg:photos_9k":1,
    "qs_pg:photos_9r":4,
    "qs_pg:photos_all":185,
    "qs_pg:photos_sr":4,
    "qs_pg:pop_sr":0,
    "qs_pg:qs_id":824913,
    "qs_pg:qs_pg_placetype":"locality",
    "qs_pg:qs_pg_placetype_gp":"Town",
    "qs_pg:woe_adm0":23424977,
    "qs_pg:woe_id":2482691,
    "src:geom":"qs_pg",
    "src:lbl:centroid":"qs_pg",
    "woe:adm0_id":23424977,
    "woe:name_adm0":"United States",
    "woe:name_adm1":"Oregon",
    "woe:placetype":"Town",
    "wof:belongsto":[
        102191575,
        85633793,
        85688513,
        102081639
    ],
    "wof:breaches":[],
    "wof:concordances":{
        "gp:id":2482691,
        "qs_pg:id":824913
    },
    "wof:country":"US",
    "wof:created":1497294012,
    "wof:geomhash":"a514af38df05774480eda201b1b6efcf",
    "wof:hierarchy":[
        {
            "continent_id":102191575,
            "country_id":85633793,
            "county_id":102081639,
            "locality_id":1125865373,
            "region_id":85688513
        }
    ],
    "wof:id":1125865373,
    "wof:lastmodified":1509396935,
    "wof:name":"Roberts",
    "wof:parent_id":102081639,
    "wof:placetype":"locality",
    "wof:repo":"whosonfirst-data-admin-us",
    "wof:superseded_by":[],
    "wof:supersedes":[],
    "wof:tags":[]
},
  "bbox": [
    -122.500991,
    44.487076,
    -122.500991,
    44.487076
],
  "geometry": {"coordinates":[-122.500991,44.487076],"type":"Point"}
}