{
  "id": 1260312163,
  "type": "Feature",
  "properties": {
    "edtf:cessation":"uuuu",
    "edtf:inception":"uuuu",
    "geom:area":0.0,
    "geom:area_square_m":0.0,
    "geom:bbox":"-89.33563,35.72174,-89.33563,35.72174",
    "geom:latitude":35.72174,
    "geom:longitude":-89.33563,
    "gn:admin1_code":"TN",
    "gn:admin2_code":"75.0",
    "gn:asciiname":"Shaw",
    "gn:country_code":"US",
    "gn:dem":93,
    "gn:elevation":"94.0",
    "gn:feature_class":"P",
    "gn:feature_code":"PPL",
    "gn:geonameid":4656941,
    "gn:latitude":35.72174,
    "gn:longitude":-89.33563,
    "gn:modification_date":"2006-01-15",
    "gn:name":"Shaw",
    "gn:population":0,
    "gn:timezone":"America/Chicago",
    "iso:country":"US",
    "mz:hierarchy_label":1,
    "mz:is_current":-1,
    "name:eng_x_preferred":[
        "Shaw"
    ],
    "name:und_x_variant":[
        "Shaws"
    ],
    "src:geom":"geonames",
    "wof:belongsto":[
        102191575,
        85633793,
        85688701,
        102087147
    ],
    "wof:breaches":[],
    "wof:concordances":{
        "gn:id":4656941
    },
    "wof:country":"US",
    "wof:geomhash":"92f10f1b35fcf0f1a69b391c82696589",
    "wof:hierarchy":[
        {
            "continent_id":102191575,
            "country_id":85633793,
            "county_id":102087147,
            "locality_id":1260312163,
            "region_id":85688701
        }
    ],
    "wof:id":1260312163,
    "wof:lastmodified":1537712642,
    "wof:name":"Shaw",
    "wof:parent_id":102087147,
    "wof:placetype":"locality",
    "wof:repo":"whosonfirst-data-admin-us",
    "wof:superseded_by":[],
    "wof:supersedes":[],
    "wof:tags":[]
},
  "bbox": [
    -89.33563000000002,
    35.72174000000001,
    -89.33563000000002,
    35.72174000000001
],
  "geometry": {"coordinates":[-89.33563000000002,35.72174000000001],"type":"Point"}
}