{
  "id": 1125342067,
  "type": "Feature",
  "properties": {
    "edtf:cessation":"uuuu",
    "edtf:deprecated":"2017-11-04",
    "edtf:inception":"uuuu",
    "geom:area":0.0,
    "geom:area_square_m":0.0,
    "geom:bbox":"-94.0983,41.84128,-94.0983,41.84128",
    "geom:latitude":41.84128,
    "geom:longitude":-94.0983,
    "gn:gn_country":"US",
    "gn:gn_fcode":"ADMD",
    "gn:gn_pop":7702,
    "gn:population":7702,
    "iso:country":"US",
    "lbl:latitude":41.84128,
    "lbl:longitude":-94.0983,
    "mz:hierarchy_label":1,
    "mz:is_current":0,
    "mz:note":"Quattroshapes Point Gazetteer import 20170519",
    "qs_pg:aaroncc":"US",
    "qs_pg:gn_country":"US",
    "qs_pg:gn_fcode":"ADMD",
    "qs_pg:gn_id":7164334,
    "qs_pg:gn_pop":7702,
    "qs_pg:name":"City of Perry",
    "qs_pg:photos_9r":0,
    "qs_pg:photos_sr":0,
    "qs_pg:pop_sr":5,
    "qs_pg:qs_id":659306,
    "qs_pg:qs_pg_placetype":"localadmin",
    "src:geom":"qs_pg",
    "src:lbl:centroid":"qs_pg",
    "src:population":"geonames",
    "wof:belongsto":[
        85633793
    ],
    "wof:breaches":[],
    "wof:concordances":{
        "gn:id":7164334,
        "qs_pg:id":659306
    },
    "wof:country":"US",
    "wof:created":1497045717,
    "wof:geomhash":"dd5aa11dcefa9c9b5584b81af5d92fa0",
    "wof:hierarchy":[
        {
            "country_id":85633793,
            "localadmin_id":1125342067
        }
    ],
    "wof:id":1125342067,
    "wof:lastmodified":1509752574,
    "wof:name":"City of Perry",
    "wof:parent_id":-1,
    "wof:placetype":"localadmin",
    "wof:population":7702,
    "wof:population_rank":5,
    "wof:repo":"whosonfirst-data-admin-us",
    "wof:superseded_by":[
        85943543
    ],
    "wof:supersedes":[],
    "wof:tags":[]
},
  "bbox": [
    -94.0983,
    41.84128,
    -94.0983,
    41.84128
],
  "geometry": {"coordinates":[-94.09829999999999,41.84128],"type":"Point"}
}