{
  "id": 1343272951,
  "type": "Feature",
  "properties": {
    "edtf:cessation":"uuuu",
    "edtf:inception":"uuuu",
    "geom:area":0.0,
    "geom:area_square_m":0.0,
    "geom:bbox":"-90.09064,33.31374,-90.09064,33.31374",
    "geom:latitude":33.31374,
    "geom:longitude":-90.09064,
    "gn:admin1_code":"MS",
    "gn:admin2_code":"15.0",
    "gn:asciiname":"Adair",
    "gn:country_code":"US",
    "gn:dem":106,
    "gn:elevation":"104.0",
    "gn:feature_class":"P",
    "gn:feature_code":"PPL",
    "gn:geonameid":4415904,
    "gn:latitude":33.31374,
    "gn:longitude":-90.09064,
    "gn:modification_date":"2010-02-16",
    "gn:name":"Adair",
    "gn:population":0,
    "gn:timezone":"America/Chicago",
    "iso:country":"US",
    "mz:hierarchy_label":1,
    "mz:is_current":-1,
    "src:geom":"geonames",
    "wof:belongsto":[
        102191575,
        85633793,
        85688579,
        102086663
    ],
    "wof:breaches":[],
    "wof:concordances":{
        "gn:id":4415904
    },
    "wof:country":"US",
    "wof:geomhash":"5bbc1510d4691e99097ec3a333de19ac",
    "wof:hierarchy":[
        {
            "continent_id":102191575,
            "country_id":85633793,
            "county_id":102086663,
            "locality_id":1343272951,
            "region_id":85688579
        }
    ],
    "wof:id":1343272951,
    "wof:lastmodified":1537016100,
    "wof:name":"Adair",
    "wof:parent_id":102086663,
    "wof:placetype":"locality",
    "wof:repo":"whosonfirst-data-admin-us",
    "wof:superseded_by":[],
    "wof:supersedes":[],
    "wof:tags":[]
},
  "bbox": [
    -90.09064,
    33.31374,
    -90.09064,
    33.31374
],
  "geometry": {"coordinates":[-90.09063999999999,33.31374],"type":"Point"}
}