{
  "id": 1243083287,
  "type": "Feature",
  "properties": {
    "edtf:cessation":"uuuu",
    "edtf:inception":"uuuu",
    "geom:area":0.0,
    "geom:area_square_m":0.0,
    "geom:bbox":"-87.78476,34.4551,-87.78476,34.4551",
    "geom:latitude":34.4551,
    "geom:longitude":-87.78476,
    "gn:admin1_code":"AL",
    "gn:admin2_code":"59.0",
    "gn:asciiname":"Rockwood",
    "gn:country_code":"US",
    "gn:dem":213,
    "gn:elevation":"211.0",
    "gn:feature_class":"P",
    "gn:feature_code":"PPL",
    "gn:geonameid":4086672,
    "gn:latitude":34.4551,
    "gn:longitude":-87.78476,
    "gn:modification_date":"2010-02-14",
    "gn:name":"Rockwood",
    "gn:population":0,
    "gn:timezone":"America/Chicago",
    "iso:country":"US",
    "mz:hierarchy_label":1,
    "mz:is_current":-1,
    "src:geom":"geonames",
    "wof:belongsto":[
        102191575,
        85633793,
        85688675,
        102085511
    ],
    "wof:breaches":[],
    "wof:concordances":{
        "gn:id":4086672
    },
    "wof:country":"US",
    "wof:geomhash":"fc1bd9f52a6d9e9a0a39724037bd575a",
    "wof:hierarchy":[
        {
            "continent_id":102191575,
            "country_id":85633793,
            "county_id":102085511,
            "locality_id":1243083287,
            "region_id":85688675
        }
    ],
    "wof:id":1243083287,
    "wof:lastmodified":1536830975,
    "wof:name":"Rockwood",
    "wof:parent_id":102085511,
    "wof:placetype":"locality",
    "wof:repo":"whosonfirst-data-admin-us",
    "wof:superseded_by":[],
    "wof:supersedes":[],
    "wof:tags":[]
},
  "bbox": [
    -87.78475999999998,
    34.4551,
    -87.78475999999998,
    34.4551
],
  "geometry": {"coordinates":[-87.78475999999998,34.4551],"type":"Point"}
}