{
  "id": 1276244567,
  "type": "Feature",
  "properties": {
    "edtf:cessation":"2018-09-07",
    "edtf:inception":"uuuu",
    "geom:area":0.0,
    "geom:area_square_m":0.0,
    "geom:bbox":"-107.00144,38.34555,-107.00144,38.34555",
    "geom:latitude":38.34555,
    "geom:longitude":-107.00144,
    "gn:admin1_code":"CO",
    "gn:admin2_code":"51",
    "gn:asciiname":"Vulcan (historical)",
    "gn:country_code":"US",
    "gn:dem":2720,
    "gn:elevation":"2720.0",
    "gn:feature_class":"P",
    "gn:feature_code":"PPLQ",
    "gn:geonameid":5443082,
    "gn:latitude":38.34555,
    "gn:longitude":-107.00144,
    "gn:modification_date":"2011-12-11",
    "gn:name":"Vulcan (historical)",
    "gn:population":0,
    "gn:timezone":"America/Denver",
    "iso:country":"US",
    "mz:hierarchy_label":1,
    "mz:is_current":0,
    "name:eng_x_preferred":[
        "Vulcan (historical)"
    ],
    "name:und_x_variant":[
        "Yulcan"
    ],
    "src:geom":"geonames",
    "wof:belongsto":[
        102191575,
        85633793,
        85688603,
        102083377
    ],
    "wof:breaches":[],
    "wof:concordances":{
        "gn:id":5443082
    },
    "wof:country":"US",
    "wof:geomhash":"c3be6208dc89ae46be7c83652874ef8a",
    "wof:hierarchy":[
        {
            "continent_id":102191575,
            "country_id":85633793,
            "county_id":102083377,
            "locality_id":1276244567,
            "region_id":85688603
        }
    ],
    "wof:id":1276244567,
    "wof:lastmodified":1537713029,
    "wof:name":"Vulcan (historical)",
    "wof:parent_id":102083377,
    "wof:placetype":"locality",
    "wof:repo":"whosonfirst-data-admin-us",
    "wof:superseded_by":[],
    "wof:supersedes":[],
    "wof:tags":[]
},
  "bbox": [
    -107.00144,
    38.34555,
    -107.00144,
    38.34555
],
  "geometry": {"coordinates":[-107.00144,38.34555],"type":"Point"}
}