{
  "id": 1259699717,
  "type": "Feature",
  "properties": {
    "edtf:cessation":"2018-09-07",
    "edtf:inception":"uuuu",
    "geom:area":0.0,
    "geom:area_square_m":0.0,
    "geom:bbox":"-83.75833,38.13556,-83.75833,38.13556",
    "geom:latitude":38.13556,
    "geom:longitude":-83.75833,
    "gn:admin1_code":"KY",
    "gn:admin2_code":"127",
    "gn:asciiname":"Needmore (historical)",
    "gn:country_code":"US",
    "gn:dem":249,
    "gn:elevation":"239.0",
    "gn:feature_class":"P",
    "gn:feature_code":"PPLQ",
    "gn:geonameid":7131304,
    "gn:latitude":38.13556,
    "gn:longitude":-83.75833,
    "gn:modification_date":"2014-10-08",
    "gn:name":"Needmore (historical)",
    "gn:population":0,
    "gn:timezone":"America/New_York",
    "iso:country":"US",
    "mz:hierarchy_label":1,
    "mz:is_current":0,
    "src:geom":"geonames",
    "wof:belongsto":[
        102191575,
        85633793,
        85688641,
        102084623
    ],
    "wof:breaches":[],
    "wof:concordances":{
        "gn:id":7131304
    },
    "wof:country":"US",
    "wof:geomhash":"f2e00b3c3a13f7a0cef58534fbd565bd",
    "wof:hierarchy":[
        {
            "continent_id":102191575,
            "country_id":85633793,
            "county_id":102084623,
            "locality_id":1259699717,
            "region_id":85688641
        }
    ],
    "wof:id":1259699717,
    "wof:lastmodified":1537041863,
    "wof:name":"Needmore (historical)",
    "wof:parent_id":102084623,
    "wof:placetype":"locality",
    "wof:repo":"whosonfirst-data-admin-us",
    "wof:superseded_by":[],
    "wof:supersedes":[],
    "wof:tags":[]
},
  "bbox": [
    -83.75833,
    38.13556,
    -83.75833,
    38.13556
],
  "geometry": {"coordinates":[-83.75833,38.13556],"type":"Point"}
}