{
  "id": 1293917995,
  "type": "Feature",
  "properties": {
    "edtf:cessation":"2018-09-06",
    "edtf:inception":"uuuu",
    "geom:area":0.0,
    "geom:area_square_m":0.0,
    "geom:bbox":"-107.65034,37.89027,-107.65034,37.89027",
    "geom:latitude":37.89027,
    "geom:longitude":-107.65034,
    "gn:admin1_code":"CO",
    "gn:admin2_code":"111.0",
    "gn:asciiname":"Gladstone (historical)",
    "gn:country_code":"US",
    "gn:dem":3209,
    "gn:elevation":"3202.0",
    "gn:feature_class":"P",
    "gn:feature_code":"PPLQ",
    "gn:geonameid":5423037,
    "gn:latitude":37.89027,
    "gn:longitude":-107.65034,
    "gn:modification_date":"2011-12-11",
    "gn:name":"Gladstone (historical)",
    "gn:population":0,
    "gn:timezone":"America/Denver",
    "iso:country":"US",
    "mz:hierarchy_label":1,
    "mz:is_current":0,
    "src:geom":"geonames",
    "wof:belongsto":[
        102191575,
        85633793,
        85688603,
        102086119
    ],
    "wof:breaches":[],
    "wof:concordances":{
        "gn:id":5423037
    },
    "wof:country":"US",
    "wof:geomhash":"76ab67d41b8ce2c02d5b0642b6ae86bc",
    "wof:hierarchy":[
        {
            "continent_id":102191575,
            "country_id":85633793,
            "county_id":102086119,
            "locality_id":1293917995,
            "region_id":85688603
        }
    ],
    "wof:id":1293917995,
    "wof:lastmodified":1536663651,
    "wof:name":"Gladstone (historical)",
    "wof:parent_id":102086119,
    "wof:placetype":"locality",
    "wof:repo":"whosonfirst-data-admin-us",
    "wof:superseded_by":[],
    "wof:supersedes":[],
    "wof:tags":[]
},
  "bbox": [
    -107.65034,
    37.89027,
    -107.65034,
    37.89027
],
  "geometry": {"coordinates":[-107.65034,37.89027],"type":"Point"}
}