{
  "id": 420559219,
  "type": "Feature",
  "properties": {
    "edtf:cessation":"uuuu",
    "edtf:inception":"uuuu",
    "geom:area":0.0,
    "geom:area_square_m":1598606.430165,
    "geom:bbox":"-93.562431,41.582099,-93.562431,41.582099",
    "geom:latitude":41.582099,
    "geom:longitude":-93.562431,
    "iso:country":"US",
    "lbl:latitude":41.582099,
    "lbl:longitude":-93.562431,
    "mz:hierarchy_label":0,
    "mz:is_current":-1,
    "src:geom":"mz",
    "src:geom_alt":[
        "zetashapes"
    ],
    "src:lbl:centroid":"mapshaper",
    "wof:belongsto":[
        102191575,
        85633793,
        85944061,
        102086603,
        85688713
    ],
    "wof:breaches":[],
    "wof:concordances":{
        "gp:id":56021058
    },
    "wof:country":"US",
    "wof:geomhash":"287edc14b08d54d43774fa396ddcab14",
    "wof:hierarchy":[
        {
            "continent_id":102191575,
            "country_id":85633793,
            "county_id":102086603,
            "locality_id":85944061,
            "neighbourhood_id":420559219,
            "region_id":85688713
        }
    ],
    "wof:id":420559219,
    "wof:lastmodified":1533614293,
    "wof:name":"",
    "wof:parent_id":85944061,
    "wof:placetype":"neighbourhood",
    "wof:repo":"whosonfirst-data-admin-us",
    "wof:superseded_by":[],
    "wof:supersedes":[],
    "wof:tags":[],
    "zs:19153:area_m":1598497.95379,
    "zs:19153:blockids":"191530053001020,191530053001041,191530053001034,191530053001042,191530053002024,191530053001019,191530053002018,191530053001016,191530053001018,191530053001037,191530053002032,191530053002009,191530053001048,191530053001035,191530053001043,191530053001023,191530053001036,191530053001040,191530053001025,191530053002062,191530053001032,191530053001029,191530053001039,191530053001027,191530053002064,191530053001026,191530053001007,191530053001044,191530053001030,191530053002063,191530053002022,191530053001022,191530053001028,191530053001017,191530053001047,191530053001033,191530053002008,191530053002033,191530053001046,191530053001049,191530053002023,191530053001021,191530053001031,191530053001024,191530053001038,191530053002021",
    "zs:19153:housing10":395,
    "zs:19153:id":56021058,
    "zs:19153:label":"Fairfield",
    "zs:19153:pop10":1161,
    "zs:id":56021058,
    "zs:name":"Fairfield",
    "zs:placetype":"neighbourhood",
    "zs:us:counties":[
        "19153"
    ]
},
  "bbox": [
    -93.562431,
    41.582099,
    -93.562431,
    41.582099
],
  "geometry": {"coordinates":[-93.562431,41.582099],"type":"Point"}
}