{
  "id": 1125385869,
  "type": "Feature",
  "properties": {
    "edtf:cessation":"2017-05-19",
    "edtf:inception":"uuuu",
    "geom:area":0.0,
    "geom:area_square_m":0.0,
    "geom:bbox":"-73.98547,44.28372,-73.98547,44.28372",
    "geom:latitude":44.28372,
    "geom:longitude":-73.98547,
    "gn:gn_country":"US",
    "gn:gn_fcode":"ADMD",
    "gn:gn_pop":2521,
    "gn:population":2521,
    "iso:country":"US",
    "lbl:latitude":44.28372,
    "lbl:longitude":-73.98547,
    "mz:hierarchy_label":1,
    "mz:is_current":0,
    "mz:note":"Quattroshapes Point Gazetteer import 20170519",
    "qs_pg:aaroncc":"US",
    "qs_pg:gn_country":"US",
    "qs_pg:gn_fcode":"ADMD",
    "qs_pg:gn_id":7161696,
    "qs_pg:gn_pop":2521,
    "qs_pg:name":"Village of Lake Placid",
    "qs_pg:photos_9r":0,
    "qs_pg:photos_sr":0,
    "qs_pg:pop_sr":4,
    "qs_pg:qs_id":657250,
    "qs_pg:qs_pg_placetype":"localadmin",
    "src:geom":"qs_pg",
    "src:lbl:centroid":"qs_pg",
    "src:population":"geonames",
    "wof:belongsto":[
        85633793
    ],
    "wof:breaches":[],
    "wof:concordances":{
        "gn:id":7161696,
        "qs_pg:id":657250
    },
    "wof:country":"US",
    "wof:created":1497048372,
    "wof:geomhash":"5c62a942d5137a9487858f35440a81e5",
    "wof:hierarchy":[
        {
            "country_id":85633793,
            "localadmin_id":1125385869
        }
    ],
    "wof:id":1125385869,
    "wof:lastmodified":1505187018,
    "wof:name":"Village of Lake Placid",
    "wof:parent_id":-1,
    "wof:placetype":"localadmin",
    "wof:population":2521,
    "wof:population_rank":4,
    "wof:repo":"whosonfirst-data-admin-us",
    "wof:superseded_by":[],
    "wof:supersedes":[],
    "wof:tags":[]
},
  "bbox": [
    -73.98547,
    44.28372,
    -73.98547,
    44.28372
],
  "geometry": {"coordinates":[-73.98547000000001,44.28372],"type":"Point"}
}