{
  "id": 1260005617,
  "type": "Feature",
  "properties": {
    "edtf:cessation":"uuuu",
    "edtf:inception":"uuuu",
    "geom:area":0.0,
    "geom:area_square_m":0.0,
    "geom:bbox":"-94.84938,31.59268,-94.84938,31.59268",
    "geom:latitude":31.59268,
    "geom:longitude":-94.84938,
    "gn:admin1_code":"TX",
    "gn:admin2_code":"347",
    "gn:asciiname":"Eden",
    "gn:country_code":"US",
    "gn:dem":140,
    "gn:elevation":"133.0",
    "gn:feature_class":"P",
    "gn:feature_code":"PPL",
    "gn:geonameid":4688224,
    "gn:latitude":31.59268,
    "gn:longitude":-94.84938,
    "gn:modification_date":"2006-01-15",
    "gn:name":"Eden",
    "gn:population":0,
    "gn:timezone":"America/Chicago",
    "iso:country":"US",
    "mz:hierarchy_label":1,
    "mz:is_current":-1,
    "src:geom":"geonames",
    "wof:belongsto":[
        102191575,
        85633793,
        85688753,
        102080711
    ],
    "wof:breaches":[],
    "wof:concordances":{
        "gn:id":4688224
    },
    "wof:country":"US",
    "wof:geomhash":"992f2083a36dba0a0aecf44846e7d91f",
    "wof:hierarchy":[
        {
            "continent_id":102191575,
            "country_id":85633793,
            "county_id":102080711,
            "locality_id":1260005617,
            "region_id":85688753
        }
    ],
    "wof:id":1260005617,
    "wof:lastmodified":1537096842,
    "wof:name":"Eden",
    "wof:parent_id":102080711,
    "wof:placetype":"locality",
    "wof:repo":"whosonfirst-data-admin-us",
    "wof:superseded_by":[],
    "wof:supersedes":[],
    "wof:tags":[]
},
  "bbox": [
    -94.84938,
    31.59268,
    -94.84938,
    31.59268
],
  "geometry": {"coordinates":[-94.84938,31.59268],"type":"Point"}
}