{
  "id": 1243565385,
  "type": "Feature",
  "properties": {
    "edtf:cessation":"2018-09-06",
    "edtf:inception":"uuuu",
    "geom:area":0.0,
    "geom:area_square_m":0.0,
    "geom:bbox":"-120.3221,34.82915,-120.3221,34.82915",
    "geom:latitude":34.82915,
    "geom:longitude":-120.3221,
    "gn:admin1_code":"CA",
    "gn:admin2_code":"83.0",
    "gn:asciiname":"Palmer (historical)",
    "gn:country_code":"US",
    "gn:dem":255,
    "gn:elevation":"260.0",
    "gn:feature_class":"P",
    "gn:feature_code":"PPLQ",
    "gn:geonameid":5380708,
    "gn:latitude":34.82915,
    "gn:longitude":-120.3221,
    "gn:modification_date":"2011-12-12",
    "gn:name":"Palmer (historical)",
    "gn:population":0,
    "gn:timezone":"America/Los_Angeles",
    "iso:country":"US",
    "mz:hierarchy_label":1,
    "mz:is_current":0,
    "src:geom":"geonames",
    "wof:belongsto":[
        102191575,
        85633793,
        85688637,
        102080855
    ],
    "wof:breaches":[],
    "wof:concordances":{
        "gn:id":5380708
    },
    "wof:country":"US",
    "wof:geomhash":"ed472d242210c8c5a929869ee471f14b",
    "wof:hierarchy":[
        {
            "continent_id":102191575,
            "country_id":85633793,
            "county_id":102080855,
            "locality_id":1243565385,
            "region_id":85688637
        }
    ],
    "wof:id":1243565385,
    "wof:lastmodified":1536632623,
    "wof:name":"Palmer (historical)",
    "wof:parent_id":102080855,
    "wof:placetype":"locality",
    "wof:repo":"whosonfirst-data-admin-us",
    "wof:superseded_by":[],
    "wof:supersedes":[],
    "wof:tags":[]
},
  "bbox": [
    -120.3221,
    34.82915,
    -120.3221,
    34.82915
],
  "geometry": {"coordinates":[-120.32210000000001,34.82915],"type":"Point"}
}