{
  "id": 1125282821,
  "type": "Feature",
  "properties": {
    "edtf:cessation":"2017-05-19",
    "edtf:inception":"uuuu",
    "geom:area":0.0,
    "geom:area_square_m":0.0,
    "geom:bbox":"-78.24751,42.65423,-78.24751,42.65423",
    "geom:latitude":42.65423,
    "geom:longitude":-78.24751,
    "gn:gn_country":"US",
    "gn:gn_fcode":"ADMD",
    "gn:gn_pop":0,
    "gn:population":867,
    "iso:country":"US",
    "lbl:latitude":42.65423,
    "lbl:longitude":-78.24751,
    "mz:hierarchy_label":1,
    "mz:is_current":0,
    "mz:note":"Quattroshapes Point Gazetteer import 20170519",
    "qs_pg:aaroncc":"US",
    "qs_pg:gn_country":"US",
    "qs_pg:gn_fcode":"ADMD",
    "qs_pg:gn_id":5144138,
    "qs_pg:gn_pop":0,
    "qs_pg:name":"Town of Wethersfield",
    "qs_pg:photos_9r":0,
    "qs_pg:photos_sr":0,
    "qs_pg:pop_sr":0,
    "qs_pg:qs_id":1035349,
    "qs_pg:qs_pg_placetype":"localadmin",
    "src:geom":"qs_pg",
    "src:lbl:centroid":"qs_pg",
    "src:population":"geonames",
    "wof:belongsto":[
        85633793
    ],
    "wof:breaches":[],
    "wof:concordances":{
        "gn:id":5144138,
        "qs_pg:id":1035349
    },
    "wof:country":"US",
    "wof:created":1497042570,
    "wof:geomhash":"e11d252934e95ecb230bd684f6124675",
    "wof:hierarchy":[
        {
            "country_id":85633793,
            "localadmin_id":1125282821
        }
    ],
    "wof:id":1125282821,
    "wof:lastmodified":1505186963,
    "wof:name":"Town of Wethersfield",
    "wof:parent_id":-1,
    "wof:placetype":"localadmin",
    "wof:population":867,
    "wof:population_rank":2,
    "wof:repo":"whosonfirst-data-admin-us",
    "wof:superseded_by":[],
    "wof:supersedes":[],
    "wof:tags":[]
},
  "bbox": [
    -78.24751,
    42.65423,
    -78.24751,
    42.65423
],
  "geometry": {"coordinates":[-78.24751000000001,42.65423],"type":"Point"}
}