{
  "id": 1226153989,
  "type": "Feature",
  "properties": {
    "edtf:cessation":"uuuu",
    "edtf:inception":"uuuu",
    "geom:area":0.0,
    "geom:area_square_m":0.0,
    "geom:bbox":"-121.10491,35.56386,-121.10491,35.56386",
    "geom:latitude":35.56386,
    "geom:longitude":-121.10491,
    "gn:admin1_code":"CA",
    "gn:admin2_code":"79.0",
    "gn:asciiname":"Park Hill",
    "gn:country_code":"US",
    "gn:dem":39,
    "gn:elevation":"35.0",
    "gn:feature_class":"P",
    "gn:feature_code":"PPL",
    "gn:geonameid":5381172,
    "gn:latitude":35.56386,
    "gn:longitude":-121.10491,
    "gn:modification_date":"2006-01-15",
    "gn:name":"Park Hill",
    "gn:population":0,
    "gn:timezone":"America/Los_Angeles",
    "iso:country":"US",
    "mz:hierarchy_label":1,
    "mz:is_current":-1,
    "src:geom":"geonames",
    "wof:belongsto":[
        102191575,
        85633793,
        85688637,
        102085385
    ],
    "wof:breaches":[],
    "wof:concordances":{
        "gn:id":5381172
    },
    "wof:country":"US",
    "wof:geomhash":"b592f015c086aec4061d39e3af9d8444",
    "wof:hierarchy":[
        {
            "continent_id":102191575,
            "country_id":85633793,
            "county_id":102085385,
            "locality_id":1226153989,
            "region_id":85688637
        }
    ],
    "wof:id":1226153989,
    "wof:lastmodified":1537062932,
    "wof:name":"Park Hill",
    "wof:parent_id":102085385,
    "wof:placetype":"locality",
    "wof:repo":"whosonfirst-data-admin-us",
    "wof:superseded_by":[],
    "wof:supersedes":[],
    "wof:tags":[]
},
  "bbox": [
    -121.10491,
    35.56386,
    -121.10491,
    35.56386
],
  "geometry": {"coordinates":[-121.10491,35.56386],"type":"Point"}
}