{
  "id": 1327158471,
  "type": "Feature",
  "properties": {
    "edtf:cessation":"uuuu",
    "edtf:inception":"uuuu",
    "geom:area":0.0,
    "geom:area_square_m":0.0,
    "geom:bbox":"-76.41411,41.62008,-76.41411,41.62008",
    "geom:latitude":41.62008,
    "geom:longitude":-76.41411,
    "gn:admin1_code":"PA",
    "gn:admin2_code":"15.0",
    "gn:admin3_code":"596.0",
    "gn:asciiname":"Evergreen",
    "gn:country_code":"US",
    "gn:dem":418,
    "gn:elevation":"417.0",
    "gn:feature_class":"P",
    "gn:feature_code":"PPL",
    "gn:geonameid":5188965,
    "gn:latitude":41.62008,
    "gn:longitude":-76.41411,
    "gn:modification_date":"2017-05-23",
    "gn:name":"Evergreen",
    "gn:population":0,
    "gn:timezone":"America/New_York",
    "iso:country":"US",
    "mz:hierarchy_label":1,
    "mz:is_current":-1,
    "src:geom":"geonames",
    "wof:belongsto":[
        85688481,
        102191575,
        404484631,
        85633793,
        102081319
    ],
    "wof:breaches":[],
    "wof:concordances":{
        "gn:id":5188965
    },
    "wof:country":"US",
    "wof:geomhash":"a553e75ffb5a797b6d17784108284a20",
    "wof:hierarchy":[
        {
            "continent_id":102191575,
            "country_id":85633793,
            "county_id":102081319,
            "localadmin_id":404484631,
            "locality_id":1327158471,
            "region_id":85688481
        }
    ],
    "wof:id":1327158471,
    "wof:lastmodified":1537073278,
    "wof:name":"Evergreen",
    "wof:parent_id":404484631,
    "wof:placetype":"locality",
    "wof:repo":"whosonfirst-data-admin-us",
    "wof:superseded_by":[],
    "wof:supersedes":[],
    "wof:tags":[]
},
  "bbox": [
    -76.41411,
    41.62008,
    -76.41411,
    41.62008
],
  "geometry": {"coordinates":[-76.41410999999999,41.62008],"type":"Point"}
}