{
  "id": 1259507733,
  "type": "Feature",
  "properties": {
    "edtf:cessation":"uuuu",
    "edtf:inception":"uuuu",
    "geom:area":0.0,
    "geom:area_square_m":0.0,
    "geom:bbox":"-83.1371,33.42152,-83.1371,33.42152",
    "geom:latitude":33.42152,
    "geom:longitude":-83.1371,
    "gn:admin1_code":"GA",
    "gn:admin2_code":"133.0",
    "gn:asciiname":"Liberty",
    "gn:country_code":"US",
    "gn:dem":175,
    "gn:elevation":"171.0",
    "gn:feature_class":"P",
    "gn:feature_code":"PPL",
    "gn:geonameid":4205553,
    "gn:latitude":33.42152,
    "gn:longitude":-83.1371,
    "gn:modification_date":"2006-01-15",
    "gn:name":"Liberty",
    "gn:population":0,
    "gn:timezone":"America/New_York",
    "iso:country":"US",
    "mz:hierarchy_label":1,
    "mz:is_current":-1,
    "name:eng_x_preferred":[
        "Liberty"
    ],
    "name:und_x_variant":[
        "Cawthon",
        "Cawthorn"
    ],
    "src:geom":"geonames",
    "wof:belongsto":[
        102191575,
        85633793,
        85688535,
        102082969
    ],
    "wof:breaches":[],
    "wof:concordances":{
        "gn:id":4205553
    },
    "wof:country":"US",
    "wof:geomhash":"b41f4ab1fd4d8b3b256f3b3a9d93e9be",
    "wof:hierarchy":[
        {
            "continent_id":102191575,
            "country_id":85633793,
            "county_id":102082969,
            "locality_id":1259507733,
            "region_id":85688535
        }
    ],
    "wof:id":1259507733,
    "wof:lastmodified":1537712316,
    "wof:name":"Liberty",
    "wof:parent_id":102082969,
    "wof:placetype":"locality",
    "wof:repo":"whosonfirst-data-admin-us",
    "wof:superseded_by":[],
    "wof:supersedes":[],
    "wof:tags":[]
},
  "bbox": [
    -83.1371,
    33.42152,
    -83.1371,
    33.42152
],
  "geometry": {"coordinates":[-83.1371,33.42152],"type":"Point"}
}