{
  "id": 1125317415,
  "type": "Feature",
  "properties": {
    "edtf:cessation":"uuuu",
    "edtf:deprecated":"2017-11-04",
    "edtf:inception":"uuuu",
    "geom:area":0.0,
    "geom:area_square_m":0.0,
    "geom:bbox":"-92.03449,43.056,-92.03449,43.056",
    "geom:latitude":43.056,
    "geom:longitude":-92.03449,
    "gn:gn_country":"US",
    "gn:gn_fcode":"ADMD",
    "gn:gn_pop":257,
    "gn:population":257,
    "iso:country":"US",
    "lbl:latitude":43.056,
    "lbl:longitude":-92.03449,
    "mz:hierarchy_label":1,
    "mz:is_current":0,
    "mz:note":"Quattroshapes Point Gazetteer import 20170519",
    "qs_pg:aaroncc":"US",
    "qs_pg:gn_country":"US",
    "qs_pg:gn_fcode":"ADMD",
    "qs_pg:gn_id":7165077,
    "qs_pg:gn_pop":257,
    "qs_pg:name":"City of Waucoma",
    "qs_pg:photos_9r":0,
    "qs_pg:photos_sr":0,
    "qs_pg:pop_sr":2,
    "qs_pg:qs_id":660001,
    "qs_pg:qs_pg_placetype":"localadmin",
    "src:geom":"qs_pg",
    "src:lbl:centroid":"qs_pg",
    "src:population":"geonames",
    "wof:belongsto":[
        85633793
    ],
    "wof:breaches":[],
    "wof:concordances":{
        "gn:id":7165077,
        "qs_pg:id":660001
    },
    "wof:country":"US",
    "wof:created":1497044346,
    "wof:geomhash":"4d408834623fd1a921130deaec6c1beb",
    "wof:hierarchy":[
        {
            "country_id":85633793,
            "localadmin_id":1125317415
        }
    ],
    "wof:id":1125317415,
    "wof:lastmodified":1509752534,
    "wof:name":"City of Waucoma",
    "wof:parent_id":-1,
    "wof:placetype":"localadmin",
    "wof:population":257,
    "wof:population_rank":2,
    "wof:repo":"whosonfirst-data-admin-us",
    "wof:superseded_by":[
        85943263
    ],
    "wof:supersedes":[],
    "wof:tags":[]
},
  "bbox": [
    -92.03449,
    43.056,
    -92.03449,
    43.056
],
  "geometry": {"coordinates":[-92.03449000000001,43.056],"type":"Point"}
}