{
  "id": 1259607683,
  "type": "Feature",
  "properties": {
    "edtf:cessation":"2018-09-07",
    "edtf:inception":"uuuu",
    "geom:area":0.0,
    "geom:area_square_m":0.0,
    "geom:bbox":"-81.11008,35.3118,-81.11008,35.3118",
    "geom:latitude":35.3118,
    "geom:longitude":-81.11008,
    "gn:admin1_code":"NC",
    "gn:admin2_code":"71",
    "gn:admin3_code":"92692.0",
    "gn:asciiname":"Cathey (historical)",
    "gn:country_code":"US",
    "gn:dem":238,
    "gn:elevation":"230.0",
    "gn:feature_class":"P",
    "gn:feature_code":"PPLQ",
    "gn:geonameid":4459617,
    "gn:latitude":35.3118,
    "gn:longitude":-81.11008,
    "gn:modification_date":"2017-05-23",
    "gn:name":"Cathey (historical)",
    "gn:population":0,
    "gn:timezone":"America/New_York",
    "iso:country":"US",
    "mz:hierarchy_label":1,
    "mz:is_current":0,
    "src:geom":"geonames",
    "wof:belongsto":[
        102191575,
        85633793,
        85688773,
        102087869
    ],
    "wof:breaches":[],
    "wof:concordances":{
        "gn:id":4459617
    },
    "wof:country":"US",
    "wof:geomhash":"81cd79e7d718660b045197f4f356f284",
    "wof:hierarchy":[
        {
            "continent_id":102191575,
            "country_id":85633793,
            "county_id":102087869,
            "locality_id":1259607683,
            "region_id":85688773
        }
    ],
    "wof:id":1259607683,
    "wof:lastmodified":1536679922,
    "wof:name":"Cathey (historical)",
    "wof:parent_id":102087869,
    "wof:placetype":"locality",
    "wof:repo":"whosonfirst-data-admin-us",
    "wof:superseded_by":[],
    "wof:supersedes":[],
    "wof:tags":[]
},
  "bbox": [
    -81.11008000000002,
    35.3118,
    -81.11008000000002,
    35.3118
],
  "geometry": {"coordinates":[-81.11008000000002,35.3118],"type":"Point"}
}