{
  "id": 1125308949,
  "type": "Feature",
  "properties": {
    "edtf:cessation":"2017-05-19",
    "edtf:inception":"uuuu",
    "geom:area":0.0,
    "geom:area_square_m":0.0,
    "geom:bbox":"-90.26902,43.91886,-90.26902,43.91886",
    "geom:latitude":43.91886,
    "geom:longitude":-90.26902,
    "gn:gn_country":"US",
    "gn:gn_fcode":"ADMD",
    "gn:gn_pop":601,
    "gn:population":601,
    "iso:country":"US",
    "lbl:latitude":43.91886,
    "lbl:longitude":-90.26902,
    "mz:hierarchy_label":1,
    "mz:is_current":0,
    "mz:note":"Quattroshapes Point Gazetteer import 20170519",
    "qs_pg:aaroncc":"US",
    "qs_pg:gn_country":"US",
    "qs_pg:gn_fcode":"ADMD",
    "qs_pg:gn_id":5247606,
    "qs_pg:gn_pop":601,
    "qs_pg:name":"Village of Camp Douglas",
    "qs_pg:photos_9r":0,
    "qs_pg:photos_sr":0,
    "qs_pg:pop_sr":2,
    "qs_pg:qs_id":608940,
    "qs_pg:qs_pg_placetype":"localadmin",
    "src:geom":"qs_pg",
    "src:lbl:centroid":"qs_pg",
    "src:population":"geonames",
    "wof:belongsto":[
        85633793
    ],
    "wof:breaches":[],
    "wof:concordances":{
        "gn:id":5247606,
        "qs_pg:id":608940
    },
    "wof:country":"US",
    "wof:created":1497043865,
    "wof:geomhash":"08a2177eba62ac0c0a28830359cb1cb3",
    "wof:hierarchy":[
        {
            "country_id":85633793,
            "localadmin_id":1125308949
        }
    ],
    "wof:id":1125308949,
    "wof:lastmodified":1505186987,
    "wof:name":"Village of Camp Douglas",
    "wof:parent_id":-1,
    "wof:placetype":"localadmin",
    "wof:population":601,
    "wof:population_rank":2,
    "wof:repo":"whosonfirst-data-admin-us",
    "wof:superseded_by":[],
    "wof:supersedes":[],
    "wof:tags":[]
},
  "bbox": [
    -90.26902,
    43.91886,
    -90.26902,
    43.91886
],
  "geometry": {"coordinates":[-90.26902,43.91886],"type":"Point"}
}