{
  "id": 1125880249,
  "type": "Feature",
  "properties": {
    "edtf:cessation":"uuuu",
    "edtf:inception":"uuuu",
    "geom:area":0.0,
    "geom:area_square_m":0.0,
    "geom:bbox":"-118.999546,45.308783,-118.999546,45.308783",
    "geom:latitude":45.308783,
    "geom:longitude":-118.999546,
    "gn:gn_country":null,
    "iso:country":"US",
    "lbl:latitude":45.308783,
    "lbl:longitude":-118.999546,
    "mz:hierarchy_label":1,
    "mz:is_current":-1,
    "mz:note":"Quattroshapes Point Gazetteer import 20170519",
    "qs_pg:aaroncc":"US",
    "qs_pg:gn_country":null,
    "qs_pg:name":"Ridge",
    "qs_pg:name_adm0":"United States",
    "qs_pg:name_adm1":"Oregon",
    "qs_pg:photos":47,
    "qs_pg:photos_1k":10,
    "qs_pg:photos_9k":1,
    "qs_pg:photos_9r":2,
    "qs_pg:photos_all":47,
    "qs_pg:photos_sr":2,
    "qs_pg:pop_sr":0,
    "qs_pg:qs_id":823827,
    "qs_pg:qs_pg_placetype":"locality",
    "qs_pg:qs_pg_placetype_gp":"Town",
    "qs_pg:woe_adm0":23424977,
    "qs_pg:woe_id":2481099,
    "src:geom":"qs_pg",
    "src:lbl:centroid":"qs_pg",
    "woe:adm0_id":23424977,
    "woe:name_adm0":"United States",
    "woe:name_adm1":"Oregon",
    "woe:placetype":"Town",
    "wof:belongsto":[
        102191575,
        85633793,
        85688513,
        102081617
    ],
    "wof:breaches":[],
    "wof:concordances":{
        "gp:id":2481099,
        "qs_pg:id":823827
    },
    "wof:country":"US",
    "wof:created":1497294766,
    "wof:geomhash":"a8bbca249c9c6f4825b9cc0c8b7e5916",
    "wof:hierarchy":[
        {
            "continent_id":102191575,
            "country_id":85633793,
            "county_id":102081617,
            "locality_id":1125880249,
            "region_id":85688513
        }
    ],
    "wof:id":1125880249,
    "wof:lastmodified":1509398078,
    "wof:name":"Ridge",
    "wof:parent_id":102081617,
    "wof:placetype":"locality",
    "wof:repo":"whosonfirst-data-admin-us",
    "wof:superseded_by":[],
    "wof:supersedes":[],
    "wof:tags":[]
},
  "bbox": [
    -118.999546,
    45.308783,
    -118.999546,
    45.308783
],
  "geometry": {"coordinates":[-118.999546,45.308783],"type":"Point"}
}