{
  "id": 1125320453,
  "type": "Feature",
  "properties": {
    "edtf:cessation":"2017-05-19",
    "edtf:inception":"uuuu",
    "geom:area":0.0,
    "geom:area_square_m":0.0,
    "geom:bbox":"-96.59238,34.87474,-96.59238,34.87474",
    "geom:latitude":34.87474,
    "geom:longitude":-96.59238,
    "gn:gn_country":"US",
    "gn:gn_fcode":"ADMD",
    "gn:gn_pop":315,
    "gn:population":315,
    "iso:country":"US",
    "lbl:latitude":34.87474,
    "lbl:longitude":-96.59238,
    "mz:hierarchy_label":1,
    "mz:is_current":0,
    "mz:note":"Quattroshapes Point Gazetteer import 20170519",
    "qs_pg:aaroncc":"US",
    "qs_pg:gn_country":"US",
    "qs_pg:gn_fcode":"ADMD",
    "qs_pg:gn_id":7175067,
    "qs_pg:gn_pop":315,
    "qs_pg:name":"Town of Francis",
    "qs_pg:photos_9r":0,
    "qs_pg:photos_sr":0,
    "qs_pg:pop_sr":2,
    "qs_pg:qs_id":667615,
    "qs_pg:qs_pg_placetype":"localadmin",
    "src:geom":"qs_pg",
    "src:lbl:centroid":"qs_pg",
    "src:population":"geonames",
    "wof:belongsto":[
        85633793
    ],
    "wof:breaches":[],
    "wof:concordances":{
        "gn:id":7175067,
        "qs_pg:id":667615
    },
    "wof:country":"US",
    "wof:created":1497044506,
    "wof:geomhash":"e44bada746197fe57c12d315ecee041d",
    "wof:hierarchy":[
        {
            "country_id":85633793,
            "localadmin_id":1125320453
        }
    ],
    "wof:id":1125320453,
    "wof:lastmodified":1505187148,
    "wof:name":"Town of Francis",
    "wof:parent_id":-1,
    "wof:placetype":"localadmin",
    "wof:population":315,
    "wof:population_rank":2,
    "wof:repo":"whosonfirst-data-admin-us",
    "wof:superseded_by":[],
    "wof:supersedes":[],
    "wof:tags":[]
},
  "bbox": [
    -96.59238,
    34.87474,
    -96.59238,
    34.87474
],
  "geometry": {"coordinates":[-96.59238000000001,34.87474],"type":"Point"}
}