{
  "id": 1209238781,
  "type": "Feature",
  "properties": {
    "edtf:cessation":"uuuu",
    "edtf:inception":"uuuu",
    "geom:area":0.0,
    "geom:area_square_m":0.0,
    "geom:bbox":"-90.26537,32.43764,-90.26537,32.43764",
    "geom:latitude":32.43764,
    "geom:longitude":-90.26537,
    "gn:admin1_code":"MS",
    "gn:admin2_code":"49.0",
    "gn:asciiname":"Green Crossing",
    "gn:country_code":"US",
    "gn:dem":94,
    "gn:elevation":"87.0",
    "gn:feature_class":"P",
    "gn:feature_code":"PPL",
    "gn:geonameid":4428356,
    "gn:latitude":32.43764,
    "gn:longitude":-90.26537,
    "gn:modification_date":"2006-01-15",
    "gn:name":"Green Crossing",
    "gn:population":0,
    "gn:timezone":"America/Chicago",
    "iso:country":"US",
    "mz:hierarchy_label":1,
    "mz:is_current":-1,
    "name:eng_x_preferred":[
        "Green Crossing"
    ],
    "name:und_x_variant":[
        "Green",
        "Greene Crossing"
    ],
    "src:geom":"geonames",
    "wof:belongsto":[
        85633793
    ],
    "wof:breaches":[],
    "wof:concordances":{
        "gn:id":4428356
    },
    "wof:country":"US",
    "wof:geomhash":"72ae9269c14bff385473f53b96a084d2",
    "wof:hierarchy":[
        {
            "country_id":85633793,
            "locality_id":1209238781
        }
    ],
    "wof:id":1209238781,
    "wof:lastmodified":1537712486,
    "wof:name":"Green Crossing",
    "wof:parent_id":85633793,
    "wof:placetype":"locality",
    "wof:repo":"whosonfirst-data-admin-us",
    "wof:superseded_by":[],
    "wof:supersedes":[],
    "wof:tags":[]
},
  "bbox": [
    -90.26537,
    32.43764,
    -90.26537,
    32.43764
],
  "geometry": {"coordinates":[-90.26537,32.43764],"type":"Point"}
}