{
  "id": 1276160461,
  "type": "Feature",
  "properties": {
    "edtf:cessation":"2018-09-07",
    "edtf:inception":"uuuu",
    "geom:area":0.0,
    "geom:area_square_m":0.0,
    "geom:bbox":"-117.99812,33.73807,-117.99812,33.73807",
    "geom:latitude":33.73807,
    "geom:longitude":-117.99812,
    "gn:admin1_code":"CA",
    "gn:admin2_code":"59.0",
    "gn:asciiname":"Sugar (historical)",
    "gn:country_code":"US",
    "gn:dem":12,
    "gn:elevation":"14.0",
    "gn:feature_class":"P",
    "gn:feature_code":"PPLQ",
    "gn:geonameid":5399494,
    "gn:latitude":33.73807,
    "gn:longitude":-117.99812,
    "gn:modification_date":"2011-12-12",
    "gn:name":"Sugar (historical)",
    "gn:population":0,
    "gn:timezone":"America/Los_Angeles",
    "iso:country":"US",
    "mz:hierarchy_label":1,
    "mz:is_current":0,
    "src:geom":"geonames",
    "wof:belongsto":[
        102191575,
        85633793,
        85688637,
        102080847
    ],
    "wof:breaches":[],
    "wof:concordances":{
        "gn:id":5399494
    },
    "wof:country":"US",
    "wof:geomhash":"2ea4f91309bed94c8c034a700f075bca",
    "wof:hierarchy":[
        {
            "continent_id":102191575,
            "country_id":85633793,
            "county_id":102080847,
            "locality_id":1276160461,
            "region_id":85688637
        }
    ],
    "wof:id":1276160461,
    "wof:lastmodified":1537009685,
    "wof:name":"Sugar (historical)",
    "wof:parent_id":102080847,
    "wof:placetype":"locality",
    "wof:repo":"whosonfirst-data-admin-us",
    "wof:superseded_by":[],
    "wof:supersedes":[],
    "wof:tags":[]
},
  "bbox": [
    -117.99812,
    33.73807,
    -117.99812,
    33.73807
],
  "geometry": {"coordinates":[-117.99812,33.73807],"type":"Point"}
}