{
  "id": 1243565531,
  "type": "Feature",
  "properties": {
    "edtf:cessation":"uuuu",
    "edtf:inception":"uuuu",
    "geom:area":0.0,
    "geom:area_square_m":0.0,
    "geom:bbox":"-80.9073,36.74068,-80.9073,36.74068",
    "geom:latitude":36.74068,
    "geom:longitude":-80.9073,
    "gn:admin1_code":"VA",
    "gn:admin2_code":"35",
    "gn:asciiname":"Hebron",
    "gn:country_code":"US",
    "gn:dem":786,
    "gn:elevation":"786.0",
    "gn:feature_class":"P",
    "gn:feature_code":"PPL",
    "gn:geonameid":4763568,
    "gn:latitude":36.74068,
    "gn:longitude":-80.9073,
    "gn:modification_date":"2006-01-15",
    "gn:name":"Hebron",
    "gn:population":0,
    "gn:timezone":"America/New_York",
    "iso:country":"US",
    "mz:hierarchy_label":1,
    "mz:is_current":-1,
    "src:geom":"geonames",
    "wof:belongsto":[
        102191575,
        85633793,
        85688747,
        102084965
    ],
    "wof:breaches":[],
    "wof:concordances":{
        "gn:id":4763568
    },
    "wof:country":"US",
    "wof:geomhash":"26e570f3c598e26575e69beb5575746d",
    "wof:hierarchy":[
        {
            "continent_id":102191575,
            "country_id":85633793,
            "county_id":102084965,
            "locality_id":1243565531,
            "region_id":85688747
        }
    ],
    "wof:id":1243565531,
    "wof:lastmodified":1536632405,
    "wof:name":"Hebron",
    "wof:parent_id":102084965,
    "wof:placetype":"locality",
    "wof:repo":"whosonfirst-data-admin-us",
    "wof:superseded_by":[],
    "wof:supersedes":[],
    "wof:tags":[]
},
  "bbox": [
    -80.9073,
    36.74068,
    -80.9073,
    36.74068
],
  "geometry": {"coordinates":[-80.90730000000001,36.74068],"type":"Point"}
}