{
  "id": 1293415829,
  "type": "Feature",
  "properties": {
    "edtf:cessation":"uuuu",
    "edtf:inception":"uuuu",
    "geom:area":0.0,
    "geom:area_square_m":0.0,
    "geom:bbox":"-86.35833,35.87618,-86.35833,35.87618",
    "geom:latitude":35.87618,
    "geom:longitude":-86.35833,
    "gn:admin1_code":"TN",
    "gn:admin2_code":"149",
    "gn:asciiname":"Oak Hill",
    "gn:country_code":"US",
    "gn:dem":186,
    "gn:elevation":"186.0",
    "gn:feature_class":"P",
    "gn:feature_code":"PPL",
    "gn:geonameid":4646507,
    "gn:latitude":35.87618,
    "gn:longitude":-86.35833,
    "gn:modification_date":"2006-01-15",
    "gn:name":"Oak Hill",
    "gn:population":0,
    "gn:timezone":"America/Chicago",
    "iso:country":"US",
    "mz:hierarchy_label":1,
    "mz:is_current":-1,
    "src:geom":"geonames",
    "wof:belongsto":[
        102191575,
        85633793,
        85688701,
        102086355
    ],
    "wof:breaches":[],
    "wof:concordances":{
        "gn:id":4646507
    },
    "wof:country":"US",
    "wof:geomhash":"82ec79acb2b930a81fd399911bc8636d",
    "wof:hierarchy":[
        {
            "continent_id":102191575,
            "country_id":85633793,
            "county_id":102086355,
            "locality_id":1293415829,
            "region_id":85688701
        }
    ],
    "wof:id":1293415829,
    "wof:lastmodified":1536890050,
    "wof:name":"Oak Hill",
    "wof:parent_id":102086355,
    "wof:placetype":"locality",
    "wof:repo":"whosonfirst-data-admin-us",
    "wof:superseded_by":[],
    "wof:supersedes":[],
    "wof:tags":[]
},
  "bbox": [
    -86.35833000000002,
    35.87618,
    -86.35833000000002,
    35.87618
],
  "geometry": {"coordinates":[-86.35833000000002,35.87618],"type":"Point"}
}