{
  "id": 1125350555,
  "type": "Feature",
  "properties": {
    "edtf:cessation":"2017-05-19",
    "edtf:inception":"uuuu",
    "geom:area":0.0,
    "geom:area_square_m":0.0,
    "geom:bbox":"-81.93083,36.0222,-81.93083,36.0222",
    "geom:latitude":36.0222,
    "geom:longitude":-81.93083,
    "gn:gn_country":"US",
    "gn:gn_fcode":"ADMD",
    "gn:gn_pop":192,
    "gn:population":192,
    "iso:country":"US",
    "lbl:latitude":36.0222,
    "lbl:longitude":-81.93083,
    "mz:hierarchy_label":1,
    "mz:is_current":0,
    "mz:note":"Quattroshapes Point Gazetteer import 20170519",
    "qs_pg:aaroncc":"US",
    "qs_pg:gn_country":"US",
    "qs_pg:gn_fcode":"ADMD",
    "qs_pg:gn_id":7171580,
    "qs_pg:gn_pop":192,
    "qs_pg:name":"Town of Crossnore",
    "qs_pg:photos_9r":0,
    "qs_pg:photos_sr":0,
    "qs_pg:pop_sr":1,
    "qs_pg:qs_id":664206,
    "qs_pg:qs_pg_placetype":"localadmin",
    "src:geom":"qs_pg",
    "src:lbl:centroid":"qs_pg",
    "src:population":"geonames",
    "wof:belongsto":[
        85633793
    ],
    "wof:breaches":[],
    "wof:concordances":{
        "gn:id":7171580,
        "qs_pg:id":664206
    },
    "wof:country":"US",
    "wof:created":1497046175,
    "wof:geomhash":"45a26adacba53506cb0b3f769981b623",
    "wof:hierarchy":[
        {
            "country_id":85633793,
            "localadmin_id":1125350555
        }
    ],
    "wof:id":1125350555,
    "wof:lastmodified":1505187108,
    "wof:name":"Town of Crossnore",
    "wof:parent_id":-1,
    "wof:placetype":"localadmin",
    "wof:population":192,
    "wof:population_rank":1,
    "wof:repo":"whosonfirst-data-admin-us",
    "wof:superseded_by":[],
    "wof:supersedes":[],
    "wof:tags":[]
},
  "bbox": [
    -81.93083,
    36.0222,
    -81.93083,
    36.0222
],
  "geometry": {"coordinates":[-81.93083,36.0222],"type":"Point"}
}