{
  "id": 1293016645,
  "type": "Feature",
  "properties": {
    "edtf:cessation":"2018-09-06",
    "edtf:inception":"uuuu",
    "geom:area":0.0,
    "geom:area_square_m":0.0,
    "geom:bbox":"-84.69994,35.85563,-84.69994,35.85563",
    "geom:latitude":35.85563,
    "geom:longitude":-84.69994,
    "gn:admin1_code":"TN",
    "gn:admin2_code":"145",
    "gn:asciiname":"Kimbros (historical)",
    "gn:country_code":"US",
    "gn:dem":264,
    "gn:elevation":"262.0",
    "gn:feature_class":"P",
    "gn:feature_code":"PPLQ",
    "gn:geonameid":4634492,
    "gn:latitude":35.85563,
    "gn:longitude":-84.69994,
    "gn:modification_date":"2011-12-11",
    "gn:name":"Kimbros (historical)",
    "gn:population":0,
    "gn:timezone":"America/New_York",
    "iso:country":"US",
    "mz:hierarchy_label":1,
    "mz:is_current":0,
    "name:eng_x_preferred":[
        "Kimbros (historical)"
    ],
    "name:und_x_variant":[
        "Belleville"
    ],
    "src:geom":"geonames",
    "wof:belongsto":[
        102191575,
        85633793,
        85688701,
        102087051
    ],
    "wof:breaches":[],
    "wof:concordances":{
        "gn:id":4634492
    },
    "wof:country":"US",
    "wof:geomhash":"564a96bb4b24946d5a3b3762d88d22d7",
    "wof:hierarchy":[
        {
            "continent_id":102191575,
            "country_id":85633793,
            "county_id":102087051,
            "locality_id":1293016645,
            "region_id":85688701
        }
    ],
    "wof:id":1293016645,
    "wof:lastmodified":1537712627,
    "wof:name":"Kimbros (historical)",
    "wof:parent_id":102087051,
    "wof:placetype":"locality",
    "wof:repo":"whosonfirst-data-admin-us",
    "wof:superseded_by":[],
    "wof:supersedes":[],
    "wof:tags":[]
},
  "bbox": [
    -84.69994,
    35.85563,
    -84.69994,
    35.85563
],
  "geometry": {"coordinates":[-84.69994,35.85563],"type":"Point"}
}