{
  "id": 1126101341,
  "type": "Feature",
  "properties": {
    "edtf:cessation":"uuuu",
    "edtf:inception":"uuuu",
    "geom:area":0.0,
    "geom:area_square_m":0.0,
    "geom:bbox":"-79.07503,38.16235,-79.07503,38.16235",
    "geom:latitude":38.16235,
    "geom:longitude":-79.07503,
    "gn:elevation":462,
    "gn:gn_country":"US",
    "gn:gn_fcode":"PPL",
    "gn:gn_pop":0,
    "iso:country":"US",
    "lbl:latitude":38.16235,
    "lbl:longitude":-79.07503,
    "mz:hierarchy_label":1,
    "mz:is_current":-1,
    "mz:note":"Quattroshapes Point Gazetteer import 20170519",
    "name:eng_x_preferred":[
        "Selma"
    ],
    "name:unk_x_variant":[
        "Selma"
    ],
    "qs_pg:aaroncc":"US",
    "qs_pg:gn_country":"US",
    "qs_pg:gn_fcode":"PPL",
    "qs_pg:gn_id":4784857,
    "qs_pg:gn_pop":0,
    "qs_pg:name":"Selma",
    "qs_pg:name_adm0":"United States",
    "qs_pg:name_adm1":"Virginia",
    "qs_pg:photos":115,
    "qs_pg:photos_1k":23,
    "qs_pg:photos_9k":1,
    "qs_pg:photos_9r":3,
    "qs_pg:photos_all":115,
    "qs_pg:photos_sr":3,
    "qs_pg:pop_sr":0,
    "qs_pg:qs_id":1300981,
    "qs_pg:qs_pg_placetype":"neighbourhood",
    "qs_pg:qs_pg_placetype_gp":"Suburb",
    "qs_pg:woe_adm0":23424977,
    "qs_pg:woe_id":2490711,
    "src:geom":"qs_pg",
    "src:lbl:centroid":"qs_pg",
    "src:population":"zetashapes",
    "woe:adm0_id":23424977,
    "woe:name_adm0":"United States",
    "woe:name_adm1":"Virginia",
    "woe:placetype":"Suburb",
    "wof:belongsto":[
        85688747,
        102191575,
        85633793,
        101728733,
        102081057
    ],
    "wof:breaches":[],
    "wof:concordances":{
        "gn:id":4784857,
        "gp:id":2490711,
        "qs:id":1300981,
        "qs_pg:id":1300981
    },
    "wof:country":"US",
    "wof:created":1497316109,
    "wof:geomhash":"f70db33e5fe559a225722604ec689b08",
    "wof:hierarchy":[
        {
            "continent_id":102191575,
            "country_id":85633793,
            "county_id":102081057,
            "locality_id":101728733,
            "neighbourhood_id":1126101341,
            "region_id":85688747
        }
    ],
    "wof:id":1126101341,
    "wof:lastmodified":1534379568,
    "wof:name":"Selma",
    "wof:parent_id":101728733,
    "wof:placetype":"neighbourhood",
    "wof:population":5351,
    "wof:population_rank":5,
    "wof:repo":"whosonfirst-data-admin-us",
    "wof:superseded_by":[],
    "wof:supersedes":[
        85847731
    ],
    "wof:tags":[]
},
  "bbox": [
    -79.07503,
    38.16235,
    -79.07503,
    38.16235
],
  "geometry": {"coordinates":[-79.07503,38.16235],"type":"Point"}
}