{
  "id": 1126080481,
  "type": "Feature",
  "properties": {
    "edtf:cessation":"uuuu",
    "edtf:inception":"uuuu",
    "geom:area":0.0,
    "geom:area_square_m":0.0,
    "geom:bbox":"-82.5317,27.9422,-82.5317,27.9422",
    "geom:latitude":27.9422,
    "geom:longitude":-82.5317,
    "gn:gn_country":"US",
    "gn:gn_fcode":"PPL",
    "gn:gn_pop":0,
    "iso:country":"US",
    "lbl:latitude":27.9422,
    "lbl:longitude":-82.5317,
    "mz:hierarchy_label":1,
    "mz:is_current":-1,
    "mz:note":"Quattroshapes Point Gazetteer import 20170519",
    "qs_pg:aaroncc":"US",
    "qs_pg:gn_country":"US",
    "qs_pg:gn_fcode":"PPL",
    "qs_pg:gn_id":7217963,
    "qs_pg:gn_pop":0,
    "qs_pg:name":"Hesperides Manor",
    "qs_pg:name_adm0":"United States",
    "qs_pg:name_adm1":"Florida",
    "qs_pg:photos":2,
    "qs_pg:photos_1k":1,
    "qs_pg:photos_9k":1,
    "qs_pg:photos_9r":1,
    "qs_pg:photos_all":2,
    "qs_pg:photos_sr":1,
    "qs_pg:pop_sr":0,
    "qs_pg:qs_id":1017201,
    "qs_pg:qs_pg_placetype":"neighbourhood",
    "qs_pg:qs_pg_placetype_gp":"Suburb",
    "qs_pg:woe_adm0":23424977,
    "qs_pg:woe_id":55982537,
    "src:geom":"qs_pg",
    "src:lbl:centroid":"qs_pg",
    "woe:adm0_id":23424977,
    "woe:name_adm0":"United States",
    "woe:name_adm1":"Florida",
    "woe:placetype":"Suburb",
    "wof:belongsto":[
        102191575,
        85633793,
        85931789,
        102085773,
        85688651
    ],
    "wof:breaches":[],
    "wof:concordances":{
        "gn:id":7217963,
        "gp:id":55982537,
        "qs_pg:id":1017201
    },
    "wof:country":"US",
    "wof:created":1497311857,
    "wof:geomhash":"f01c8bdae5ff0fd66dad86f30736d8c4",
    "wof:hierarchy":[
        {
            "continent_id":102191575,
            "country_id":85633793,
            "county_id":102085773,
            "locality_id":85931789,
            "neighbourhood_id":1126080481,
            "region_id":85688651
        }
    ],
    "wof:id":1126080481,
    "wof:lastmodified":1509411137,
    "wof:name":"Hesperides Manor",
    "wof:parent_id":85931789,
    "wof:placetype":"neighbourhood",
    "wof:repo":"whosonfirst-data-admin-us",
    "wof:superseded_by":[],
    "wof:supersedes":[],
    "wof:tags":[]
},
  "bbox": [
    -82.5317,
    27.9422,
    -82.5317,
    27.9422
],
  "geometry": {"coordinates":[-82.5317,27.9422],"type":"Point"}
}