{
  "id": 1125418397,
  "type": "Feature",
  "properties": {
    "edtf:cessation":"uuuu",
    "edtf:deprecated":"2017-11-04",
    "edtf:inception":"uuuu",
    "geom:area":0.0,
    "geom:area_square_m":0.0,
    "geom:bbox":"-98.30898,44.87747,-98.30898,44.87747",
    "geom:latitude":44.87747,
    "geom:longitude":-98.30898,
    "gn:gn_country":"US",
    "gn:gn_fcode":"ADMD",
    "gn:gn_pop":149,
    "gn:population":149,
    "iso:country":"US",
    "lbl:latitude":44.87747,
    "lbl:longitude":-98.30898,
    "mz:hierarchy_label":1,
    "mz:is_current":0,
    "mz:note":"Quattroshapes Point Gazetteer import 20170519",
    "qs_pg:aaroncc":"US",
    "qs_pg:gn_country":"US",
    "qs_pg:gn_fcode":"ADMD",
    "qs_pg:gn_id":5227881,
    "qs_pg:gn_pop":149,
    "qs_pg:name":"City of Frankfort",
    "qs_pg:photos_9r":0,
    "qs_pg:photos_sr":0,
    "qs_pg:pop_sr":1,
    "qs_pg:qs_id":607746,
    "qs_pg:qs_pg_placetype":"localadmin",
    "src:geom":"qs_pg",
    "src:lbl:centroid":"qs_pg",
    "src:population":"geonames",
    "wof:belongsto":[
        85633793
    ],
    "wof:breaches":[],
    "wof:concordances":{
        "gn:id":5227881,
        "qs_pg:id":607746
    },
    "wof:country":"US",
    "wof:created":1497051765,
    "wof:geomhash":"a4039dc572a9d31b61ddfd8c14ad6fff",
    "wof:hierarchy":[
        {
            "country_id":85633793,
            "localadmin_id":1125418397
        }
    ],
    "wof:id":1125418397,
    "wof:lastmodified":1509752753,
    "wof:name":"City of Frankfort",
    "wof:parent_id":-1,
    "wof:placetype":"localadmin",
    "wof:population":149,
    "wof:population_rank":1,
    "wof:repo":"whosonfirst-data-admin-us",
    "wof:superseded_by":[
        101721561
    ],
    "wof:supersedes":[],
    "wof:tags":[]
},
  "bbox": [
    -98.30898,
    44.87747,
    -98.30898,
    44.87747
],
  "geometry": {"coordinates":[-98.30898000000001,44.87747],"type":"Point"}
}