{
  "id": 1259602387,
  "type": "Feature",
  "properties": {
    "edtf:cessation":"2018-09-07",
    "edtf:inception":"uuuu",
    "geom:area":0.0,
    "geom:area_square_m":0.0,
    "geom:bbox":"-84.80079,41.16672,-84.80079,41.16672",
    "geom:latitude":41.16672,
    "geom:longitude":-84.80079,
    "gn:admin1_code":"OH",
    "gn:admin2_code":"125.0",
    "gn:admin3_code":"12308.0",
    "gn:asciiname":"New Harrison (historical)",
    "gn:country_code":"US",
    "gn:dem":237,
    "gn:elevation":"226.0",
    "gn:feature_class":"P",
    "gn:feature_code":"PPLQ",
    "gn:geonameid":5164300,
    "gn:latitude":41.16672,
    "gn:longitude":-84.80079,
    "gn:modification_date":"2017-05-23",
    "gn:name":"New Harrison (historical)",
    "gn:population":0,
    "gn:timezone":"America/New_York",
    "iso:country":"US",
    "mz:hierarchy_label":1,
    "mz:is_current":0,
    "src:geom":"geonames",
    "wof:belongsto":[
        85688485,
        102191575,
        404524145,
        85633793,
        102083727
    ],
    "wof:breaches":[],
    "wof:concordances":{
        "gn:id":5164300
    },
    "wof:country":"US",
    "wof:geomhash":"4d01f2853fca6c4f6120a96531d9838f",
    "wof:hierarchy":[
        {
            "continent_id":102191575,
            "country_id":85633793,
            "county_id":102083727,
            "localadmin_id":404524145,
            "locality_id":1259602387,
            "region_id":85688485
        }
    ],
    "wof:id":1259602387,
    "wof:lastmodified":1536687620,
    "wof:name":"New Harrison (historical)",
    "wof:parent_id":404524145,
    "wof:placetype":"locality",
    "wof:repo":"whosonfirst-data-admin-us",
    "wof:superseded_by":[],
    "wof:supersedes":[],
    "wof:tags":[]
},
  "bbox": [
    -84.80079,
    41.16672,
    -84.80079,
    41.16672
],
  "geometry": {"coordinates":[-84.80079000000001,41.16672],"type":"Point"}
}