{
  "id": 1125409279,
  "type": "Feature",
  "properties": {
    "edtf:cessation":"uuuu",
    "edtf:deprecated":"2017-11-04",
    "edtf:inception":"uuuu",
    "geom:area":0.0,
    "geom:area_square_m":0.0,
    "geom:bbox":"-80.72529,40.10169,-80.72529,40.10169",
    "geom:latitude":40.10169,
    "geom:longitude":-80.72529,
    "gn:gn_country":"US",
    "gn:gn_fcode":"ADMD",
    "gn:gn_pop":6915,
    "gn:population":6915,
    "iso:country":"US",
    "lbl:latitude":40.10169,
    "lbl:longitude":-80.72529,
    "mz:hierarchy_label":1,
    "mz:is_current":0,
    "mz:note":"Quattroshapes Point Gazetteer import 20170519",
    "qs_pg:aaroncc":"US",
    "qs_pg:gn_country":"US",
    "qs_pg:gn_fcode":"ADMD",
    "qs_pg:gn_id":7163712,
    "qs_pg:gn_pop":6915,
    "qs_pg:name":"City of Martins Ferry",
    "qs_pg:photos_9r":0,
    "qs_pg:photos_sr":0,
    "qs_pg:pop_sr":5,
    "qs_pg:qs_id":658683,
    "qs_pg:qs_pg_placetype":"localadmin",
    "src:geom":"qs_pg",
    "src:lbl:centroid":"qs_pg",
    "src:population":"geonames",
    "wof:belongsto":[
        85633793
    ],
    "wof:breaches":[],
    "wof:concordances":{
        "gn:id":7163712,
        "qs_pg:id":658683
    },
    "wof:country":"US",
    "wof:created":1497049866,
    "wof:geomhash":"ef09a809308d3f0b028d035e269c6dac",
    "wof:hierarchy":[
        {
            "country_id":85633793,
            "localadmin_id":1125409279
        }
    ],
    "wof:id":1125409279,
    "wof:lastmodified":1509752721,
    "wof:name":"City of Martins Ferry",
    "wof:parent_id":-1,
    "wof:placetype":"localadmin",
    "wof:population":6915,
    "wof:population_rank":5,
    "wof:repo":"whosonfirst-data-admin-us",
    "wof:superseded_by":[
        101731295
    ],
    "wof:supersedes":[],
    "wof:tags":[]
},
  "bbox": [
    -80.72529,
    40.10169,
    -80.72529,
    40.10169
],
  "geometry": {"coordinates":[-80.72529,40.10169],"type":"Point"}
}