{
  "id": 1327350073,
  "type": "Feature",
  "properties": {
    "edtf:cessation":"uuuu",
    "edtf:inception":"uuuu",
    "geom:area":0.0,
    "geom:area_square_m":0.0,
    "geom:bbox":"-79.74033,40.62479,-79.74033,40.62479",
    "geom:latitude":40.62479,
    "geom:longitude":-79.74033,
    "gn:admin1_code":"PA",
    "gn:admin2_code":"3.0",
    "gn:admin3_code":"32832.0",
    "gn:asciiname":"Compton",
    "gn:country_code":"US",
    "gn:dem":265,
    "gn:elevation":"265.0",
    "gn:feature_class":"P",
    "gn:feature_code":"PPL",
    "gn:geonameid":5185097,
    "gn:latitude":40.62479,
    "gn:longitude":-79.74033,
    "gn:modification_date":"2017-05-23",
    "gn:name":"Compton",
    "gn:population":0,
    "gn:timezone":"America/New_York",
    "iso:country":"US",
    "mz:hierarchy_label":1,
    "mz:is_current":-1,
    "name:eng_x_preferred":[
        "Compton"
    ],
    "name:und_x_variant":[
        "Campton"
    ],
    "src:geom":"geonames",
    "wof:belongsto":[
        85688481,
        102191575,
        404484947,
        85633793,
        102080887
    ],
    "wof:breaches":[],
    "wof:concordances":{
        "gn:id":5185097
    },
    "wof:country":"US",
    "wof:geomhash":"887a13b841acea131c874761648bc5d0",
    "wof:hierarchy":[
        {
            "continent_id":102191575,
            "country_id":85633793,
            "county_id":102080887,
            "localadmin_id":404484947,
            "locality_id":1327350073,
            "region_id":85688481
        }
    ],
    "wof:id":1327350073,
    "wof:lastmodified":1537712939,
    "wof:name":"Compton",
    "wof:parent_id":404484947,
    "wof:placetype":"locality",
    "wof:repo":"whosonfirst-data-admin-us",
    "wof:superseded_by":[],
    "wof:supersedes":[],
    "wof:tags":[]
},
  "bbox": [
    -79.74033,
    40.62479,
    -79.74033,
    40.62479
],
  "geometry": {"coordinates":[-79.74033,40.62479],"type":"Point"}
}