{
  "id": 1209331039,
  "type": "Feature",
  "properties": {
    "edtf:cessation":"2018-09-06",
    "edtf:inception":"uuuu",
    "geom:area":0.0,
    "geom:area_square_m":0.0,
    "geom:bbox":"-92.721,34.38898,-92.721,34.38898",
    "geom:latitude":34.38898,
    "geom:longitude":-92.721,
    "gn:admin1_code":"AR",
    "gn:admin2_code":"59.0",
    "gn:admin3_code":"91455.0",
    "gn:asciiname":"Wyandotte (historical)",
    "gn:country_code":"US",
    "gn:dem":97,
    "gn:elevation":"88.0",
    "gn:feature_class":"P",
    "gn:feature_code":"PPLQ",
    "gn:geonameid":4137174,
    "gn:latitude":34.38898,
    "gn:longitude":-92.721,
    "gn:modification_date":"2017-05-23",
    "gn:name":"Wyandotte (historical)",
    "gn:population":0,
    "gn:timezone":"America/Chicago",
    "iso:country":"US",
    "mz:hierarchy_label":1,
    "mz:is_current":0,
    "src:geom":"geonames",
    "wof:belongsto":[
        85633793
    ],
    "wof:breaches":[],
    "wof:concordances":{
        "gn:id":4137174
    },
    "wof:country":"US",
    "wof:geomhash":"97a6c63517dc116a40d1671681f86274",
    "wof:hierarchy":[
        {
            "country_id":85633793,
            "locality_id":1209331039
        }
    ],
    "wof:id":1209331039,
    "wof:lastmodified":1536290375,
    "wof:name":"Wyandotte (historical)",
    "wof:parent_id":85633793,
    "wof:placetype":"locality",
    "wof:repo":"whosonfirst-data-admin-us",
    "wof:superseded_by":[],
    "wof:supersedes":[],
    "wof:tags":[]
},
  "bbox": [
    -92.721,
    34.38898,
    -92.721,
    34.38898
],
  "geometry": {"coordinates":[-92.721,34.38898],"type":"Point"}
}