{
  "id": 1225870757,
  "type": "Feature",
  "properties": {
    "edtf:cessation":"uuuu",
    "edtf:inception":"uuuu",
    "geom:area":0.0,
    "geom:area_square_m":0.0,
    "geom:bbox":"-94.89382,30.66548,-94.89382,30.66548",
    "geom:latitude":30.66548,
    "geom:longitude":-94.89382,
    "gn:admin1_code":"TX",
    "gn:admin2_code":"373.0",
    "gn:asciiname":"Providence",
    "gn:country_code":"US",
    "gn:dem":98,
    "gn:elevation":"95.0",
    "gn:feature_class":"P",
    "gn:feature_code":"PPL",
    "gn:geonameid":4720840,
    "gn:latitude":30.66548,
    "gn:longitude":-94.89382,
    "gn:modification_date":"2006-01-15",
    "gn:name":"Providence",
    "gn:population":0,
    "gn:timezone":"America/Chicago",
    "iso:country":"US",
    "mz:hierarchy_label":1,
    "mz:is_current":-1,
    "src:geom":"geonames",
    "wof:belongsto":[
        102191575,
        85633793,
        85688753,
        102087381
    ],
    "wof:breaches":[],
    "wof:concordances":{
        "gn:id":4720840
    },
    "wof:country":"US",
    "wof:geomhash":"ed236b5ca8a3f4bd681531b3b969584e",
    "wof:hierarchy":[
        {
            "continent_id":102191575,
            "country_id":85633793,
            "county_id":102087381,
            "locality_id":1225870757,
            "region_id":85688753
        }
    ],
    "wof:id":1225870757,
    "wof:lastmodified":1536977126,
    "wof:name":"Providence",
    "wof:parent_id":102087381,
    "wof:placetype":"locality",
    "wof:repo":"whosonfirst-data-admin-us",
    "wof:superseded_by":[],
    "wof:supersedes":[],
    "wof:tags":[]
},
  "bbox": [
    -94.89382,
    30.66548,
    -94.89382,
    30.66548
],
  "geometry": {"coordinates":[-94.89382000000001,30.66548],"type":"Point"}
}