{
  "id": 1125285603,
  "type": "Feature",
  "properties": {
    "edtf:cessation":"uuuu",
    "edtf:deprecated":"2017-11-04",
    "edtf:inception":"uuuu",
    "geom:area":0.0,
    "geom:area_square_m":0.0,
    "geom:bbox":"-92.88789,39.78365,-92.88789,39.78365",
    "geom:latitude":39.78365,
    "geom:longitude":-92.88789,
    "gn:gn_country":"US",
    "gn:gn_fcode":"ADMD",
    "gn:gn_pop":467,
    "gn:population":467,
    "iso:country":"US",
    "lbl:latitude":39.78365,
    "lbl:longitude":-92.88789,
    "mz:hierarchy_label":1,
    "mz:is_current":0,
    "mz:note":"Quattroshapes Point Gazetteer import 20170519",
    "qs_pg:aaroncc":"US",
    "qs_pg:gn_country":"US",
    "qs_pg:gn_fcode":"ADMD",
    "qs_pg:gn_id":7316662,
    "qs_pg:gn_pop":467,
    "qs_pg:name":"City of Bucklin",
    "qs_pg:photos_9r":0,
    "qs_pg:photos_sr":0,
    "qs_pg:pop_sr":2,
    "qs_pg:qs_id":682670,
    "qs_pg:qs_pg_placetype":"localadmin",
    "src:geom":"qs_pg",
    "src:lbl:centroid":"qs_pg",
    "src:population":"geonames",
    "wof:belongsto":[
        85633793
    ],
    "wof:breaches":[],
    "wof:concordances":{
        "gn:id":7316662,
        "qs_pg:id":682670
    },
    "wof:country":"US",
    "wof:created":1497042685,
    "wof:geomhash":"c718216ba7165770d2359ee4b4a0f589",
    "wof:hierarchy":[
        {
            "country_id":85633793,
            "localadmin_id":1125285603
        }
    ],
    "wof:id":1125285603,
    "wof:lastmodified":1509752441,
    "wof:name":"City of Bucklin",
    "wof:parent_id":-1,
    "wof:placetype":"localadmin",
    "wof:population":467,
    "wof:population_rank":2,
    "wof:repo":"whosonfirst-data-admin-us",
    "wof:superseded_by":[
        85972399
    ],
    "wof:supersedes":[],
    "wof:tags":[]
},
  "bbox": [
    -92.88789,
    39.78365,
    -92.88789,
    39.78365
],
  "geometry": {"coordinates":[-92.88789,39.78365],"type":"Point"}
}