{
  "id": 85871155,
  "type": "Feature",
  "properties": {"wof:repo":"whosonfirst-data-admin-us",
    "src:geom":"quattroshapes",
    "wof:geomhash":"76800dbbb1f0a839b244f1925979681b",
    "wof:id":85871155
},
  "bbox": [
    -117.23704706928936,
    32.80574467295041,
    -117.20489501950004,
    32.82882709410006
],
  "geometry": {"coordinates":[[[-117.21313476599988,32.82743293401651],[-117.21313476599988,32.82421110160010],[-117.20764160200005,32.82421110160010],[-117.20764160200005,32.82281695397734],[-117.20493387735235,32.81959480925021],[-117.20489501962473,32.81957499250082],[-117.20489501950004,32.81497833702527],[-117.20527287944799,32.81407912531920],[-117.21001036472512,32.81126069248417],[-117.21038818374990,32.81036162492536],[-117.21313476599988,32.81036162492536],[-117.21745625928008,32.81036162492536],[-117.21862792999983,32.80896757468142],[-117.21862792999983,32.80713877692170],[-117.21862792999991,32.80574473290005],[-117.21979962592687,32.80574473290005],[-117.21979967631455,32.80574467295041],[-117.22412109399994,32.80574467295041],[-117.22412109399994,32.80574473290005],[-117.22412109399994,32.80896757468142],[-117.22529276471977,32.81036162492536],[-117.22961425799997,32.81036162492536],[-117.22961425799997,32.81036168490006],[-117.22961425799997,32.81497833702527],[-117.23393577649352,32.81497833702527],[-117.23393582689710,32.81497839700005],[-117.23510742200000,32.81497839700005],[-117.23510742200000,32.81637246591644],[-117.23510742200000,32.81959480925021],[-117.23510747238058,32.81959486920003],[-117.23704706928936,32.82190286547538],[-117.23510742200000,32.82421104162550],[-117.23510742200000,32.82421110160010],[-117.23078576218731,32.82421109641145],[-117.23013928302350,32.82651911282544],[-117.22961425799997,32.82651911706631],[-117.22686767599981,32.82651911981363],[-117.22412109399994,32.82651911844236],[-117.22101029258295,32.82651911282544],[-117.22101010358648,32.82651897787517],[-117.22056737569233,32.82651897787517],[-117.21862792999983,32.82882703410051],[-117.21862792999991,32.82882709410006],[-117.21430621830280,32.82882709410006],[-117.21313476599988,32.82882709410006],[-117.21313476599988,32.82743293401651]]],"type":"Polygon"}
}