{
  "id": 1125838429,
  "type": "Feature",
  "properties": {
    "edtf:cessation":"uuuu",
    "edtf:inception":"uuuu",
    "geom:area":0.0,
    "geom:area_square_m":0.0,
    "geom:bbox":"-93.53352,36.62701,-93.53352,36.62701",
    "geom:latitude":36.62701,
    "geom:longitude":-93.53352,
    "gn:gn_country":"US",
    "gn:gn_fcode":"PPL",
    "gn:gn_pop":0,
    "iso:country":"US",
    "lbl:latitude":36.62701,
    "lbl:longitude":-93.53352,
    "mz:hierarchy_label":1,
    "mz:is_current":-1,
    "mz:note":"Quattroshapes Point Gazetteer import 20170519",
    "qs_pg:aaroncc":"US",
    "qs_pg:gn_country":"US",
    "qs_pg:gn_fcode":"PPL",
    "qs_pg:gn_id":4400971,
    "qs_pg:gn_pop":0,
    "qs_pg:name":"Norwalk",
    "qs_pg:name_adm0":"United States",
    "qs_pg:name_adm1":"Missouri",
    "qs_pg:photos":65,
    "qs_pg:photos_1k":13,
    "qs_pg:photos_9k":1,
    "qs_pg:photos_9r":2,
    "qs_pg:photos_all":65,
    "qs_pg:photos_sr":2,
    "qs_pg:pop_sr":0,
    "qs_pg:qs_id":1171717,
    "qs_pg:qs_pg_placetype":"locality",
    "qs_pg:qs_pg_placetype_gp":"Town",
    "qs_pg:woe_adm0":23424977,
    "qs_pg:woe_id":2462244,
    "src:geom":"qs_pg",
    "src:lbl:centroid":"qs_pg",
    "woe:adm0_id":23424977,
    "woe:name_adm0":"United States",
    "woe:name_adm1":"Missouri",
    "woe:placetype":"Town",
    "wof:belongsto":[
        85688661,
        102191575,
        404518009,
        85633793,
        102087529
    ],
    "wof:breaches":[],
    "wof:concordances":{
        "gn:id":4400971,
        "gp:id":2462244,
        "qs_pg:id":1171717
    },
    "wof:country":"US",
    "wof:created":1497292826,
    "wof:geomhash":"52ff100938bc28988db73e34fd0a19f2",
    "wof:hierarchy":[
        {
            "continent_id":102191575,
            "country_id":85633793,
            "county_id":102087529,
            "localadmin_id":404518009,
            "locality_id":1125838429,
            "region_id":85688661
        }
    ],
    "wof:id":1125838429,
    "wof:lastmodified":1509395130,
    "wof:name":"Norwalk",
    "wof:parent_id":404518009,
    "wof:placetype":"locality",
    "wof:repo":"whosonfirst-data-admin-us",
    "wof:superseded_by":[],
    "wof:supersedes":[],
    "wof:tags":[]
},
  "bbox": [
    -93.53352,
    36.62701,
    -93.53352,
    36.62701
],
  "geometry": {"coordinates":[-93.53352,36.62701],"type":"Point"}
}