{
  "id": 1326841519,
  "type": "Feature",
  "properties": {
    "edtf:cessation":"uuuu",
    "edtf:deprecated":"2019-02-08",
    "edtf:inception":"uuuu",
    "geom:area":0.0,
    "geom:area_square_m":0.0,
    "geom:bbox":"-75.2663,38.65789,-75.2663,38.65789",
    "geom:latitude":38.65789,
    "geom:longitude":-75.2663,
    "gn:admin1_code":"DE",
    "gn:admin2_code":"5.0",
    "gn:asciiname":"Avalon Park Mobile Home Park",
    "gn:country_code":"US",
    "gn:dem":12,
    "gn:elevation":"11.0",
    "gn:feature_class":"P",
    "gn:feature_code":"PPL",
    "gn:geonameid":4141290,
    "gn:latitude":38.65789,
    "gn:longitude":-75.2663,
    "gn:modification_date":"2006-01-15",
    "gn:name":"Avalon Park Mobile Home Park",
    "gn:population":0,
    "gn:timezone":"America/New_York",
    "iso:country":"US",
    "mz:hierarchy_label":1,
    "mz:is_current":0,
    "src:geom":"geonames",
    "wof:belongsto":[
        102191575,
        85633793,
        85688611,
        102083887
    ],
    "wof:breaches":[],
    "wof:concordances":{
        "gn:id":4141290
    },
    "wof:country":"US",
    "wof:geomhash":"dbf1de387bb8b3ed0bfd6fbfb17fb60a",
    "wof:hierarchy":[
        {
            "continent_id":102191575,
            "country_id":85633793,
            "county_id":102083887,
            "locality_id":1326841519,
            "region_id":85688611
        }
    ],
    "wof:id":1326841519,
    "wof:lastmodified":1549654196,
    "wof:name":"Avalon Park Mobile Home Park",
    "wof:parent_id":102083887,
    "wof:placetype":"locality",
    "wof:repo":"whosonfirst-data-admin-us",
    "wof:superseded_by":[
        1376909429
    ],
    "wof:supersedes":[],
    "wof:tags":[]
},
  "bbox": [
    -75.2663,
    38.65789,
    -75.2663,
    38.65789
],
  "geometry": {"coordinates":[-75.2663,38.65789],"type":"Point"}
}