{
  "id": 1125416869,
  "type": "Feature",
  "properties": {
    "edtf:cessation":"uuuu",
    "edtf:deprecated":"2017-11-04",
    "edtf:inception":"uuuu",
    "geom:area":0.0,
    "geom:area_square_m":0.0,
    "geom:bbox":"-91.14994,42.9028,-91.14994,42.9028",
    "geom:latitude":42.9028,
    "geom:longitude":-91.14994,
    "gn:gn_country":"US",
    "gn:gn_fcode":"ADMD",
    "gn:gn_pop":43,
    "gn:population":43,
    "iso:country":"US",
    "lbl:latitude":42.9028,
    "lbl:longitude":-91.14994,
    "mz:hierarchy_label":1,
    "mz:is_current":0,
    "mz:note":"Quattroshapes Point Gazetteer import 20170519",
    "qs_pg:aaroncc":"US",
    "qs_pg:gn_country":"US",
    "qs_pg:gn_fcode":"ADMD",
    "qs_pg:gn_id":7316690,
    "qs_pg:gn_pop":43,
    "qs_pg:name":"City of Clayton",
    "qs_pg:photos_9r":0,
    "qs_pg:photos_sr":0,
    "qs_pg:pop_sr":1,
    "qs_pg:qs_id":682698,
    "qs_pg:qs_pg_placetype":"localadmin",
    "src:geom":"qs_pg",
    "src:lbl:centroid":"qs_pg",
    "src:population":"geonames",
    "wof:belongsto":[
        85633793
    ],
    "wof:breaches":[],
    "wof:concordances":{
        "gn:id":7316690,
        "qs_pg:id":682698
    },
    "wof:country":"US",
    "wof:created":1497051501,
    "wof:geomhash":"e58000a170e7008a73f324ab1ad2f0e1",
    "wof:hierarchy":[
        {
            "country_id":85633793,
            "localadmin_id":1125416869
        }
    ],
    "wof:id":1125416869,
    "wof:lastmodified":1509752748,
    "wof:name":"City of Clayton",
    "wof:parent_id":-1,
    "wof:placetype":"localadmin",
    "wof:population":43,
    "wof:population_rank":1,
    "wof:repo":"whosonfirst-data-admin-us",
    "wof:superseded_by":[
        85944713
    ],
    "wof:supersedes":[],
    "wof:tags":[]
},
  "bbox": [
    -91.14994,
    42.9028,
    -91.14994,
    42.9028
],
  "geometry": {"coordinates":[-91.14994,42.9028],"type":"Point"}
}