{
  "id": 1125384527,
  "type": "Feature",
  "properties": {
    "edtf:cessation":"uuuu",
    "edtf:deprecated":"2017-11-04",
    "edtf:inception":"uuuu",
    "geom:area":0.0,
    "geom:area_square_m":0.0,
    "geom:bbox":"-77.23222,39.11905,-77.23222,39.11905",
    "geom:latitude":39.11905,
    "geom:longitude":-77.23222,
    "gn:gn_country":"US",
    "gn:gn_fcode":"ADMD",
    "gn:gn_pop":59933,
    "gn:population":59933,
    "iso:country":"US",
    "lbl:latitude":39.11905,
    "lbl:longitude":-77.23222,
    "mz:hierarchy_label":1,
    "mz:is_current":0,
    "mz:note":"Quattroshapes Point Gazetteer import 20170519",
    "qs_pg:aaroncc":"US",
    "qs_pg:gn_country":"US",
    "qs_pg:gn_fcode":"ADMD",
    "qs_pg:gn_id":7161427,
    "qs_pg:gn_pop":59933,
    "qs_pg:name":"City of Gaithersburg",
    "qs_pg:photos_9r":0,
    "qs_pg:photos_sr":0,
    "qs_pg:pop_sr":8,
    "qs_pg:qs_id":657005,
    "qs_pg:qs_pg_placetype":"localadmin",
    "src:geom":"qs_pg",
    "src:lbl:centroid":"qs_pg",
    "src:population":"geonames",
    "wof:belongsto":[
        85633793
    ],
    "wof:breaches":[],
    "wof:concordances":{
        "gn:id":7161427,
        "qs_pg:id":657005
    },
    "wof:country":"US",
    "wof:created":1497048277,
    "wof:geomhash":"22cf974a1efaba095336d5b599574f18",
    "wof:hierarchy":[
        {
            "country_id":85633793,
            "localadmin_id":1125384527
        }
    ],
    "wof:id":1125384527,
    "wof:lastmodified":1509752685,
    "wof:name":"City of Gaithersburg",
    "wof:parent_id":-1,
    "wof:placetype":"localadmin",
    "wof:population":59933,
    "wof:population_rank":8,
    "wof:repo":"whosonfirst-data-admin-us",
    "wof:superseded_by":[
        85949491
    ],
    "wof:supersedes":[],
    "wof:tags":[]
},
  "bbox": [
    -77.23222,
    39.11905,
    -77.23222,
    39.11905
],
  "geometry": {"coordinates":[-77.23222,39.11905],"type":"Point"}
}