{
  "id": 1343894853,
  "type": "Feature",
  "properties": {
    "edtf:cessation":"uuuu",
    "edtf:inception":"uuuu",
    "geom:area":0.0,
    "geom:area_square_m":0.0,
    "geom:bbox":"-102.69462,46.86779,-102.69462,46.86779",
    "geom:latitude":46.86779,
    "geom:longitude":-102.69462,
    "gn:admin1_code":"ND",
    "gn:admin2_code":"89.0",
    "gn:admin3_code":"19625.0",
    "gn:asciiname":"Lehigh",
    "gn:country_code":"US",
    "gn:dem":715,
    "gn:elevation":"718.0",
    "gn:feature_class":"P",
    "gn:feature_code":"PPL",
    "gn:geonameid":5690122,
    "gn:latitude":46.86779,
    "gn:longitude":-102.69462,
    "gn:modification_date":"2017-05-23",
    "gn:name":"Lehigh",
    "gn:population":0,
    "gn:timezone":"America/Denver",
    "iso:country":"US",
    "mz:hierarchy_label":1,
    "mz:is_current":-1,
    "src:geom":"geonames",
    "wof:belongsto":[
        85688525,
        102191575,
        404482181,
        85633793,
        102082105
    ],
    "wof:breaches":[],
    "wof:concordances":{
        "gn:id":5690122
    },
    "wof:country":"US",
    "wof:geomhash":"74dec842eb43f52063a456a203b229b3",
    "wof:hierarchy":[
        {
            "continent_id":102191575,
            "country_id":85633793,
            "county_id":102082105,
            "localadmin_id":404482181,
            "locality_id":1343894853,
            "region_id":85688525
        }
    ],
    "wof:id":1343894853,
    "wof:lastmodified":1536614514,
    "wof:name":"Lehigh",
    "wof:parent_id":404482181,
    "wof:placetype":"locality",
    "wof:repo":"whosonfirst-data-admin-us",
    "wof:superseded_by":[],
    "wof:supersedes":[],
    "wof:tags":[]
},
  "bbox": [
    -102.69462,
    46.86779,
    -102.69462,
    46.86779
],
  "geometry": {"coordinates":[-102.69462,46.86779],"type":"Point"}
}