{
  "id": 1276463755,
  "type": "Feature",
  "properties": {
    "edtf:cessation":"uuuu",
    "edtf:inception":"uuuu",
    "geom:area":0.0,
    "geom:area_square_m":0.0,
    "geom:bbox":"-84.47854,35.46257,-84.47854,35.46257",
    "geom:latitude":35.46257,
    "geom:longitude":-84.47854,
    "gn:admin1_code":"TN",
    "gn:admin2_code":"107",
    "gn:asciiname":"Manila",
    "gn:country_code":"US",
    "gn:dem":256,
    "gn:elevation":"257.0",
    "gn:feature_class":"P",
    "gn:feature_code":"PPL",
    "gn:geonameid":4639257,
    "gn:latitude":35.46257,
    "gn:longitude":-84.47854,
    "gn:modification_date":"2006-01-15",
    "gn:name":"Manila",
    "gn:population":0,
    "gn:timezone":"America/New_York",
    "iso:country":"US",
    "mz:hierarchy_label":1,
    "mz:is_current":-1,
    "src:geom":"geonames",
    "wof:belongsto":[
        102191575,
        85633793,
        85688701,
        102086293
    ],
    "wof:breaches":[],
    "wof:concordances":{
        "gn:id":4639257
    },
    "wof:country":"US",
    "wof:geomhash":"f13fa9110832b9c6afd97432559733e7",
    "wof:hierarchy":[
        {
            "continent_id":102191575,
            "country_id":85633793,
            "county_id":102086293,
            "locality_id":1276463755,
            "region_id":85688701
        }
    ],
    "wof:id":1276463755,
    "wof:lastmodified":1536600846,
    "wof:name":"Manila",
    "wof:parent_id":102086293,
    "wof:placetype":"locality",
    "wof:repo":"whosonfirst-data-admin-us",
    "wof:superseded_by":[],
    "wof:supersedes":[],
    "wof:tags":[]
},
  "bbox": [
    -84.47854,
    35.46257,
    -84.47854,
    35.46257
],
  "geometry": {"coordinates":[-84.47854,35.46257],"type":"Point"}
}