{
  "id": 1343878151,
  "type": "Feature",
  "properties": {
    "edtf:cessation":"uuuu",
    "edtf:inception":"uuuu",
    "geom:area":0.0,
    "geom:area_square_m":0.0,
    "geom:bbox":"-84.70494,36.95646,-84.70494,36.95646",
    "geom:latitude":36.95646,
    "geom:longitude":-84.70494,
    "gn:admin1_code":"KY",
    "gn:admin2_code":"231",
    "gn:asciiname":"Frazer",
    "gn:country_code":"US",
    "gn:dem":275,
    "gn:elevation":"275.0",
    "gn:feature_class":"P",
    "gn:feature_code":"PPL",
    "gn:geonameid":4292228,
    "gn:latitude":36.95646,
    "gn:longitude":-84.70494,
    "gn:modification_date":"2006-01-15",
    "gn:name":"Frazer",
    "gn:population":0,
    "gn:timezone":"America/Kentucky/Monticello",
    "iso:country":"US",
    "mz:hierarchy_label":1,
    "mz:is_current":-1,
    "name:eng_x_preferred":[
        "Frazer"
    ],
    "name:und_x_variant":[
        "North Frazer"
    ],
    "src:geom":"geonames",
    "wof:belongsto":[
        102191575,
        85633793,
        85688641,
        102084533
    ],
    "wof:breaches":[],
    "wof:concordances":{
        "gn:id":4292228
    },
    "wof:country":"US",
    "wof:geomhash":"55514d97bbcb41055fa37b062ac3d1a4",
    "wof:hierarchy":[
        {
            "continent_id":102191575,
            "country_id":85633793,
            "county_id":102084533,
            "locality_id":1343878151,
            "region_id":85688641
        }
    ],
    "wof:id":1343878151,
    "wof:lastmodified":1537712381,
    "wof:name":"Frazer",
    "wof:parent_id":102084533,
    "wof:placetype":"locality",
    "wof:repo":"whosonfirst-data-admin-us",
    "wof:superseded_by":[],
    "wof:supersedes":[],
    "wof:tags":[]
},
  "bbox": [
    -84.70494000000002,
    36.95646,
    -84.70494000000002,
    36.95646
],
  "geometry": {"coordinates":[-84.70494000000002,36.95646],"type":"Point"}
}