{
  "id": 1276564547,
  "type": "Feature",
  "properties": {
    "edtf:cessation":"uuuu",
    "edtf:inception":"uuuu",
    "geom:area":0.0,
    "geom:area_square_m":0.0,
    "geom:bbox":"-118.46887,46.39153,-118.46887,46.39153",
    "geom:latitude":46.39153,
    "geom:longitude":-118.46887,
    "gn:admin1_code":"WA",
    "gn:admin2_code":"71.0",
    "gn:asciiname":"Harvey",
    "gn:country_code":"US",
    "gn:dem":364,
    "gn:elevation":"368.0",
    "gn:feature_class":"P",
    "gn:feature_code":"PPL",
    "gn:geonameid":5796862,
    "gn:latitude":46.39153,
    "gn:longitude":-118.46887,
    "gn:modification_date":"2006-01-15",
    "gn:name":"Harvey",
    "gn:population":0,
    "gn:timezone":"America/Los_Angeles",
    "iso:country":"US",
    "mz:hierarchy_label":1,
    "mz:is_current":-1,
    "src:geom":"geonames",
    "wof:belongsto":[
        102191575,
        85633793,
        85688623,
        102086915
    ],
    "wof:breaches":[],
    "wof:concordances":{
        "gn:id":5796862
    },
    "wof:country":"US",
    "wof:geomhash":"58ccaeca63ef4c41d4b7a3aa70b87cc3",
    "wof:hierarchy":[
        {
            "continent_id":102191575,
            "country_id":85633793,
            "county_id":102086915,
            "locality_id":1276564547,
            "region_id":85688623
        }
    ],
    "wof:id":1276564547,
    "wof:lastmodified":1536966107,
    "wof:name":"Harvey",
    "wof:parent_id":102086915,
    "wof:placetype":"locality",
    "wof:repo":"whosonfirst-data-admin-us",
    "wof:superseded_by":[],
    "wof:supersedes":[],
    "wof:tags":[]
},
  "bbox": [
    -118.46887,
    46.39153,
    -118.46887,
    46.39153
],
  "geometry": {"coordinates":[-118.46887,46.39153],"type":"Point"}
}