{
  "id": 1125348817,
  "type": "Feature",
  "properties": {
    "edtf:cessation":"2017-05-19",
    "edtf:inception":"uuuu",
    "geom:area":0.0,
    "geom:area_square_m":0.0,
    "geom:bbox":"-82.81704,41.65308,-82.81704,41.65308",
    "geom:latitude":41.65308,
    "geom:longitude":-82.81704,
    "gn:gn_country":"US",
    "gn:gn_fcode":"ADMD",
    "gn:gn_pop":138,
    "gn:population":138,
    "iso:country":"US",
    "lbl:latitude":41.65308,
    "lbl:longitude":-82.81704,
    "mz:hierarchy_label":1,
    "mz:is_current":0,
    "mz:note":"Quattroshapes Point Gazetteer import 20170519",
    "qs_pg:aaroncc":"US",
    "qs_pg:gn_country":"US",
    "qs_pg:gn_fcode":"ADMD",
    "qs_pg:gn_id":7166713,
    "qs_pg:gn_pop":138,
    "qs_pg:name":"Village of Put-in-Bay",
    "qs_pg:photos_9r":0,
    "qs_pg:photos_sr":0,
    "qs_pg:pop_sr":1,
    "qs_pg:qs_id":661509,
    "qs_pg:qs_pg_placetype":"localadmin",
    "src:geom":"qs_pg",
    "src:lbl:centroid":"qs_pg",
    "src:population":"geonames",
    "wof:belongsto":[
        85633793
    ],
    "wof:breaches":[],
    "wof:concordances":{
        "gn:id":7166713,
        "qs_pg:id":661509
    },
    "wof:country":"US",
    "wof:created":1497046072,
    "wof:geomhash":"30709cb5da85161d0d5c6f712c9c23e8",
    "wof:hierarchy":[
        {
            "country_id":85633793,
            "localadmin_id":1125348817
        }
    ],
    "wof:id":1125348817,
    "wof:lastmodified":1505187069,
    "wof:name":"Village of Put-in-Bay",
    "wof:parent_id":-1,
    "wof:placetype":"localadmin",
    "wof:population":138,
    "wof:population_rank":1,
    "wof:repo":"whosonfirst-data-admin-us",
    "wof:superseded_by":[],
    "wof:supersedes":[],
    "wof:tags":[]
},
  "bbox": [
    -82.81704,
    41.65308,
    -82.81704,
    41.65308
],
  "geometry": {"coordinates":[-82.81704000000001,41.65308],"type":"Point"}
}