{
  "id": 1225869299,
  "type": "Feature",
  "properties": {
    "edtf:cessation":"uuuu",
    "edtf:inception":"uuuu",
    "geom:area":0.0,
    "geom:area_square_m":0.0,
    "geom:bbox":"-94.95497,38.41807,-94.95497,38.41807",
    "geom:latitude":38.41807,
    "geom:longitude":-94.95497,
    "gn:admin1_code":"KS",
    "gn:admin2_code":"121.0",
    "gn:admin3_code":"48700.0",
    "gn:asciiname":"Beagle",
    "gn:country_code":"US",
    "gn:dem":293,
    "gn:elevation":"289.0",
    "gn:feature_class":"P",
    "gn:feature_code":"PPL",
    "gn:geonameid":4268003,
    "gn:latitude":38.41807,
    "gn:longitude":-94.95497,
    "gn:modification_date":"2017-05-23",
    "gn:name":"Beagle",
    "gn:population":0,
    "gn:timezone":"America/Chicago",
    "iso:country":"US",
    "mz:hierarchy_label":1,
    "mz:is_current":-1,
    "src:geom":"geonames",
    "wof:belongsto":[
        85688555,
        102191575,
        404502635,
        85633793,
        102085273
    ],
    "wof:breaches":[],
    "wof:concordances":{
        "gn:id":4268003
    },
    "wof:country":"US",
    "wof:geomhash":"ae21fd89c63f1c5213d02784a4228da2",
    "wof:hierarchy":[
        {
            "continent_id":102191575,
            "country_id":85633793,
            "county_id":102085273,
            "localadmin_id":404502635,
            "locality_id":1225869299,
            "region_id":85688555
        }
    ],
    "wof:id":1225869299,
    "wof:lastmodified":1536979122,
    "wof:name":"Beagle",
    "wof:parent_id":404502635,
    "wof:placetype":"locality",
    "wof:repo":"whosonfirst-data-admin-us",
    "wof:superseded_by":[],
    "wof:supersedes":[],
    "wof:tags":[]
},
  "bbox": [
    -94.95497,
    38.41807,
    -94.95497,
    38.41807
],
  "geometry": {"coordinates":[-94.95497,38.41807],"type":"Point"}
}