{
  "id": 420518603,
  "type": "Feature",
  "properties": {
    "edtf:cessation":"uuuu",
    "edtf:inception":"uuuu",
    "geom:area":0.0,
    "geom:bbox":"-156.966082,20.912528,-156.966082,20.912528",
    "geom:latitude":20.912528,
    "geom:longitude":-156.966082,
    "iso:country":"US",
    "lbl:latitude":20.912528,
    "lbl:longitude":-156.966082,
    "mz:hierarchy_label":0,
    "mz:is_current":-1,
    "name:eng_x_preferred":[
        "Paoma Ahupua`a"
    ],
    "src:geom":"mz",
    "src:geom_alt":[
        "zetashapes"
    ],
    "src:lbl":"mapshaper",
    "src:lbl:centroid":"mapshaper",
    "wof:belongsto":[
        102191575,
        85633793,
        102085577,
        85688671
    ],
    "wof:breaches":[],
    "wof:concordances":{
        "gp:id":55985926
    },
    "wof:country":"US",
    "wof:geomhash":"6e65c1724a004c134175633e7f304936",
    "wof:hierarchy":[
        {
            "continent_id":102191575,
            "country_id":85633793,
            "county_id":102085577,
            "locality_id":-1,
            "neighbourhood_id":420518603,
            "region_id":85688671
        }
    ],
    "wof:id":420518603,
    "wof:lastmodified":1533593770,
    "wof:name":"Paoma Ahupua`a",
    "wof:parent_id":-1,
    "wof:placetype":"neighbourhood",
    "wof:repo":"whosonfirst-data-admin-us",
    "wof:superseded_by":[],
    "wof:supersedes":[],
    "wof:tags":[],
    "zs:area_m":14520134.170564,
    "zs:blockids":[
        150090316011079,
        150090316011084,
        150090316011082,
        150090316011083
    ],
    "zs:housing10":0,
    "zs:id":55985926,
    "zs:label":"Paoma Ahupua`a",
    "zs:pop10":0
},
  "bbox": [
    -156.966082,
    20.912528,
    -156.966082,
    20.912528
],
  "geometry": {"coordinates":[-156.966082,20.912528],"type":"Point"}
}