{
  "id": 1125290233,
  "type": "Feature",
  "properties": {
    "edtf:cessation":"2017-05-19",
    "edtf:inception":"uuuu",
    "geom:area":0.0,
    "geom:area_square_m":0.0,
    "geom:bbox":"-112.26276,38.44009,-112.26276,38.44009",
    "geom:latitude":38.44009,
    "geom:longitude":-112.26276,
    "gn:gn_country":"US",
    "gn:gn_fcode":"ADMD",
    "gn:gn_pop":408,
    "gn:population":408,
    "iso:country":"US",
    "lbl:latitude":38.44009,
    "lbl:longitude":-112.26276,
    "mz:hierarchy_label":1,
    "mz:is_current":0,
    "mz:note":"Quattroshapes Point Gazetteer import 20170519",
    "qs_pg:aaroncc":"US",
    "qs_pg:gn_country":"US",
    "qs_pg:gn_fcode":"ADMD",
    "qs_pg:gn_id":7175370,
    "qs_pg:gn_pop":408,
    "qs_pg:name":"Town of Marysvale",
    "qs_pg:photos_9r":0,
    "qs_pg:photos_sr":0,
    "qs_pg:pop_sr":2,
    "qs_pg:qs_id":667898,
    "qs_pg:qs_pg_placetype":"localadmin",
    "src:geom":"qs_pg",
    "src:lbl:centroid":"qs_pg",
    "src:population":"geonames",
    "wof:belongsto":[
        85633793
    ],
    "wof:breaches":[],
    "wof:concordances":{
        "gn:id":7175370,
        "qs_pg:id":667898
    },
    "wof:country":"US",
    "wof:created":1497042886,
    "wof:geomhash":"770ba7d7a60c451c4fe47b3e79bb1bc8",
    "wof:hierarchy":[
        {
            "country_id":85633793,
            "localadmin_id":1125290233
        }
    ],
    "wof:id":1125290233,
    "wof:lastmodified":1505187151,
    "wof:name":"Town of Marysvale",
    "wof:parent_id":-1,
    "wof:placetype":"localadmin",
    "wof:population":408,
    "wof:population_rank":2,
    "wof:repo":"whosonfirst-data-admin-us",
    "wof:superseded_by":[],
    "wof:supersedes":[],
    "wof:tags":[]
},
  "bbox": [
    -112.26276,
    38.44009,
    -112.26276,
    38.44009
],
  "geometry": {"coordinates":[-112.26276,38.44009],"type":"Point"}
}