{
  "id": 85887543,
  "type": "Feature",
  "properties": {"wof:repo":"whosonfirst-data-admin-us",
    "src:geom":"quattroshapes",
    "wof:geomhash":"a4ca90f62542547f55191cfc5a378ea1",
    "wof:id":85887543
},
  "bbox": [
    -121.95729478024984,
    37.30027521787515,
    -121.94157187284702,
    37.31338308990003
],
  "geometry": {"coordinates":[[[-121.94274902300003,37.31338308990003],[-121.94274902300003,37.30901407430005],[-121.94274902299995,37.30760460992701],[-121.94157187284702,37.30612464335105],[-121.94274897249048,37.30464480480008],[-121.94274902299978,37.30464474130029],[-121.94712111386110,37.30464474130029],[-121.94824218714581,37.30323535871676],[-121.94824218714581,37.30168465466919],[-121.94824218699998,37.30027528130007],[-121.94936328589361,37.30027528130007],[-121.94936333634541,37.30027521787515],[-121.95373535183327,37.30027521787515],[-121.95373540220251,37.30027528130007],[-121.95426779403863,37.30094456046398],[-121.95457617567948,37.30288300486124],[-121.95729478024984,37.30630075921242],[-121.95659392259222,37.30682945537509],[-121.95485634968188,37.30901407430005],[-121.95398762006536,37.31010631230036],[-121.95373535200000,37.31010631230036],[-121.95185752447406,37.31010631230036],[-121.95098876985818,37.31119860534686],[-121.94824218699998,37.31119861380010],[-121.94824218699998,37.31338308990003],[-121.94712122997791,37.31338308559724],[-121.94386997020550,37.31338308990003],[-121.94274902300003,37.31338308990003]]],"type":"Polygon"}
}