{
  "id": 1259703383,
  "type": "Feature",
  "properties": {
    "edtf:cessation":"uuuu",
    "edtf:inception":"uuuu",
    "geom:area":0.0,
    "geom:area_square_m":0.0,
    "geom:bbox":"-93.31518,35.01676,-93.31518,35.01676",
    "geom:latitude":35.01676,
    "geom:longitude":-93.31518,
    "gn:admin1_code":"AR",
    "gn:admin2_code":"149.0",
    "gn:admin3_code":"92106.0",
    "gn:asciiname":"Kingston",
    "gn:country_code":"US",
    "gn:dem":133,
    "gn:elevation":"130.0",
    "gn:feature_class":"P",
    "gn:feature_code":"PPL",
    "gn:geonameid":4117561,
    "gn:latitude":35.01676,
    "gn:longitude":-93.31518,
    "gn:modification_date":"2017-05-23",
    "gn:name":"Kingston",
    "gn:population":0,
    "gn:timezone":"America/Chicago",
    "iso:country":"US",
    "mz:hierarchy_label":1,
    "mz:is_current":-1,
    "src:geom":"geonames",
    "wof:belongsto":[
        102191575,
        85633793,
        85688549,
        102083263
    ],
    "wof:breaches":[],
    "wof:concordances":{
        "gn:id":4117561
    },
    "wof:country":"US",
    "wof:geomhash":"238f189508ef10f8032659ea0b95ce75",
    "wof:hierarchy":[
        {
            "continent_id":102191575,
            "country_id":85633793,
            "county_id":102083263,
            "locality_id":1259703383,
            "region_id":85688549
        }
    ],
    "wof:id":1259703383,
    "wof:lastmodified":1537036838,
    "wof:name":"Kingston",
    "wof:parent_id":102083263,
    "wof:placetype":"locality",
    "wof:repo":"whosonfirst-data-admin-us",
    "wof:superseded_by":[],
    "wof:supersedes":[],
    "wof:tags":[]
},
  "bbox": [
    -93.31518,
    35.01676,
    -93.31518,
    35.01676
],
  "geometry": {"coordinates":[-93.31518,35.01676],"type":"Point"}
}