{
  "id": 1260005519,
  "type": "Feature",
  "properties": {
    "edtf:cessation":"uuuu",
    "edtf:inception":"uuuu",
    "geom:area":0.0,
    "geom:area_square_m":0.0,
    "geom:bbox":"-85.78359,36.5345,-85.78359,36.5345",
    "geom:latitude":36.5345,
    "geom:longitude":-85.78359,
    "gn:admin1_code":"TN",
    "gn:admin2_code":"27",
    "gn:asciiname":"Leonard",
    "gn:country_code":"US",
    "gn:dem":259,
    "gn:elevation":"255.0",
    "gn:feature_class":"P",
    "gn:feature_code":"PPL",
    "gn:geonameid":4636323,
    "gn:latitude":36.5345,
    "gn:longitude":-85.78359,
    "gn:modification_date":"2006-01-15",
    "gn:name":"Leonard",
    "gn:population":0,
    "gn:timezone":"America/Chicago",
    "iso:country":"US",
    "mz:hierarchy_label":1,
    "mz:is_current":-1,
    "src:geom":"geonames",
    "wof:belongsto":[
        102191575,
        85633793,
        85688701,
        102087049
    ],
    "wof:breaches":[],
    "wof:concordances":{
        "gn:id":4636323
    },
    "wof:country":"US",
    "wof:geomhash":"0b2426c773f50a85d1e322608442c670",
    "wof:hierarchy":[
        {
            "continent_id":102191575,
            "country_id":85633793,
            "county_id":102087049,
            "locality_id":1260005519,
            "region_id":85688701
        }
    ],
    "wof:id":1260005519,
    "wof:lastmodified":1536600216,
    "wof:name":"Leonard",
    "wof:parent_id":102087049,
    "wof:placetype":"locality",
    "wof:repo":"whosonfirst-data-admin-us",
    "wof:superseded_by":[],
    "wof:supersedes":[],
    "wof:tags":[]
},
  "bbox": [
    -85.78359,
    36.5345,
    -85.78359,
    36.5345
],
  "geometry": {"coordinates":[-85.78359,36.5345],"type":"Point"}
}