{
  "id": 1125289857,
  "type": "Feature",
  "properties": {
    "edtf:cessation":"2017-05-19",
    "edtf:inception":"uuuu",
    "geom:area":0.0,
    "geom:area_square_m":0.0,
    "geom:bbox":"-87.95307,40.87823,-87.95307,40.87823",
    "geom:latitude":40.87823,
    "geom:longitude":-87.95307,
    "gn:gn_country":"US",
    "gn:gn_fcode":"ADMD",
    "gn:gn_pop":761,
    "gn:population":761,
    "iso:country":"US",
    "lbl:latitude":40.87823,
    "lbl:longitude":-87.95307,
    "mz:hierarchy_label":1,
    "mz:is_current":0,
    "mz:note":"Quattroshapes Point Gazetteer import 20170519",
    "qs_pg:aaroncc":"US",
    "qs_pg:gn_country":"US",
    "qs_pg:gn_fcode":"ADMD",
    "qs_pg:gn_id":7165742,
    "qs_pg:gn_pop":761,
    "qs_pg:name":"Village of Ashkum",
    "qs_pg:photos_9r":0,
    "qs_pg:photos_sr":0,
    "qs_pg:pop_sr":2,
    "qs_pg:qs_id":660614,
    "qs_pg:qs_pg_placetype":"localadmin",
    "src:geom":"qs_pg",
    "src:lbl:centroid":"qs_pg",
    "src:population":"geonames",
    "wof:belongsto":[
        85633793
    ],
    "wof:breaches":[],
    "wof:concordances":{
        "gn:id":7165742,
        "qs_pg:id":660614
    },
    "wof:country":"US",
    "wof:created":1497042871,
    "wof:geomhash":"2671ac8b8a434ab36e2da0c12e6fe76f",
    "wof:hierarchy":[
        {
            "country_id":85633793,
            "localadmin_id":1125289857
        }
    ],
    "wof:id":1125289857,
    "wof:lastmodified":1505187057,
    "wof:name":"Village of Ashkum",
    "wof:parent_id":-1,
    "wof:placetype":"localadmin",
    "wof:population":761,
    "wof:population_rank":2,
    "wof:repo":"whosonfirst-data-admin-us",
    "wof:superseded_by":[],
    "wof:supersedes":[],
    "wof:tags":[]
},
  "bbox": [
    -87.95307,
    40.87823,
    -87.95307,
    40.87823
],
  "geometry": {"coordinates":[-87.95307,40.87823],"type":"Point"}
}