{
  "id": 1125404285,
  "type": "Feature",
  "properties": {
    "edtf:cessation":"2017-05-19",
    "edtf:inception":"uuuu",
    "geom:area":0.0,
    "geom:area_square_m":0.0,
    "geom:bbox":"-91.37577,40.17679,-91.37577,40.17679",
    "geom:latitude":40.17679,
    "geom:longitude":-91.37577,
    "gn:gn_country":"US",
    "gn:gn_fcode":"ADMD",
    "gn:gn_pop":163,
    "gn:population":163,
    "iso:country":"US",
    "lbl:latitude":40.17679,
    "lbl:longitude":-91.37577,
    "mz:hierarchy_label":1,
    "mz:is_current":0,
    "mz:note":"Quattroshapes Point Gazetteer import 20170519",
    "qs_pg:aaroncc":"US",
    "qs_pg:gn_country":"US",
    "qs_pg:gn_fcode":"ADMD",
    "qs_pg:gn_id":7166159,
    "qs_pg:gn_pop":163,
    "qs_pg:name":"Village of Lima",
    "qs_pg:photos_9r":0,
    "qs_pg:photos_sr":0,
    "qs_pg:pop_sr":1,
    "qs_pg:qs_id":660996,
    "qs_pg:qs_pg_placetype":"localadmin",
    "src:geom":"qs_pg",
    "src:lbl:centroid":"qs_pg",
    "src:population":"geonames",
    "wof:belongsto":[
        85633793
    ],
    "wof:breaches":[],
    "wof:concordances":{
        "gn:id":7166159,
        "qs_pg:id":660996
    },
    "wof:country":"US",
    "wof:created":1497049534,
    "wof:geomhash":"259f0a41447bc8de2f8b39ece729f956",
    "wof:hierarchy":[
        {
            "country_id":85633793,
            "localadmin_id":1125404285
        }
    ],
    "wof:id":1125404285,
    "wof:lastmodified":1505187062,
    "wof:name":"Village of Lima",
    "wof:parent_id":-1,
    "wof:placetype":"localadmin",
    "wof:population":163,
    "wof:population_rank":1,
    "wof:repo":"whosonfirst-data-admin-us",
    "wof:superseded_by":[],
    "wof:supersedes":[],
    "wof:tags":[]
},
  "bbox": [
    -91.37577,
    40.17679,
    -91.37577,
    40.17679
],
  "geometry": {"coordinates":[-91.37577,40.17679],"type":"Point"}
}