{
  "id": 1126097549,
  "type": "Feature",
  "properties": {
    "edtf:cessation":"uuuu",
    "edtf:deprecated":"2018-08-15",
    "edtf:inception":"uuuu",
    "edtf:superseded":"2018-08-15",
    "geom:area":0.0,
    "geom:area_square_m":0.0,
    "geom:bbox":"-71.10643,41.56955,-71.10643,41.56955",
    "geom:latitude":41.56955,
    "geom:longitude":-71.10643,
    "gn:gn_country":"US",
    "gn:gn_fcode":"PPL",
    "gn:gn_pop":0,
    "iso:country":"US",
    "lbl:latitude":41.56955,
    "lbl:longitude":-71.10643,
    "mz:hierarchy_label":1,
    "mz:is_current":0,
    "mz:note":"Quattroshapes Point Gazetteer import 20170519",
    "qs_pg:aaroncc":"US",
    "qs_pg:gn_country":"US",
    "qs_pg:gn_fcode":"PPL",
    "qs_pg:gn_id":4942862,
    "qs_pg:gn_pop":0,
    "qs_pg:name":"Macombers Corner",
    "qs_pg:name_adm0":"United States",
    "qs_pg:name_adm1":"Massachusetts",
    "qs_pg:photos":1,
    "qs_pg:photos_1k":1,
    "qs_pg:photos_9k":1,
    "qs_pg:photos_9r":1,
    "qs_pg:photos_all":1,
    "qs_pg:photos_sr":1,
    "qs_pg:pop_sr":0,
    "qs_pg:qs_id":417982,
    "qs_pg:qs_pg_placetype":"neighbourhood",
    "qs_pg:qs_pg_placetype_gp":"Suburb",
    "qs_pg:woe_adm0":23424977,
    "qs_pg:woe_id":2443828,
    "src:geom":"qs_pg",
    "src:lbl:centroid":"qs_pg",
    "woe:adm0_id":23424977,
    "woe:name_adm0":"United States",
    "woe:name_adm1":"Massachusetts",
    "woe:placetype":"Suburb",
    "wof:belongsto":[
        102191575,
        404476149,
        85633793,
        102084407,
        85688645
    ],
    "wof:breaches":[],
    "wof:concordances":{
        "gn:id":4942862,
        "gp:id":2443828,
        "qs_pg:id":417982
    },
    "wof:country":"US",
    "wof:created":1497315482,
    "wof:geomhash":"f1f4e6d787e962ae6f35e29ac809c77f",
    "wof:hierarchy":[
        {
            "continent_id":102191575,
            "country_id":85633793,
            "county_id":102084407,
            "localadmin_id":404476149,
            "locality_id":-1,
            "neighbourhood_id":1126097549,
            "region_id":85688645
        }
    ],
    "wof:id":1126097549,
    "wof:lastmodified":1534379750,
    "wof:name":"Macombers Corner",
    "wof:parent_id":-1,
    "wof:placetype":"neighbourhood",
    "wof:repo":"whosonfirst-data-admin-us",
    "wof:superseded_by":[
        420523293
    ],
    "wof:supersedes":[],
    "wof:tags":[]
},
  "bbox": [
    -71.10643,
    41.56955,
    -71.10643,
    41.56955
],
  "geometry": {"coordinates":[-71.10643,41.56955],"type":"Point"}
}