{
  "id": 1210042639,
  "type": "Feature",
  "properties": {
    "edtf:cessation":"2018-09-07",
    "edtf:inception":"uuuu",
    "geom:area":0.0,
    "geom:area_square_m":0.0,
    "geom:bbox":"-89.06789,44.4172,-89.06789,44.4172",
    "geom:latitude":44.4172,
    "geom:longitude":-89.06789,
    "gn:admin1_code":"WI",
    "gn:admin2_code":"135.0",
    "gn:admin3_code":"84400.0",
    "gn:asciiname":"Granite Quarry (historical)",
    "gn:country_code":"US",
    "gn:dem":266,
    "gn:elevation":"258.0",
    "gn:feature_class":"P",
    "gn:feature_code":"PPLQ",
    "gn:geonameid":5254827,
    "gn:latitude":44.4172,
    "gn:longitude":-89.06789,
    "gn:modification_date":"2017-05-23",
    "gn:name":"Granite Quarry (historical)",
    "gn:population":0,
    "gn:timezone":"America/Chicago",
    "iso:country":"US",
    "mz:hierarchy_label":1,
    "mz:is_current":0,
    "src:geom":"geonames",
    "wof:belongsto":[
        85688517,
        102191575,
        404495471,
        85633793,
        102081823
    ],
    "wof:breaches":[],
    "wof:concordances":{
        "gn:id":5254827
    },
    "wof:country":"US",
    "wof:geomhash":"f0f0b5a91916694f85509329ec9f5367",
    "wof:hierarchy":[
        {
            "continent_id":102191575,
            "country_id":85633793,
            "county_id":102081823,
            "localadmin_id":404495471,
            "locality_id":1210042639,
            "region_id":85688517
        }
    ],
    "wof:id":1210042639,
    "wof:lastmodified":1536382342,
    "wof:name":"Granite Quarry (historical)",
    "wof:parent_id":404495471,
    "wof:placetype":"locality",
    "wof:repo":"whosonfirst-data-admin-us",
    "wof:superseded_by":[],
    "wof:supersedes":[],
    "wof:tags":[]
},
  "bbox": [
    -89.06789,
    44.4172,
    -89.06789,
    44.4172
],
  "geometry": {"coordinates":[-89.06789000000001,44.4172],"type":"Point"}
}