{
  "id": 420533141,
  "type": "Feature",
  "properties": {
    "edtf:cessation":"uuuu",
    "edtf:inception":"uuuu",
    "geom:area":0.0,
    "geom:area_square_m":407863.385789,
    "geom:bbox":"-78.504749,35.878413,-78.504749,35.878413",
    "geom:latitude":35.878413,
    "geom:longitude":-78.504749,
    "iso:country":"US",
    "lbl:latitude":35.878413,
    "lbl:longitude":-78.504749,
    "mz:hierarchy_label":0,
    "mz:is_current":-1,
    "name:eng_x_preferred":[
        "Tradewinds"
    ],
    "src:geom":"mz",
    "src:geom_alt":[
        "zetashapes"
    ],
    "src:lbl":"mapshaper",
    "src:lbl:centroid":"mapshaper",
    "src:population":"zetashapes",
    "wd:wordcount":1723,
    "wof:belongsto":[
        102191575,
        85633793,
        102087821,
        85688773
    ],
    "wof:breaches":[],
    "wof:concordances":{
        "gp:id":55990756,
        "wd:id":"Q160603"
    },
    "wof:country":"US",
    "wof:geomhash":"bf3912ebd4b10ba2e5a90cc932b22166",
    "wof:hierarchy":[
        {
            "continent_id":102191575,
            "country_id":85633793,
            "county_id":102087821,
            "locality_id":-1,
            "neighbourhood_id":420533141,
            "region_id":85688773
        }
    ],
    "wof:id":420533141,
    "wof:lastmodified":1533598221,
    "wof:name":"Tradewinds",
    "wof:parent_id":-1,
    "wof:placetype":"neighbourhood",
    "wof:population":530,
    "wof:population_rank":2,
    "wof:repo":"whosonfirst-data-admin-us",
    "wof:superseded_by":[],
    "wof:supersedes":[],
    "wof:tags":[],
    "zs:area_m":407835.391806,
    "zs:blockids":[
        371830541103007,
        371830541103003,
        371830541103023
    ],
    "zs:housing10":201,
    "zs:id":55990756,
    "zs:label":"Tradewinds",
    "zs:pop10":530
},
  "bbox": [
    -78.504749,
    35.878413,
    -78.504749,
    35.878413
],
  "geometry": {"coordinates":[-78.504749,35.878413],"type":"Point"}
}