{
  "id": 1125273797,
  "type": "Feature",
  "properties": {
    "edtf:cessation":"uuuu",
    "edtf:deprecated":"2017-11-04",
    "edtf:inception":"uuuu",
    "geom:area":0.0,
    "geom:area_square_m":0.0,
    "geom:bbox":"-97.58087,36.43655,-97.58087,36.43655",
    "geom:latitude":36.43655,
    "geom:longitude":-97.58087,
    "gn:gn_country":"US",
    "gn:gn_fcode":"ADMD",
    "gn:gn_pop":822,
    "gn:population":822,
    "iso:country":"US",
    "lbl:latitude":36.43655,
    "lbl:longitude":-97.58087,
    "mz:hierarchy_label":1,
    "mz:is_current":0,
    "mz:note":"Quattroshapes Point Gazetteer import 20170519",
    "qs_pg:aaroncc":"US",
    "qs_pg:gn_country":"US",
    "qs_pg:gn_fcode":"ADMD",
    "qs_pg:gn_id":7173473,
    "qs_pg:gn_pop":822,
    "qs_pg:name":"City of Garber",
    "qs_pg:photos_9r":0,
    "qs_pg:photos_sr":0,
    "qs_pg:pop_sr":2,
    "qs_pg:qs_id":666036,
    "qs_pg:qs_pg_placetype":"localadmin",
    "src:geom":"qs_pg",
    "src:lbl:centroid":"qs_pg",
    "src:population":"geonames",
    "wof:belongsto":[
        85633793
    ],
    "wof:breaches":[],
    "wof:concordances":{
        "gn:id":7173473,
        "qs_pg:id":666036
    },
    "wof:country":"US",
    "wof:created":1497042235,
    "wof:geomhash":"013b702a0e8c8eec6fcef12362550342",
    "wof:hierarchy":[
        {
            "country_id":85633793,
            "localadmin_id":1125273797
        }
    ],
    "wof:id":1125273797,
    "wof:lastmodified":1509752411,
    "wof:name":"City of Garber",
    "wof:parent_id":-1,
    "wof:placetype":"localadmin",
    "wof:population":822,
    "wof:population_rank":2,
    "wof:repo":"whosonfirst-data-admin-us",
    "wof:superseded_by":[
        101714901
    ],
    "wof:supersedes":[],
    "wof:tags":[]
},
  "bbox": [
    -97.58087,
    36.43655,
    -97.58087,
    36.43655
],
  "geometry": {"coordinates":[-97.58087,36.43655],"type":"Point"}
}