{
  "id": 420529151,
  "type": "Feature",
  "properties": {
    "edtf:cessation":"uuuu",
    "edtf:inception":"uuuu",
    "geom:area":0.0,
    "geom:area_square_m":190118.151159,
    "geom:bbox":"-73.710954,40.719545,-73.710954,40.719545",
    "geom:latitude":40.719545,
    "geom:longitude":-73.710954,
    "iso:country":"US",
    "lbl:latitude":40.719545,
    "lbl:longitude":-73.710954,
    "mz:hierarchy_label":0,
    "mz:is_current":-1,
    "name:eng_x_preferred":[
        "West End"
    ],
    "src:geom":"mz",
    "src:geom_alt":[
        "zetashapes"
    ],
    "src:lbl":"mapshaper",
    "src:lbl:centroid":"mapshaper",
    "src:population":"zetashapes",
    "wof:belongsto":[
        85688543,
        102191575,
        404521473,
        85633793,
        85977689,
        102082371
    ],
    "wof:breaches":[],
    "wof:concordances":{
        "gp:id":55992117
    },
    "wof:country":"US",
    "wof:geomhash":"2e5f7358a4d631e208f7bf528c1935fa",
    "wof:hierarchy":[
        {
            "continent_id":102191575,
            "country_id":85633793,
            "county_id":102082371,
            "localadmin_id":404521473,
            "locality_id":85977689,
            "neighbourhood_id":420529151,
            "region_id":85688543
        }
    ],
    "wof:id":420529151,
    "wof:lastmodified":1533596996,
    "wof:name":"West End",
    "wof:parent_id":85977689,
    "wof:placetype":"neighbourhood",
    "wof:population":965,
    "wof:population_rank":2,
    "wof:repo":"whosonfirst-data-admin-us",
    "wof:superseded_by":[],
    "wof:supersedes":[],
    "wof:tags":[],
    "zs:area_m":190104.92736,
    "zs:blockids":[
        360594044003015,
        360594044003004,
        360594044005005,
        360594044004002,
        360594044003002,
        360594044004004,
        360594044003003,
        360594044004005,
        360594044004003,
        360594044003017,
        360594044005010,
        360594044003001,
        360594044003000,
        360594044002013,
        360594044003016,
        360594044002016,
        360594044002015,
        360594044003018,
        360594044002014
    ],
    "zs:housing10":335,
    "zs:id":55992117,
    "zs:label":"West End",
    "zs:pop10":965
},
  "bbox": [
    -73.710954,
    40.719545,
    -73.710954,
    40.719545
],
  "geometry": {"coordinates":[-73.710954,40.719545],"type":"Point"}
}