{
  "id": 1310617337,
  "type": "Feature",
  "properties": {
    "edtf:cessation":"2018-09-07",
    "edtf:inception":"uuuu",
    "geom:area":0.0,
    "geom:area_square_m":0.0,
    "geom:bbox":"-83.79574,36.01981,-83.79574,36.01981",
    "geom:latitude":36.01981,
    "geom:longitude":-83.79574,
    "gn:admin1_code":"TN",
    "gn:admin2_code":"93",
    "gn:asciiname":"Mayo (historical)",
    "gn:country_code":"US",
    "gn:dem":292,
    "gn:elevation":"290.0",
    "gn:feature_class":"P",
    "gn:feature_code":"PPLQ",
    "gn:geonameid":4640162,
    "gn:latitude":36.01981,
    "gn:longitude":-83.79574,
    "gn:modification_date":"2011-12-11",
    "gn:name":"Mayo (historical)",
    "gn:population":0,
    "gn:timezone":"America/New_York",
    "iso:country":"US",
    "mz:hierarchy_label":1,
    "mz:is_current":0,
    "src:geom":"geonames",
    "wof:belongsto":[
        102191575,
        85633793,
        85688701,
        102086455
    ],
    "wof:breaches":[],
    "wof:concordances":{
        "gn:id":4640162
    },
    "wof:country":"US",
    "wof:geomhash":"53fb2d9148692513c53be6a095931892",
    "wof:hierarchy":[
        {
            "continent_id":102191575,
            "country_id":85633793,
            "county_id":102086455,
            "locality_id":1310617337,
            "region_id":85688701
        }
    ],
    "wof:id":1310617337,
    "wof:lastmodified":1536755683,
    "wof:name":"Mayo (historical)",
    "wof:parent_id":102086455,
    "wof:placetype":"locality",
    "wof:repo":"whosonfirst-data-admin-us",
    "wof:superseded_by":[],
    "wof:supersedes":[],
    "wof:tags":[]
},
  "bbox": [
    -83.79574000000002,
    36.01981,
    -83.79574000000002,
    36.01981
],
  "geometry": {"coordinates":[-83.79574000000002,36.01981],"type":"Point"}
}