{
  "id": 1310031571,
  "type": "Feature",
  "properties": {
    "edtf:cessation":"2018-09-07",
    "edtf:inception":"uuuu",
    "geom:area":0.0,
    "geom:area_square_m":0.0,
    "geom:bbox":"-91.74595,31.02712,-91.74595,31.02712",
    "geom:latitude":31.02712,
    "geom:longitude":-91.74595,
    "gn:admin1_code":"LA",
    "gn:admin2_code":"9.0",
    "gn:asciiname":"Naples (historical)",
    "gn:country_code":"US",
    "gn:dem":18,
    "gn:elevation":"9.0",
    "gn:feature_class":"P",
    "gn:feature_code":"PPLQ",
    "gn:geonameid":4334683,
    "gn:latitude":31.02712,
    "gn:longitude":-91.74595,
    "gn:modification_date":"2011-12-11",
    "gn:name":"Naples (historical)",
    "gn:population":0,
    "gn:timezone":"America/Chicago",
    "iso:country":"US",
    "mz:hierarchy_label":1,
    "mz:is_current":0,
    "name:eng_x_preferred":[
        "Naples (historical)"
    ],
    "name:und_x_variant":[
        "Water Valley"
    ],
    "src:geom":"geonames",
    "wof:belongsto":[
        102191575,
        85633793,
        85688735,
        102083799
    ],
    "wof:breaches":[],
    "wof:concordances":{
        "gn:id":4334683
    },
    "wof:country":"US",
    "wof:geomhash":"329a843a7d48075d94e71d4a02327d9d",
    "wof:hierarchy":[
        {
            "continent_id":102191575,
            "country_id":85633793,
            "county_id":102083799,
            "locality_id":1310031571,
            "region_id":85688735
        }
    ],
    "wof:id":1310031571,
    "wof:lastmodified":1537712416,
    "wof:name":"Naples (historical)",
    "wof:parent_id":102083799,
    "wof:placetype":"locality",
    "wof:repo":"whosonfirst-data-admin-us",
    "wof:superseded_by":[],
    "wof:supersedes":[],
    "wof:tags":[]
},
  "bbox": [
    -91.74595,
    31.02712,
    -91.74595,
    31.02712
],
  "geometry": {"coordinates":[-91.74594999999999,31.02712],"type":"Point"}
}