{
  "id": 1226267211,
  "type": "Feature",
  "properties": {
    "edtf:cessation":"2018-09-07",
    "edtf:inception":"uuuu",
    "geom:area":0.0,
    "geom:area_square_m":0.0,
    "geom:bbox":"-82.95212,39.64701,-82.95212,39.64701",
    "geom:latitude":39.64701,
    "geom:longitude":-82.95212,
    "gn:admin1_code":"OH",
    "gn:admin2_code":"129",
    "gn:admin3_code":"15077.0",
    "gn:asciiname":"Fairview (historical)",
    "gn:country_code":"US",
    "gn:dem":211,
    "gn:elevation":"210.0",
    "gn:feature_class":"P",
    "gn:feature_code":"PPLQ",
    "gn:geonameid":4511365,
    "gn:latitude":39.64701,
    "gn:longitude":-82.95212,
    "gn:modification_date":"2017-05-23",
    "gn:name":"Fairview (historical)",
    "gn:population":0,
    "gn:timezone":"America/New_York",
    "iso:country":"US",
    "mz:hierarchy_label":1,
    "mz:is_current":0,
    "src:geom":"geonames",
    "wof:belongsto":[
        85688485,
        102191575,
        404526027,
        85633793,
        102084815
    ],
    "wof:breaches":[],
    "wof:concordances":{
        "gn:id":4511365
    },
    "wof:country":"US",
    "wof:geomhash":"6239120302e09b73bfc3c4f328589f2a",
    "wof:hierarchy":[
        {
            "continent_id":102191575,
            "country_id":85633793,
            "county_id":102084815,
            "localadmin_id":404526027,
            "locality_id":1226267211,
            "region_id":85688485
        }
    ],
    "wof:id":1226267211,
    "wof:lastmodified":1536902839,
    "wof:name":"Fairview (historical)",
    "wof:parent_id":404526027,
    "wof:placetype":"locality",
    "wof:repo":"whosonfirst-data-admin-us",
    "wof:superseded_by":[],
    "wof:supersedes":[],
    "wof:tags":[]
},
  "bbox": [
    -82.95212,
    39.64701,
    -82.95212,
    39.64701
],
  "geometry": {"coordinates":[-82.95211999999999,39.64701],"type":"Point"}
}