{
  "id": 1276564215,
  "type": "Feature",
  "properties": {
    "edtf:cessation":"2018-09-07",
    "edtf:inception":"uuuu",
    "geom:area":0.0,
    "geom:area_square_m":0.0,
    "geom:bbox":"-82.29654,39.31396,-82.29654,39.31396",
    "geom:latitude":39.31396,
    "geom:longitude":-82.29654,
    "gn:admin1_code":"OH",
    "gn:admin2_code":"9",
    "gn:admin3_code":"81777.0",
    "gn:asciiname":"Ingham (historical)",
    "gn:country_code":"US",
    "gn:dem":216,
    "gn:elevation":"212.0",
    "gn:feature_class":"P",
    "gn:feature_code":"PPLQ",
    "gn:geonameid":4515016,
    "gn:latitude":39.31396,
    "gn:longitude":-82.29654,
    "gn:modification_date":"2017-05-23",
    "gn:name":"Ingham (historical)",
    "gn:population":0,
    "gn:timezone":"America/New_York",
    "iso:country":"US",
    "mz:hierarchy_label":1,
    "mz:is_current":0,
    "name:eng_x_preferred":[
        "Ingham (historical)"
    ],
    "name:und_x_variant":[
        "Inghams",
        "Ingham Station"
    ],
    "src:geom":"geonames",
    "wof:belongsto":[
        85688485,
        102191575,
        404524837,
        85633793,
        102084755
    ],
    "wof:breaches":[],
    "wof:concordances":{
        "gn:id":4515016,
        "wk:page":"Ingham%2C_Ohio"
    },
    "wof:country":"US",
    "wof:geomhash":"7ad1c6c00f13e1a077972d93ddca440e",
    "wof:hierarchy":[
        {
            "continent_id":102191575,
            "country_id":85633793,
            "county_id":102084755,
            "localadmin_id":404524837,
            "locality_id":1276564215,
            "region_id":85688485
        }
    ],
    "wof:id":1276564215,
    "wof:lastmodified":1537712551,
    "wof:name":"Ingham (historical)",
    "wof:parent_id":404524837,
    "wof:placetype":"locality",
    "wof:repo":"whosonfirst-data-admin-us",
    "wof:superseded_by":[],
    "wof:supersedes":[],
    "wof:tags":[]
},
  "bbox": [
    -82.29654000000002,
    39.31396,
    -82.29654000000002,
    39.31396
],
  "geometry": {"coordinates":[-82.29654000000002,39.31396],"type":"Point"}
}