{
  "id": 1310329339,
  "type": "Feature",
  "properties": {
    "edtf:cessation":"uuuu",
    "edtf:inception":"uuuu",
    "geom:area":0.0,
    "geom:area_square_m":0.0,
    "geom:bbox":"-92.84573,36.37729,-92.84573,36.37729",
    "geom:latitude":36.37729,
    "geom:longitude":-92.84573,
    "gn:admin1_code":"AR",
    "gn:admin2_code":"89.0",
    "gn:asciiname":"Monarch",
    "gn:country_code":"US",
    "gn:dem":271,
    "gn:elevation":"269.0",
    "gn:feature_class":"P",
    "gn:feature_code":"PPL",
    "gn:geonameid":4121963,
    "gn:latitude":36.37729,
    "gn:longitude":-92.84573,
    "gn:modification_date":"2010-09-05",
    "gn:name":"Monarch",
    "gn:population":0,
    "gn:timezone":"America/Chicago",
    "iso:country":"US",
    "mz:hierarchy_label":1,
    "mz:is_current":-1,
    "src:geom":"geonames",
    "wof:belongsto":[
        102191575,
        85633793,
        85688549,
        102082535
    ],
    "wof:breaches":[],
    "wof:concordances":{
        "gn:id":4121963
    },
    "wof:country":"US",
    "wof:geomhash":"e91008cfc7b550ea9937096ccd7dabda",
    "wof:hierarchy":[
        {
            "continent_id":102191575,
            "country_id":85633793,
            "county_id":102082535,
            "locality_id":1310329339,
            "region_id":85688549
        }
    ],
    "wof:id":1310329339,
    "wof:lastmodified":1536673651,
    "wof:name":"Monarch",
    "wof:parent_id":102082535,
    "wof:placetype":"locality",
    "wof:repo":"whosonfirst-data-admin-us",
    "wof:superseded_by":[],
    "wof:supersedes":[],
    "wof:tags":[]
},
  "bbox": [
    -92.84573,
    36.37729,
    -92.84573,
    36.37729
],
  "geometry": {"coordinates":[-92.84573,36.37729],"type":"Point"}
}