{
  "id": 1125298991,
  "type": "Feature",
  "properties": {
    "edtf:cessation":"uuuu",
    "edtf:deprecated":"2017-11-04",
    "edtf:inception":"uuuu",
    "geom:area":0.0,
    "geom:area_square_m":0.0,
    "geom:bbox":"-116.00012,47.50533,-116.00012,47.50533",
    "geom:latitude":47.50533,
    "geom:longitude":-116.00012,
    "gn:gn_country":"US",
    "gn:gn_fcode":"ADMD",
    "gn:gn_pop":1555,
    "gn:population":1555,
    "iso:country":"US",
    "lbl:latitude":47.50533,
    "lbl:longitude":-116.00012,
    "mz:hierarchy_label":1,
    "mz:is_current":0,
    "mz:note":"Quattroshapes Point Gazetteer import 20170519",
    "qs_pg:aaroncc":"US",
    "qs_pg:gn_country":"US",
    "qs_pg:gn_fcode":"ADMD",
    "qs_pg:gn_id":7174029,
    "qs_pg:gn_pop":1555,
    "qs_pg:name":"City of Osburn",
    "qs_pg:photos_9r":0,
    "qs_pg:photos_sr":0,
    "qs_pg:pop_sr":3,
    "qs_pg:qs_id":666602,
    "qs_pg:qs_pg_placetype":"localadmin",
    "src:geom":"qs_pg",
    "src:lbl:centroid":"qs_pg",
    "src:population":"geonames",
    "wof:belongsto":[
        85633793
    ],
    "wof:breaches":[],
    "wof:concordances":{
        "gn:id":7174029,
        "qs_pg:id":666602
    },
    "wof:country":"US",
    "wof:created":1497043314,
    "wof:geomhash":"e3a480a2300363c2451a9f3d699a1e1b",
    "wof:hierarchy":[
        {
            "country_id":85633793,
            "localadmin_id":1125298991
        }
    ],
    "wof:id":1125298991,
    "wof:lastmodified":1509752489,
    "wof:name":"City of Osburn",
    "wof:parent_id":-1,
    "wof:placetype":"localadmin",
    "wof:population":1555,
    "wof:population_rank":3,
    "wof:repo":"whosonfirst-data-admin-us",
    "wof:superseded_by":[
        85937819
    ],
    "wof:supersedes":[],
    "wof:tags":[]
},
  "bbox": [
    -116.00012,
    47.50533,
    -116.00012,
    47.50533
],
  "geometry": {"coordinates":[-116.00012,47.50533],"type":"Point"}
}