{
  "id": 1276146679,
  "type": "Feature",
  "properties": {
    "edtf:cessation":"uuuu",
    "edtf:inception":"uuuu",
    "geom:area":0.0,
    "geom:area_square_m":0.0,
    "geom:bbox":"-87.72779,32.29986,-87.72779,32.29986",
    "geom:latitude":32.29986,
    "geom:longitude":-87.72779,
    "gn:admin1_code":"AL",
    "gn:admin2_code":"91",
    "gn:asciiname":"Half Chance",
    "gn:country_code":"US",
    "gn:dem":63,
    "gn:elevation":"56.0",
    "gn:feature_class":"P",
    "gn:feature_code":"PPL",
    "gn:geonameid":4065841,
    "gn:latitude":32.29986,
    "gn:longitude":-87.72779,
    "gn:modification_date":"2006-01-15",
    "gn:name":"Half Chance",
    "gn:population":0,
    "gn:timezone":"America/Chicago",
    "iso:country":"US",
    "mz:hierarchy_label":1,
    "mz:is_current":-1,
    "src:geom":"geonames",
    "wof:belongsto":[
        102191575,
        85633793,
        85688675,
        102085423
    ],
    "wof:breaches":[],
    "wof:concordances":{
        "gn:id":4065841,
        "wk:page":"Half_Chance%2C_Alabama"
    },
    "wof:country":"US",
    "wof:geomhash":"6d84f82062cde2a8ae6375142e51757f",
    "wof:hierarchy":[
        {
            "continent_id":102191575,
            "country_id":85633793,
            "county_id":102085423,
            "locality_id":1276146679,
            "region_id":85688675
        }
    ],
    "wof:id":1276146679,
    "wof:lastmodified":1537575078,
    "wof:name":"Half Chance",
    "wof:parent_id":102085423,
    "wof:placetype":"locality",
    "wof:repo":"whosonfirst-data-admin-us",
    "wof:superseded_by":[],
    "wof:supersedes":[],
    "wof:tags":[]
},
  "bbox": [
    -87.72779,
    32.29986,
    -87.72779,
    32.29986
],
  "geometry": {"coordinates":[-87.72779,32.29986],"type":"Point"}
}