{
  "id": 1125305995,
  "type": "Feature",
  "properties": {
    "edtf:cessation":"2017-05-19",
    "edtf:inception":"uuuu",
    "geom:area":0.0,
    "geom:area_square_m":0.0,
    "geom:bbox":"-79.54116,40.75812,-79.54116,40.75812",
    "geom:latitude":40.75812,
    "geom:longitude":-79.54116,
    "gn:gn_country":"US",
    "gn:gn_fcode":"ADMD",
    "gn:gn_pop":371,
    "gn:population":371,
    "iso:country":"US",
    "lbl:latitude":40.75812,
    "lbl:longitude":-79.54116,
    "mz:hierarchy_label":1,
    "mz:is_current":0,
    "mz:note":"Quattroshapes Point Gazetteer import 20170519",
    "qs_pg:aaroncc":"US",
    "qs_pg:gn_country":"US",
    "qs_pg:gn_fcode":"ADMD",
    "qs_pg:gn_id":5189943,
    "qs_pg:gn_pop":371,
    "qs_pg:name":"Borough of Ford Cliff",
    "qs_pg:photos_9r":0,
    "qs_pg:photos_sr":0,
    "qs_pg:pop_sr":2,
    "qs_pg:qs_id":606421,
    "qs_pg:qs_pg_placetype":"localadmin",
    "src:geom":"qs_pg",
    "src:lbl:centroid":"qs_pg",
    "src:population":"geonames",
    "wof:belongsto":[
        85633793
    ],
    "wof:breaches":[],
    "wof:concordances":{
        "gn:id":5189943,
        "qs_pg:id":606421
    },
    "wof:country":"US",
    "wof:created":1497043695,
    "wof:geomhash":"021b45c313b6c28f79423105331a0bc6",
    "wof:hierarchy":[
        {
            "country_id":85633793,
            "localadmin_id":1125305995
        }
    ],
    "wof:id":1125305995,
    "wof:lastmodified":1505186970,
    "wof:name":"Borough of Ford Cliff",
    "wof:parent_id":-1,
    "wof:placetype":"localadmin",
    "wof:population":371,
    "wof:population_rank":2,
    "wof:repo":"whosonfirst-data-admin-us",
    "wof:superseded_by":[],
    "wof:supersedes":[],
    "wof:tags":[]
},
  "bbox": [
    -79.54116,
    40.75812,
    -79.54116,
    40.75812
],
  "geometry": {"coordinates":[-79.54116,40.75812],"type":"Point"}
}