{
  "id": 1126105855,
  "type": "Feature",
  "properties": {
    "edtf:cessation":"uuuu",
    "edtf:deprecated":"2018-08-15",
    "edtf:inception":"uuuu",
    "edtf:superseded":"2018-08-15",
    "geom:area":0.0,
    "geom:area_square_m":0.0,
    "geom:bbox":"-70.90921,41.85149,-70.90921,41.85149",
    "geom:latitude":41.85149,
    "geom:longitude":-70.90921,
    "gn:gn_country":"US",
    "gn:gn_fcode":"PPL",
    "gn:gn_pop":0,
    "iso:country":"US",
    "lbl:latitude":41.85149,
    "lbl:longitude":-70.90921,
    "mz:hierarchy_label":1,
    "mz:is_current":0,
    "mz:note":"Quattroshapes Point Gazetteer import 20170519",
    "qs_pg:aaroncc":"US",
    "qs_pg:gn_country":"US",
    "qs_pg:gn_fcode":"PPL",
    "qs_pg:gn_id":4941581,
    "qs_pg:gn_pop":0,
    "qs_pg:name":"Lakeside",
    "qs_pg:name_adm0":"United States",
    "qs_pg:name_adm1":"Massachusetts",
    "qs_pg:photos":729,
    "qs_pg:photos_1k":148,
    "qs_pg:photos_9k":3,
    "qs_pg:photos_9r":5,
    "qs_pg:photos_all":729,
    "qs_pg:photos_sr":8,
    "qs_pg:pop_sr":0,
    "qs_pg:qs_id":1119130,
    "qs_pg:qs_pg_placetype":"neighbourhood",
    "qs_pg:qs_pg_placetype_gp":"Suburb",
    "qs_pg:woe_adm0":23424977,
    "qs_pg:woe_id":55986992,
    "src:geom":"qs_pg",
    "src:lbl:centroid":"qs_pg",
    "woe:adm0_id":23424977,
    "woe:name_adm0":"United States",
    "woe:name_adm1":"Massachusetts",
    "woe:placetype":"Suburb",
    "wof:belongsto":[
        102191575,
        404476523,
        85633793,
        102084367,
        85688645
    ],
    "wof:breaches":[],
    "wof:concordances":{
        "gn:id":4941581,
        "gp:id":55986992,
        "qs_pg:id":1119130
    },
    "wof:country":"US",
    "wof:created":1497316926,
    "wof:geomhash":"37f842d8063bef7af3df4413a98e9457",
    "wof:hierarchy":[
        {
            "continent_id":102191575,
            "country_id":85633793,
            "county_id":102084367,
            "localadmin_id":404476523,
            "locality_id":-1,
            "neighbourhood_id":1126105855,
            "region_id":85688645
        }
    ],
    "wof:id":1126105855,
    "wof:lastmodified":1534379777,
    "wof:name":"Lakeside",
    "wof:parent_id":-1,
    "wof:placetype":"neighbourhood",
    "wof:repo":"whosonfirst-data-admin-us",
    "wof:superseded_by":[
        420523957
    ],
    "wof:supersedes":[],
    "wof:tags":[]
},
  "bbox": [
    -70.90921,
    41.85149,
    -70.90921,
    41.85149
],
  "geometry": {"coordinates":[-70.90921,41.85149],"type":"Point"}
}