{
  "id": 1125345401,
  "type": "Feature",
  "properties": {
    "edtf:cessation":"2017-05-19",
    "edtf:inception":"uuuu",
    "geom:area":0.0,
    "geom:area_square_m":0.0,
    "geom:bbox":"-77.37609,35.8072,-77.37609,35.8072",
    "geom:latitude":35.8072,
    "geom:longitude":-77.37609,
    "gn:gn_country":"US",
    "gn:gn_fcode":"ADMD",
    "gn:gn_pop":1577,
    "gn:population":1577,
    "iso:country":"US",
    "lbl:latitude":35.8072,
    "lbl:longitude":-77.37609,
    "mz:hierarchy_label":1,
    "mz:is_current":0,
    "mz:note":"Quattroshapes Point Gazetteer import 20170519",
    "qs_pg:aaroncc":"US",
    "qs_pg:gn_country":"US",
    "qs_pg:gn_fcode":"ADMD",
    "qs_pg:gn_id":7170623,
    "qs_pg:gn_pop":1577,
    "qs_pg:name":"Town of Bethel",
    "qs_pg:photos_9r":0,
    "qs_pg:photos_sr":0,
    "qs_pg:pop_sr":3,
    "qs_pg:qs_id":663283,
    "qs_pg:qs_pg_placetype":"localadmin",
    "src:geom":"qs_pg",
    "src:lbl:centroid":"qs_pg",
    "src:population":"geonames",
    "wof:belongsto":[
        85633793
    ],
    "wof:breaches":[],
    "wof:concordances":{
        "gn:id":7170623,
        "qs_pg:id":663283
    },
    "wof:country":"US",
    "wof:created":1497045889,
    "wof:geomhash":"923d388cfb04a688c86645d2ad6198cc",
    "wof:hierarchy":[
        {
            "country_id":85633793,
            "localadmin_id":1125345401
        }
    ],
    "wof:id":1125345401,
    "wof:lastmodified":1505187096,
    "wof:name":"Town of Bethel",
    "wof:parent_id":-1,
    "wof:placetype":"localadmin",
    "wof:population":1577,
    "wof:population_rank":3,
    "wof:repo":"whosonfirst-data-admin-us",
    "wof:superseded_by":[],
    "wof:supersedes":[],
    "wof:tags":[]
},
  "bbox": [
    -77.37609,
    35.8072,
    -77.37609,
    35.8072
],
  "geometry": {"coordinates":[-77.37609,35.8072],"type":"Point"}
}