{
  "id": 1343375153,
  "type": "Feature",
  "properties": {
    "edtf:cessation":"uuuu",
    "edtf:inception":"uuuu",
    "geom:area":0.0,
    "geom:area_square_m":0.0,
    "geom:bbox":"-88.24503,33.44678,-88.24503,33.44678",
    "geom:latitude":33.44678,
    "geom:longitude":-88.24503,
    "gn:admin1_code":"AL",
    "gn:admin2_code":"107.0",
    "gn:asciiname":"Stafford",
    "gn:country_code":"US",
    "gn:dem":113,
    "gn:elevation":"113.0",
    "gn:feature_class":"P",
    "gn:feature_code":"PPL",
    "gn:geonameid":4828095,
    "gn:latitude":33.44678,
    "gn:longitude":-88.24503,
    "gn:modification_date":"2006-01-15",
    "gn:name":"Stafford",
    "gn:population":0,
    "gn:timezone":"America/Chicago",
    "iso:country":"US",
    "mz:hierarchy_label":1,
    "mz:is_current":-1,
    "src:geom":"geonames",
    "wof:belongsto":[
        102191575,
        85633793,
        85688675,
        102085539
    ],
    "wof:breaches":[],
    "wof:concordances":{
        "gn:id":4828095
    },
    "wof:country":"US",
    "wof:geomhash":"d2d943993aca7e14945f3c62a55d3294",
    "wof:hierarchy":[
        {
            "continent_id":102191575,
            "country_id":85633793,
            "county_id":102085539,
            "locality_id":1343375153,
            "region_id":85688675
        }
    ],
    "wof:id":1343375153,
    "wof:lastmodified":1536868096,
    "wof:name":"Stafford",
    "wof:parent_id":102085539,
    "wof:placetype":"locality",
    "wof:repo":"whosonfirst-data-admin-us",
    "wof:superseded_by":[],
    "wof:supersedes":[],
    "wof:tags":[]
},
  "bbox": [
    -88.24503,
    33.44678,
    -88.24503,
    33.44678
],
  "geometry": {"coordinates":[-88.24503,33.44678],"type":"Point"}
}