{
  "id": 1125286037,
  "type": "Feature",
  "properties": {
    "edtf:cessation":"uuuu",
    "edtf:deprecated":"2017-11-04",
    "edtf:inception":"uuuu",
    "geom:area":0.0,
    "geom:area_square_m":0.0,
    "geom:bbox":"-96.45884,33.35817,-96.45884,33.35817",
    "geom:latitude":33.35817,
    "geom:longitude":-96.45884,
    "gn:gn_country":"US",
    "gn:gn_fcode":"ADMD",
    "gn:gn_pop":861,
    "gn:population":861,
    "iso:country":"US",
    "lbl:latitude":33.35817,
    "lbl:longitude":-96.45884,
    "mz:hierarchy_label":1,
    "mz:is_current":0,
    "mz:note":"Quattroshapes Point Gazetteer import 20170519",
    "qs_pg:aaroncc":"US",
    "qs_pg:gn_country":"US",
    "qs_pg:gn_fcode":"ADMD",
    "qs_pg:gn_id":7174691,
    "qs_pg:gn_pop":861,
    "qs_pg:name":"City of Westminster (historical)",
    "qs_pg:photos_9r":0,
    "qs_pg:photos_sr":0,
    "qs_pg:pop_sr":2,
    "qs_pg:qs_id":667262,
    "qs_pg:qs_pg_placetype":"localadmin",
    "src:geom":"qs_pg",
    "src:lbl:centroid":"qs_pg",
    "src:population":"geonames",
    "wof:belongsto":[
        85633793
    ],
    "wof:breaches":[],
    "wof:concordances":{
        "gn:id":7174691,
        "qs_pg:id":667262
    },
    "wof:country":"US",
    "wof:created":1497042698,
    "wof:geomhash":"8c8b483f61eb0e2e2f08b56c196de853",
    "wof:hierarchy":[
        {
            "country_id":85633793,
            "localadmin_id":1125286037
        }
    ],
    "wof:id":1125286037,
    "wof:lastmodified":1509752443,
    "wof:name":"City of Westminster (historical)",
    "wof:parent_id":-1,
    "wof:placetype":"localadmin",
    "wof:population":861,
    "wof:population_rank":2,
    "wof:repo":"whosonfirst-data-admin-us",
    "wof:superseded_by":[
        101727505
    ],
    "wof:supersedes":[],
    "wof:tags":[]
},
  "bbox": [
    -96.45884,
    33.35817,
    -96.45884,
    33.35817
],
  "geometry": {"coordinates":[-96.45884,33.35817],"type":"Point"}
}