{
  "id": 85850555,
  "type": "Feature",
  "properties": {"wof:repo":"whosonfirst-data-admin-us",
    "src:geom":"quattroshapes",
    "wof:geomhash":"fb756706c9c798efd3a75cd052a226aa",
    "wof:id":85850555
},
  "bbox": [
    -111.78863525400004,
    40.71852709165016,
    -111.75666259800005,
    40.775981495150035
],
  "geometry": {"coordinates":[[[[-111.76471169477989,40.71871923884609],[-111.76666259799984,40.71852709165016],[-111.76780273421684,40.71863938526617],[-111.76780440695336,40.71862240168851],[-111.77650711704655,40.73010571626214],[-111.77647045080397,40.73047799487027],[-111.77590139332506,40.73235392597378],[-111.77497729412292,40.73408279398032],[-111.77373366581185,40.73559815946213],[-111.77221830033002,40.73684178777305],[-111.77048943232367,40.73776588697508],[-111.76861350122016,40.73833494445418],[-111.76666259799984,40.73852709165011],[-111.76471169477989,40.73833494445418],[-111.76283576367638,40.73776588697508],[-111.76110689566966,40.73684178777305],[-111.75959153018812,40.73559815946213],[-111.75834790187685,40.73408279398032],[-111.75742380267479,40.73235392597378],[-111.75685474519588,40.73047799487027],[-111.75666259800005,40.72852709165014],[-111.75685474519588,40.72657618843002],[-111.75742380267479,40.72470025732657],[-111.75834790187685,40.72297138931995],[-111.75959153018812,40.72145602383833],[-111.76110689566966,40.72021239552724],[-111.76283576367638,40.71928829632483],[-111.76471169477989,40.71871923884609]]],[[[-111.76832892767641,40.77522029047527],[-111.76660005966977,40.77429619127314],[-111.76508469418815,40.77305256296195],[-111.76384106587687,40.77153719748041],[-111.76291696667482,40.76980832947370],[-111.76234790919591,40.76793239837026],[-111.76215576199979,40.76598149515023],[-111.76234790919591,40.76403059193011],[-111.76291696667482,40.76215466082650],[-111.76384106587687,40.76042579282004],[-111.76508469418815,40.75891042733824],[-111.76660005966977,40.75766679902715],[-111.76832892767641,40.75674269982501],[-111.76922417681450,40.75647112896783],[-111.76924509953557,40.75643198530983],[-111.76933422987690,40.75626523416982],[-111.77057785818818,40.75474986868828],[-111.77209322366980,40.75350624037692],[-111.77382209167615,40.75258214117505],[-111.77471717469248,40.75231062071063],[-111.77473807624710,40.75227151665216],[-111.77482739387702,40.75210441511980],[-111.77607102218792,40.75058904963826],[-111.77758638766983,40.74934542132691],[-111.77920814792196,40.74847857241248],[-111.78116034055813,40.74933756770028],[-111.78588867199997,40.75557957767522],[-111.78588872133216,40.75557964280010],[-111.78863525400004,40.75920542168647],[-111.78863525400004,40.76182080630015],[-111.78863525400004,40.77432961870684],[-111.78696892432356,40.77522029047527],[-111.78509299322013,40.77578934795427],[-111.78314209000001,40.77598149515003],[-111.78119118677961,40.77578934795427],[-111.77931525567627,40.77522029047527],[-111.77764892599998,40.77432961870711],[-111.77598259632362,40.77522029047527],[-111.77410666522007,40.77578934795427],[-111.77215576199995,40.77598149515003],[-111.77020485877983,40.77578934795427],[-111.76832892767641,40.77522029047527]]]],"type":"MultiPolygon"}
}