{
  "id": 1125413473,
  "type": "Feature",
  "properties": {
    "edtf:cessation":"2017-05-19",
    "edtf:inception":"uuuu",
    "geom:area":0.0,
    "geom:area_square_m":0.0,
    "geom:bbox":"-87.15773,40.10887,-87.15773,40.10887",
    "geom:latitude":40.10887,
    "geom:longitude":-87.15773,
    "gn:gn_country":"US",
    "gn:gn_fcode":"ADMD",
    "gn:gn_pop":538,
    "gn:population":538,
    "iso:country":"US",
    "lbl:latitude":40.10887,
    "lbl:longitude":-87.15773,
    "mz:hierarchy_label":1,
    "mz:is_current":0,
    "mz:note":"Quattroshapes Point Gazetteer import 20170519",
    "qs_pg:aaroncc":"US",
    "qs_pg:gn_country":"US",
    "qs_pg:gn_fcode":"ADMD",
    "qs_pg:gn_id":7164956,
    "qs_pg:gn_pop":538,
    "qs_pg:name":"Town of Hillsboro",
    "qs_pg:photos_9r":0,
    "qs_pg:photos_sr":0,
    "qs_pg:pop_sr":2,
    "qs_pg:qs_id":659880,
    "qs_pg:qs_pg_placetype":"localadmin",
    "src:geom":"qs_pg",
    "src:lbl:centroid":"qs_pg",
    "src:population":"geonames",
    "wof:belongsto":[
        85633793
    ],
    "wof:breaches":[],
    "wof:concordances":{
        "gn:id":7164956,
        "qs_pg:id":659880
    },
    "wof:country":"US",
    "wof:created":1497050838,
    "wof:geomhash":"59d88beceaebea1b6816a1498f57a9ff",
    "wof:hierarchy":[
        {
            "country_id":85633793,
            "localadmin_id":1125413473
        }
    ],
    "wof:id":1125413473,
    "wof:lastmodified":1505187050,
    "wof:name":"Town of Hillsboro",
    "wof:parent_id":-1,
    "wof:placetype":"localadmin",
    "wof:population":538,
    "wof:population_rank":2,
    "wof:repo":"whosonfirst-data-admin-us",
    "wof:superseded_by":[],
    "wof:supersedes":[],
    "wof:tags":[]
},
  "bbox": [
    -87.15773,
    40.10887,
    -87.15773,
    40.10887
],
  "geometry": {"coordinates":[-87.15773,40.10887],"type":"Point"}
}