{
  "id": 420539489,
  "type": "Feature",
  "properties": {
    "azavea:LISTNAME":"Airport",
    "azavea:MAPNAME":"Airport",
    "azavea:NAME":"AIRPORT",
    "edtf:cessation":"uuuu",
    "edtf:inception":"uuuu",
    "geom:area":0.000983,
    "geom:area_square_m":9327015.926255,
    "geom:bbox":"-75.2575868405,39.8670039996,-75.1939591631,39.8976580184",
    "geom:latitude":39.883098,
    "geom:longitude":-75.218305,
    "iso:country":"US",
    "lbl:latitude":39.885787,
    "lbl:longitude":-75.213489,
    "mps:latitude":39.885787,
    "mps:longitude":-75.213489,
    "mz:hierarchy_label":1,
    "mz:is_current":1,
    "mz:is_funky":0,
    "mz:is_landuse_aoi":1,
    "mz:max_zoom":18.0,
    "mz:min_zoom":15.0,
    "name:eng_x_preferred":[
        "Airport"
    ],
    "reversegeo:latitude":39.885787,
    "reversegeo:longitude":-75.213489,
    "src:geom":"azavea",
    "src:geom_alt":[
        "zetashapes"
    ],
    "src:lbl":"mapshaper",
    "src:lbl:centroid":"mapshaper",
    "wof:belongsto":[
        102191575,
        1108721803,
        404483701,
        85633793,
        101718083,
        102081353,
        85688481
    ],
    "wof:breaches":[],
    "wof:concordances":{
        "gp:id":100000029
    },
    "wof:country":"US",
    "wof:geomhash":"fa7d2812643be39d385db9593acc4a03",
    "wof:hierarchy":[
        {
            "continent_id":102191575,
            "country_id":85633793,
            "county_id":102081353,
            "localadmin_id":404483701,
            "locality_id":101718083,
            "macrohood_id":1108721803,
            "neighbourhood_id":420539489,
            "region_id":85688481
        }
    ],
    "wof:id":420539489,
    "wof:lastmodified":1507246118,
    "wof:name":"Airport",
    "wof:parent_id":1108721803,
    "wof:placetype":"neighbourhood",
    "wof:repo":"whosonfirst-data-admin-us",
    "wof:superseded_by":[],
    "wof:supersedes":[],
    "wof:tags":[],
    "zs:area_m":9301127.077832,
    "zs:blockids":[
        421019809001209,
        421019809001117,
        421019809001120,
        421019809001186,
        421019809001174,
        421019809001194,
        421019804001000,
        421019809001195,
        421019809001149,
        421019809001155,
        421019809001160,
        421019809001158,
        421019804001013,
        421019809001184,
        421019809001170,
        421019809001185,
        421019809001190,
        421019809001116,
        421019809001182,
        421019809001210,
        421019809001121,
        421019809001147,
        421019809001144,
        421019809001166,
        421019809001142,
        421019809001151,
        421019809001153,
        421019809001189,
        421019809001188,
        421019804001006,
        421019809001171,
        421019809001148,
        421019809001138,
        421019809001146,
        421019809001164,
        421019804001005,
        421019809001219,
        421019809001220,
        421019809001223,
        421019809001243,
        421019809001159,
        421019809001112,
        421019809001167,
        421019809001145,
        421019809001152,
        421019809001123,
        421019809001125,
        421019809001196,
        421019809001192,
        421019804001015,
        421019809001165,
        421019809001227,
        421019809001221,
        421019804001001,
        421019809001191,
        421019809001161,
        421019809001183,
        421019809001124,
        421019809001241,
        421019804001002,
        421019809001154,
        421019809001218,
        421019809001244,
        421019804001008,
        421019804001009,
        421019804001010,
        421019804001012,
        421019809001122,
        421019809001140,
        421019804001004,
        421019809001173,
        421019809001157,
        421019809001162,
        421019809001197,
        421019809001199,
        421019809001214,
        421019809001113,
        421019809001198,
        421019809001187,
        421019804001003,
        421019809001169,
        421019809001168,
        421019809001150,
        421019804001011,
        421019809001172,
        421019804001007,
        421019809001139,
        421019809001163,
        421019804001014,
        421019809001143,
        421019809001222,
        421019809001224,
        421019809001242,
        421019809001156,
        421019809001126
    ],
    "zs:housing10":0,
    "zs:id":100000029,
    "zs:label":"Airport",
    "zs:pop10":0
},
  "bbox": [
    -75.25758684047646,
    39.86700399962774,
    -75.19395916306374,
    39.89765801835787
],
  "geometry": {"coordinates":[[[-75.25758684047646,39.87626087398478],[-75.25173823438132,39.87736413681017],[-75.24995841619712,39.87805987775943],[-75.24817100169143,39.87896110272611],[-75.24540751419214,39.88059464256511],[-75.24406003197402,39.8820364811961],[-75.24297754689,39.88424150053054],[-75.24192845331797,39.88644805822848],[-75.24097727869768,39.88772242580007],[-75.2397450719871,39.88903709548581],[-75.23819727015334,39.89019566893464],[-75.23637685804394,39.89116605896937],[-75.23105391751864,39.89321522989537],[-75.22871591208178,39.89308464249421],[-75.2265153416778,39.89270496698966],[-75.22456598660526,39.89198327524561],[-75.2239534912128,39.8922152640132],[-75.22365347331402,39.89231526483206],[-75.21455198833605,39.89647664265709],[-75.21377049061675,39.89683837232502],[-75.21272632102009,39.89731155536619],[-75.21196176074517,39.89765801835787],[-75.20825252956529,39.89551531598355],[-75.20595239200475,39.89481532875286],[-75.19895197154665,39.8931153655432],[-75.19717571065287,39.89268253796009],[-75.19634336710699,39.89217565820301],[-75.19575177869774,39.89181538515587],[-75.19395916306374,39.87823906254153],[-75.19417099972875,39.87810700012003],[-75.19471000046359,39.87774100022413],[-75.19501799993941,39.87752099969684],[-75.19523599959336,39.87736499969458],[-75.1953609995212,39.87727599995262],[-75.19548900020527,39.87716699973529],[-75.19590799960811,39.87681100005603],[-75.1964040005254,39.87641799957296],[-75.19676100048409,39.87609799988722],[-75.1971230001153,39.87581799994094],[-75.19742399959968,39.87551499967495],[-75.19763600051053,39.87529400005134],[-75.19782800046123,39.87512699972968],[-75.19810599998769,39.87486099984643],[-75.19855200002921,39.87444100017861],[-75.19904900048878,39.87398999992404],[-75.19946800002572,39.87355200010249],[-75.19985699970357,39.87322199976625],[-75.20408700000382,39.87120399970114],[-75.21030187969556,39.86766522442372],[-75.21146300031232,39.86700399962774],[-75.2160390005408,39.87111500025117],[-75.21602200003721,39.87135800012097],[-75.21601500038001,39.87146799997161],[-75.21578699999797,39.87505200017915],[-75.21572700028493,39.8760180002996],[-75.21572352537243,39.87606594683581],[-75.21572199960848,39.87608700013434],[-75.21590000053439,39.87605899986328],[-75.21604600054154,39.87602399996865],[-75.21620300013861,39.87599100007237],[-75.21634800015946,39.87595700032433],[-75.21637000044457,39.87595199967474],[-75.21670199992379,39.8758760000953],[-75.21684400010253,39.87584300019552],[-75.21701299985401,39.87580700016491],[-75.21751499943925,39.87574499954103],[-75.21770100021106,39.87571999975421],[-75.21785799979054,39.87570100008114],[-75.21803399983787,39.87568300028529],[-75.21832000054043,39.87567800027342],[-75.21882399984987,39.87567200020437],[-75.21888500046533,39.8756729998825],[-75.21892099948276,39.87566899993657],[-75.21924099955639,39.87559099992379],[-75.21944500044106,39.87554300039932],[-75.21962000050753,39.87550199968803],[-75.21964800035036,39.87549099959578],[-75.21968505662859,39.87548089325332],[-75.21970300056068,39.87547599971878],[-75.21973500032318,39.87547299961748],[-75.21977000040395,39.87547900007943],[-75.22025903743126,39.87551964330629],[-75.22086500048798,39.87557000028625],[-75.22104100051,39.87558599964209],[-75.2212289997058,39.87560200044008],[-75.22127500001173,39.87560599970751],[-75.22208100027196,39.87567400020334],[-75.22263198595263,39.87572408996294],[-75.22269699994897,39.87573000008259],[-75.22286900010289,39.87574999983175],[-75.223064999774,39.87577400012511],[-75.22315199978318,39.87578399972946],[-75.22376300001548,39.87585799998497],[-75.22465300015666,39.87602300036295],[-75.22485700025021,39.87605999959939],[-75.22502799997453,39.87609299977188],[-75.22534562861189,39.87615253472119],[-75.22595099964414,39.87626599985641],[-75.22684399981085,39.87640199997882],[-75.22689000020415,39.87640400036306],[-75.22711900038999,39.87643600034967],[-75.22846999977862,39.87663100010329],[-75.22872400009756,39.87666699960108],[-75.2289049997747,39.8766919995444],[-75.22998499967275,39.87684699961949],[-75.23047499941178,39.87688900040724],[-75.23064400056774,39.87690099996435],[-75.23084600023937,39.8769190000622],[-75.2309960004943,39.87693299965167],[-75.23105500052,39.87693799972863],[-75.23186999947647,39.87701000022219],[-75.23192900003193,39.87701599996458],[-75.23230999990029,39.87705600030417],[-75.23254900045747,39.87708200029099],[-75.23265700053334,39.87709299997254],[-75.23281399972029,39.87711099997905],[-75.23299100024734,39.87712800021726],[-75.23327099983999,39.87715400004729],[-75.23395600003671,39.87717700025514],[-75.23401799985497,39.87717900037536],[-75.23412200045786,39.87718100000016],[-75.23430199955931,39.87713599981196],[-75.23448000002315,39.87709399993749],[-75.23465200044862,39.87705299973606],[-75.23468400023347,39.8770450003373],[-75.2350240002495,39.87696399967346],[-75.23553700029392,39.87675099984344],[-75.23555312504195,39.8767402497998],[-75.23579500029308,39.87657899987601],[-75.23592800035289,39.87648799997402],[-75.23596600050472,39.87646100013013],[-75.23597746639783,39.87645321931048],[-75.2360126700592,39.87642933140517],[-75.23605000039717,39.8764039998997],[-75.23637000043529,39.87618699996987],[-75.23664000033118,39.87573599964978],[-75.23671300022862,39.87561400043695],[-75.23677399977875,39.87547500018704],[-75.23678500048698,39.87544599965454],[-75.23682447382188,39.87535738664491],[-75.23693199982662,39.87511600040594],[-75.23750000047436,39.8750799997804],[-75.23754043728469,39.87503596820034],[-75.23758999969206,39.87498199959715],[-75.23753599959986,39.87491100015519],[-75.23750000006856,39.87486699997171],[-75.2374590004853,39.87480399987071],[-75.23751109410553,39.87478711591207],[-75.2380104791381,39.87462525743666],[-75.23811000033709,39.8745930004024],[-75.23824600006961,39.87444600020186],[-75.23832500056123,39.8743620004151],[-75.23837600018688,39.87430100009965],[-75.23868799978146,39.87395900027439],[-75.23875835621462,39.87393053459853],[-75.23892321669739,39.87386383123672],[-75.23899200009724,39.87383600038837],[-75.23917099957096,39.87360899968817],[-75.23926000020425,39.87349000034733],[-75.23934800011592,39.87337199984437],[-75.23940400020284,39.87329900020507],[-75.23948277286384,39.87326846782634],[-75.2400773244898,39.87303801354658],[-75.2400979994753,39.87302999978215],[-75.24010500035732,39.87285800010248],[-75.24010100024749,39.87273100018839],[-75.24009999972179,39.87262900010293],[-75.24010100031377,39.87259699977285],[-75.24029127462389,39.87248562040067],[-75.24046999970261,39.87238100021928],[-75.24089800044172,39.87239999957597],[-75.24093700032043,39.87240499996192],[-75.24108799986924,39.87243799955613],[-75.24121599954641,39.87246600030501],[-75.24137099955531,39.8725009999216],[-75.24141900025073,39.87251100040293],[-75.24155500017656,39.87254000032875],[-75.24174600042991,39.87258500021197],[-75.24201530647963,39.87269454908582],[-75.24221800002564,39.8727769998427],[-75.24229000048915,39.87280800030256],[-75.24256800054417,39.87295499961432],[-75.24269498932412,39.87302150935767],[-75.24272900043934,39.87303900035716],[-75.24673400038216,39.87506800036316],[-75.24677600039122,39.87510299974096],[-75.24682399946508,39.87514199991739],[-75.24809800015122,39.87620800019539],[-75.24840399942728,39.87646399987397],[-75.24843100035254,39.8764850004067],[-75.24964399952734,39.87631099959088],[-75.25030199956724,39.87621700040879],[-75.25175105515856,39.87600922915325],[-75.25225699976305,39.87593699986137],[-75.25272499941512,39.875965000156],[-75.25301700040458,39.87598299980859],[-75.25321699974209,39.87599600011523],[-75.25345599971192,39.87601100035453],[-75.25351499947395,39.87601499955816],[-75.25366500043404,39.87602300037507],[-75.25373700030927,39.8760269997634],[-75.25398599992718,39.87604199959235],[-75.2542909999358,39.87606099992733],[-75.25465199970289,39.87608300020595],[-75.25508399982212,39.87610900044474],[-75.25543499981912,39.87613000026462],[-75.25612699971825,39.87617199976915],[-75.25714599980357,39.87623399983763],[-75.2574100000549,39.87624999967862],[-75.25758684047646,39.87626087398478]]],"type":"Polygon"}
}