{
  "id": 420549159,
  "type": "Feature",
  "properties": {
    "edtf:cessation":"uuuu",
    "edtf:inception":"uuuu",
    "geom:area":0.0,
    "geom:bbox":"-122.636652,45.615823,-122.636652,45.615823",
    "geom:latitude":45.615823,
    "geom:longitude":-122.636652,
    "iso:country":"US",
    "lbl:latitude":45.615823,
    "lbl:longitude":-122.636652,
    "mz:hierarchy_label":0,
    "mz:is_current":-1,
    "name:eng_x_preferred":[
        "Wauna Vista"
    ],
    "src:geom":"mz",
    "src:geom_alt":[
        "zetashapes"
    ],
    "src:lbl":"mapshaper",
    "src:lbl:centroid":"mapshaper",
    "wof:belongsto":[
        102191575,
        85633793,
        101730071,
        102084251,
        85688623
    ],
    "wof:breaches":[],
    "wof:concordances":{
        "gp:id":55997851
    },
    "wof:country":"US",
    "wof:geomhash":"215fc75ff00bace551011961cd206e5b",
    "wof:hierarchy":[
        {
            "continent_id":102191575,
            "country_id":85633793,
            "county_id":102084251,
            "locality_id":101730071,
            "neighbourhood_id":420549159,
            "region_id":85688623
        }
    ],
    "wof:id":420549159,
    "wof:lastmodified":1533604088,
    "wof:name":"Wauna Vista",
    "wof:parent_id":101730071,
    "wof:placetype":"neighbourhood",
    "wof:repo":"whosonfirst-data-admin-us",
    "wof:superseded_by":[],
    "wof:supersedes":[],
    "wof:tags":[],
    "zs:area_m":349677.701354,
    "zs:blockids":[
        530110426003033,
        530110426003032
    ],
    "zs:housing10":0,
    "zs:id":55997851,
    "zs:label":"Wauna Vista",
    "zs:pop10":0
},
  "bbox": [
    -122.636652,
    45.615823,
    -122.636652,
    45.615823
],
  "geometry": {"coordinates":[-122.636652,45.615823],"type":"Point"}
}