{
  "id": 1343687509,
  "type": "Feature",
  "properties": {
    "edtf:cessation":"uuuu",
    "edtf:inception":"uuuu",
    "geom:area":0.0,
    "geom:area_square_m":0.0,
    "geom:bbox":"-97.05416,31.41434,-97.05416,31.41434",
    "geom:latitude":31.41434,
    "geom:longitude":-97.05416,
    "gn:admin1_code":"TX",
    "gn:admin2_code":"309.0",
    "gn:asciiname":"Asa",
    "gn:country_code":"US",
    "gn:dem":120,
    "gn:elevation":"119.0",
    "gn:feature_class":"P",
    "gn:feature_code":"PPL",
    "gn:geonameid":4671407,
    "gn:latitude":31.41434,
    "gn:longitude":-97.05416,
    "gn:modification_date":"2006-01-15",
    "gn:name":"Asa",
    "gn:population":0,
    "gn:timezone":"America/Chicago",
    "iso:country":"US",
    "mz:hierarchy_label":1,
    "mz:is_current":-1,
    "src:geom":"geonames",
    "wof:belongsto":[
        102191575,
        85633793,
        85688753,
        102085007
    ],
    "wof:breaches":[],
    "wof:concordances":{
        "gn:id":4671407
    },
    "wof:country":"US",
    "wof:geomhash":"6098ebca1b771657ca5dfa16cca103d7",
    "wof:hierarchy":[
        {
            "continent_id":102191575,
            "country_id":85633793,
            "county_id":102085007,
            "locality_id":1343687509,
            "region_id":85688753
        }
    ],
    "wof:id":1343687509,
    "wof:lastmodified":1536916628,
    "wof:name":"Asa",
    "wof:parent_id":102085007,
    "wof:placetype":"locality",
    "wof:repo":"whosonfirst-data-admin-us",
    "wof:superseded_by":[],
    "wof:supersedes":[],
    "wof:tags":[]
},
  "bbox": [
    -97.05416,
    31.41434000000001,
    -97.05416,
    31.41434000000001
],
  "geometry": {"coordinates":[-97.05416,31.41434000000001],"type":"Point"}
}