{
  "id": 404476241,
  "type": "Feature",
  "properties": {
    "edtf:cessation":"uuuu",
    "edtf:inception":"uuuu",
    "geom:area":0.003065,
    "geom:area_square_m":27839855.351515,
    "geom:bbox":"-73.023709,42.701264,-72.9271895723,42.741133",
    "geom:latitude":42.722629,
    "geom:longitude":-72.982614,
    "iso:country":"US",
    "lbl:latitude":42.721378,
    "lbl:longitude":-72.982614,
    "mz:hierarchy_label":1,
    "mz:is_current":-1,
    "name:eng_x_preferred":[
        "Monroe"
    ],
    "qs:a0":"United States",
    "qs:a1":"Massachusetts",
    "qs:a1_lc":"25",
    "qs:a2":"Franklin",
    "qs:a2_lc":"25011",
    "qs:adm0":"United States",
    "qs:adm0_a3":"USA",
    "qs:la":"Monroe",
    "qs:la_lc":"2501142040",
    "qs:level":"localadmin",
    "qs:pop":121,
    "qs:source":"US Census",
    "qs:type":"town",
    "src:geom":"quattroshapes",
    "src:population":"quattroshapes",
    "wof:belongsto":[
        102191575,
        85633793,
        85688645,
        102084457
    ],
    "wof:breaches":[],
    "wof:concordances":{},
    "wof:country":"US",
    "wof:geomhash":"ae82cdce5ce83279e0d8340aa53e8398",
    "wof:hierarchy":[
        {
            "continent_id":102191575,
            "country_id":85633793,
            "county_id":102084457,
            "localadmin_id":404476241,
            "region_id":85688645
        }
    ],
    "wof:id":404476241,
    "wof:lastmodified":1505339455,
    "wof:name":"Monroe",
    "wof:parent_id":102084457,
    "wof:placetype":"localadmin",
    "wof:population":121,
    "wof:population_rank":1,
    "wof:repo":"whosonfirst-data-admin-us",
    "wof:superseded_by":[],
    "wof:supersedes":[],
    "wof:tags":[]
},
  "bbox": [
    -73.023709,
    42.701264,
    -72.9271895723187,
    42.741133
],
  "geometry": {"coordinates":[[[-73.022903,42.741133],[-72.9271895723187,42.7390950771654],[-72.928203,42.732378],[-72.931122,42.730303],[-72.931293,42.729271],[-72.93393500000001,42.727487],[-72.934303,42.725991],[-72.93695200000001,42.725264],[-72.93844799999999,42.72399],[-72.93929199999999,42.721327],[-72.941445,42.72012],[-72.945752,42.721313],[-72.951414,42.720253],[-72.952583,42.71947],[-72.953417,42.716944],[-72.950881,42.71165],[-72.950801,42.706762],[-72.949742,42.705103],[-72.997878,42.701264],[-73.023709,42.70269],[-73.022903,42.741133]]],"type":"Polygon"}
}