{
  "id": 1125302815,
  "type": "Feature",
  "properties": {
    "edtf:cessation":"uuuu",
    "edtf:deprecated":"2017-11-04",
    "edtf:inception":"uuuu",
    "geom:area":0.0,
    "geom:area_square_m":0.0,
    "geom:bbox":"-98.94816,46.30191,-98.94816,46.30191",
    "geom:latitude":46.30191,
    "geom:longitude":-98.94816,
    "gn:gn_country":"US",
    "gn:gn_fcode":"ADMD",
    "gn:gn_pop":354,
    "gn:population":354,
    "iso:country":"US",
    "lbl:latitude":46.30191,
    "lbl:longitude":-98.94816,
    "mz:hierarchy_label":1,
    "mz:is_current":0,
    "mz:note":"Quattroshapes Point Gazetteer import 20170519",
    "qs_pg:aaroncc":"US",
    "qs_pg:gn_country":"US",
    "qs_pg:gn_fcode":"ADMD",
    "qs_pg:gn_id":5059998,
    "qs_pg:gn_pop":354,
    "qs_pg:name":"City of Kulm",
    "qs_pg:photos_9r":0,
    "qs_pg:photos_sr":0,
    "qs_pg:pop_sr":2,
    "qs_pg:qs_id":602793,
    "qs_pg:qs_pg_placetype":"localadmin",
    "src:geom":"qs_pg",
    "src:lbl:centroid":"qs_pg",
    "src:population":"geonames",
    "wof:belongsto":[
        85633793
    ],
    "wof:breaches":[],
    "wof:concordances":{
        "gn:id":5059998,
        "qs_pg:id":602793
    },
    "wof:country":"US",
    "wof:created":1497043522,
    "wof:geomhash":"ab34befebe253c5173fb45a3b2170879",
    "wof:hierarchy":[
        {
            "country_id":85633793,
            "localadmin_id":1125302815
        }
    ],
    "wof:id":1125302815,
    "wof:lastmodified":1509752512,
    "wof:name":"City of Kulm",
    "wof:parent_id":-1,
    "wof:placetype":"localadmin",
    "wof:population":354,
    "wof:population_rank":2,
    "wof:repo":"whosonfirst-data-admin-us",
    "wof:superseded_by":[
        85982425
    ],
    "wof:supersedes":[],
    "wof:tags":[]
},
  "bbox": [
    -98.94816,
    46.30191,
    -98.94816,
    46.30191
],
  "geometry": {"coordinates":[-98.94816,46.30191],"type":"Point"}
}