{
  "id": 1242803653,
  "type": "Feature",
  "properties": {
    "edtf:cessation":"2018-09-06",
    "edtf:inception":"uuuu",
    "geom:area":0.0,
    "geom:area_square_m":0.0,
    "geom:bbox":"-92.41963,39.66476,-92.41963,39.66476",
    "geom:latitude":39.66476,
    "geom:longitude":-92.41963,
    "gn:admin1_code":"MO",
    "gn:admin2_code":"121.0",
    "gn:admin3_code":"51176.0",
    "gn:asciiname":"Narrows Creek (historical)",
    "gn:country_code":"US",
    "gn:dem":253,
    "gn:elevation":"254.0",
    "gn:feature_class":"P",
    "gn:feature_code":"PPLQ",
    "gn:geonameid":4400029,
    "gn:latitude":39.66476,
    "gn:longitude":-92.41963,
    "gn:modification_date":"2017-05-23",
    "gn:name":"Narrows Creek (historical)",
    "gn:population":0,
    "gn:timezone":"America/Chicago",
    "iso:country":"US",
    "mz:hierarchy_label":1,
    "mz:is_current":0,
    "name:eng_x_preferred":[
        "Narrows Creek (historical)"
    ],
    "name:und_x_variant":[
        "Friendship"
    ],
    "src:geom":"geonames",
    "wof:belongsto":[
        85688661,
        102191575,
        404517719,
        85633793,
        102086189
    ],
    "wof:breaches":[],
    "wof:concordances":{
        "gn:id":4400029
    },
    "wof:country":"US",
    "wof:geomhash":"eaf75c9a7cb75cfe073994911591a813",
    "wof:hierarchy":[
        {
            "continent_id":102191575,
            "country_id":85633793,
            "county_id":102086189,
            "localadmin_id":404517719,
            "locality_id":1242803653,
            "region_id":85688661
        }
    ],
    "wof:id":1242803653,
    "wof:lastmodified":1537712464,
    "wof:name":"Narrows Creek (historical)",
    "wof:parent_id":404517719,
    "wof:placetype":"locality",
    "wof:repo":"whosonfirst-data-admin-us",
    "wof:superseded_by":[],
    "wof:supersedes":[],
    "wof:tags":[]
},
  "bbox": [
    -92.41963,
    39.66476,
    -92.41963,
    39.66476
],
  "geometry": {"coordinates":[-92.41963,39.66476],"type":"Point"}
}