{
  "id": 1125347043,
  "type": "Feature",
  "properties": {
    "edtf:cessation":"uuuu",
    "edtf:deprecated":"2017-11-04",
    "edtf:inception":"uuuu",
    "geom:area":0.0,
    "geom:area_square_m":0.0,
    "geom:bbox":"-99.0742,29.72522,-99.0742,29.72522",
    "geom:latitude":29.72522,
    "geom:longitude":-99.0742,
    "gn:gn_country":"US",
    "gn:gn_fcode":"ADMD",
    "gn:gn_pop":857,
    "gn:population":857,
    "iso:country":"US",
    "lbl:latitude":29.72522,
    "lbl:longitude":-99.0742,
    "mz:hierarchy_label":1,
    "mz:is_current":0,
    "mz:note":"Quattroshapes Point Gazetteer import 20170519",
    "qs_pg:aaroncc":"US",
    "qs_pg:gn_country":"US",
    "qs_pg:gn_fcode":"ADMD",
    "qs_pg:gn_id":7172977,
    "qs_pg:gn_pop":857,
    "qs_pg:name":"City of Bandera",
    "qs_pg:photos_9r":0,
    "qs_pg:photos_sr":0,
    "qs_pg:pop_sr":2,
    "qs_pg:qs_id":665538,
    "qs_pg:qs_pg_placetype":"localadmin",
    "src:geom":"qs_pg",
    "src:lbl:centroid":"qs_pg",
    "src:population":"geonames",
    "wof:belongsto":[
        85633793
    ],
    "wof:breaches":[],
    "wof:concordances":{
        "gn:id":7172977,
        "qs_pg:id":665538
    },
    "wof:country":"US",
    "wof:created":1497045978,
    "wof:geomhash":"914fb2ffdbdf6e425251d9d0a0f81cdb",
    "wof:hierarchy":[
        {
            "country_id":85633793,
            "localadmin_id":1125347043
        }
    ],
    "wof:id":1125347043,
    "wof:lastmodified":1509752597,
    "wof:name":"City of Bandera",
    "wof:parent_id":-1,
    "wof:placetype":"localadmin",
    "wof:population":857,
    "wof:population_rank":2,
    "wof:repo":"whosonfirst-data-admin-us",
    "wof:superseded_by":[
        101725123
    ],
    "wof:supersedes":[],
    "wof:tags":[]
},
  "bbox": [
    -99.0742,
    29.72522,
    -99.0742,
    29.72522
],
  "geometry": {"coordinates":[-99.0742,29.72522],"type":"Point"}
}