{
  "id": 1276134893,
  "type": "Feature",
  "properties": {
    "edtf:cessation":"uuuu",
    "edtf:inception":"uuuu",
    "geom:area":0.0,
    "geom:area_square_m":0.0,
    "geom:bbox":"-79.46838,34.5585,-79.46838,34.5585",
    "geom:latitude":34.5585,
    "geom:longitude":-79.46838,
    "gn:admin1_code":"SC",
    "gn:admin2_code":"33.0",
    "gn:asciiname":"Judson",
    "gn:country_code":"US",
    "gn:dem":50,
    "gn:elevation":"46.0",
    "gn:feature_class":"P",
    "gn:feature_code":"PPL",
    "gn:geonameid":4583794,
    "gn:latitude":34.5585,
    "gn:longitude":-79.46838,
    "gn:modification_date":"2006-01-15",
    "gn:name":"Judson",
    "gn:population":0,
    "gn:timezone":"America/New_York",
    "iso:country":"US",
    "mz:hierarchy_label":1,
    "mz:is_current":-1,
    "src:geom":"geonames",
    "wof:belongsto":[
        102191575,
        85633793,
        85688683,
        102085701
    ],
    "wof:breaches":[],
    "wof:concordances":{
        "gn:id":4583794
    },
    "wof:country":"US",
    "wof:geomhash":"986bcccde5191720b2ed548dcab77d0d",
    "wof:hierarchy":[
        {
            "continent_id":102191575,
            "country_id":85633793,
            "county_id":102085701,
            "locality_id":1276134893,
            "region_id":85688683
        }
    ],
    "wof:id":1276134893,
    "wof:lastmodified":1537042722,
    "wof:name":"Judson",
    "wof:parent_id":102085701,
    "wof:placetype":"locality",
    "wof:repo":"whosonfirst-data-admin-us",
    "wof:superseded_by":[],
    "wof:supersedes":[],
    "wof:tags":[]
},
  "bbox": [
    -79.46838000000002,
    34.5585,
    -79.46838000000002,
    34.5585
],
  "geometry": {"coordinates":[-79.46838000000002,34.5585],"type":"Point"}
}