{
  "id": 1344172893,
  "type": "Feature",
  "properties": {
    "edtf:cessation":"uuuu",
    "edtf:inception":"uuuu",
    "geom:area":0.0,
    "geom:area_square_m":0.0,
    "geom:bbox":"-97.0019,33.23065,-97.0019,33.23065",
    "geom:latitude":33.23065,
    "geom:longitude":-97.0019,
    "gn:admin1_code":"TX",
    "gn:admin2_code":"121",
    "gn:asciiname":"Cross Roads",
    "gn:country_code":"US",
    "gn:dem":186,
    "gn:elevation":"183.0",
    "gn:feature_class":"P",
    "gn:feature_code":"PPL",
    "gn:geonameid":7234896,
    "gn:latitude":33.23065,
    "gn:longitude":-97.0019,
    "gn:modification_date":"2017-03-09",
    "gn:name":"Cross Roads",
    "gn:population":840,
    "gn:timezone":"America/Chicago",
    "iso:country":"US",
    "mz:hierarchy_label":1,
    "mz:is_current":-1,
    "src:geom":"geonames",
    "src:population":"geonames",
    "wof:belongsto":[
        102191575,
        85633793,
        85688753,
        102087371
    ],
    "wof:breaches":[],
    "wof:concordances":{
        "gn:id":7234896,
        "wk:page":"Cross_Roads%2C_Texas"
    },
    "wof:country":"US",
    "wof:geomhash":"b1d2de868fcf490679eefd3fadb251c4",
    "wof:hierarchy":[
        {
            "continent_id":102191575,
            "country_id":85633793,
            "county_id":102087371,
            "locality_id":1344172893,
            "region_id":85688753
        }
    ],
    "wof:id":1344172893,
    "wof:lastmodified":1537575722,
    "wof:name":"Cross Roads",
    "wof:parent_id":102087371,
    "wof:placetype":"locality",
    "wof:population":840,
    "wof:population_rank":2,
    "wof:repo":"whosonfirst-data-admin-us",
    "wof:superseded_by":[],
    "wof:supersedes":[],
    "wof:tags":[]
},
  "bbox": [
    -97.0019,
    33.23065,
    -97.0019,
    33.23065
],
  "geometry": {"coordinates":[-97.00190000000001,33.23065],"type":"Point"}
}