{
  "id": 1327250927,
  "type": "Feature",
  "properties": {
    "edtf:cessation":"2018-09-06",
    "edtf:inception":"uuuu",
    "geom:area":0.0,
    "geom:area_square_m":0.0,
    "geom:bbox":"-82.2629,33.67902,-82.2629,33.67902",
    "geom:latitude":33.67902,
    "geom:longitude":-82.2629,
    "gn:admin1_code":"GA",
    "gn:admin2_code":"73.0",
    "gn:asciiname":"Eubank (historical)",
    "gn:country_code":"US",
    "gn:dem":115,
    "gn:elevation":"101.0",
    "gn:feature_class":"P",
    "gn:feature_code":"PPLQ",
    "gn:geonameid":4193648,
    "gn:latitude":33.67902,
    "gn:longitude":-82.2629,
    "gn:modification_date":"2011-12-11",
    "gn:name":"Eubank (historical)",
    "gn:population":0,
    "gn:timezone":"America/New_York",
    "iso:country":"US",
    "mz:hierarchy_label":1,
    "mz:is_current":0,
    "src:geom":"geonames",
    "wof:belongsto":[
        102191575,
        85633793,
        85688535,
        102082315
    ],
    "wof:breaches":[],
    "wof:concordances":{
        "gn:id":4193648
    },
    "wof:country":"US",
    "wof:geomhash":"c47252203db7c78e18cafe2ed732b718",
    "wof:hierarchy":[
        {
            "continent_id":102191575,
            "country_id":85633793,
            "county_id":102082315,
            "locality_id":1327250927,
            "region_id":85688535
        }
    ],
    "wof:id":1327250927,
    "wof:lastmodified":1536943347,
    "wof:name":"Eubank (historical)",
    "wof:parent_id":102082315,
    "wof:placetype":"locality",
    "wof:repo":"whosonfirst-data-admin-us",
    "wof:superseded_by":[],
    "wof:supersedes":[],
    "wof:tags":[]
},
  "bbox": [
    -82.2629,
    33.67902,
    -82.2629,
    33.67902
],
  "geometry": {"coordinates":[-82.2629,33.67902],"type":"Point"}
}