{
  "id": 1126076091,
  "type": "Feature",
  "properties": {
    "edtf:cessation":"uuuu",
    "edtf:deprecated":"2018-08-15",
    "edtf:inception":"uuuu",
    "edtf:superseded":"2018-08-15",
    "geom:area":0.0,
    "geom:area_square_m":0.0,
    "geom:bbox":"-75.04517,39.65623,-75.04517,39.65623",
    "geom:latitude":39.65623,
    "geom:longitude":-75.04517,
    "gn:gn_country":"US",
    "gn:gn_fcode":"PPL",
    "gn:gn_pop":0,
    "iso:country":"US",
    "lbl:latitude":39.65623,
    "lbl:longitude":-75.04517,
    "mz:hierarchy_label":1,
    "mz:is_current":0,
    "mz:note":"Quattroshapes Point Gazetteer import 20170519",
    "name:eng_x_preferred":[
        "Fries Mill"
    ],
    "name:unk_x_variant":[
        "Fries Mills"
    ],
    "qs_pg:aaroncc":"US",
    "qs_pg:gn_country":"US",
    "qs_pg:gn_fcode":"PPL",
    "qs_pg:gn_id":4501885,
    "qs_pg:gn_pop":0,
    "qs_pg:name":"Fries Mill",
    "qs_pg:name_adm0":"United States",
    "qs_pg:name_adm1":"New Jersey",
    "qs_pg:photos":16,
    "qs_pg:photos_1k":3,
    "qs_pg:photos_9k":1,
    "qs_pg:photos_9r":1,
    "qs_pg:photos_all":16,
    "qs_pg:photos_sr":1,
    "qs_pg:pop_sr":5,
    "qs_pg:qs_id":472291,
    "qs_pg:qs_pg_placetype":"neighbourhood",
    "qs_pg:qs_pg_placetype_gp":"Suburb",
    "qs_pg:woe_adm0":23424977,
    "qs_pg:woe_id":2407739,
    "src:geom":"qs_pg",
    "src:lbl:centroid":"qs_pg",
    "woe:adm0_id":23424977,
    "woe:name_adm0":"United States",
    "woe:name_adm1":"New Jersey",
    "woe:placetype":"Suburb",
    "wof:belongsto":[
        102191575,
        404478175,
        85633793,
        102085999,
        85688607
    ],
    "wof:breaches":[],
    "wof:concordances":{
        "gn:id":4501885,
        "gp:id":2407739,
        "qs_pg:id":472291
    },
    "wof:country":"US",
    "wof:created":1497311049,
    "wof:geomhash":"1ecf41225bb310d56b7b528f649376e4",
    "wof:hierarchy":[
        {
            "continent_id":102191575,
            "country_id":85633793,
            "county_id":102085999,
            "localadmin_id":404478175,
            "locality_id":-1,
            "neighbourhood_id":1126076091,
            "region_id":85688607
        }
    ],
    "wof:id":1126076091,
    "wof:lastmodified":1534379771,
    "wof:name":"Fries Mill",
    "wof:parent_id":-1,
    "wof:placetype":"neighbourhood",
    "wof:repo":"whosonfirst-data-admin-us",
    "wof:superseded_by":[
        420527005
    ],
    "wof:supersedes":[],
    "wof:tags":[]
},
  "bbox": [
    -75.04517,
    39.65623,
    -75.04517,
    39.65623
],
  "geometry": {"coordinates":[-75.04517,39.65623],"type":"Point"}
}