{
  "id": 1326566775,
  "type": "Feature",
  "properties": {
    "edtf:cessation":"uuuu",
    "edtf:inception":"uuuu",
    "geom:area":0.0,
    "geom:area_square_m":0.0,
    "geom:bbox":"-117.37176,35.86044,-117.37176,35.86044",
    "geom:latitude":35.86044,
    "geom:longitude":-117.37176,
    "gn:admin1_code":"CA",
    "gn:admin2_code":"27",
    "gn:asciiname":"Homewood Canyon-Valley Wells",
    "gn:country_code":"US",
    "gn:dem":757,
    "gn:elevation":"759.0",
    "gn:feature_class":"P",
    "gn:feature_code":"PPL",
    "gn:geonameid":7261450,
    "gn:latitude":35.86044,
    "gn:longitude":-117.37176,
    "gn:modification_date":"2010-02-07",
    "gn:name":"Homewood Canyon-Valley Wells",
    "gn:population":0,
    "gn:timezone":"America/Los_Angeles",
    "iso:country":"US",
    "mz:hierarchy_label":1,
    "mz:is_current":-1,
    "name:und_x_variant":[
        "Homewood Canyon-Valley Wells CDP",
        "Homewood Canyon-Valley Wells Census Designated Place",
        "Homewood Canyon-Valley Wells"
    ],
    "src:geom":"geonames",
    "wof:belongsto":[
        102191575,
        85633793,
        85688637,
        102087577
    ],
    "wof:breaches":[],
    "wof:concordances":{
        "gn:id":7261450,
        "wk:page":"Homewood_Canyon-Valley_Wells%2C_California"
    },
    "wof:country":"US",
    "wof:geomhash":"41358c14595ca743c6f22376dc3485fa",
    "wof:hierarchy":[
        {
            "continent_id":102191575,
            "country_id":85633793,
            "county_id":102087577,
            "locality_id":1326566775,
            "region_id":85688637
        }
    ],
    "wof:id":1326566775,
    "wof:lastmodified":1537713192,
    "wof:name":"Homewood Canyon-Valley Wells",
    "wof:parent_id":102087577,
    "wof:placetype":"locality",
    "wof:repo":"whosonfirst-data-admin-us",
    "wof:superseded_by":[],
    "wof:supersedes":[],
    "wof:tags":[]
},
  "bbox": [
    -117.37176,
    35.86044000000001,
    -117.37176,
    35.86044000000001
],
  "geometry": {"coordinates":[-117.37175999999999,35.86044000000001],"type":"Point"}
}