{
  "id": 1125290483,
  "type": "Feature",
  "properties": {
    "edtf:cessation":"2017-05-19",
    "edtf:inception":"uuuu",
    "geom:area":0.0,
    "geom:area_square_m":0.0,
    "geom:bbox":"-84.76482,41.29358,-84.76482,41.29358",
    "geom:latitude":41.29358,
    "geom:longitude":-84.76482,
    "gn:gn_country":"US",
    "gn:gn_fcode":"ADMD",
    "gn:gn_pop":3581,
    "gn:population":3581,
    "iso:country":"US",
    "lbl:latitude":41.29358,
    "lbl:longitude":-84.76482,
    "mz:hierarchy_label":1,
    "mz:is_current":0,
    "mz:note":"Quattroshapes Point Gazetteer import 20170519",
    "qs_pg:aaroncc":"US",
    "qs_pg:gn_country":"US",
    "qs_pg:gn_fcode":"ADMD",
    "qs_pg:gn_id":7166216,
    "qs_pg:gn_pop":3581,
    "qs_pg:name":"Village of Hicksville",
    "qs_pg:photos_9r":0,
    "qs_pg:photos_sr":0,
    "qs_pg:pop_sr":4,
    "qs_pg:qs_id":661054,
    "qs_pg:qs_pg_placetype":"localadmin",
    "src:geom":"qs_pg",
    "src:lbl:centroid":"qs_pg",
    "src:population":"geonames",
    "wof:belongsto":[
        85633793
    ],
    "wof:breaches":[],
    "wof:concordances":{
        "gn:id":7166216,
        "qs_pg:id":661054
    },
    "wof:country":"US",
    "wof:created":1497042895,
    "wof:geomhash":"d9a6ee08b7c606d54a164e8ad633895e",
    "wof:hierarchy":[
        {
            "country_id":85633793,
            "localadmin_id":1125290483
        }
    ],
    "wof:id":1125290483,
    "wof:lastmodified":1505187063,
    "wof:name":"Village of Hicksville",
    "wof:parent_id":-1,
    "wof:placetype":"localadmin",
    "wof:population":3581,
    "wof:population_rank":4,
    "wof:repo":"whosonfirst-data-admin-us",
    "wof:superseded_by":[],
    "wof:supersedes":[],
    "wof:tags":[]
},
  "bbox": [
    -84.76482,
    41.29358,
    -84.76482,
    41.29358
],
  "geometry": {"coordinates":[-84.76482,41.29358],"type":"Point"}
}