{
  "id": 1343478565,
  "type": "Feature",
  "properties": {
    "edtf:cessation":"uuuu",
    "edtf:deprecated":"2019-02-08",
    "edtf:inception":"uuuu",
    "geom:area":0.0,
    "geom:area_square_m":0.0,
    "geom:bbox":"-82.0167,29.7763,-82.0167,29.7763",
    "geom:latitude":29.7763,
    "geom:longitude":-82.0167,
    "gn:admin1_code":"FL",
    "gn:admin2_code":"19.0",
    "gn:asciiname":"Jim Rod Mobile Home Park",
    "gn:country_code":"US",
    "gn:dem":44,
    "gn:elevation":"35.0",
    "gn:feature_class":"P",
    "gn:feature_code":"PPL",
    "gn:geonameid":7191184,
    "gn:latitude":29.7763,
    "gn:longitude":-82.0167,
    "gn:modification_date":"2010-02-05",
    "gn:name":"Jim Rod Mobile Home Park",
    "gn:population":0,
    "gn:timezone":"America/New_York",
    "iso:country":"US",
    "mz:hierarchy_label":1,
    "mz:is_current":0,
    "src:geom":"geonames",
    "wof:belongsto":[
        102191575,
        85633793,
        85688651,
        102085797
    ],
    "wof:breaches":[],
    "wof:concordances":{
        "gn:id":7191184
    },
    "wof:country":"US",
    "wof:geomhash":"6206ecc6d247078974f0ba6c01e1bf40",
    "wof:hierarchy":[
        {
            "continent_id":102191575,
            "country_id":85633793,
            "county_id":102085797,
            "locality_id":1343478565,
            "region_id":85688651
        }
    ],
    "wof:id":1343478565,
    "wof:lastmodified":1549654235,
    "wof:name":"Jim Rod Mobile Home Park",
    "wof:parent_id":102085797,
    "wof:placetype":"locality",
    "wof:repo":"whosonfirst-data-admin-us",
    "wof:superseded_by":[
        1376910813
    ],
    "wof:supersedes":[],
    "wof:tags":[]
},
  "bbox": [
    -82.0167,
    29.7763,
    -82.0167,
    29.7763
],
  "geometry": {"coordinates":[-82.0167,29.7763],"type":"Point"}
}