{
  "id": 1125291421,
  "type": "Feature",
  "properties": {
    "edtf:cessation":"2017-05-19",
    "edtf:inception":"uuuu",
    "geom:area":0.0,
    "geom:area_square_m":0.0,
    "geom:bbox":"-99.29879,41.22217,-99.29879,41.22217",
    "geom:latitude":41.22217,
    "geom:longitude":-99.29879,
    "gn:gn_country":"US",
    "gn:gn_fcode":"ADMD",
    "gn:gn_pop":171,
    "gn:population":171,
    "iso:country":"US",
    "lbl:latitude":41.22217,
    "lbl:longitude":-99.29879,
    "mz:hierarchy_label":1,
    "mz:is_current":0,
    "mz:note":"Quattroshapes Point Gazetteer import 20170519",
    "qs_pg:aaroncc":"US",
    "qs_pg:gn_country":"US",
    "qs_pg:gn_fcode":"ADMD",
    "qs_pg:gn_id":7166939,
    "qs_pg:gn_pop":171,
    "qs_pg:name":"Village of Mason City",
    "qs_pg:photos_9r":0,
    "qs_pg:photos_sr":0,
    "qs_pg:pop_sr":1,
    "qs_pg:qs_id":661722,
    "qs_pg:qs_pg_placetype":"localadmin",
    "src:geom":"qs_pg",
    "src:lbl:centroid":"qs_pg",
    "src:population":"geonames",
    "wof:belongsto":[
        85633793
    ],
    "wof:breaches":[],
    "wof:concordances":{
        "gn:id":7166939,
        "qs_pg:id":661722
    },
    "wof:country":"US",
    "wof:created":1497042934,
    "wof:geomhash":"3f1efa4314dfe6b52776b53113e2abb9",
    "wof:hierarchy":[
        {
            "country_id":85633793,
            "localadmin_id":1125291421
        }
    ],
    "wof:id":1125291421,
    "wof:lastmodified":1505187071,
    "wof:name":"Village of Mason City",
    "wof:parent_id":-1,
    "wof:placetype":"localadmin",
    "wof:population":171,
    "wof:population_rank":1,
    "wof:repo":"whosonfirst-data-admin-us",
    "wof:superseded_by":[],
    "wof:supersedes":[],
    "wof:tags":[]
},
  "bbox": [
    -99.29879,
    41.22217,
    -99.29879,
    41.22217
],
  "geometry": {"coordinates":[-99.29879,41.22217],"type":"Point"}
}