{
  "id": 1125355049,
  "type": "Feature",
  "properties": {
    "edtf:cessation":"uuuu",
    "edtf:deprecated":"2017-11-04",
    "edtf:inception":"uuuu",
    "geom:area":0.0,
    "geom:area_square_m":0.0,
    "geom:bbox":"-92.38411,36.33444,-92.38411,36.33444",
    "geom:latitude":36.33444,
    "geom:longitude":-92.38411,
    "gn:gn_country":"US",
    "gn:gn_fcode":"ADMD",
    "gn:gn_pop":12448,
    "gn:population":12448,
    "iso:country":"US",
    "lbl:latitude":36.33444,
    "lbl:longitude":-92.38411,
    "mz:hierarchy_label":1,
    "mz:is_current":0,
    "mz:note":"Quattroshapes Point Gazetteer import 20170519",
    "qs_pg:aaroncc":"US",
    "qs_pg:gn_country":"US",
    "qs_pg:gn_fcode":"ADMD",
    "qs_pg:gn_id":7317880,
    "qs_pg:gn_pop":12448,
    "qs_pg:name":"City of Mountain Home",
    "qs_pg:photos_9r":0,
    "qs_pg:photos_sr":0,
    "qs_pg:pop_sr":6,
    "qs_pg:qs_id":683898,
    "qs_pg:qs_pg_placetype":"localadmin",
    "src:geom":"qs_pg",
    "src:lbl:centroid":"qs_pg",
    "src:population":"geonames",
    "wof:belongsto":[
        85633793
    ],
    "wof:breaches":[],
    "wof:concordances":{
        "gn:id":7317880,
        "qs_pg:id":683898
    },
    "wof:country":"US",
    "wof:created":1497046415,
    "wof:geomhash":"000668a9d6612210076f6810e3810744",
    "wof:hierarchy":[
        {
            "country_id":85633793,
            "localadmin_id":1125355049
        }
    ],
    "wof:id":1125355049,
    "wof:lastmodified":1509752648,
    "wof:name":"City of Mountain Home",
    "wof:parent_id":-1,
    "wof:placetype":"localadmin",
    "wof:population":12448,
    "wof:population_rank":6,
    "wof:repo":"whosonfirst-data-admin-us",
    "wof:superseded_by":[
        85919429
    ],
    "wof:supersedes":[],
    "wof:tags":[]
},
  "bbox": [
    -92.38411,
    36.33444,
    -92.38411,
    36.33444
],
  "geometry": {"coordinates":[-92.38411000000001,36.33444],"type":"Point"}
}