{
  "id": 1343375119,
  "type": "Feature",
  "properties": {
    "edtf:cessation":"uuuu",
    "edtf:inception":"uuuu",
    "geom:area":0.0,
    "geom:area_square_m":0.0,
    "geom:bbox":"-118.21258,35.47996,-118.21258,35.47996",
    "geom:latitude":35.47996,
    "geom:longitude":-118.21258,
    "gn:admin1_code":"CA",
    "gn:admin2_code":"29.0",
    "gn:asciiname":"Sageland",
    "gn:country_code":"US",
    "gn:dem":1229,
    "gn:elevation":"1227.0",
    "gn:feature_class":"P",
    "gn:feature_code":"PPL",
    "gn:geonameid":5389793,
    "gn:latitude":35.47996,
    "gn:longitude":-118.21258,
    "gn:modification_date":"2006-01-15",
    "gn:name":"Sageland",
    "gn:population":0,
    "gn:timezone":"America/Los_Angeles",
    "iso:country":"US",
    "mz:hierarchy_label":1,
    "mz:is_current":-1,
    "name:eng_x_preferred":[
        "Sageland"
    ],
    "name:und_x_variant":[
        "El Dorado Camp"
    ],
    "src:geom":"geonames",
    "wof:belongsto":[
        102191575,
        85633793,
        85688637,
        102081727
    ],
    "wof:breaches":[],
    "wof:concordances":{
        "gn:id":5389793,
        "wk:page":"Sageland%2C_California"
    },
    "wof:country":"US",
    "wof:geomhash":"d42dcc9177e592fef6b9bb2985b5a3af",
    "wof:hierarchy":[
        {
            "continent_id":102191575,
            "country_id":85633793,
            "county_id":102081727,
            "locality_id":1343375119,
            "region_id":85688637
        }
    ],
    "wof:id":1343375119,
    "wof:lastmodified":1537713018,
    "wof:name":"Sageland",
    "wof:parent_id":102081727,
    "wof:placetype":"locality",
    "wof:repo":"whosonfirst-data-admin-us",
    "wof:superseded_by":[],
    "wof:supersedes":[],
    "wof:tags":[]
},
  "bbox": [
    -118.21258,
    35.47996,
    -118.21258,
    35.47996
],
  "geometry": {"coordinates":[-118.21258,35.47996],"type":"Point"}
}