{
  "id": 1209230981,
  "type": "Feature",
  "properties": {
    "edtf:cessation":"uuuu",
    "edtf:inception":"uuuu",
    "geom:area":0.0,
    "geom:area_square_m":0.0,
    "geom:bbox":"-92.55017,37.78254,-92.55017,37.78254",
    "geom:latitude":37.78254,
    "geom:longitude":-92.55017,
    "gn:admin1_code":"MO",
    "gn:admin2_code":"105.0",
    "gn:admin3_code":"46937.0",
    "gn:asciiname":"Delmar",
    "gn:country_code":"US",
    "gn:dem":348,
    "gn:elevation":"344.0",
    "gn:feature_class":"P",
    "gn:feature_code":"PPL",
    "gn:geonameid":4383715,
    "gn:latitude":37.78254,
    "gn:longitude":-92.55017,
    "gn:modification_date":"2017-05-23",
    "gn:name":"Delmar",
    "gn:population":0,
    "gn:timezone":"America/Chicago",
    "iso:country":"US",
    "mz:hierarchy_label":1,
    "mz:is_current":-1,
    "src:geom":"geonames",
    "wof:belongsto":[
        85633793
    ],
    "wof:breaches":[],
    "wof:concordances":{
        "gn:id":4383715
    },
    "wof:country":"US",
    "wof:geomhash":"25b3572ae51bc060d25329b53d361240",
    "wof:hierarchy":[
        {
            "country_id":85633793,
            "locality_id":1209230981
        }
    ],
    "wof:id":1209230981,
    "wof:lastmodified":1536293641,
    "wof:name":"Delmar",
    "wof:parent_id":85633793,
    "wof:placetype":"locality",
    "wof:repo":"whosonfirst-data-admin-us",
    "wof:superseded_by":[],
    "wof:supersedes":[],
    "wof:tags":[]
},
  "bbox": [
    -92.55017,
    37.78254,
    -92.55017,
    37.78254
],
  "geometry": {"coordinates":[-92.55016999999999,37.78254],"type":"Point"}
}