{
  "id": 1310425359,
  "type": "Feature",
  "properties": {
    "edtf:cessation":"uuuu",
    "edtf:inception":"uuuu",
    "geom:area":0.0,
    "geom:area_square_m":0.0,
    "geom:bbox":"-87.165,32.84874,-87.165,32.84874",
    "geom:latitude":32.84874,
    "geom:longitude":-87.165,
    "gn:admin1_code":"AL",
    "gn:admin2_code":"7.0",
    "gn:asciiname":"Abercrombie",
    "gn:country_code":"US",
    "gn:dem":97,
    "gn:elevation":"94.0",
    "gn:feature_class":"P",
    "gn:feature_code":"PPL",
    "gn:geonameid":4829461,
    "gn:latitude":32.84874,
    "gn:longitude":-87.165,
    "gn:modification_date":"2006-01-15",
    "gn:name":"Abercrombie",
    "gn:population":0,
    "gn:timezone":"America/Chicago",
    "iso:country":"US",
    "mz:hierarchy_label":1,
    "mz:is_current":-1,
    "src:geom":"geonames",
    "wof:belongsto":[
        102191575,
        85633793,
        85688675,
        102085501
    ],
    "wof:breaches":[],
    "wof:concordances":{
        "gn:id":4829461
    },
    "wof:country":"US",
    "wof:geomhash":"711deaac36f7a4a217b9b9e2d5180bad",
    "wof:hierarchy":[
        {
            "continent_id":102191575,
            "country_id":85633793,
            "county_id":102085501,
            "locality_id":1310425359,
            "region_id":85688675
        }
    ],
    "wof:id":1310425359,
    "wof:lastmodified":1537031271,
    "wof:name":"Abercrombie",
    "wof:parent_id":102085501,
    "wof:placetype":"locality",
    "wof:repo":"whosonfirst-data-admin-us",
    "wof:superseded_by":[],
    "wof:supersedes":[],
    "wof:tags":[]
},
  "bbox": [
    -87.165,
    32.84874,
    -87.165,
    32.84874
],
  "geometry": {"coordinates":[-87.16500000000001,32.84874],"type":"Point"}
}