{
  "id": 1276673657,
  "type": "Feature",
  "properties": {
    "edtf:cessation":"2018-09-07",
    "edtf:inception":"uuuu",
    "geom:area":0.0,
    "geom:area_square_m":0.0,
    "geom:bbox":"-82.33321,38.7848,-82.33321,38.7848",
    "geom:latitude":38.7848,
    "geom:longitude":-82.33321,
    "gn:admin1_code":"OH",
    "gn:admin2_code":"53",
    "gn:admin3_code":"31738.0",
    "gn:asciiname":"Wigner (historical)",
    "gn:country_code":"US",
    "gn:dem":175,
    "gn:elevation":"172.0",
    "gn:feature_class":"P",
    "gn:feature_code":"PPLQ",
    "gn:geonameid":4528335,
    "gn:latitude":38.7848,
    "gn:longitude":-82.33321,
    "gn:modification_date":"2017-05-23",
    "gn:name":"Wigner (historical)",
    "gn:population":0,
    "gn:timezone":"America/New_York",
    "iso:country":"US",
    "mz:hierarchy_label":1,
    "mz:is_current":0,
    "src:geom":"geonames",
    "wof:belongsto":[
        85688485,
        102191575,
        404524681,
        85633793,
        102083675
    ],
    "wof:breaches":[],
    "wof:concordances":{
        "gn:id":4528335
    },
    "wof:country":"US",
    "wof:geomhash":"79389a1a6b096d509cd740d397b3cbcb",
    "wof:hierarchy":[
        {
            "continent_id":102191575,
            "country_id":85633793,
            "county_id":102083675,
            "localadmin_id":404524681,
            "locality_id":1276673657,
            "region_id":85688485
        }
    ],
    "wof:id":1276673657,
    "wof:lastmodified":1536818760,
    "wof:name":"Wigner (historical)",
    "wof:parent_id":404524681,
    "wof:placetype":"locality",
    "wof:repo":"whosonfirst-data-admin-us",
    "wof:superseded_by":[],
    "wof:supersedes":[],
    "wof:tags":[]
},
  "bbox": [
    -82.33321,
    38.7848,
    -82.33321,
    38.7848
],
  "geometry": {"coordinates":[-82.33320999999999,38.7848],"type":"Point"}
}