{
  "id": 1126083947,
  "type": "Feature",
  "properties": {
    "edtf:cessation":"uuuu",
    "edtf:deprecated":"2018-08-15",
    "edtf:inception":"uuuu",
    "edtf:superseded":"2018-08-15",
    "geom:area":0.0,
    "geom:area_square_m":0.0,
    "geom:bbox":"-71.94257,42.19732,-71.94257,42.19732",
    "geom:latitude":42.19732,
    "geom:longitude":-71.94257,
    "gn:gn_country":"US",
    "gn:gn_fcode":"PPL",
    "gn:gn_pop":0,
    "iso:country":"US",
    "lbl:latitude":42.19732,
    "lbl:longitude":-71.94257,
    "mz:hierarchy_label":1,
    "mz:is_current":0,
    "mz:note":"Quattroshapes Point Gazetteer import 20170519",
    "qs_pg:aaroncc":"US",
    "qs_pg:gn_country":"US",
    "qs_pg:gn_fcode":"PPL",
    "qs_pg:gn_id":4932108,
    "qs_pg:gn_pop":0,
    "qs_pg:name":"Camp Neyati",
    "qs_pg:name_adm0":"United States",
    "qs_pg:name_adm1":"Massachusetts",
    "qs_pg:photos":6,
    "qs_pg:photos_1k":1,
    "qs_pg:photos_9k":1,
    "qs_pg:photos_9r":1,
    "qs_pg:photos_all":6,
    "qs_pg:photos_sr":1,
    "qs_pg:pop_sr":0,
    "qs_pg:qs_id":1024254,
    "qs_pg:qs_pg_placetype":"neighbourhood",
    "qs_pg:qs_pg_placetype_gp":"Suburb",
    "qs_pg:woe_adm0":23424977,
    "qs_pg:woe_id":2373897,
    "src:geom":"qs_pg",
    "src:lbl:centroid":"qs_pg",
    "woe:adm0_id":23424977,
    "woe:name_adm0":"United States",
    "woe:name_adm1":"Massachusetts",
    "woe:placetype":"Suburb",
    "wof:belongsto":[
        102191575,
        404476079,
        85633793,
        102084655,
        85688645
    ],
    "wof:breaches":[],
    "wof:concordances":{
        "gn:id":4932108,
        "gp:id":2373897,
        "qs_pg:id":1024254
    },
    "wof:country":"US",
    "wof:created":1497312430,
    "wof:geomhash":"607dcb59864bda7f2fde9e347ef5f82b",
    "wof:hierarchy":[
        {
            "continent_id":102191575,
            "country_id":85633793,
            "county_id":102084655,
            "localadmin_id":404476079,
            "locality_id":-1,
            "neighbourhood_id":1126083947,
            "region_id":85688645
        }
    ],
    "wof:id":1126083947,
    "wof:lastmodified":1534379793,
    "wof:name":"Camp Neyati",
    "wof:parent_id":-1,
    "wof:placetype":"neighbourhood",
    "wof:repo":"whosonfirst-data-admin-us",
    "wof:superseded_by":[
        420524135
    ],
    "wof:supersedes":[],
    "wof:tags":[]
},
  "bbox": [
    -71.94257,
    42.19732,
    -71.94257,
    42.19732
],
  "geometry": {"coordinates":[-71.94257,42.19732],"type":"Point"}
}