{
  "id": 1125299163,
  "type": "Feature",
  "properties": {
    "edtf:cessation":"uuuu",
    "edtf:deprecated":"2017-11-04",
    "edtf:inception":"uuuu",
    "geom:area":0.0,
    "geom:area_square_m":0.0,
    "geom:bbox":"-77.93181,35.734,-77.93181,35.734",
    "geom:latitude":35.734,
    "geom:longitude":-77.93181,
    "gn:gn_country":"US",
    "gn:gn_fcode":"ADMD",
    "gn:gn_pop":49167,
    "gn:population":49167,
    "iso:country":"US",
    "lbl:latitude":35.734,
    "lbl:longitude":-77.93181,
    "mz:hierarchy_label":1,
    "mz:is_current":0,
    "mz:note":"Quattroshapes Point Gazetteer import 20170519",
    "qs_pg:aaroncc":"US",
    "qs_pg:gn_country":"US",
    "qs_pg:gn_fcode":"ADMD",
    "qs_pg:gn_id":7318205,
    "qs_pg:gn_pop":49167,
    "qs_pg:name":"City of Wilson",
    "qs_pg:photos_9r":0,
    "qs_pg:photos_sr":0,
    "qs_pg:pop_sr":7,
    "qs_pg:qs_id":684234,
    "qs_pg:qs_pg_placetype":"localadmin",
    "src:geom":"qs_pg",
    "src:lbl:centroid":"qs_pg",
    "src:population":"geonames",
    "wof:belongsto":[
        85633793
    ],
    "wof:breaches":[],
    "wof:concordances":{
        "gn:id":7318205,
        "qs_pg:id":684234
    },
    "wof:country":"US",
    "wof:created":1497043323,
    "wof:geomhash":"a5f2b99567718d0ef6d7575521080c47",
    "wof:hierarchy":[
        {
            "country_id":85633793,
            "localadmin_id":1125299163
        }
    ],
    "wof:id":1125299163,
    "wof:lastmodified":1509752492,
    "wof:name":"City of Wilson",
    "wof:parent_id":-1,
    "wof:placetype":"localadmin",
    "wof:population":49167,
    "wof:population_rank":7,
    "wof:repo":"whosonfirst-data-admin-us",
    "wof:superseded_by":[
        85980891
    ],
    "wof:supersedes":[],
    "wof:tags":[]
},
  "bbox": [
    -77.93181,
    35.734,
    -77.93181,
    35.734
],
  "geometry": {"coordinates":[-77.93181,35.734],"type":"Point"}
}