{
  "id": 1125361289,
  "type": "Feature",
  "properties": {
    "edtf:cessation":"2017-05-19",
    "edtf:inception":"uuuu",
    "geom:area":0.0,
    "geom:area_square_m":0.0,
    "geom:bbox":"-96.12063,40.72409,-96.12063,40.72409",
    "geom:latitude":40.72409,
    "geom:longitude":-96.12063,
    "gn:gn_country":"US",
    "gn:gn_fcode":"ADMD",
    "gn:gn_pop":171,
    "gn:population":171,
    "iso:country":"US",
    "lbl:latitude":40.72409,
    "lbl:longitude":-96.12063,
    "mz:hierarchy_label":1,
    "mz:is_current":0,
    "mz:note":"Quattroshapes Point Gazetteer import 20170519",
    "qs_pg:aaroncc":"US",
    "qs_pg:gn_country":"US",
    "qs_pg:gn_fcode":"ADMD",
    "qs_pg:gn_id":7167234,
    "qs_pg:gn_pop":171,
    "qs_pg:name":"Village of Otoe",
    "qs_pg:photos_9r":0,
    "qs_pg:photos_sr":0,
    "qs_pg:pop_sr":1,
    "qs_pg:qs_id":535235,
    "qs_pg:qs_pg_placetype":"localadmin",
    "src:geom":"qs_pg",
    "src:lbl:centroid":"qs_pg",
    "src:population":"geonames",
    "wof:belongsto":[
        85633793
    ],
    "wof:breaches":[],
    "wof:concordances":{
        "gn:id":7167234,
        "qs_pg:id":535235
    },
    "wof:country":"US",
    "wof:created":1497046808,
    "wof:geomhash":"6bb3fa1810fc70d23e0c5cf068916958",
    "wof:hierarchy":[
        {
            "country_id":85633793,
            "localadmin_id":1125361289
        }
    ],
    "wof:id":1125361289,
    "wof:lastmodified":1505187075,
    "wof:name":"Village of Otoe",
    "wof:parent_id":-1,
    "wof:placetype":"localadmin",
    "wof:population":171,
    "wof:population_rank":1,
    "wof:repo":"whosonfirst-data-admin-us",
    "wof:superseded_by":[],
    "wof:supersedes":[],
    "wof:tags":[]
},
  "bbox": [
    -96.12063,
    40.72409,
    -96.12063,
    40.72409
],
  "geometry": {"coordinates":[-96.12063000000001,40.72409],"type":"Point"}
}