{
  "id": 1125301515,
  "type": "Feature",
  "properties": {
    "edtf:cessation":"uuuu",
    "edtf:deprecated":"2017-11-04",
    "edtf:inception":"uuuu",
    "geom:area":0.0,
    "geom:area_square_m":0.0,
    "geom:bbox":"-71.05751,42.43051,-71.05751,42.43051",
    "geom:latitude":42.43051,
    "geom:longitude":-71.05751,
    "gn:gn_country":"US",
    "gn:gn_fcode":"ADMD",
    "gn:gn_pop":59450,
    "gn:population":59450,
    "iso:country":"US",
    "lbl:latitude":42.43051,
    "lbl:longitude":-71.05751,
    "mz:hierarchy_label":1,
    "mz:is_current":0,
    "mz:note":"Quattroshapes Point Gazetteer import 20170519",
    "name:eng_x_preferred":[
        "City of Malden"
    ],
    "name:unk_x_variant":[
        "Mystic Side"
    ],
    "qs_pg:aaroncc":"US",
    "qs_pg:gn_country":"US",
    "qs_pg:gn_fcode":"ADMD",
    "qs_pg:gn_id":4942956,
    "qs_pg:gn_pop":59450,
    "qs_pg:name":"City of Malden",
    "qs_pg:photos_9r":0,
    "qs_pg:photos_sr":0,
    "qs_pg:pop_sr":8,
    "qs_pg:qs_id":598676,
    "qs_pg:qs_pg_placetype":"localadmin",
    "src:geom":"qs_pg",
    "src:lbl:centroid":"qs_pg",
    "src:population":"geonames",
    "wof:belongsto":[
        85633793
    ],
    "wof:breaches":[],
    "wof:concordances":{
        "gn:id":4942956,
        "qs_pg:id":598676
    },
    "wof:country":"US",
    "wof:created":1497043454,
    "wof:geomhash":"03d5ab6b1c026619021674d3650e9f46",
    "wof:hierarchy":[
        {
            "country_id":85633793,
            "localadmin_id":1125301515
        }
    ],
    "wof:id":1125301515,
    "wof:lastmodified":1509752502,
    "wof:name":"City of Malden",
    "wof:parent_id":-1,
    "wof:placetype":"localadmin",
    "wof:population":59450,
    "wof:population_rank":8,
    "wof:repo":"whosonfirst-data-admin-us",
    "wof:superseded_by":[
        85950349
    ],
    "wof:supersedes":[],
    "wof:tags":[]
},
  "bbox": [
    -71.05751,
    42.43051,
    -71.05751,
    42.43051
],
  "geometry": {"coordinates":[-71.05750999999999,42.43051],"type":"Point"}
}