{
  "id": 404491741,
  "type": "Feature",
  "properties": {
    "edtf:cessation":"uuuu",
    "edtf:inception":"uuuu",
    "geom:area":0.01073,
    "geom:area_square_m":93552483.678113,
    "geom:bbox":"-88.930723,45.117675,-88.803719,45.204429",
    "geom:latitude":45.161066,
    "geom:longitude":-88.867078,
    "iso:country":"US",
    "lbl:latitude":45.161075,
    "lbl:longitude":-88.867094,
    "mz:hierarchy_label":1,
    "mz:is_current":-1,
    "name:eng_x_preferred":[
        "Evergreen"
    ],
    "qs:a0":"United States",
    "qs:a1":"Wisconsin",
    "qs:a1_lc":"55",
    "qs:a2":"Langlade",
    "qs:a2_lc":"55067",
    "qs:adm0":"United States",
    "qs:adm0_a3":"USA",
    "qs:la":"Evergreen",
    "qs:la_lc":"5506724575",
    "qs:level":"localadmin",
    "qs:pop":495,
    "qs:source":"US Census",
    "qs:type":"town",
    "src:geom":"quattroshapes",
    "src:population":"quattroshapes",
    "wof:belongsto":[
        102191575,
        85633793,
        85688517,
        102081751
    ],
    "wof:breaches":[],
    "wof:concordances":{},
    "wof:country":"US",
    "wof:geomhash":"eae7071403a51760fd0461cd11a40424",
    "wof:hierarchy":[
        {
            "continent_id":102191575,
            "country_id":85633793,
            "county_id":102081751,
            "localadmin_id":404491741,
            "region_id":85688517
        }
    ],
    "wof:id":404491741,
    "wof:lastmodified":1505339560,
    "wof:name":"Evergreen",
    "wof:parent_id":102081751,
    "wof:placetype":"localadmin",
    "wof:population":495,
    "wof:population_rank":2,
    "wof:repo":"whosonfirst-data-admin-us",
    "wof:superseded_by":[],
    "wof:supersedes":[],
    "wof:tags":[]
},
  "bbox": [
    -88.930723,
    45.117675,
    -88.803719,
    45.204429
],
  "geometry": {"coordinates":[[[-88.806791,45.117675],[-88.821887,45.117687],[-88.82194200000001,45.117687],[-88.930723,45.117811],[-88.930695,45.125034],[-88.92927299999999,45.153655],[-88.929058,45.154021],[-88.92802500000001,45.182748],[-88.927773,45.189005],[-88.92752400000001,45.204395],[-88.803719,45.204429],[-88.80461200000001,45.169021],[-88.805046,45.162347],[-88.80511,45.160692],[-88.80668799999999,45.128599],[-88.806791,45.117675]]],"type":"Polygon"}
}