{
  "id": 1293899597,
  "type": "Feature",
  "properties": {
    "edtf:cessation":"2018-09-06",
    "edtf:inception":"uuuu",
    "geom:area":0.0,
    "geom:area_square_m":0.0,
    "geom:bbox":"-123.52006,41.21179,-123.52006,41.21179",
    "geom:latitude":41.21179,
    "geom:longitude":-123.52006,
    "gn:admin1_code":"CA",
    "gn:admin2_code":"23.0",
    "gn:asciiname":"Lockharts (historical)",
    "gn:country_code":"US",
    "gn:dem":545,
    "gn:elevation":"547.0",
    "gn:feature_class":"P",
    "gn:feature_code":"PPLQ",
    "gn:geonameid":5567043,
    "gn:latitude":41.21179,
    "gn:longitude":-123.52006,
    "gn:modification_date":"2011-12-12",
    "gn:name":"Lockharts (historical)",
    "gn:population":0,
    "gn:timezone":"America/Los_Angeles",
    "iso:country":"US",
    "mz:hierarchy_label":1,
    "mz:is_current":0,
    "src:geom":"geonames",
    "wof:belongsto":[
        102191575,
        85633793,
        85688637,
        102087587
    ],
    "wof:breaches":[],
    "wof:concordances":{
        "gn:id":5567043,
        "wk:page":"Lockharts%2C_California"
    },
    "wof:country":"US",
    "wof:geomhash":"742eca562dce77e32a42986e12617fd9",
    "wof:hierarchy":[
        {
            "continent_id":102191575,
            "country_id":85633793,
            "county_id":102087587,
            "locality_id":1293899597,
            "region_id":85688637
        }
    ],
    "wof:id":1293899597,
    "wof:lastmodified":1537575670,
    "wof:name":"Lockharts (historical)",
    "wof:parent_id":102087587,
    "wof:placetype":"locality",
    "wof:repo":"whosonfirst-data-admin-us",
    "wof:superseded_by":[],
    "wof:supersedes":[],
    "wof:tags":[]
},
  "bbox": [
    -123.52006000000002,
    41.21179,
    -123.52006000000002,
    41.21179
],
  "geometry": {"coordinates":[-123.52006000000002,41.21179],"type":"Point"}
}