{
  "id": 1125289933,
  "type": "Feature",
  "properties": {
    "edtf:cessation":"2017-05-19",
    "edtf:inception":"uuuu",
    "geom:area":0.0,
    "geom:area_square_m":0.0,
    "geom:bbox":"-89.76139,36.77354,-89.76139,36.77354",
    "geom:latitude":36.77354,
    "geom:longitude":-89.76139,
    "gn:gn_country":"US",
    "gn:gn_fcode":"ADMD",
    "gn:gn_pop":3,
    "gn:population":3,
    "iso:country":"US",
    "lbl:latitude":36.77354,
    "lbl:longitude":-89.76139,
    "mz:hierarchy_label":1,
    "mz:is_current":0,
    "mz:note":"Quattroshapes Point Gazetteer import 20170519",
    "qs_pg:aaroncc":"US",
    "qs_pg:gn_country":"US",
    "qs_pg:gn_fcode":"ADMD",
    "qs_pg:gn_id":7165766,
    "qs_pg:gn_pop":3,
    "qs_pg:name":"Village of Baker",
    "qs_pg:photos_9r":0,
    "qs_pg:photos_sr":0,
    "qs_pg:pop_sr":1,
    "qs_pg:qs_id":660637,
    "qs_pg:qs_pg_placetype":"localadmin",
    "src:geom":"qs_pg",
    "src:lbl:centroid":"qs_pg",
    "src:population":"geonames",
    "wof:belongsto":[
        85633793
    ],
    "wof:breaches":[],
    "wof:concordances":{
        "gn:id":7165766,
        "qs_pg:id":660637
    },
    "wof:country":"US",
    "wof:created":1497042874,
    "wof:geomhash":"99de3a2bf8733529d36b482d05069a61",
    "wof:hierarchy":[
        {
            "country_id":85633793,
            "localadmin_id":1125289933
        }
    ],
    "wof:id":1125289933,
    "wof:lastmodified":1505187058,
    "wof:name":"Village of Baker",
    "wof:parent_id":-1,
    "wof:placetype":"localadmin",
    "wof:population":3,
    "wof:population_rank":1,
    "wof:repo":"whosonfirst-data-admin-us",
    "wof:superseded_by":[],
    "wof:supersedes":[],
    "wof:tags":[]
},
  "bbox": [
    -89.76139,
    36.77354,
    -89.76139,
    36.77354
],
  "geometry": {"coordinates":[-89.76139000000001,36.77354],"type":"Point"}
}