{
  "id": 1310131677,
  "type": "Feature",
  "properties": {
    "edtf:cessation":"uuuu",
    "edtf:inception":"uuuu",
    "geom:area":0.0,
    "geom:area_square_m":0.0,
    "geom:bbox":"-86.8325,34.80314,-86.8325,34.80314",
    "geom:latitude":34.80314,
    "geom:longitude":-86.8325,
    "gn:admin1_code":"AL",
    "gn:admin2_code":"83",
    "gn:asciiname":"Fairview",
    "gn:country_code":"US",
    "gn:dem":228,
    "gn:elevation":"229.0",
    "gn:feature_class":"P",
    "gn:feature_code":"PPL",
    "gn:geonameid":4061271,
    "gn:latitude":34.80314,
    "gn:longitude":-86.8325,
    "gn:modification_date":"2006-01-15",
    "gn:name":"Fairview",
    "gn:population":0,
    "gn:timezone":"America/Chicago",
    "iso:country":"US",
    "mz:hierarchy_label":1,
    "mz:is_current":-1,
    "src:geom":"geonames",
    "wof:belongsto":[
        102191575,
        85633793,
        85688675,
        102085489
    ],
    "wof:breaches":[],
    "wof:concordances":{
        "gn:id":4061271
    },
    "wof:country":"US",
    "wof:geomhash":"5023bbc2c81cabec027c6ef984f41511",
    "wof:hierarchy":[
        {
            "continent_id":102191575,
            "country_id":85633793,
            "county_id":102085489,
            "locality_id":1310131677,
            "region_id":85688675
        }
    ],
    "wof:id":1310131677,
    "wof:lastmodified":1536958784,
    "wof:name":"Fairview",
    "wof:parent_id":102085489,
    "wof:placetype":"locality",
    "wof:repo":"whosonfirst-data-admin-us",
    "wof:superseded_by":[],
    "wof:supersedes":[],
    "wof:tags":[]
},
  "bbox": [
    -86.8325,
    34.80314,
    -86.8325,
    34.80314
],
  "geometry": {"coordinates":[-86.8325,34.80314],"type":"Point"}
}