{
  "id": 1209925079,
  "type": "Feature",
  "properties": {
    "edtf:cessation":"uuuu",
    "edtf:deprecated":"2019-02-08",
    "edtf:inception":"uuuu",
    "geom:area":0.0,
    "geom:area_square_m":0.0,
    "geom:bbox":"-98.06223,26.23646,-98.06223,26.23646",
    "geom:latitude":26.23646,
    "geom:longitude":-98.06223,
    "gn:admin1_code":"TX",
    "gn:admin2_code":"215.0",
    "gn:asciiname":"Reina del Sol Mobile Home Estates Colonia",
    "gn:country_code":"US",
    "gn:dem":28,
    "gn:elevation":"25.0",
    "gn:feature_class":"P",
    "gn:feature_code":"PPL",
    "gn:geonameid":4722203,
    "gn:latitude":26.23646,
    "gn:longitude":-98.06223,
    "gn:modification_date":"2006-01-15",
    "gn:name":"Reina del Sol Mobile Home Estates Colonia",
    "gn:population":0,
    "gn:timezone":"America/Chicago",
    "iso:country":"US",
    "mz:hierarchy_label":1,
    "mz:is_current":0,
    "src:geom":"geonames",
    "wof:belongsto":[
        102191575,
        85633793,
        85688753,
        102083831
    ],
    "wof:breaches":[],
    "wof:concordances":{
        "gn:id":4722203
    },
    "wof:country":"US",
    "wof:geomhash":"ecb8725236c91095bbc6418c9a897a37",
    "wof:hierarchy":[
        {
            "continent_id":102191575,
            "country_id":85633793,
            "county_id":102083831,
            "locality_id":1209925079,
            "region_id":85688753
        }
    ],
    "wof:id":1209925079,
    "wof:lastmodified":1549653937,
    "wof:name":"Reina del Sol Mobile Home Estates Colonia",
    "wof:parent_id":102083831,
    "wof:placetype":"locality",
    "wof:repo":"whosonfirst-data-admin-us",
    "wof:superseded_by":[
        1376900475
    ],
    "wof:supersedes":[],
    "wof:tags":[]
},
  "bbox": [
    -98.06223,
    26.23646,
    -98.06223,
    26.23646
],
  "geometry": {"coordinates":[-98.06223,26.23646],"type":"Point"}
}