{
  "id": 1125353645,
  "type": "Feature",
  "properties": {
    "edtf:cessation":"2017-05-19",
    "edtf:inception":"uuuu",
    "geom:area":0.0,
    "geom:area_square_m":0.0,
    "geom:bbox":"-77.10257,39.54444,-77.10257,39.54444",
    "geom:latitude":39.54444,
    "geom:longitude":-77.10257,
    "gn:gn_country":"US",
    "gn:gn_fcode":"ADMD",
    "gn:gn_pop":1396,
    "gn:population":1396,
    "iso:country":"US",
    "lbl:latitude":39.54444,
    "lbl:longitude":-77.10257,
    "mz:hierarchy_label":1,
    "mz:is_current":0,
    "mz:note":"Quattroshapes Point Gazetteer import 20170519",
    "qs_pg:aaroncc":"US",
    "qs_pg:gn_country":"US",
    "qs_pg:gn_fcode":"ADMD",
    "qs_pg:gn_id":7316620,
    "qs_pg:gn_pop":1396,
    "qs_pg:name":"Town of New Windsor",
    "qs_pg:photos_9r":0,
    "qs_pg:photos_sr":0,
    "qs_pg:pop_sr":3,
    "qs_pg:qs_id":682630,
    "qs_pg:qs_pg_placetype":"localadmin",
    "src:geom":"qs_pg",
    "src:lbl:centroid":"qs_pg",
    "src:population":"geonames",
    "wof:belongsto":[
        85633793
    ],
    "wof:breaches":[],
    "wof:concordances":{
        "gn:id":7316620,
        "qs_pg:id":682630
    },
    "wof:country":"US",
    "wof:created":1497046334,
    "wof:geomhash":"8b771915b3555b48d8ce159aa7b1cc1a",
    "wof:hierarchy":[
        {
            "country_id":85633793,
            "localadmin_id":1125353645
        }
    ],
    "wof:id":1125353645,
    "wof:lastmodified":1505187162,
    "wof:name":"Town of New Windsor",
    "wof:parent_id":-1,
    "wof:placetype":"localadmin",
    "wof:population":1396,
    "wof:population_rank":3,
    "wof:repo":"whosonfirst-data-admin-us",
    "wof:superseded_by":[],
    "wof:supersedes":[],
    "wof:tags":[]
},
  "bbox": [
    -77.10257,
    39.54444,
    -77.10257,
    39.54444
],
  "geometry": {"coordinates":[-77.10257,39.54444],"type":"Point"}
}