{
  "id": 1259990547,
  "type": "Feature",
  "properties": {
    "edtf:cessation":"2018-09-07",
    "edtf:inception":"uuuu",
    "geom:area":0.0,
    "geom:area_square_m":0.0,
    "geom:bbox":"-83.01556,37.88349,-83.01556,37.88349",
    "geom:latitude":37.88349,
    "geom:longitude":-83.01556,
    "gn:admin1_code":"KY",
    "gn:admin2_code":"175",
    "gn:asciiname":"Lost Creek (historical)",
    "gn:country_code":"US",
    "gn:dem":278,
    "gn:elevation":"262.0",
    "gn:feature_class":"P",
    "gn:feature_code":"PPLQ",
    "gn:geonameid":7153454,
    "gn:latitude":37.88349,
    "gn:longitude":-83.01556,
    "gn:modification_date":"2014-10-08",
    "gn:name":"Lost Creek (historical)",
    "gn:population":0,
    "gn:timezone":"America/New_York",
    "iso:country":"US",
    "mz:hierarchy_label":1,
    "mz:is_current":0,
    "src:geom":"geonames",
    "wof:belongsto":[
        102191575,
        85633793,
        85688641,
        102085665
    ],
    "wof:breaches":[],
    "wof:concordances":{
        "gn:id":7153454
    },
    "wof:country":"US",
    "wof:geomhash":"883be39f068bf604f4cb5021c2dc85ac",
    "wof:hierarchy":[
        {
            "continent_id":102191575,
            "country_id":85633793,
            "county_id":102085665,
            "locality_id":1259990547,
            "region_id":85688641
        }
    ],
    "wof:id":1259990547,
    "wof:lastmodified":1536622901,
    "wof:name":"Lost Creek (historical)",
    "wof:parent_id":102085665,
    "wof:placetype":"locality",
    "wof:repo":"whosonfirst-data-admin-us",
    "wof:superseded_by":[],
    "wof:supersedes":[],
    "wof:tags":[]
},
  "bbox": [
    -83.01556,
    37.88349,
    -83.01556,
    37.88349
],
  "geometry": {"coordinates":[-83.01555999999999,37.88349],"type":"Point"}
}