{
  "id": 1293318579,
  "type": "Feature",
  "properties": {
    "edtf:cessation":"2018-09-06",
    "edtf:inception":"uuuu",
    "geom:area":0.0,
    "geom:area_square_m":0.0,
    "geom:bbox":"-97.5003,34.3686,-97.5003,34.3686",
    "geom:latitude":34.3686,
    "geom:longitude":-97.5003,
    "gn:admin1_code":"OK",
    "gn:admin2_code":"19",
    "gn:asciiname":"Pike City (historical)",
    "gn:country_code":"US",
    "gn:dem":303,
    "gn:elevation":"298.0",
    "gn:feature_class":"P",
    "gn:feature_code":"PPLQ",
    "gn:geonameid":7159251,
    "gn:latitude":34.3686,
    "gn:longitude":-97.5003,
    "gn:modification_date":"2011-12-12",
    "gn:name":"Pike City (historical)",
    "gn:population":0,
    "gn:timezone":"America/Chicago",
    "iso:country":"US",
    "mz:hierarchy_label":1,
    "mz:is_current":0,
    "src:geom":"geonames",
    "wof:belongsto":[
        102191575,
        85633793,
        85688585,
        102083987
    ],
    "wof:breaches":[],
    "wof:concordances":{
        "gn:id":7159251
    },
    "wof:country":"US",
    "wof:geomhash":"03816cf9b93def10d5a7b90a94ca0110",
    "wof:hierarchy":[
        {
            "continent_id":102191575,
            "country_id":85633793,
            "county_id":102083987,
            "locality_id":1293318579,
            "region_id":85688585
        }
    ],
    "wof:id":1293318579,
    "wof:lastmodified":1537029359,
    "wof:name":"Pike City (historical)",
    "wof:parent_id":102083987,
    "wof:placetype":"locality",
    "wof:repo":"whosonfirst-data-admin-us",
    "wof:superseded_by":[],
    "wof:supersedes":[],
    "wof:tags":[]
},
  "bbox": [
    -97.5003,
    34.3686,
    -97.5003,
    34.3686
],
  "geometry": {"coordinates":[-97.5003,34.3686],"type":"Point"}
}