{
  "id": 1344093635,
  "type": "Feature",
  "properties": {
    "edtf:cessation":"uuuu",
    "edtf:inception":"uuuu",
    "geom:area":0.0,
    "geom:area_square_m":0.0,
    "geom:bbox":"-119.39933,38.86936,-119.39933,38.86936",
    "geom:latitude":38.86936,
    "geom:longitude":-119.39933,
    "gn:admin1_code":"NV",
    "gn:admin2_code":"19.0",
    "gn:asciiname":"Simpson",
    "gn:country_code":"US",
    "gn:dem":1456,
    "gn:elevation":"1454.0",
    "gn:feature_class":"P",
    "gn:feature_code":"PPL",
    "gn:geonameid":5512417,
    "gn:latitude":38.86936,
    "gn:longitude":-119.39933,
    "gn:modification_date":"2006-01-15",
    "gn:name":"Simpson",
    "gn:population":0,
    "gn:timezone":"America/Los_Angeles",
    "iso:country":"US",
    "mz:hierarchy_label":1,
    "mz:is_current":-1,
    "name:eng_x_preferred":[
        "Simpson"
    ],
    "name:und_x_variant":[
        "Colony",
        "Colony Ranch",
        "Wellington",
        "Simpson Colony",
        "The Colony"
    ],
    "src:geom":"geonames",
    "wof:belongsto":[
        102191575,
        85633793,
        85688531,
        102081531
    ],
    "wof:breaches":[],
    "wof:concordances":{
        "gn:id":5512417
    },
    "wof:country":"US",
    "wof:geomhash":"b37ff7c5c045f4a17b148edf018179eb",
    "wof:hierarchy":[
        {
            "continent_id":102191575,
            "country_id":85633793,
            "county_id":102081531,
            "locality_id":1344093635,
            "region_id":85688531
        }
    ],
    "wof:id":1344093635,
    "wof:lastmodified":1537713052,
    "wof:name":"Simpson",
    "wof:parent_id":102081531,
    "wof:placetype":"locality",
    "wof:repo":"whosonfirst-data-admin-us",
    "wof:superseded_by":[],
    "wof:supersedes":[],
    "wof:tags":[]
},
  "bbox": [
    -119.39933,
    38.86936,
    -119.39933,
    38.86936
],
  "geometry": {"coordinates":[-119.39933000000001,38.86936],"type":"Point"}
}