{
  "id": 1259519993,
  "type": "Feature",
  "properties": {
    "edtf:cessation":"uuuu",
    "edtf:inception":"uuuu",
    "geom:area":0.0,
    "geom:area_square_m":0.0,
    "geom:bbox":"-103.70384,40.25109,-103.70384,40.25109",
    "geom:latitude":40.25109,
    "geom:longitude":-103.70384,
    "gn:admin1_code":"CO",
    "gn:admin2_code":"87.0",
    "gn:asciiname":"Lodi",
    "gn:country_code":"US",
    "gn:dem":1302,
    "gn:elevation":"1303.0",
    "gn:feature_class":"P",
    "gn:feature_code":"PPL",
    "gn:geonameid":5579179,
    "gn:latitude":40.25109,
    "gn:longitude":-103.70384,
    "gn:modification_date":"2010-02-14",
    "gn:name":"Lodi",
    "gn:population":0,
    "gn:timezone":"America/Denver",
    "iso:country":"US",
    "mz:hierarchy_label":1,
    "mz:is_current":-1,
    "src:geom":"geonames",
    "wof:belongsto":[
        102191575,
        85633793,
        85688603,
        102084089
    ],
    "wof:breaches":[],
    "wof:concordances":{
        "gn:id":5579179
    },
    "wof:country":"US",
    "wof:geomhash":"8421f4dd7196622d5b1c0e6890fb9f49",
    "wof:hierarchy":[
        {
            "continent_id":102191575,
            "country_id":85633793,
            "county_id":102084089,
            "locality_id":1259519993,
            "region_id":85688603
        }
    ],
    "wof:id":1259519993,
    "wof:lastmodified":1536806049,
    "wof:name":"Lodi",
    "wof:parent_id":102084089,
    "wof:placetype":"locality",
    "wof:repo":"whosonfirst-data-admin-us",
    "wof:superseded_by":[],
    "wof:supersedes":[],
    "wof:tags":[]
},
  "bbox": [
    -103.70384,
    40.25109000000001,
    -103.70384,
    40.25109000000001
],
  "geometry": {"coordinates":[-103.70384,40.25109000000001],"type":"Point"}
}