{
  "id": 1310230585,
  "type": "Feature",
  "properties": {
    "edtf:cessation":"uuuu",
    "edtf:inception":"uuuu",
    "geom:area":0.0,
    "geom:area_square_m":0.0,
    "geom:bbox":"-95.9961,34.58065,-95.9961,34.58065",
    "geom:latitude":34.58065,
    "geom:longitude":-95.9961,
    "gn:admin1_code":"OK",
    "gn:admin2_code":"5",
    "gn:asciiname":"Burg",
    "gn:country_code":"US",
    "gn:dem":222,
    "gn:elevation":"220.0",
    "gn:feature_class":"P",
    "gn:feature_code":"PPL",
    "gn:geonameid":4531731,
    "gn:latitude":34.58065,
    "gn:longitude":-95.9961,
    "gn:modification_date":"2006-01-15",
    "gn:name":"Burg",
    "gn:population":0,
    "gn:timezone":"America/Chicago",
    "iso:country":"US",
    "mz:hierarchy_label":1,
    "mz:is_current":-1,
    "src:geom":"geonames",
    "wof:belongsto":[
        102191575,
        85633793,
        85688585,
        102083281
    ],
    "wof:breaches":[],
    "wof:concordances":{
        "gn:id":4531731
    },
    "wof:country":"US",
    "wof:geomhash":"1427f5b54ef8b565c42e9785b67d8b83",
    "wof:hierarchy":[
        {
            "continent_id":102191575,
            "country_id":85633793,
            "county_id":102083281,
            "locality_id":1310230585,
            "region_id":85688585
        }
    ],
    "wof:id":1310230585,
    "wof:lastmodified":1536815359,
    "wof:name":"Burg",
    "wof:parent_id":102083281,
    "wof:placetype":"locality",
    "wof:repo":"whosonfirst-data-admin-us",
    "wof:superseded_by":[],
    "wof:supersedes":[],
    "wof:tags":[]
},
  "bbox": [
    -95.9961,
    34.58065,
    -95.9961,
    34.58065
],
  "geometry": {"coordinates":[-95.9961,34.58065],"type":"Point"}
}