{
  "id": 1276255041,
  "type": "Feature",
  "properties": {
    "edtf:cessation":"uuuu",
    "edtf:inception":"uuuu",
    "geom:area":0.0,
    "geom:area_square_m":0.0,
    "geom:bbox":"-91.81823,38.8406,-91.81823,38.8406",
    "geom:latitude":38.8406,
    "geom:longitude":-91.81823,
    "gn:admin1_code":"MO",
    "gn:admin2_code":"27.0",
    "gn:admin3_code":"10666.0",
    "gn:asciiname":"Toledo",
    "gn:country_code":"US",
    "gn:dem":229,
    "gn:elevation":"223.0",
    "gn:feature_class":"P",
    "gn:feature_code":"PPL",
    "gn:geonameid":4411829,
    "gn:latitude":38.8406,
    "gn:longitude":-91.81823,
    "gn:modification_date":"2017-05-23",
    "gn:name":"Toledo",
    "gn:population":0,
    "gn:timezone":"America/Chicago",
    "iso:country":"US",
    "mz:hierarchy_label":1,
    "mz:is_current":-1,
    "src:geom":"geonames",
    "wof:belongsto":[
        85688661,
        102191575,
        404516427,
        85633793,
        102087511
    ],
    "wof:breaches":[],
    "wof:concordances":{
        "gn:id":4411829
    },
    "wof:country":"US",
    "wof:geomhash":"55d49e66addaffc6c44df69f9f44639a",
    "wof:hierarchy":[
        {
            "continent_id":102191575,
            "country_id":85633793,
            "county_id":102087511,
            "localadmin_id":404516427,
            "locality_id":1276255041,
            "region_id":85688661
        }
    ],
    "wof:id":1276255041,
    "wof:lastmodified":1536882984,
    "wof:name":"Toledo",
    "wof:parent_id":404516427,
    "wof:placetype":"locality",
    "wof:repo":"whosonfirst-data-admin-us",
    "wof:superseded_by":[],
    "wof:supersedes":[],
    "wof:tags":[]
},
  "bbox": [
    -91.81823,
    38.8406,
    -91.81823,
    38.8406
],
  "geometry": {"coordinates":[-91.81823,38.8406],"type":"Point"}
}