{
  "id": 1126101661,
  "type": "Feature",
  "properties": {
    "edtf:cessation":"uuuu",
    "edtf:deprecated":"2018-08-15",
    "edtf:inception":"uuuu",
    "edtf:superseded":"2018-08-15",
    "geom:area":0.0,
    "geom:area_square_m":0.0,
    "geom:bbox":"-84.78688,34.27287,-84.78688,34.27287",
    "geom:latitude":34.27287,
    "geom:longitude":-84.78688,
    "gn:gn_country":"US",
    "gn:gn_fcode":"PPL",
    "gn:gn_pop":0,
    "iso:country":"US",
    "lbl:latitude":34.27287,
    "lbl:longitude":-84.78688,
    "mz:hierarchy_label":1,
    "mz:is_current":0,
    "mz:note":"Quattroshapes Point Gazetteer import 20170519",
    "qs_pg:aaroncc":"US",
    "qs_pg:gn_country":"US",
    "qs_pg:gn_fcode":"PPL",
    "qs_pg:gn_id":4197901,
    "qs_pg:gn_pop":0,
    "qs_pg:name":"Grassdale",
    "qs_pg:name_adm0":"United States",
    "qs_pg:name_adm1":"Georgia",
    "qs_pg:photos":3,
    "qs_pg:photos_1k":1,
    "qs_pg:photos_9k":1,
    "qs_pg:photos_9r":1,
    "qs_pg:photos_all":3,
    "qs_pg:photos_sr":1,
    "qs_pg:pop_sr":0,
    "qs_pg:qs_id":48165,
    "qs_pg:qs_pg_placetype":"neighbourhood",
    "qs_pg:qs_pg_placetype_gp":"Suburb",
    "qs_pg:woe_adm0":23424977,
    "qs_pg:woe_id":2413266,
    "src:geom":"qs_pg",
    "src:lbl:centroid":"qs_pg",
    "woe:adm0_id":23424977,
    "woe:name_adm0":"United States",
    "woe:name_adm1":"Georgia",
    "woe:placetype":"Suburb",
    "wof:belongsto":[
        85688535,
        102191575,
        85633793,
        102082937
    ],
    "wof:breaches":[],
    "wof:concordances":{
        "gn:id":4197901,
        "gp:id":2413266,
        "qs_pg:id":48165
    },
    "wof:country":"US",
    "wof:created":1497316191,
    "wof:geomhash":"87923b8c4c156928727f07ef308d757a",
    "wof:hierarchy":[
        {
            "continent_id":102191575,
            "country_id":85633793,
            "county_id":102082937,
            "locality_id":-1,
            "neighbourhood_id":1126101661,
            "region_id":85688535
        }
    ],
    "wof:id":1126101661,
    "wof:lastmodified":1534379732,
    "wof:name":"Grassdale",
    "wof:parent_id":-1,
    "wof:placetype":"neighbourhood",
    "wof:repo":"whosonfirst-data-admin-us",
    "wof:superseded_by":[
        420517199
    ],
    "wof:supersedes":[],
    "wof:tags":[]
},
  "bbox": [
    -84.78688,
    34.27287,
    -84.78688,
    34.27287
],
  "geometry": {"coordinates":[-84.78688,34.27287],"type":"Point"}
}