{
  "id": 420510211,
  "type": "Feature",
  "properties": {
    "edtf:cessation":"uuuu",
    "edtf:inception":"uuuu",
    "geom:area":0.0,
    "geom:area_square_m":1409595.735424,
    "geom:bbox":"-86.765062,33.393125,-86.765062,33.393125",
    "geom:latitude":33.393125,
    "geom:longitude":-86.765062,
    "iso:country":"US",
    "lbl:latitude":33.393125,
    "lbl:longitude":-86.765062,
    "mz:hierarchy_label":0,
    "mz:is_current":-1,
    "name:eng_x_preferred":[
        "Rocky Ridge Manor"
    ],
    "src:geom":"mz",
    "src:geom_alt":[
        "zetashapes"
    ],
    "src:lbl":"mapshaper",
    "src:lbl:centroid":"mapshaper",
    "src:population":"zetashapes",
    "wof:belongsto":[
        102191575,
        85633793,
        102085481,
        85688675
    ],
    "wof:breaches":[],
    "wof:concordances":{
        "gp:id":2483747
    },
    "wof:country":"US",
    "wof:geomhash":"f60a0c9dd27b8944df7bb7b0cf56fbfb",
    "wof:hierarchy":[
        {
            "continent_id":102191575,
            "country_id":85633793,
            "county_id":102085481,
            "locality_id":-1,
            "neighbourhood_id":420510211,
            "region_id":85688675
        }
    ],
    "wof:id":420510211,
    "wof:lastmodified":1533591129,
    "wof:name":"Rocky Ridge Manor",
    "wof:parent_id":-1,
    "wof:placetype":"neighbourhood",
    "wof:population":504,
    "wof:population_rank":2,
    "wof:repo":"whosonfirst-data-admin-us",
    "wof:superseded_by":[],
    "wof:supersedes":[],
    "wof:tags":[],
    "zs:area_m":1409499.740094,
    "zs:blockids":[
        10730129071037,
        10730129071029,
        10730129071031,
        10730129071027,
        10730129071009,
        10730129071036,
        10730129071030,
        10730129071026,
        10730129071038
    ],
    "zs:housing10":208,
    "zs:id":2483747,
    "zs:label":"Rocky Ridge Manor",
    "zs:pop10":504
},
  "bbox": [
    -86.765062,
    33.393125,
    -86.765062,
    33.393125
],
  "geometry": {"coordinates":[-86.765062,33.393125],"type":"Point"}
}