{
  "id": 1125420817,
  "type": "Feature",
  "properties": {
    "edtf:cessation":"2017-05-19",
    "edtf:inception":"uuuu",
    "geom:area":0.0,
    "geom:area_square_m":0.0,
    "geom:bbox":"-99.27752,35.42197,-99.27752,35.42197",
    "geom:latitude":35.42197,
    "geom:longitude":-99.27752,
    "gn:gn_country":"US",
    "gn:gn_fcode":"ADMD",
    "gn:gn_pop":541,
    "gn:population":541,
    "iso:country":"US",
    "lbl:latitude":35.42197,
    "lbl:longitude":-99.27752,
    "mz:hierarchy_label":1,
    "mz:is_current":0,
    "mz:note":"Quattroshapes Point Gazetteer import 20170519",
    "qs_pg:aaroncc":"US",
    "qs_pg:gn_country":"US",
    "qs_pg:gn_fcode":"ADMD",
    "qs_pg:gn_id":7175567,
    "qs_pg:gn_pop":541,
    "qs_pg:name":"Town of Canute",
    "qs_pg:photos_9r":0,
    "qs_pg:photos_sr":0,
    "qs_pg:pop_sr":2,
    "qs_pg:qs_id":668092,
    "qs_pg:qs_pg_placetype":"localadmin",
    "src:geom":"qs_pg",
    "src:lbl:centroid":"qs_pg",
    "src:population":"geonames",
    "wof:belongsto":[
        85633793
    ],
    "wof:breaches":[],
    "wof:concordances":{
        "gn:id":7175567,
        "qs_pg:id":668092
    },
    "wof:country":"US",
    "wof:created":1497052176,
    "wof:geomhash":"b2681125e3b17a8f46a6ec34773c55b5",
    "wof:hierarchy":[
        {
            "country_id":85633793,
            "localadmin_id":1125420817
        }
    ],
    "wof:id":1125420817,
    "wof:lastmodified":1505187153,
    "wof:name":"Town of Canute",
    "wof:parent_id":-1,
    "wof:placetype":"localadmin",
    "wof:population":541,
    "wof:population_rank":2,
    "wof:repo":"whosonfirst-data-admin-us",
    "wof:superseded_by":[],
    "wof:supersedes":[],
    "wof:tags":[]
},
  "bbox": [
    -99.27752,
    35.42197,
    -99.27752,
    35.42197
],
  "geometry": {"coordinates":[-99.27752,35.42197],"type":"Point"}
}