{
  "id": 1125369771,
  "type": "Feature",
  "properties": {
    "edtf:cessation":"2017-05-19",
    "edtf:inception":"uuuu",
    "geom:area":0.0,
    "geom:area_square_m":0.0,
    "geom:bbox":"-97.3516,40.71637,-97.3516,40.71637",
    "geom:latitude":40.71637,
    "geom:longitude":-97.3516,
    "gn:gn_country":"US",
    "gn:gn_fcode":"ADMD",
    "gn:gn_pop":137,
    "gn:population":137,
    "iso:country":"US",
    "lbl:latitude":40.71637,
    "lbl:longitude":-97.3516,
    "mz:hierarchy_label":1,
    "mz:is_current":0,
    "mz:note":"Quattroshapes Point Gazetteer import 20170519",
    "qs_pg:aaroncc":"US",
    "qs_pg:gn_country":"US",
    "qs_pg:gn_fcode":"ADMD",
    "qs_pg:gn_id":7166338,
    "qs_pg:gn_pop":137,
    "qs_pg:name":"Village of Cordova",
    "qs_pg:photos_9r":0,
    "qs_pg:photos_sr":0,
    "qs_pg:pop_sr":1,
    "qs_pg:qs_id":661174,
    "qs_pg:qs_pg_placetype":"localadmin",
    "src:geom":"qs_pg",
    "src:lbl:centroid":"qs_pg",
    "src:population":"geonames",
    "wof:belongsto":[
        85633793
    ],
    "wof:breaches":[],
    "wof:concordances":{
        "gn:id":7166338,
        "qs_pg:id":661174
    },
    "wof:country":"US",
    "wof:created":1497047308,
    "wof:geomhash":"1d10660a098e556260200dd67fc2efc6",
    "wof:hierarchy":[
        {
            "country_id":85633793,
            "localadmin_id":1125369771
        }
    ],
    "wof:id":1125369771,
    "wof:lastmodified":1505187064,
    "wof:name":"Village of Cordova",
    "wof:parent_id":-1,
    "wof:placetype":"localadmin",
    "wof:population":137,
    "wof:population_rank":1,
    "wof:repo":"whosonfirst-data-admin-us",
    "wof:superseded_by":[],
    "wof:supersedes":[],
    "wof:tags":[]
},
  "bbox": [
    -97.3516,
    40.71637,
    -97.3516,
    40.71637
],
  "geometry": {"coordinates":[-97.3516,40.71637],"type":"Point"}
}