{
  "id": 1193040641,
  "type": "Feature",
  "properties": {
    "edtf:cessation":"2018-09-07",
    "edtf:inception":"uuuu",
    "geom:area":0.0,
    "geom:area_square_m":0.0,
    "geom:bbox":"-115.17887,35.48971,-115.17887,35.48971",
    "geom:latitude":35.48971,
    "geom:longitude":-115.17887,
    "gn:admin1_code":"NV",
    "gn:admin2_code":"3.0",
    "gn:asciiname":"Crescent (historical)",
    "gn:country_code":"US",
    "gn:dem":1322,
    "gn:elevation":"1322.0",
    "gn:feature_class":"P",
    "gn:feature_code":"PPLQ",
    "gn:geonameid":5502492,
    "gn:latitude":35.48971,
    "gn:longitude":-115.17887,
    "gn:modification_date":"2011-12-11",
    "gn:name":"Crescent (historical)",
    "gn:population":0,
    "gn:timezone":"America/Los_Angeles",
    "iso:country":"US",
    "mz:hierarchy_label":1,
    "mz:is_current":0,
    "src:geom":"geonames",
    "wof:belongsto":[
        102191575,
        85633793,
        85688531,
        102081553
    ],
    "wof:breaches":[],
    "wof:concordances":{
        "gn:id":5502492
    },
    "wof:country":"US",
    "wof:geomhash":"c0165923515ca203bacab934e70fa060",
    "wof:hierarchy":[
        {
            "continent_id":102191575,
            "country_id":85633793,
            "county_id":102081553,
            "locality_id":1193040641,
            "region_id":85688531
        }
    ],
    "wof:id":1193040641,
    "wof:lastmodified":1536376274,
    "wof:name":"Crescent (historical)",
    "wof:parent_id":102081553,
    "wof:placetype":"locality",
    "wof:repo":"whosonfirst-data-admin-us",
    "wof:superseded_by":[],
    "wof:supersedes":[],
    "wof:tags":[]
},
  "bbox": [
    -115.17887,
    35.48970999999999,
    -115.17887,
    35.48970999999999
],
  "geometry": {"coordinates":[-115.17887,35.48970999999999],"type":"Point"}
}