{
  "id": 1260005509,
  "type": "Feature",
  "properties": {
    "edtf:cessation":"2018-09-07",
    "edtf:inception":"uuuu",
    "geom:area":0.0,
    "geom:area_square_m":0.0,
    "geom:bbox":"-89.83341,32.23626,-89.83341,32.23626",
    "geom:latitude":32.23626,
    "geom:longitude":-89.83341,
    "gn:admin1_code":"MS",
    "gn:admin2_code":"121",
    "gn:asciiname":"Shiloh (historical)",
    "gn:country_code":"US",
    "gn:dem":180,
    "gn:elevation":"171.0",
    "gn:feature_class":"P",
    "gn:feature_code":"PPLQ",
    "gn:geonameid":4445827,
    "gn:latitude":32.23626,
    "gn:longitude":-89.83341,
    "gn:modification_date":"2011-12-11",
    "gn:name":"Shiloh (historical)",
    "gn:population":0,
    "gn:timezone":"America/Chicago",
    "iso:country":"US",
    "mz:hierarchy_label":1,
    "mz:is_current":0,
    "name:eng_x_preferred":[
        "Shiloh (historical)"
    ],
    "name:und_x_variant":[
        "Shiloh Camp Ground"
    ],
    "src:geom":"geonames",
    "wof:belongsto":[
        102191575,
        85633793,
        85688579,
        102084869
    ],
    "wof:breaches":[],
    "wof:concordances":{
        "gn:id":4445827
    },
    "wof:country":"US",
    "wof:geomhash":"957e3b723eab074fac1435723b49c985",
    "wof:hierarchy":[
        {
            "continent_id":102191575,
            "country_id":85633793,
            "county_id":102084869,
            "locality_id":1260005509,
            "region_id":85688579
        }
    ],
    "wof:id":1260005509,
    "wof:lastmodified":1537712498,
    "wof:name":"Shiloh (historical)",
    "wof:parent_id":102084869,
    "wof:placetype":"locality",
    "wof:repo":"whosonfirst-data-admin-us",
    "wof:superseded_by":[],
    "wof:supersedes":[],
    "wof:tags":[]
},
  "bbox": [
    -89.83341,
    32.23625999999999,
    -89.83341,
    32.23625999999999
],
  "geometry": {"coordinates":[-89.83341,32.23625999999999],"type":"Point"}
}