{
  "id": 1360204093,
  "type": "Feature",
  "properties": {
    "edtf:cessation":"uuuu",
    "edtf:inception":"uuuu",
    "geom:area":0.0,
    "geom:area_square_m":0.0,
    "geom:bbox":"-82.32068,31.70381,-82.32068,31.70381",
    "geom:latitude":31.70381,
    "geom:longitude":-82.32068,
    "gn:admin1_code":"GA",
    "gn:admin2_code":"1.0",
    "gn:asciiname":"Holmesville",
    "gn:country_code":"US",
    "gn:dem":63,
    "gn:elevation":"54.0",
    "gn:feature_class":"P",
    "gn:feature_code":"PPL",
    "gn:geonameid":4201084,
    "gn:latitude":31.70381,
    "gn:longitude":-82.32068,
    "gn:modification_date":"2006-01-15",
    "gn:name":"Holmesville",
    "gn:population":0,
    "gn:timezone":"America/New_York",
    "iso:country":"US",
    "mz:hierarchy_label":1,
    "mz:is_current":-1,
    "src:geom":"geonames",
    "wof:belongsto":[
        102191575,
        85633793,
        85688535,
        102081679
    ],
    "wof:breaches":[],
    "wof:concordances":{
        "gn:id":4201084
    },
    "wof:country":"US",
    "wof:geomhash":"d48af8ee4995f3fe6ff443a1bbacc397",
    "wof:hierarchy":[
        {
            "continent_id":102191575,
            "country_id":85633793,
            "county_id":102081679,
            "locality_id":1360204093,
            "region_id":85688535
        }
    ],
    "wof:id":1360204093,
    "wof:lastmodified":1536774674,
    "wof:name":"Holmesville",
    "wof:parent_id":102081679,
    "wof:placetype":"locality",
    "wof:repo":"whosonfirst-data-admin-us",
    "wof:superseded_by":[],
    "wof:supersedes":[],
    "wof:tags":[]
},
  "bbox": [
    -82.32068000000002,
    31.70381,
    -82.32068000000002,
    31.70381
],
  "geometry": {"coordinates":[-82.32068000000002,31.70381],"type":"Point"}
}