{
  "id": 85872095,
  "type": "Feature",
  "properties": {"wof:repo":"whosonfirst-data-admin-us",
    "src:geom":"quattroshapes",
    "wof:geomhash":"a27a59522d1830e7975d01dd706d02ce",
    "wof:id":85872095
},
  "bbox": [
    -84.37225341798609,
    33.81566630083792,
    -84.35302734370006,
    33.833291664565905
],
  "geometry": {"coordinates":[[[-84.36401367406737,33.83163845169371],[-84.36401367188157,33.82935690211768],[-84.35852050779991,33.82935690770006],[-84.35852050779991,33.82821607012544],[-84.35672160612881,33.82821607012544],[-84.35577392796736,33.82707528399365],[-84.35577392578512,33.82479361830002],[-84.35302734370006,33.82479361830002],[-84.35302734516316,33.82023007639094],[-84.35302734371896,33.81794822160023],[-84.35577392578637,33.81794821851905],[-84.35577392578608,33.81566630108767],[-84.35852051054385,33.81566630083792],[-84.36401367190004,33.81566630870007],[-84.36401367190004,33.81794821648646],[-84.36676025389991,33.81794821928031],[-84.36950683591817,33.81794821928031],[-84.37225341798609,33.81794822063354],[-84.37225341798325,33.82023007760029],[-84.37225341798325,33.82251187458773],[-84.37225341798504,33.82479361830002],[-84.37225341797500,33.82707521732547],[-84.37140227249779,33.82707521732547],[-84.37140217135868,33.82707527820033],[-84.36950683591400,33.82935689958025],[-84.36676025389991,33.82935690190017],[-84.36676025172076,33.83163845169007],[-84.36538696287494,33.83329166456591],[-84.36401367406737,33.83163845169371]]],"type":"Polygon"}
}