{
  "id": 420550607,
  "type": "Feature",
  "properties": {
    "edtf:cessation":"uuuu",
    "edtf:inception":"uuuu",
    "geom:area":0.0,
    "geom:area_square_m":9003053.172338,
    "geom:bbox":"-122.195526,37.909262,-122.195526,37.909262",
    "geom:latitude":37.909262,
    "geom:longitude":-122.195526,
    "iso:country":"US",
    "lbl:latitude":37.909262,
    "lbl:longitude":-122.195526,
    "mz:hierarchy_label":0,
    "mz:is_current":-1,
    "name:eng_x_preferred":[
        "Sleepy Hollow"
    ],
    "src:geom":"mz",
    "src:geom_alt":[
        "quattroshapes_pg",
        "zetashapes"
    ],
    "src:lbl":"mapshaper",
    "src:lbl:centroid":"mapshaper",
    "src:population":"zetashapes",
    "wof:belongsto":[
        102191575,
        85633793,
        85922149,
        102086225,
        85688637
    ],
    "wof:breaches":[],
    "wof:concordances":{
        "gp:id":55970259,
        "qs_pg:id":991540
    },
    "wof:country":"US",
    "wof:geomhash":"8525157eb877639eddfc99faaf23ea6c",
    "wof:hierarchy":[
        {
            "continent_id":102191575,
            "country_id":85633793,
            "county_id":102086225,
            "locality_id":85922149,
            "neighbourhood_id":420550607,
            "region_id":85688637
        }
    ],
    "wof:id":420550607,
    "wof:lastmodified":1533612738,
    "wof:name":"Sleepy Hollow",
    "wof:parent_id":85922149,
    "wof:placetype":"neighbourhood",
    "wof:population":1145,
    "wof:population_rank":3,
    "wof:repo":"whosonfirst-data-admin-us",
    "wof:superseded_by":[],
    "wof:supersedes":[],
    "wof:tags":[],
    "zs:area_m":9002451.897357,
    "zs:blockids":[
        60133560024081,
        60133540021006,
        60133540021005,
        60133540021013,
        60133540021012,
        60133540022000,
        60133560024135,
        60133540021007,
        60133540021003,
        60133540021042,
        60133540021001,
        60133560024134,
        60133560024083,
        60133540022001,
        60133540021011,
        60133540021029,
        60133540021002,
        60133540021004,
        60133540021041,
        60133540021016,
        60133560024140,
        60133540021010,
        60133560024124,
        60133540021014,
        60133560024133,
        60133560024132,
        60133540021015,
        60133540022003,
        60133560024138
    ],
    "zs:housing10":434,
    "zs:id":55970259,
    "zs:label":"Sleepy Hollow",
    "zs:pop10":1145
},
  "bbox": [
    -122.195526,
    37.909262,
    -122.195526,
    37.909262
],
  "geometry": {"coordinates":[-122.195526,37.909262],"type":"Point"}
}