{
  "id": 1125361491,
  "type": "Feature",
  "properties": {
    "edtf:cessation":"2017-05-19",
    "edtf:inception":"uuuu",
    "geom:area":0.0,
    "geom:area_square_m":0.0,
    "geom:bbox":"-82.23941,41.35136,-82.23941,41.35136",
    "geom:latitude":41.35136,
    "geom:longitude":-82.23941,
    "gn:gn_country":"US",
    "gn:gn_fcode":"ADMD",
    "gn:gn_pop":1688,
    "gn:population":1688,
    "iso:country":"US",
    "lbl:latitude":41.35136,
    "lbl:longitude":-82.23941,
    "mz:hierarchy_label":1,
    "mz:is_current":0,
    "mz:note":"Quattroshapes Point Gazetteer import 20170519",
    "qs_pg:aaroncc":"US",
    "qs_pg:gn_country":"US",
    "qs_pg:gn_fcode":"ADMD",
    "qs_pg:gn_id":7167460,
    "qs_pg:gn_pop":1688,
    "qs_pg:name":"Village of South Amherst",
    "qs_pg:photos_9r":0,
    "qs_pg:photos_sr":0,
    "qs_pg:pop_sr":3,
    "qs_pg:qs_id":541028,
    "qs_pg:qs_pg_placetype":"localadmin",
    "src:geom":"qs_pg",
    "src:lbl:centroid":"qs_pg",
    "src:population":"geonames",
    "wof:belongsto":[
        85633793
    ],
    "wof:breaches":[],
    "wof:concordances":{
        "gn:id":7167460,
        "qs_pg:id":541028
    },
    "wof:country":"US",
    "wof:created":1497046821,
    "wof:geomhash":"139c5a327e51bc2e7524df30f4b6f153",
    "wof:hierarchy":[
        {
            "country_id":85633793,
            "localadmin_id":1125361491
        }
    ],
    "wof:id":1125361491,
    "wof:lastmodified":1505187078,
    "wof:name":"Village of South Amherst",
    "wof:parent_id":-1,
    "wof:placetype":"localadmin",
    "wof:population":1688,
    "wof:population_rank":3,
    "wof:repo":"whosonfirst-data-admin-us",
    "wof:superseded_by":[],
    "wof:supersedes":[],
    "wof:tags":[]
},
  "bbox": [
    -82.23941,
    41.35136,
    -82.23941,
    41.35136
],
  "geometry": {"coordinates":[-82.23941000000001,41.35136],"type":"Point"}
}