{
  "id": 85808507,
  "type": "Feature",
  "properties": {"wof:repo":"whosonfirst-data-admin-us",
    "src:geom":"quattroshapes",
    "wof:geomhash":"5fdf2a5b67bf7ec83a298761dbfeaaa8",
    "wof:id":85808507
},
  "bbox": [
    -122.68981933599994,
    45.46361822200548,
    -122.6788330079998,
    45.473148909207126
],
  "geometry": {"coordinates":[[[-122.68157958999996,45.47184334373112],[-122.68157958999996,45.47168825810003],[-122.68157958999996,45.46976214574609],[-122.68048483982136,45.46820107432070],[-122.67920462807558,45.46783598130010],[-122.67883300800000,45.46783598130010],[-122.67883300799980,45.46773000203810],[-122.67883300799991,45.46408919537323],[-122.67883300800000,45.46398344130010],[-122.67920386632360,45.46398344130010],[-122.68048461713903,45.46361822200548],[-122.68125305186831,45.46398344130010],[-122.68432617200003,45.46398344130010],[-122.68432617199991,45.46544402438427],[-122.68432617199983,45.46637531538040],[-122.68707275399998,45.46768074704023],[-122.68707275399998,45.46783598130010],[-122.68707275399998,45.46976214346141],[-122.68981933599986,45.46976214633351],[-122.68981933599994,45.47168825810003],[-122.68981933599986,45.47314890920713],[-122.68707275399998,45.47184334373112],[-122.68432617199983,45.47314890920713],[-122.68157958999996,45.47184334373112]]],"type":"Polygon"}
}