{
  "id": 1125316397,
  "type": "Feature",
  "properties": {
    "edtf:cessation":"uuuu",
    "edtf:deprecated":"2017-11-04",
    "edtf:inception":"uuuu",
    "geom:area":0.0,
    "geom:area_square_m":0.0,
    "geom:bbox":"-96.50169,37.10542,-96.50169,37.10542",
    "geom:latitude":37.10542,
    "geom:longitude":-96.50169,
    "gn:gn_country":"US",
    "gn:gn_fcode":"ADMD",
    "gn:gn_pop":579,
    "gn:population":579,
    "iso:country":"US",
    "lbl:latitude":37.10542,
    "lbl:longitude":-96.50169,
    "mz:hierarchy_label":1,
    "mz:is_current":0,
    "mz:note":"Quattroshapes Point Gazetteer import 20170519",
    "qs_pg:aaroncc":"US",
    "qs_pg:gn_country":"US",
    "qs_pg:gn_fcode":"ADMD",
    "qs_pg:gn_id":7163094,
    "qs_pg:gn_pop":579,
    "qs_pg:name":"City of Cedar Vale",
    "qs_pg:photos_9r":0,
    "qs_pg:photos_sr":0,
    "qs_pg:pop_sr":2,
    "qs_pg:qs_id":658060,
    "qs_pg:qs_pg_placetype":"localadmin",
    "src:geom":"qs_pg",
    "src:lbl:centroid":"qs_pg",
    "src:population":"geonames",
    "wof:belongsto":[
        85633793
    ],
    "wof:breaches":[],
    "wof:concordances":{
        "gn:id":7163094,
        "qs_pg:id":658060
    },
    "wof:country":"US",
    "wof:created":1497044300,
    "wof:geomhash":"1e2b5c2db3b059a896902302ed7d5744",
    "wof:hierarchy":[
        {
            "country_id":85633793,
            "localadmin_id":1125316397
        }
    ],
    "wof:id":1125316397,
    "wof:lastmodified":1509752529,
    "wof:name":"City of Cedar Vale",
    "wof:parent_id":-1,
    "wof:placetype":"localadmin",
    "wof:population":579,
    "wof:population_rank":2,
    "wof:repo":"whosonfirst-data-admin-us",
    "wof:superseded_by":[
        85945261
    ],
    "wof:supersedes":[],
    "wof:tags":[]
},
  "bbox": [
    -96.50169,
    37.10542,
    -96.50169,
    37.10542
],
  "geometry": {"coordinates":[-96.50169,37.10542],"type":"Point"}
}