{
  "id": 1125366639,
  "type": "Feature",
  "properties": {
    "edtf:cessation":"2017-05-19",
    "edtf:inception":"uuuu",
    "geom:area":0.0,
    "geom:area_square_m":0.0,
    "geom:bbox":"-76.18967,40.67092,-76.18967,40.67092",
    "geom:latitude":40.67092,
    "geom:longitude":-76.18967,
    "gn:gn_country":"US",
    "gn:gn_fcode":"ADMD",
    "gn:gn_pop":91,
    "gn:population":91,
    "iso:country":"US",
    "lbl:latitude":40.67092,
    "lbl:longitude":-76.18967,
    "mz:hierarchy_label":1,
    "mz:is_current":0,
    "mz:note":"Quattroshapes Point Gazetteer import 20170519",
    "qs_pg:aaroncc":"US",
    "qs_pg:gn_country":"US",
    "qs_pg:gn_fcode":"ADMD",
    "qs_pg:gn_id":5202113,
    "qs_pg:gn_pop":91,
    "qs_pg:name":"Borough of Mount Carbon",
    "qs_pg:photos_9r":0,
    "qs_pg:photos_sr":0,
    "qs_pg:pop_sr":1,
    "qs_pg:qs_id":101449,
    "qs_pg:qs_pg_placetype":"localadmin",
    "src:geom":"qs_pg",
    "src:lbl:centroid":"qs_pg",
    "src:population":"geonames",
    "wof:belongsto":[
        85633793
    ],
    "wof:breaches":[],
    "wof:concordances":{
        "gn:id":5202113,
        "qs_pg:id":101449
    },
    "wof:country":"US",
    "wof:created":1497047118,
    "wof:geomhash":"443142b8afb799bbbed3607da70aa256",
    "wof:hierarchy":[
        {
            "country_id":85633793,
            "localadmin_id":1125366639
        }
    ],
    "wof:id":1125366639,
    "wof:lastmodified":1505186974,
    "wof:name":"Borough of Mount Carbon",
    "wof:parent_id":-1,
    "wof:placetype":"localadmin",
    "wof:population":91,
    "wof:population_rank":1,
    "wof:repo":"whosonfirst-data-admin-us",
    "wof:superseded_by":[],
    "wof:supersedes":[],
    "wof:tags":[]
},
  "bbox": [
    -76.18967,
    40.67092,
    -76.18967,
    40.67092
],
  "geometry": {"coordinates":[-76.18967000000001,40.67092],"type":"Point"}
}