{
  "id": 1125899575,
  "type": "Feature",
  "properties": {
    "edtf:cessation":"uuuu",
    "edtf:inception":"uuuu",
    "geom:area":0.0,
    "geom:area_square_m":0.0,
    "geom:bbox":"-72.77893,43.460395,-72.77893,43.460395",
    "geom:latitude":43.460395,
    "geom:longitude":-72.77893,
    "gn:gn_country":null,
    "iso:country":"US",
    "lbl:latitude":43.460395,
    "lbl:longitude":-72.77893,
    "mz:hierarchy_label":1,
    "mz:is_current":-1,
    "mz:note":"Quattroshapes Point Gazetteer import 20170519",
    "qs_pg:aaroncc":"US",
    "qs_pg:gn_country":null,
    "qs_pg:name":"Summit",
    "qs_pg:name_adm0":"United States",
    "qs_pg:name_adm1":"Vermont",
    "qs_pg:photos":48,
    "qs_pg:photos_1k":10,
    "qs_pg:photos_9k":1,
    "qs_pg:photos_9r":2,
    "qs_pg:photos_all":48,
    "qs_pg:photos_sr":2,
    "qs_pg:pop_sr":0,
    "qs_pg:qs_id":367879,
    "qs_pg:qs_pg_placetype":"locality",
    "qs_pg:qs_pg_placetype_gp":"Town",
    "qs_pg:woe_adm0":23424977,
    "qs_pg:woe_id":23511528,
    "src:geom":"qs_pg",
    "src:lbl:centroid":"qs_pg",
    "woe:adm0_id":23424977,
    "woe:name_adm0":"United States",
    "woe:name_adm1":"Vermont",
    "woe:placetype":"Town",
    "wof:belongsto":[
        85688763,
        102191575,
        404527303,
        85633793,
        102080771
    ],
    "wof:breaches":[],
    "wof:concordances":{
        "gp:id":23511528,
        "qs_pg:id":367879
    },
    "wof:country":"US",
    "wof:created":1497295747,
    "wof:geomhash":"eb6c785ab78f35cb7f5835b3b28bb049",
    "wof:hierarchy":[
        {
            "continent_id":102191575,
            "country_id":85633793,
            "county_id":102080771,
            "localadmin_id":404527303,
            "locality_id":1125899575,
            "region_id":85688763
        }
    ],
    "wof:id":1125899575,
    "wof:lastmodified":1509399319,
    "wof:name":"Summit",
    "wof:parent_id":404527303,
    "wof:placetype":"locality",
    "wof:repo":"whosonfirst-data-admin-us",
    "wof:superseded_by":[],
    "wof:supersedes":[],
    "wof:tags":[]
},
  "bbox": [
    -72.77893,
    43.460395,
    -72.77893,
    43.460395
],
  "geometry": {"coordinates":[-72.77893,43.460395],"type":"Point"}
}