{
  "id": 420553523,
  "type": "Feature",
  "properties": {
    "edtf:cessation":"uuuu",
    "edtf:inception":"uuuu",
    "geom:area":0.0,
    "geom:area_square_m":623720.723414,
    "geom:bbox":"-105.039799,39.898179,-105.039799,39.898179",
    "geom:latitude":39.898179,
    "geom:longitude":-105.039799,
    "iso:country":"US",
    "lbl:latitude":39.898179,
    "lbl:longitude":-105.039799,
    "mz:hierarchy_label":0,
    "mz:is_current":-1,
    "name:eng_x_preferred":[
        "Cotton Creek"
    ],
    "src:geom":"mz",
    "src:geom_alt":[
        "zetashapes"
    ],
    "src:lbl":"mapshaper",
    "src:lbl:centroid":"mapshaper",
    "src:population":"zetashapes",
    "wof:belongsto":[
        102191575,
        85633793,
        85929351,
        102084053,
        85688603
    ],
    "wof:breaches":[],
    "wof:concordances":{
        "gp:id":55974617
    },
    "wof:country":"US",
    "wof:geomhash":"21b3b8d31381bdbc4cd9679e9e68de89",
    "wof:hierarchy":[
        {
            "continent_id":102191575,
            "country_id":85633793,
            "county_id":102084053,
            "locality_id":85929351,
            "neighbourhood_id":420553523,
            "region_id":85688603
        }
    ],
    "wof:id":420553523,
    "wof:lastmodified":1533613454,
    "wof:name":"Cotton Creek",
    "wof:parent_id":85929351,
    "wof:placetype":"neighbourhood",
    "wof:population":1436,
    "wof:population_rank":3,
    "wof:repo":"whosonfirst-data-admin-us",
    "wof:superseded_by":[],
    "wof:supersedes":[],
    "wof:tags":[],
    "zs:area_m":623677.840542,
    "zs:blockids":[
        80010094092012,
        80010094092021,
        80010094092022,
        80010094092024,
        80010094092026,
        80010094092023,
        80010094092014,
        80010094092015,
        80010094092013,
        80010094092017
    ],
    "zs:housing10":674,
    "zs:id":55974617,
    "zs:label":"Cotton Creek",
    "zs:pop10":1436
},
  "bbox": [
    -105.039799,
    39.898179,
    -105.039799,
    39.898179
],
  "geometry": {"coordinates":[-105.039799,39.898179],"type":"Point"}
}