{
  "id": 420555157,
  "type": "Feature",
  "properties": {
    "edtf:cessation":"uuuu",
    "edtf:inception":"uuuu",
    "geom:area":0.0,
    "geom:area_square_m":280353.427712,
    "geom:bbox":"-106.918897,40.50019,-106.918897,40.50019",
    "geom:latitude":40.50019,
    "geom:longitude":-106.918897,
    "iso:country":"US",
    "lbl:latitude":40.50019,
    "lbl:longitude":-106.918897,
    "mz:hierarchy_label":0,
    "mz:is_current":-1,
    "name:eng_x_preferred":[
        "More Ranch"
    ],
    "src:geom":"mz",
    "src:geom_alt":[
        "zetashapes"
    ],
    "src:lbl":"mapshaper",
    "src:lbl:centroid":"mapshaper",
    "src:population":"zetashapes",
    "wof:belongsto":[
        102191575,
        85633793,
        102086129,
        85688603
    ],
    "wof:breaches":[],
    "wof:concordances":{
        "gp:id":55974427
    },
    "wof:country":"US",
    "wof:geomhash":"6c98e12fa1678309a2e9416ea8a34fea",
    "wof:hierarchy":[
        {
            "continent_id":102191575,
            "country_id":85633793,
            "county_id":102086129,
            "locality_id":-1,
            "neighbourhood_id":420555157,
            "region_id":85688603
        }
    ],
    "wof:id":420555157,
    "wof:lastmodified":1533613911,
    "wof:name":"More Ranch",
    "wof:parent_id":-1,
    "wof:placetype":"neighbourhood",
    "wof:population":46,
    "wof:population_rank":1,
    "wof:repo":"whosonfirst-data-admin-us",
    "wof:superseded_by":[],
    "wof:supersedes":[],
    "wof:tags":[],
    "zs:area_m":280334.064167,
    "zs:blockids":[
        81070004001039,
        81070004001019,
        81070004001014,
        81070004001015
    ],
    "zs:housing10":28,
    "zs:id":55974427,
    "zs:label":"More Ranch",
    "zs:pop10":46
},
  "bbox": [
    -106.918897,
    40.50019,
    -106.918897,
    40.50019
],
  "geometry": {"coordinates":[-106.918897,40.50019],"type":"Point"}
}