{
  "id": 1125307703,
  "type": "Feature",
  "properties": {
    "edtf:cessation":"2017-05-19",
    "edtf:inception":"uuuu",
    "geom:area":0.0,
    "geom:area_square_m":0.0,
    "geom:bbox":"-79.76727,40.20868,-79.76727,40.20868",
    "geom:latitude":40.20868,
    "geom:longitude":-79.76727,
    "gn:gn_country":"US",
    "gn:gn_fcode":"ADMD",
    "gn:gn_pop":2633,
    "gn:population":2633,
    "iso:country":"US",
    "lbl:latitude":40.20868,
    "lbl:longitude":-79.76727,
    "mz:hierarchy_label":1,
    "mz:is_current":0,
    "mz:note":"Quattroshapes Point Gazetteer import 20170519",
    "qs_pg:aaroncc":"US",
    "qs_pg:gn_country":"US",
    "qs_pg:gn_fcode":"ADMD",
    "qs_pg:gn_id":5218825,
    "qs_pg:gn_pop":2633,
    "qs_pg:name":"Borough of West Newton",
    "qs_pg:photos_9r":0,
    "qs_pg:photos_sr":0,
    "qs_pg:pop_sr":4,
    "qs_pg:qs_id":607253,
    "qs_pg:qs_pg_placetype":"localadmin",
    "src:geom":"qs_pg",
    "src:lbl:centroid":"qs_pg",
    "src:population":"geonames",
    "wof:belongsto":[
        85633793
    ],
    "wof:breaches":[],
    "wof:concordances":{
        "gn:id":5218825,
        "qs_pg:id":607253
    },
    "wof:country":"US",
    "wof:created":1497043792,
    "wof:geomhash":"dd43f3bb317a9f4ce07303196bfad564",
    "wof:hierarchy":[
        {
            "country_id":85633793,
            "localadmin_id":1125307703
        }
    ],
    "wof:id":1125307703,
    "wof:lastmodified":1505186979,
    "wof:name":"Borough of West Newton",
    "wof:parent_id":-1,
    "wof:placetype":"localadmin",
    "wof:population":2633,
    "wof:population_rank":4,
    "wof:repo":"whosonfirst-data-admin-us",
    "wof:superseded_by":[],
    "wof:supersedes":[],
    "wof:tags":[]
},
  "bbox": [
    -79.76727,
    40.20868,
    -79.76727,
    40.20868
],
  "geometry": {"coordinates":[-79.76727,40.20868],"type":"Point"}
}