{
  "id": 1343977697,
  "type": "Feature",
  "properties": {
    "edtf:cessation":"uuuu",
    "edtf:inception":"uuuu",
    "geom:area":0.0,
    "geom:area_square_m":0.0,
    "geom:bbox":"-92.77714,43.00914,-92.77714,43.00914",
    "geom:latitude":43.00914,
    "geom:longitude":-92.77714,
    "gn:admin1_code":"IA",
    "gn:admin2_code":"67.0",
    "gn:admin3_code":"93729.0",
    "gn:asciiname":"Oakwood",
    "gn:country_code":"US",
    "gn:dem":321,
    "gn:elevation":"321.0",
    "gn:feature_class":"P",
    "gn:feature_code":"PPL",
    "gn:geonameid":4869687,
    "gn:latitude":43.00914,
    "gn:longitude":-92.77714,
    "gn:modification_date":"2017-05-23",
    "gn:name":"Oakwood",
    "gn:population":0,
    "gn:timezone":"America/Chicago",
    "iso:country":"US",
    "mz:hierarchy_label":1,
    "mz:is_current":-1,
    "src:geom":"geonames",
    "wof:belongsto":[
        102191575,
        85633793,
        85688713,
        102086499
    ],
    "wof:breaches":[],
    "wof:concordances":{
        "gn:id":4869687
    },
    "wof:country":"US",
    "wof:geomhash":"16e9c9864058d8beae4e9388ce4fd558",
    "wof:hierarchy":[
        {
            "continent_id":102191575,
            "country_id":85633793,
            "county_id":102086499,
            "locality_id":1343977697,
            "region_id":85688713
        }
    ],
    "wof:id":1343977697,
    "wof:lastmodified":1536994364,
    "wof:name":"Oakwood",
    "wof:parent_id":102086499,
    "wof:placetype":"locality",
    "wof:repo":"whosonfirst-data-admin-us",
    "wof:superseded_by":[],
    "wof:supersedes":[],
    "wof:tags":[]
},
  "bbox": [
    -92.77714,
    43.00914,
    -92.77714,
    43.00914
],
  "geometry": {"coordinates":[-92.77714,43.00914],"type":"Point"}
}