{
  "id": 1242986641,
  "type": "Feature",
  "properties": {
    "edtf:cessation":"uuuu",
    "edtf:inception":"uuuu",
    "geom:area":0.0,
    "geom:area_square_m":0.0,
    "geom:bbox":"-90.93903,38.68422,-90.93903,38.68422",
    "geom:latitude":38.68422,
    "geom:longitude":-90.93903,
    "gn:admin1_code":"MO",
    "gn:admin2_code":"183.0",
    "gn:admin3_code":"7232.0",
    "gn:asciiname":"Cappeln",
    "gn:country_code":"US",
    "gn:dem":249,
    "gn:elevation":"251.0",
    "gn:feature_class":"P",
    "gn:feature_code":"PPL",
    "gn:geonameid":4379986,
    "gn:latitude":38.68422,
    "gn:longitude":-90.93903,
    "gn:modification_date":"2017-05-23",
    "gn:name":"Cappeln",
    "gn:population":0,
    "gn:timezone":"America/Chicago",
    "iso:country":"US",
    "mz:hierarchy_label":1,
    "mz:is_current":-1,
    "src:geom":"geonames",
    "wof:belongsto":[
        85688661,
        102191575,
        404518123,
        85633793,
        102086159
    ],
    "wof:breaches":[],
    "wof:concordances":{
        "gn:id":4379986
    },
    "wof:country":"US",
    "wof:geomhash":"95457f4f0f40678b3803ddbd1d0c9a11",
    "wof:hierarchy":[
        {
            "continent_id":102191575,
            "country_id":85633793,
            "county_id":102086159,
            "localadmin_id":404518123,
            "locality_id":1242986641,
            "region_id":85688661
        }
    ],
    "wof:id":1242986641,
    "wof:lastmodified":1536971074,
    "wof:name":"Cappeln",
    "wof:parent_id":404518123,
    "wof:placetype":"locality",
    "wof:repo":"whosonfirst-data-admin-us",
    "wof:superseded_by":[],
    "wof:supersedes":[],
    "wof:tags":[]
},
  "bbox": [
    -90.93903,
    38.68422,
    -90.93903,
    38.68422
],
  "geometry": {"coordinates":[-90.93903,38.68422],"type":"Point"}
}