{
  "id": 1327257971,
  "type": "Feature",
  "properties": {
    "edtf:cessation":"2018-09-06",
    "edtf:inception":"uuuu",
    "geom:area":0.0,
    "geom:area_square_m":0.0,
    "geom:bbox":"-88.55199,33.98733,-88.55199,33.98733",
    "geom:latitude":33.98733,
    "geom:longitude":-88.55199,
    "gn:admin1_code":"MS",
    "gn:admin2_code":"95.0",
    "gn:asciiname":"Bristo (historical)",
    "gn:country_code":"US",
    "gn:dem":64,
    "gn:elevation":"61.0",
    "gn:feature_class":"P",
    "gn:feature_code":"PPLQ",
    "gn:geonameid":4419461,
    "gn:latitude":33.98733,
    "gn:longitude":-88.55199,
    "gn:modification_date":"2011-12-11",
    "gn:name":"Bristo (historical)",
    "gn:population":0,
    "gn:timezone":"America/Chicago",
    "iso:country":"US",
    "mz:hierarchy_label":1,
    "mz:is_current":0,
    "name:eng_x_preferred":[
        "Bristo (historical)"
    ],
    "name:und_x_variant":[
        "Bristol"
    ],
    "src:geom":"geonames",
    "wof:belongsto":[
        102191575,
        85633793,
        85688579,
        102083163
    ],
    "wof:breaches":[],
    "wof:concordances":{
        "gn:id":4419461
    },
    "wof:country":"US",
    "wof:geomhash":"5f36a7132087bb0f232eb68a32fc1ba1",
    "wof:hierarchy":[
        {
            "continent_id":102191575,
            "country_id":85633793,
            "county_id":102083163,
            "locality_id":1327257971,
            "region_id":85688579
        }
    ],
    "wof:id":1327257971,
    "wof:lastmodified":1537712477,
    "wof:name":"Bristo (historical)",
    "wof:parent_id":102083163,
    "wof:placetype":"locality",
    "wof:repo":"whosonfirst-data-admin-us",
    "wof:superseded_by":[],
    "wof:supersedes":[],
    "wof:tags":[]
},
  "bbox": [
    -88.55199,
    33.98733,
    -88.55199,
    33.98733
],
  "geometry": {"coordinates":[-88.55199,33.98733],"type":"Point"}
}