{
  "id": 85825915,
  "type": "Feature",
  "properties": {
    "edtf:cessation":"uuuu",
    "edtf:inception":"uuuu",
    "geom:area":0.000035,
    "geom:area_square_m":329392.995343,
    "geom:bbox":"-111.896869,40.733507,-111.89107,40.743264",
    "geom:latitude":40.738715,
    "geom:longitude":-111.894399,
    "gn:elevation":1290,
    "iso:country":"US",
    "lbl:latitude":40.741128,
    "lbl:longitude":-111.892727,
    "mps:latitude":40.739034,
    "mps:longitude":-111.894631,
    "mz:hierarchy_label":1,
    "mz:is_current":1,
    "mz:is_funky":2,
    "mz:is_hard_boundary":0,
    "mz:is_landuse_aoi":0,
    "mz:is_official":0,
    "mz:max_zoom":18.0,
    "mz:min_zoom":16.0,
    "mz:tier_locality":4,
    "mz:tier_metro":1,
    "name:eng_x_preferred":[
        "Holland"
    ],
    "name:unk_x_variant":[
        "Holland"
    ],
    "qs:gn_adm0_cc":"US",
    "qs:gn_fcode":"PPLX",
    "qs:gn_local":5780993,
    "qs:gn_nam_loc":"Salt Lake City, Salt Lake, Utah, US",
    "qs:gn_namadm1":"UT",
    "qs:gn_name":"Holland",
    "qs:local_max":24997,
    "qs:local_sum":103616,
    "qs:localhoods":160,
    "qs:name":"Holland",
    "qs:name_adm0":"United States",
    "qs:name_adm1":"Utah",
    "qs:name_adm2":"Salt Lake",
    "qs:name_local":"Salt Lake City",
    "qs:photo_max":45,
    "qs:photo_sum":208,
    "qs:placetype":"Suburb",
    "qs:quad_count":9,
    "qs:woe_adm0":23424977,
    "qs:woe_adm1":2347603,
    "qs:woe_adm2":12590278,
    "qs:woe_lau":0,
    "qs:woe_local":2487610,
    "qs:woe_ver":"7.10.0",
    "src:geom":"zetashapes",
    "src:geom_alt":[
        "quattroshapes",
        "quattroshapes_pg"
    ],
    "src:lbl:centroid":"mz",
    "src:population":"zetashapes",
    "wd:wordcount":3169,
    "wof:belongsto":[
        85688567,
        102191575,
        85633793,
        101728075,
        102082877
    ],
    "wof:breaches":[],
    "wof:concordances":{
        "gn:id":5776034,
        "gp:id":2423093,
        "qs:id":1161277,
        "qs_pg:id":1161277
    },
    "wof:country":"US",
    "wof:geomhash":"e973eb244f82c2e4a8f083bdd31c9e2a",
    "wof:hierarchy":[
        {
            "continent_id":102191575,
            "country_id":85633793,
            "county_id":102082877,
            "locality_id":101728075,
            "neighbourhood_id":85825915,
            "region_id":85688567
        }
    ],
    "wof:id":85825915,
    "wof:lang":[
        "eng"
    ],
    "wof:lastmodified":1527640587,
    "wof:name":"Holland",
    "wof:parent_id":101728075,
    "wof:placetype":"neighbourhood",
    "wof:population":874,
    "wof:population_rank":2,
    "wof:repo":"whosonfirst-data-admin-us",
    "wof:superseded_by":[],
    "wof:supersedes":[],
    "wof:tags":[],
    "zs:blockids":[
        490351029002009,
        490351029001040,
        490351029002002,
        490351029002003,
        490351029002010,
        490351029002011
    ],
    "zs:housing10":367,
    "zs:pop10":874
},
  "bbox": [
    -111.896869,
    40.733507,
    -111.89107,
    40.743264
],
  "geometry": {"coordinates":[[[-111.892557,40.738346],[-111.892555,40.736769],[-111.892832,40.736767],[-111.89366200000001,40.736767],[-111.893939,40.736767],[-111.89393800000001,40.736527],[-111.89393800000001,40.735809],[-111.89393800000001,40.73557],[-111.89393800000001,40.735482],[-111.89393800000001,40.735219],[-111.89393800000001,40.735132],[-111.894211,40.735131],[-111.89502899999999,40.73513],[-111.895303,40.73513],[-111.895302,40.734805],[-111.895302,40.733832],[-111.895302,40.733508],[-111.8956,40.733507],[-111.89649799999999,40.733507],[-111.89679700000001,40.733507],[-111.89680799999999,40.733507],[-111.89684099999999,40.733507],[-111.896852,40.733507],[-111.89685299999999,40.733832],[-111.89685900000001,40.734807],[-111.896861,40.735133],[-111.896861,40.735377],[-111.896861,40.736109],[-111.896861,40.736353],[-111.89685900000001,40.737219],[-111.89685900000001,40.737599],[-111.89685900000001,40.737645],[-111.896869,40.738254],[-111.896845,40.738541],[-111.896827,40.738825],[-111.896824,40.739202],[-111.896817,40.739819],[-111.896816,40.74],[-111.89681899999999,40.740686],[-111.89681400000001,40.74087],[-111.89680199999999,40.741424],[-111.896799,40.741609],[-111.896717,40.741609],[-111.896475,40.741609],[-111.896394,40.74161],[-111.896176,40.74161],[-111.895522,40.741611],[-111.89530499999999,40.741612],[-111.895032,40.741612],[-111.89421299999999,40.741613],[-111.893941,40.741614],[-111.893941,40.741859],[-111.893941,40.742597],[-111.893942,40.742843],[-111.893942,40.742926],[-111.893942,40.743178],[-111.89394299999999,40.743262],[-111.893666,40.743262],[-111.892838,40.743263],[-111.892562,40.743264],[-111.892561,40.742934],[-111.89255900000001,40.741944],[-111.89255900000001,40.741615],[-111.892262,40.741614],[-111.89136999999999,40.741612],[-111.891074,40.741612],[-111.89107300000001,40.741586],[-111.89107199999999,40.741356],[-111.89107199999999,40.740589],[-111.89107199999999,40.740334],[-111.891071,40.739936],[-111.891071,40.739919],[-111.89107,40.738745],[-111.89107,40.738348],[-111.892557,40.738346]]],"type":"Polygon"}
}