{
  "id": 1276889433,
  "type": "Feature",
  "properties": {
    "edtf:cessation":"uuuu",
    "edtf:inception":"uuuu",
    "geom:area":0.0,
    "geom:area_square_m":0.0,
    "geom:bbox":"-93.74017,30.07021,-93.74017,30.07021",
    "geom:latitude":30.07021,
    "geom:longitude":-93.74017,
    "gn:admin1_code":"TX",
    "gn:admin2_code":"361",
    "gn:asciiname":"Cove",
    "gn:country_code":"US",
    "gn:dem":12,
    "gn:elevation":"3.0",
    "gn:feature_class":"P",
    "gn:feature_code":"PPL",
    "gn:geonameid":4683824,
    "gn:latitude":30.07021,
    "gn:longitude":-93.74017,
    "gn:modification_date":"2006-01-15",
    "gn:name":"Cove",
    "gn:population":0,
    "gn:timezone":"America/Chicago",
    "iso:country":"US",
    "mz:hierarchy_label":1,
    "mz:is_current":-1,
    "src:geom":"geonames",
    "wof:belongsto":[
        102191575,
        85633793,
        85688753,
        102081453
    ],
    "wof:breaches":[],
    "wof:concordances":{
        "gn:id":4683824
    },
    "wof:country":"US",
    "wof:geomhash":"39da017560579ad591a17880eed2d687",
    "wof:hierarchy":[
        {
            "continent_id":102191575,
            "country_id":85633793,
            "county_id":102081453,
            "locality_id":1276889433,
            "region_id":85688753
        }
    ],
    "wof:id":1276889433,
    "wof:lastmodified":1537027104,
    "wof:name":"Cove",
    "wof:parent_id":102081453,
    "wof:placetype":"locality",
    "wof:repo":"whosonfirst-data-admin-us",
    "wof:superseded_by":[],
    "wof:supersedes":[],
    "wof:tags":[]
},
  "bbox": [
    -93.74017,
    30.07021,
    -93.74017,
    30.07021
],
  "geometry": {"coordinates":[-93.74017000000001,30.07021],"type":"Point"}
}