{
  "id": 1360204373,
  "type": "Feature",
  "properties": {
    "edtf:cessation":"uuuu",
    "edtf:inception":"uuuu",
    "geom:area":0.0,
    "geom:area_square_m":0.0,
    "geom:bbox":"-98.04116,39.48278,-98.04116,39.48278",
    "geom:latitude":39.48278,
    "geom:longitude":-98.04116,
    "gn:admin1_code":"KS",
    "gn:admin2_code":"123.0",
    "gn:admin3_code":"56825.0",
    "gn:asciiname":"Gilbert",
    "gn:country_code":"US",
    "gn:dem":435,
    "gn:elevation":"436.0",
    "gn:feature_class":"P",
    "gn:feature_code":"PPL",
    "gn:geonameid":4272047,
    "gn:latitude":39.48278,
    "gn:longitude":-98.04116,
    "gn:modification_date":"2017-05-23",
    "gn:name":"Gilbert",
    "gn:population":0,
    "gn:timezone":"America/Chicago",
    "iso:country":"US",
    "mz:hierarchy_label":1,
    "mz:is_current":-1,
    "name:eng_x_preferred":[
        "Gilbert"
    ],
    "name:und_x_variant":[
        "Danville"
    ],
    "src:geom":"geonames",
    "wof:belongsto":[
        85688555,
        102191575,
        404502797,
        85633793,
        102085275
    ],
    "wof:breaches":[],
    "wof:concordances":{
        "gn:id":4272047
    },
    "wof:country":"US",
    "wof:geomhash":"52c6f0310d59142d59f022e8116598c9",
    "wof:hierarchy":[
        {
            "continent_id":102191575,
            "country_id":85633793,
            "county_id":102085275,
            "localadmin_id":404502797,
            "locality_id":1360204373,
            "region_id":85688555
        }
    ],
    "wof:id":1360204373,
    "wof:lastmodified":1537712364,
    "wof:name":"Gilbert",
    "wof:parent_id":404502797,
    "wof:placetype":"locality",
    "wof:repo":"whosonfirst-data-admin-us",
    "wof:superseded_by":[],
    "wof:supersedes":[],
    "wof:tags":[]
},
  "bbox": [
    -98.04116,
    39.48278,
    -98.04116,
    39.48278
],
  "geometry": {"coordinates":[-98.04116,39.48278],"type":"Point"}
}