{
  "id": 1293405743,
  "type": "Feature",
  "properties": {
    "edtf:cessation":"uuuu",
    "edtf:inception":"uuuu",
    "geom:area":0.0,
    "geom:area_square_m":0.0,
    "geom:bbox":"-95.87113,43.79024,-95.87113,43.79024",
    "geom:latitude":43.79024,
    "geom:longitude":-95.87113,
    "gn:admin1_code":"MN",
    "gn:admin2_code":"105.0",
    "gn:admin3_code":"70600.0",
    "gn:asciiname":"Saint Kilian",
    "gn:country_code":"US",
    "gn:dem":543,
    "gn:elevation":"538.0",
    "gn:feature_class":"P",
    "gn:feature_code":"PPL",
    "gn:geonameid":5044992,
    "gn:latitude":43.79024,
    "gn:longitude":-95.87113,
    "gn:modification_date":"2017-05-23",
    "gn:name":"Saint Kilian",
    "gn:population":0,
    "gn:timezone":"America/Chicago",
    "iso:country":"US",
    "mz:hierarchy_label":1,
    "mz:is_current":-1,
    "name:eng_x_preferred":[
        "Saint Kilian"
    ],
    "name:und_x_variant":[
        "Saint Killian"
    ],
    "src:geom":"geonames",
    "wof:belongsto":[
        85688727,
        102191575,
        404512151,
        85633793,
        102087607
    ],
    "wof:breaches":[],
    "wof:concordances":{
        "gn:id":5044992
    },
    "wof:country":"US",
    "wof:geomhash":"eea71f54d46d8c37f8081bebddf80cc0",
    "wof:hierarchy":[
        {
            "continent_id":102191575,
            "country_id":85633793,
            "county_id":102087607,
            "localadmin_id":404512151,
            "locality_id":1293405743,
            "region_id":85688727
        }
    ],
    "wof:id":1293405743,
    "wof:lastmodified":1537712858,
    "wof:name":"Saint Kilian",
    "wof:parent_id":404512151,
    "wof:placetype":"locality",
    "wof:repo":"whosonfirst-data-admin-us",
    "wof:superseded_by":[],
    "wof:supersedes":[],
    "wof:tags":[]
},
  "bbox": [
    -95.87113,
    43.79024,
    -95.87113,
    43.79024
],
  "geometry": {"coordinates":[-95.87112999999999,43.79024],"type":"Point"}
}