{
  "id": 1260304997,
  "type": "Feature",
  "properties": {
    "edtf:cessation":"uuuu",
    "edtf:inception":"uuuu",
    "geom:area":0.0,
    "geom:area_square_m":0.0,
    "geom:bbox":"-81.25509,34.25182,-81.25509,34.25182",
    "geom:latitude":34.25182,
    "geom:longitude":-81.25509,
    "gn:admin1_code":"SC",
    "gn:admin2_code":"39.0",
    "gn:asciiname":"Rock Hill",
    "gn:country_code":"US",
    "gn:dem":135,
    "gn:elevation":"132.0",
    "gn:feature_class":"P",
    "gn:feature_code":"PPL",
    "gn:geonameid":4593141,
    "gn:latitude":34.25182,
    "gn:longitude":-81.25509,
    "gn:modification_date":"2006-01-15",
    "gn:name":"Rock Hill",
    "gn:population":0,
    "gn:timezone":"America/New_York",
    "iso:country":"US",
    "mz:hierarchy_label":1,
    "mz:is_current":-1,
    "src:geom":"geonames",
    "wof:belongsto":[
        102191575,
        85633793,
        85688683,
        102085561
    ],
    "wof:breaches":[],
    "wof:concordances":{
        "gn:id":4593141
    },
    "wof:country":"US",
    "wof:geomhash":"18979f61a03cab341f552ead6104afe8",
    "wof:hierarchy":[
        {
            "continent_id":102191575,
            "country_id":85633793,
            "county_id":102085561,
            "locality_id":1260304997,
            "region_id":85688683
        }
    ],
    "wof:id":1260304997,
    "wof:lastmodified":1536683028,
    "wof:name":"Rock Hill",
    "wof:parent_id":102085561,
    "wof:placetype":"locality",
    "wof:repo":"whosonfirst-data-admin-us",
    "wof:superseded_by":[],
    "wof:supersedes":[],
    "wof:tags":[]
},
  "bbox": [
    -81.25509,
    34.25182,
    -81.25509,
    34.25182
],
  "geometry": {"coordinates":[-81.25509,34.25182],"type":"Point"}
}