{
  "id": 1276992359,
  "type": "Feature",
  "properties": {
    "edtf:cessation":"uuuu",
    "edtf:inception":"uuuu",
    "geom:area":0.0,
    "geom:area_square_m":0.0,
    "geom:bbox":"-84.22971,43.33419,-84.22971,43.33419",
    "geom:latitude":43.33419,
    "geom:longitude":-84.22971,
    "gn:admin1_code":"MI",
    "gn:admin2_code":"145.0",
    "gn:admin3_code":"30720.0",
    "gn:asciiname":"Nelson",
    "gn:country_code":"US",
    "gn:dem":190,
    "gn:elevation":"190.0",
    "gn:feature_class":"P",
    "gn:feature_code":"PPL",
    "gn:geonameid":5003313,
    "gn:latitude":43.33419,
    "gn:longitude":-84.22971,
    "gn:modification_date":"2017-05-23",
    "gn:name":"Nelson",
    "gn:population":0,
    "gn:timezone":"America/Detroit",
    "iso:country":"US",
    "mz:hierarchy_label":1,
    "mz:is_current":-1,
    "src:geom":"geonames",
    "wof:belongsto":[
        85688599,
        102191575,
        404506439,
        85633793,
        102083725
    ],
    "wof:breaches":[],
    "wof:concordances":{
        "gn:id":5003313
    },
    "wof:country":"US",
    "wof:geomhash":"ba2061603942867e9f8004f0d9c1231d",
    "wof:hierarchy":[
        {
            "continent_id":102191575,
            "country_id":85633793,
            "county_id":102083725,
            "localadmin_id":404506439,
            "locality_id":1276992359,
            "region_id":85688599
        }
    ],
    "wof:id":1276992359,
    "wof:lastmodified":1536889824,
    "wof:name":"Nelson",
    "wof:parent_id":404506439,
    "wof:placetype":"locality",
    "wof:repo":"whosonfirst-data-admin-us",
    "wof:superseded_by":[],
    "wof:supersedes":[],
    "wof:tags":[]
},
  "bbox": [
    -84.22971,
    43.33419,
    -84.22971,
    43.33419
],
  "geometry": {"coordinates":[-84.22971,43.33419],"type":"Point"}
}