{
  "id": 1125348963,
  "type": "Feature",
  "properties": {
    "edtf:cessation":"2017-05-19",
    "edtf:inception":"uuuu",
    "geom:area":0.0,
    "geom:area_square_m":0.0,
    "geom:bbox":"-97.12555,34.29095,-97.12555,34.29095",
    "geom:latitude":34.29095,
    "geom:longitude":-97.12555,
    "gn:gn_country":"US",
    "gn:gn_fcode":"ADMD",
    "gn:gn_pop":700,
    "gn:population":700,
    "iso:country":"US",
    "lbl:latitude":34.29095,
    "lbl:longitude":-97.12555,
    "mz:hierarchy_label":1,
    "mz:is_current":0,
    "mz:note":"Quattroshapes Point Gazetteer import 20170519",
    "qs_pg:aaroncc":"US",
    "qs_pg:gn_country":"US",
    "qs_pg:gn_fcode":"ADMD",
    "qs_pg:gn_id":7175723,
    "qs_pg:gn_pop":700,
    "qs_pg:name":"Town of Springer",
    "qs_pg:photos_9r":0,
    "qs_pg:photos_sr":0,
    "qs_pg:pop_sr":2,
    "qs_pg:qs_id":668234,
    "qs_pg:qs_pg_placetype":"localadmin",
    "src:geom":"qs_pg",
    "src:lbl:centroid":"qs_pg",
    "src:population":"geonames",
    "wof:belongsto":[
        85633793
    ],
    "wof:breaches":[],
    "wof:concordances":{
        "gn:id":7175723,
        "qs_pg:id":668234
    },
    "wof:country":"US",
    "wof:created":1497046080,
    "wof:geomhash":"fbf3e23b041d03ba17cb88507484a542",
    "wof:hierarchy":[
        {
            "country_id":85633793,
            "localadmin_id":1125348963
        }
    ],
    "wof:id":1125348963,
    "wof:lastmodified":1505187155,
    "wof:name":"Town of Springer",
    "wof:parent_id":-1,
    "wof:placetype":"localadmin",
    "wof:population":700,
    "wof:population_rank":2,
    "wof:repo":"whosonfirst-data-admin-us",
    "wof:superseded_by":[],
    "wof:supersedes":[],
    "wof:tags":[]
},
  "bbox": [
    -97.12555,
    34.29095,
    -97.12555,
    34.29095
],
  "geometry": {"coordinates":[-97.12555,34.29095],"type":"Point"}
}