{
  "id": 1209330411,
  "type": "Feature",
  "properties": {
    "edtf:cessation":"2018-09-06",
    "edtf:inception":"uuuu",
    "geom:area":0.0,
    "geom:area_square_m":0.0,
    "geom:bbox":"-72.74898,41.89704,-72.74898,41.89704",
    "geom:latitude":41.89704,
    "geom:longitude":-72.74898,
    "gn:admin1_code":"CT",
    "gn:admin2_code":"3.0",
    "gn:admin3_code":"22070.0",
    "gn:asciiname":"Spoonville (historical)",
    "gn:country_code":"US",
    "gn:dem":42,
    "gn:elevation":"31.0",
    "gn:feature_class":"P",
    "gn:feature_code":"PPLQ",
    "gn:geonameid":4843471,
    "gn:latitude":41.89704,
    "gn:longitude":-72.74898,
    "gn:modification_date":"2017-05-23",
    "gn:name":"Spoonville (historical)",
    "gn:population":0,
    "gn:timezone":"America/New_York",
    "iso:country":"US",
    "mz:hierarchy_label":1,
    "mz:is_current":0,
    "src:geom":"geonames",
    "wof:belongsto":[
        85633793
    ],
    "wof:breaches":[],
    "wof:concordances":{
        "gn:id":4843471
    },
    "wof:country":"US",
    "wof:geomhash":"a111f2cb4ef1d371ce044ca74a3939e0",
    "wof:hierarchy":[
        {
            "country_id":85633793,
            "locality_id":1209330411
        }
    ],
    "wof:id":1209330411,
    "wof:lastmodified":1536290391,
    "wof:name":"Spoonville (historical)",
    "wof:parent_id":85633793,
    "wof:placetype":"locality",
    "wof:repo":"whosonfirst-data-admin-us",
    "wof:superseded_by":[],
    "wof:supersedes":[],
    "wof:tags":[]
},
  "bbox": [
    -72.74898,
    41.89704,
    -72.74898,
    41.89704
],
  "geometry": {"coordinates":[-72.74898,41.89704],"type":"Point"}
}