{
  "id": 1209831271,
  "type": "Feature",
  "properties": {
    "edtf:cessation":"uuuu",
    "edtf:inception":"uuuu",
    "geom:area":0.0,
    "geom:area_square_m":0.0,
    "geom:bbox":"-85.71609,36.18589,-85.71609,36.18589",
    "geom:latitude":36.18589,
    "geom:longitude":-85.71609,
    "gn:admin1_code":"TN",
    "gn:admin2_code":"141",
    "gn:asciiname":"Lafayette",
    "gn:country_code":"US",
    "gn:dem":297,
    "gn:elevation":"303.0",
    "gn:feature_class":"P",
    "gn:feature_code":"PPL",
    "gn:geonameid":4635094,
    "gn:latitude":36.18589,
    "gn:longitude":-85.71609,
    "gn:modification_date":"2006-01-17",
    "gn:name":"Lafayette",
    "gn:population":4078,
    "gn:timezone":"America/Chicago",
    "iso:country":"US",
    "mz:hierarchy_label":1,
    "mz:is_current":-1,
    "src:geom":"geonames",
    "src:population":"geonames",
    "wof:belongsto":[
        102191575,
        85633793,
        85688701,
        102086339
    ],
    "wof:breaches":[],
    "wof:concordances":{
        "gn:id":4635094
    },
    "wof:country":"US",
    "wof:geomhash":"1694c4c8ef6f5911e4acaa907c3b2355",
    "wof:hierarchy":[
        {
            "continent_id":102191575,
            "country_id":85633793,
            "county_id":102086339,
            "locality_id":1209831271,
            "region_id":85688701
        }
    ],
    "wof:id":1209831271,
    "wof:lastmodified":1536368032,
    "wof:name":"Lafayette",
    "wof:parent_id":102086339,
    "wof:placetype":"locality",
    "wof:population":4078,
    "wof:population_rank":4,
    "wof:repo":"whosonfirst-data-admin-us",
    "wof:superseded_by":[],
    "wof:supersedes":[],
    "wof:tags":[]
},
  "bbox": [
    -85.71609000000002,
    36.18589,
    -85.71609000000002,
    36.18589
],
  "geometry": {"coordinates":[-85.71609000000002,36.18589],"type":"Point"}
}