{
  "id": 85810063,
  "type": "Feature",
  "properties": {"wof:repo":"whosonfirst-data-admin-us",
    "src:geom":"quattroshapes",
    "wof:geomhash":"f274998257b98c95c2e1d23de0787cd2",
    "wof:id":85810063
},
  "bbox": [
    -76.63135753897103,
    39.368279084600275,
    -76.60766601560002,
    39.40163196150016
],
  "geometry": {"coordinates":[[[-76.61944802252964,39.40143981430423],[-76.61882462200174,39.40125070782139],[-76.61881166368386,39.40127495112928],[-76.61609324657360,39.39423973522220],[-76.61590576169993,39.39406645019277],[-76.61534328997055,39.39375452765030],[-76.61315917969995,39.39092843701431],[-76.61206239054854,39.38950926620029],[-76.61260925287775,39.38738658705014],[-76.61206236559136,39.38526374642517],[-76.61288272770418,39.38420235035024],[-76.61206232955865,39.38101802216696],[-76.61179026078599,39.38066602287299],[-76.61041259767495,39.38030955221208],[-76.61041259768490,39.37889504710002],[-76.61041259768524,39.37677199660008],[-76.60766601560002,39.37677199660008],[-76.60766601561448,39.37535290200908],[-76.60766601561662,39.37252570200005],[-76.60766601561662,39.37252563745035],[-76.60766601561457,39.36969814661609],[-76.60766601560002,39.36827914920008],[-76.61315917969995,39.36827914920008],[-76.61425616844690,39.36827914920008],[-76.61425621838731,39.36827908460027],[-76.61865234371854,39.36827908460027],[-76.61865234370612,39.36827914920008],[-76.61865234371447,39.37252563745035],[-76.61865239362157,39.37252570200209],[-76.62029151191803,39.37464606170076],[-76.62184188222358,39.37550560228853],[-76.62226140058090,39.37677193202542],[-76.62208666822599,39.37835433414863],[-76.62414550779994,39.38101796835009],[-76.62414550779994,39.38101803290006],[-76.62414550779994,39.38526374642517],[-76.62414555770960,39.38526381100010],[-76.62742685644463,39.38950926620029],[-76.63135753897103,39.39205216851710],[-76.63120677855400,39.39358286472030],[-76.63063772107500,39.39545879582364],[-76.62971362187295,39.39718766383037],[-76.62846999356168,39.39870302931199],[-76.62695462808006,39.39994665762308],[-76.62522576007370,39.40087075682513],[-76.62334982896999,39.40143981430423],[-76.62139892574987,39.40163196150016],[-76.61944802252964,39.40143981430423]]],"type":"Polygon"}
}