{
  "id": 1125392639,
  "type": "Feature",
  "properties": {
    "edtf:cessation":"2017-05-19",
    "edtf:inception":"uuuu",
    "geom:area":0.0,
    "geom:area_square_m":0.0,
    "geom:bbox":"-78.25529,40.07175,-78.25529,40.07175",
    "geom:latitude":40.07175,
    "geom:longitude":-78.25529,
    "gn:gn_country":"US",
    "gn:gn_fcode":"ADMD",
    "gn:gn_pop":0,
    "iso:country":"US",
    "lbl:latitude":40.07175,
    "lbl:longitude":-78.25529,
    "mz:hierarchy_label":1,
    "mz:is_current":0,
    "mz:note":"Quattroshapes Point Gazetteer import 20170519",
    "name:eng_x_preferred":[
        "Broad Top Township"
    ],
    "qs_pg:aaroncc":"US",
    "qs_pg:gn_country":"US",
    "qs_pg:gn_fcode":"ADMD",
    "qs_pg:gn_id":5181732,
    "qs_pg:gn_pop":0,
    "qs_pg:name":"Township of Broad Top",
    "qs_pg:photos_9r":0,
    "qs_pg:photos_sr":0,
    "qs_pg:pop_sr":0,
    "qs_pg:qs_id":1039297,
    "qs_pg:qs_pg_placetype":"localadmin",
    "src:geom":"qs_pg",
    "src:lbl:centroid":"qs_pg",
    "wof:belongsto":[
        85633793
    ],
    "wof:breaches":[],
    "wof:concordances":{
        "gn:id":5181732,
        "qs_pg:id":1039297
    },
    "wof:country":"US",
    "wof:created":1497048799,
    "wof:geomhash":"141918ceb8c0c5e2cb1dab14122b77a4",
    "wof:hierarchy":[
        {
            "country_id":85633793,
            "localadmin_id":1125392639
        }
    ],
    "wof:id":1125392639,
    "wof:lastmodified":1505248174,
    "wof:name":"Township of Broad Top",
    "wof:parent_id":-1,
    "wof:placetype":"localadmin",
    "wof:repo":"whosonfirst-data-admin-us",
    "wof:superseded_by":[],
    "wof:supersedes":[],
    "wof:tags":[]
},
  "bbox": [
    -78.25529,
    40.07175,
    -78.25529,
    40.07175
],
  "geometry": {"coordinates":[-78.25529,40.07175],"type":"Point"}
}