{
  "id": 1343374715,
  "type": "Feature",
  "properties": {
    "edtf:cessation":"2018-09-06",
    "edtf:inception":"uuuu",
    "geom:area":0.0,
    "geom:area_square_m":0.0,
    "geom:bbox":"-73.93722,40.62278,-73.93722,40.62278",
    "geom:latitude":40.62278,
    "geom:longitude":-73.93722,
    "gn:admin1_code":"NY",
    "gn:admin2_code":"47.0",
    "gn:asciiname":"Keshaechquereren (historical)",
    "gn:country_code":"US",
    "gn:dem":9,
    "gn:elevation":"5.0",
    "gn:feature_class":"P",
    "gn:feature_code":"PPLQ",
    "gn:geonameid":7184842,
    "gn:latitude":40.62278,
    "gn:longitude":-73.93722,
    "gn:modification_date":"2011-12-12",
    "gn:name":"Keshaechquereren (historical)",
    "gn:population":0,
    "gn:timezone":"America/New_York",
    "iso:country":"US",
    "mz:hierarchy_label":1,
    "mz:is_current":0,
    "name:und_x_variant":[
        "Keskachane",
        "Keskaechquerem",
        "Keshaechquereren (historical)"
    ],
    "src:geom":"geonames",
    "wof:belongsto":[
        102191575,
        85633793,
        85688543,
        102082361
    ],
    "wof:breaches":[],
    "wof:concordances":{
        "gn:id":7184842
    },
    "wof:country":"US",
    "wof:geomhash":"493fa4dbf630041851036111e7691e47",
    "wof:hierarchy":[
        {
            "continent_id":102191575,
            "country_id":85633793,
            "county_id":102082361,
            "locality_id":1343374715,
            "region_id":85688543
        }
    ],
    "wof:id":1343374715,
    "wof:lastmodified":1537713171,
    "wof:name":"Keshaechquereren (historical)",
    "wof:parent_id":102082361,
    "wof:placetype":"locality",
    "wof:repo":"whosonfirst-data-admin-us",
    "wof:superseded_by":[],
    "wof:supersedes":[],
    "wof:tags":[]
},
  "bbox": [
    -73.93722,
    40.62278,
    -73.93722,
    40.62278
],
  "geometry": {"coordinates":[-73.93722,40.62278],"type":"Point"}
}