{
  "id": 1125278101,
  "type": "Feature",
  "properties": {
    "edtf:cessation":"uuuu",
    "edtf:deprecated":"2017-11-04",
    "edtf:inception":"uuuu",
    "geom:area":0.0,
    "geom:area_square_m":0.0,
    "geom:bbox":"-88.86445,35.45616,-88.86445,35.45616",
    "geom:latitude":35.45616,
    "geom:longitude":-88.86445,
    "gn:gn_country":"US",
    "gn:gn_fcode":"ADMD",
    "gn:gn_pop":178,
    "gn:population":178,
    "iso:country":"US",
    "lbl:latitude":35.45616,
    "lbl:longitude":-88.86445,
    "mz:hierarchy_label":1,
    "mz:is_current":0,
    "mz:note":"Quattroshapes Point Gazetteer import 20170519",
    "qs_pg:aaroncc":"US",
    "qs_pg:gn_country":"US",
    "qs_pg:gn_fcode":"ADMD",
    "qs_pg:gn_id":7170441,
    "qs_pg:gn_pop":178,
    "qs_pg:name":"City of Medon",
    "qs_pg:photos_9r":0,
    "qs_pg:photos_sr":0,
    "qs_pg:pop_sr":1,
    "qs_pg:qs_id":663112,
    "qs_pg:qs_pg_placetype":"localadmin",
    "src:geom":"qs_pg",
    "src:lbl:centroid":"qs_pg",
    "src:population":"geonames",
    "wof:belongsto":[
        85633793
    ],
    "wof:breaches":[],
    "wof:concordances":{
        "gn:id":7170441,
        "qs_pg:id":663112
    },
    "wof:country":"US",
    "wof:created":1497042398,
    "wof:geomhash":"f8a83c3f71eb0c85c944a32f64711fd9",
    "wof:hierarchy":[
        {
            "country_id":85633793,
            "localadmin_id":1125278101
        }
    ],
    "wof:id":1125278101,
    "wof:lastmodified":1509752433,
    "wof:name":"City of Medon",
    "wof:parent_id":-1,
    "wof:placetype":"localadmin",
    "wof:population":178,
    "wof:population_rank":1,
    "wof:repo":"whosonfirst-data-admin-us",
    "wof:superseded_by":[
        101722763
    ],
    "wof:supersedes":[],
    "wof:tags":[]
},
  "bbox": [
    -88.86445,
    35.45616,
    -88.86445,
    35.45616
],
  "geometry": {"coordinates":[-88.86445000000001,35.45616],"type":"Point"}
}