{
  "id": 1326966719,
  "type": "Feature",
  "properties": {
    "edtf:cessation":"2018-09-06",
    "edtf:inception":"uuuu",
    "geom:area":0.0,
    "geom:area_square_m":0.0,
    "geom:bbox":"-120.91272,39.23823,-120.91272,39.23823",
    "geom:latitude":39.23823,
    "geom:longitude":-120.91272,
    "gn:admin1_code":"CA",
    "gn:admin2_code":"57",
    "gn:asciiname":"Hunts Hill (historical)",
    "gn:country_code":"US",
    "gn:dem":897,
    "gn:elevation":"885.0",
    "gn:feature_class":"P",
    "gn:feature_code":"PPLQ",
    "gn:geonameid":5358757,
    "gn:latitude":39.23823,
    "gn:longitude":-120.91272,
    "gn:modification_date":"2011-12-12",
    "gn:name":"Hunts Hill (historical)",
    "gn:population":0,
    "gn:timezone":"America/Los_Angeles",
    "iso:country":"US",
    "mz:hierarchy_label":1,
    "mz:is_current":0,
    "name:eng_x_preferred":[
        "Hunts Hill (historical)"
    ],
    "name:und_x_variant":[
        "Gouge Eye"
    ],
    "src:geom":"geonames",
    "wof:belongsto":[
        102191575,
        85633793,
        85688637,
        102085391
    ],
    "wof:breaches":[],
    "wof:concordances":{
        "gn:id":5358757
    },
    "wof:country":"US",
    "wof:geomhash":"6de3674c199073858b4c21f9a99eb78f",
    "wof:hierarchy":[
        {
            "continent_id":102191575,
            "country_id":85633793,
            "county_id":102085391,
            "locality_id":1326966719,
            "region_id":85688637
        }
    ],
    "wof:id":1326966719,
    "wof:lastmodified":1537713008,
    "wof:name":"Hunts Hill (historical)",
    "wof:parent_id":102085391,
    "wof:placetype":"locality",
    "wof:repo":"whosonfirst-data-admin-us",
    "wof:superseded_by":[],
    "wof:supersedes":[],
    "wof:tags":[]
},
  "bbox": [
    -120.91272,
    39.23823,
    -120.91272,
    39.23823
],
  "geometry": {"coordinates":[-120.91271999999999,39.23823],"type":"Point"}
}