{
  "id": 1125964199,
  "type": "Feature",
  "properties": {
    "edtf:cessation":"uuuu",
    "edtf:inception":"uuuu",
    "geom:area":0.0,
    "geom:area_square_m":0.0,
    "geom:bbox":"-122.55433,48.42233,-122.55433,48.42233",
    "geom:latitude":48.42233,
    "geom:longitude":-122.55433,
    "gn:gn_country":"US",
    "gn:gn_fcode":"PPL",
    "gn:gn_pop":0,
    "iso:country":"US",
    "lbl:latitude":48.42233,
    "lbl:longitude":-122.55433,
    "mz:hierarchy_label":1,
    "mz:is_current":-1,
    "mz:note":"Quattroshapes Point Gazetteer import 20170519",
    "qs_pg:aaroncc":"US",
    "qs_pg:gn_country":"US",
    "qs_pg:gn_fcode":"PPL",
    "qs_pg:gn_id":5815582,
    "qs_pg:gn_pop":0,
    "qs_pg:name":"West Shore",
    "qs_pg:name_adm0":"United States",
    "qs_pg:name_adm1":"Washington",
    "qs_pg:photos":7,
    "qs_pg:photos_1k":1,
    "qs_pg:photos_9k":1,
    "qs_pg:photos_9r":1,
    "qs_pg:photos_all":7,
    "qs_pg:photos_sr":1,
    "qs_pg:pop_sr":0,
    "qs_pg:qs_id":989569,
    "qs_pg:qs_pg_placetype":"locality",
    "qs_pg:qs_pg_placetype_gp":"Town",
    "qs_pg:woe_adm0":23424977,
    "qs_pg:woe_id":28747430,
    "src:geom":"qs_pg",
    "src:lbl:centroid":"qs_pg",
    "woe:adm0_id":23424977,
    "woe:name_adm0":"United States",
    "woe:name_adm1":"Washington",
    "woe:placetype":"Town",
    "wof:belongsto":[
        102191575,
        85633793,
        85688623,
        102084225
    ],
    "wof:breaches":[],
    "wof:concordances":{
        "gn:id":5815582,
        "gp:id":28747430,
        "qs_pg:id":989569
    },
    "wof:country":"US",
    "wof:created":1497297912,
    "wof:geomhash":"6886c76a3ba941dc042887cba19b8f2f",
    "wof:hierarchy":[
        {
            "continent_id":102191575,
            "country_id":85633793,
            "county_id":102084225,
            "locality_id":1125964199,
            "region_id":85688623
        }
    ],
    "wof:id":1125964199,
    "wof:lastmodified":1509403516,
    "wof:name":"West Shore",
    "wof:parent_id":102084225,
    "wof:placetype":"locality",
    "wof:repo":"whosonfirst-data-admin-us",
    "wof:superseded_by":[],
    "wof:supersedes":[],
    "wof:tags":[]
},
  "bbox": [
    -122.55433,
    48.42233,
    -122.55433,
    48.42233
],
  "geometry": {"coordinates":[-122.55432999999999,48.42233],"type":"Point"}
}