{
  "id": 1125402045,
  "type": "Feature",
  "properties": {
    "edtf:cessation":"uuuu",
    "edtf:deprecated":"2017-11-04",
    "edtf:inception":"uuuu",
    "geom:area":0.0,
    "geom:area_square_m":0.0,
    "geom:bbox":"-98.47492,38.8253,-98.47492,38.8253",
    "geom:latitude":38.8253,
    "geom:longitude":-98.47492,
    "gn:gn_country":"US",
    "gn:gn_fcode":"ADMD",
    "gn:gn_pop":781,
    "gn:population":781,
    "iso:country":"US",
    "lbl:latitude":38.8253,
    "lbl:longitude":-98.47492,
    "mz:hierarchy_label":1,
    "mz:is_current":0,
    "mz:note":"Quattroshapes Point Gazetteer import 20170519",
    "qs_pg:aaroncc":"US",
    "qs_pg:gn_country":"US",
    "qs_pg:gn_fcode":"ADMD",
    "qs_pg:gn_id":7165143,
    "qs_pg:gn_pop":781,
    "qs_pg:name":"City of Wilson",
    "qs_pg:photos_9r":0,
    "qs_pg:photos_sr":0,
    "qs_pg:pop_sr":2,
    "qs_pg:qs_id":660067,
    "qs_pg:qs_pg_placetype":"localadmin",
    "src:geom":"qs_pg",
    "src:lbl:centroid":"qs_pg",
    "src:population":"geonames",
    "wof:belongsto":[
        85633793
    ],
    "wof:breaches":[],
    "wof:concordances":{
        "gn:id":7165143,
        "qs_pg:id":660067
    },
    "wof:country":"US",
    "wof:created":1497049383,
    "wof:geomhash":"37bbb9c9cc09513a4742037d68df44b4",
    "wof:hierarchy":[
        {
            "country_id":85633793,
            "localadmin_id":1125402045
        }
    ],
    "wof:id":1125402045,
    "wof:lastmodified":1509752707,
    "wof:name":"City of Wilson",
    "wof:parent_id":-1,
    "wof:placetype":"localadmin",
    "wof:population":781,
    "wof:population_rank":2,
    "wof:repo":"whosonfirst-data-admin-us",
    "wof:superseded_by":[
        85946411
    ],
    "wof:supersedes":[],
    "wof:tags":[]
},
  "bbox": [
    -98.47492,
    38.8253,
    -98.47492,
    38.8253
],
  "geometry": {"coordinates":[-98.47492,38.8253],"type":"Point"}
}