{
  "id": 1209930241,
  "type": "Feature",
  "properties": {
    "edtf:cessation":"uuuu",
    "edtf:inception":"uuuu",
    "geom:area":0.0,
    "geom:area_square_m":0.0,
    "geom:bbox":"-108.13229,35.1092,-108.13229,35.1092",
    "geom:latitude":35.1092,
    "geom:longitude":-108.13229,
    "gn:admin1_code":"NM",
    "gn:admin2_code":"6",
    "gn:asciiname":"Aragon",
    "gn:country_code":"US",
    "gn:dem":2475,
    "gn:elevation":"2467.0",
    "gn:feature_class":"P",
    "gn:feature_code":"PPL",
    "gn:geonameid":5455581,
    "gn:latitude":35.1092,
    "gn:longitude":-108.13229,
    "gn:modification_date":"2006-01-15",
    "gn:name":"Aragon",
    "gn:population":0,
    "gn:timezone":"America/Denver",
    "iso:country":"US",
    "mz:hierarchy_label":1,
    "mz:is_current":-1,
    "src:geom":"geonames",
    "wof:belongsto":[
        102191575,
        85633793,
        85688493,
        102081189
    ],
    "wof:breaches":[],
    "wof:concordances":{
        "gn:id":5455581
    },
    "wof:country":"US",
    "wof:geomhash":"66e417f92203ca8430558e45863f1e97",
    "wof:hierarchy":[
        {
            "continent_id":102191575,
            "country_id":85633793,
            "county_id":102081189,
            "locality_id":1209930241,
            "region_id":85688493
        }
    ],
    "wof:id":1209930241,
    "wof:lastmodified":1536393066,
    "wof:name":"Aragon",
    "wof:parent_id":102081189,
    "wof:placetype":"locality",
    "wof:repo":"whosonfirst-data-admin-us",
    "wof:superseded_by":[],
    "wof:supersedes":[],
    "wof:tags":[]
},
  "bbox": [
    -108.13229,
    35.1092,
    -108.13229,
    35.1092
],
  "geometry": {"coordinates":[-108.13229,35.1092],"type":"Point"}
}