{
  "id": 1125325069,
  "type": "Feature",
  "properties": {
    "edtf:cessation":"2017-05-19",
    "edtf:inception":"uuuu",
    "geom:area":0.0,
    "geom:area_square_m":0.0,
    "geom:bbox":"-84.52551,41.66061,-84.52551,41.66061",
    "geom:latitude":41.66061,
    "geom:longitude":-84.52551,
    "gn:gn_country":"US",
    "gn:gn_fcode":"ADMD",
    "gn:gn_pop":0,
    "iso:country":"US",
    "lbl:latitude":41.66061,
    "lbl:longitude":-84.52551,
    "mz:hierarchy_label":1,
    "mz:is_current":0,
    "mz:note":"Quattroshapes Point Gazetteer import 20170519",
    "name:eng_x_preferred":[
        "Madison Township"
    ],
    "qs_pg:aaroncc":"US",
    "qs_pg:gn_country":"US",
    "qs_pg:gn_fcode":"ADMD",
    "qs_pg:gn_id":5161607,
    "qs_pg:gn_pop":0,
    "qs_pg:name":"Township of Madison",
    "qs_pg:photos_9r":0,
    "qs_pg:photos_sr":0,
    "qs_pg:pop_sr":0,
    "qs_pg:qs_id":279214,
    "qs_pg:qs_pg_placetype":"localadmin",
    "src:geom":"qs_pg",
    "src:lbl:centroid":"qs_pg",
    "wof:belongsto":[
        85633793
    ],
    "wof:breaches":[],
    "wof:concordances":{
        "gn:id":5161607,
        "qs_pg:id":279214
    },
    "wof:country":"US",
    "wof:created":1497044751,
    "wof:geomhash":"03c1ebede32e62d2663d115975bbcf8f",
    "wof:hierarchy":[
        {
            "country_id":85633793,
            "localadmin_id":1125325069
        }
    ],
    "wof:id":1125325069,
    "wof:lastmodified":1505248052,
    "wof:name":"Township of Madison",
    "wof:parent_id":-1,
    "wof:placetype":"localadmin",
    "wof:repo":"whosonfirst-data-admin-us",
    "wof:superseded_by":[],
    "wof:supersedes":[],
    "wof:tags":[]
},
  "bbox": [
    -84.52551,
    41.66061,
    -84.52551,
    41.66061
],
  "geometry": {"coordinates":[-84.52551,41.66061],"type":"Point"}
}