{
  "id": 1209330497,
  "type": "Feature",
  "properties": {
    "edtf:cessation":"uuuu",
    "edtf:inception":"uuuu",
    "geom:area":0.0,
    "geom:area_square_m":0.0,
    "geom:bbox":"-80.76979,35.06487,-80.76979,35.06487",
    "geom:latitude":35.06487,
    "geom:longitude":-80.76979,
    "gn:admin1_code":"NC",
    "gn:admin2_code":"119.0",
    "gn:asciiname":"Providence",
    "gn:country_code":"US",
    "gn:dem":218,
    "gn:elevation":"217.0",
    "gn:feature_class":"P",
    "gn:feature_code":"PPL",
    "gn:geonameid":4486622,
    "gn:latitude":35.06487,
    "gn:longitude":-80.76979,
    "gn:modification_date":"2010-02-16",
    "gn:name":"Providence",
    "gn:population":0,
    "gn:timezone":"America/New_York",
    "iso:country":"US",
    "mz:hierarchy_label":1,
    "mz:is_current":-1,
    "src:geom":"geonames",
    "wof:belongsto":[
        85633793
    ],
    "wof:breaches":[],
    "wof:concordances":{
        "gn:id":4486622
    },
    "wof:country":"US",
    "wof:geomhash":"2880d1f0e0bd77895088a5a3974c5dfa",
    "wof:hierarchy":[
        {
            "country_id":85633793,
            "locality_id":1209330497
        }
    ],
    "wof:id":1209330497,
    "wof:lastmodified":1536290389,
    "wof:name":"Providence",
    "wof:parent_id":85633793,
    "wof:placetype":"locality",
    "wof:repo":"whosonfirst-data-admin-us",
    "wof:superseded_by":[],
    "wof:supersedes":[],
    "wof:tags":[]
},
  "bbox": [
    -80.76979,
    35.06487,
    -80.76979,
    35.06487
],
  "geometry": {"coordinates":[-80.76979,35.06487],"type":"Point"}
}