{
  "id": 1126083927,
  "type": "Feature",
  "properties": {
    "edtf:cessation":"uuuu",
    "edtf:deprecated":"2018-08-15",
    "edtf:inception":"uuuu",
    "edtf:superseded":"2018-08-15",
    "geom:area":0.0,
    "geom:area_square_m":0.0,
    "geom:bbox":"-75.32212,40.50093,-75.32212,40.50093",
    "geom:latitude":40.50093,
    "geom:longitude":-75.32212,
    "gn:gn_country":"US",
    "gn:gn_fcode":"PPL",
    "gn:gn_pop":0,
    "iso:country":"US",
    "lbl:latitude":40.50093,
    "lbl:longitude":-75.32212,
    "mz:hierarchy_label":1,
    "mz:is_current":0,
    "mz:note":"Quattroshapes Point Gazetteer import 20170519",
    "qs_pg:aaroncc":"US",
    "qs_pg:gn_country":"US",
    "qs_pg:gn_fcode":"PPL",
    "qs_pg:gn_id":5192232,
    "qs_pg:gn_pop":0,
    "qs_pg:name":"Gruversville",
    "qs_pg:name_adm0":"United States",
    "qs_pg:name_adm1":"Pennsylvania",
    "qs_pg:photos":1,
    "qs_pg:photos_1k":1,
    "qs_pg:photos_9k":1,
    "qs_pg:photos_9r":1,
    "qs_pg:photos_all":1,
    "qs_pg:photos_sr":1,
    "qs_pg:pop_sr":0,
    "qs_pg:qs_id":192248,
    "qs_pg:qs_pg_placetype":"neighbourhood",
    "qs_pg:qs_pg_placetype_gp":"Suburb",
    "qs_pg:woe_adm0":23424977,
    "qs_pg:woe_id":2415406,
    "src:geom":"qs_pg",
    "src:lbl:centroid":"qs_pg",
    "woe:adm0_id":23424977,
    "woe:name_adm0":"United States",
    "woe:name_adm1":"Pennsylvania",
    "woe:placetype":"Suburb",
    "wof:belongsto":[
        102191575,
        404484771,
        85633793,
        102080987,
        85688481
    ],
    "wof:breaches":[],
    "wof:concordances":{
        "gn:id":5192232,
        "gp:id":2415406,
        "qs_pg:id":192248
    },
    "wof:country":"US",
    "wof:created":1497312429,
    "wof:geomhash":"9b80671c49af8067a1c8ed08962c1aff",
    "wof:hierarchy":[
        {
            "continent_id":102191575,
            "country_id":85633793,
            "county_id":102080987,
            "localadmin_id":404484771,
            "locality_id":-1,
            "neighbourhood_id":1126083927,
            "region_id":85688481
        }
    ],
    "wof:id":1126083927,
    "wof:lastmodified":1534379786,
    "wof:name":"Gruversville",
    "wof:parent_id":-1,
    "wof:placetype":"neighbourhood",
    "wof:repo":"whosonfirst-data-admin-us",
    "wof:superseded_by":[
        420536857
    ],
    "wof:supersedes":[],
    "wof:tags":[]
},
  "bbox": [
    -75.32212,
    40.50093,
    -75.32212,
    40.50093
],
  "geometry": {"coordinates":[-75.32212,40.50093],"type":"Point"}
}