{
  "id": 404521701,
  "type": "Feature",
  "properties": {
    "edtf:cessation":"uuuu",
    "edtf:inception":"uuuu",
    "geom:area":0.011438,
    "geom:area_square_m":104066895.134529,
    "geom:bbox":"-77.367106,42.576206,-77.242763,42.669158",
    "geom:latitude":42.622585,
    "geom:longitude":-77.305051,
    "iso:country":"US",
    "lbl:latitude":42.622635,
    "lbl:longitude":-77.305051,
    "mz:hierarchy_label":1,
    "mz:is_current":-1,
    "name:eng_x_preferred":[
        "Italy"
    ],
    "qs:a0":"United States",
    "qs:a1":"New York",
    "qs:a1_lc":"36",
    "qs:a2":"Yates",
    "qs:a2_lc":"36123",
    "qs:adm0":"United States",
    "qs:adm0_a3":"USA",
    "qs:la":"Italy",
    "qs:la_lc":"3612338044",
    "qs:level":"localadmin",
    "qs:pop":1141,
    "qs:source":"US Census",
    "qs:type":"town",
    "src:geom":"quattroshapes",
    "src:population":"quattroshapes",
    "wof:belongsto":[
        102191575,
        85633793,
        85688543,
        102083079
    ],
    "wof:breaches":[],
    "wof:concordances":{},
    "wof:country":"US",
    "wof:geomhash":"3de572540708f70ee2e0135d6e4ef95f",
    "wof:hierarchy":[
        {
            "continent_id":102191575,
            "country_id":85633793,
            "county_id":102083079,
            "localadmin_id":404521701,
            "region_id":85688543
        }
    ],
    "wof:id":404521701,
    "wof:lastmodified":1505339768,
    "wof:name":"Italy",
    "wof:parent_id":102083079,
    "wof:placetype":"localadmin",
    "wof:population":1141,
    "wof:population_rank":3,
    "wof:repo":"whosonfirst-data-admin-us",
    "wof:superseded_by":[],
    "wof:supersedes":[],
    "wof:tags":[]
},
  "bbox": [
    -77.367106,
    42.576206,
    -77.242763,
    42.669158
],
  "geometry": {"coordinates":[[[-77.36710600000001,42.667866],[-77.364459,42.667893],[-77.357405,42.667967],[-77.357355,42.669158],[-77.316312,42.6691],[-77.30645,42.669066],[-77.29750799999999,42.669025],[-77.25848000000001,42.669039],[-77.244057,42.668974],[-77.243798,42.649727],[-77.243623,42.640051],[-77.243047,42.598259],[-77.242763,42.576374],[-77.306803,42.576206],[-77.335139,42.576233],[-77.352148,42.576332],[-77.356624,42.576343],[-77.3665,42.576368],[-77.366619,42.597987],[-77.366844,42.635817],[-77.36710600000001,42.667866]]],"type":"Polygon"}
}