{
  "id": 1125318847,
  "type": "Feature",
  "properties": {
    "edtf:cessation":"uuuu",
    "edtf:deprecated":"2017-11-15",
    "edtf:inception":"uuuu",
    "geom:area":0.0,
    "geom:area_square_m":0.0,
    "geom:bbox":"-86.9017,37.93052,-86.9017,37.93052",
    "geom:latitude":37.93052,
    "geom:longitude":-86.9017,
    "gn:gn_country":"US",
    "gn:gn_fcode":"ADMD",
    "gn:gn_pop":1670,
    "gn:population":1670,
    "iso:country":"US",
    "lbl:latitude":37.93052,
    "lbl:longitude":-86.9017,
    "mz:hierarchy_label":1,
    "mz:is_current":0,
    "mz:note":"Quattroshapes Point Gazetteer import 20170519",
    "qs_pg:aaroncc":"US",
    "qs_pg:gn_country":"US",
    "qs_pg:gn_fcode":"ADMD",
    "qs_pg:gn_id":7170342,
    "qs_pg:gn_pop":1670,
    "qs_pg:name":"City of Lewisport",
    "qs_pg:photos_9r":0,
    "qs_pg:photos_sr":0,
    "qs_pg:pop_sr":3,
    "qs_pg:qs_id":663012,
    "qs_pg:qs_pg_placetype":"localadmin",
    "src:geom":"qs_pg",
    "src:lbl:centroid":"qs_pg",
    "src:population":"geonames",
    "wof:belongsto":[
        85633793
    ],
    "wof:breaches":[],
    "wof:concordances":{
        "gn:id":7170342,
        "qs_pg:id":663012
    },
    "wof:country":"US",
    "wof:created":1497044411,
    "wof:geomhash":"645c46bbc3a2d2504cd666d363d55c41",
    "wof:hierarchy":[
        {
            "country_id":85633793,
            "localadmin_id":1125318847
        }
    ],
    "wof:id":1125318847,
    "wof:lastmodified":1510799099,
    "wof:name":"City of Lewisport",
    "wof:parent_id":-1,
    "wof:placetype":"localadmin",
    "wof:population":1670,
    "wof:population_rank":3,
    "wof:repo":"whosonfirst-data-admin-us",
    "wof:superseded_by":[
        85947143
    ],
    "wof:supersedes":[],
    "wof:tags":[]
},
  "bbox": [
    -86.9017,
    37.93052,
    -86.9017,
    37.93052
],
  "geometry": {"coordinates":[-86.90170000000001,37.93052],"type":"Point"}
}