{
  "id": 1293026923,
  "type": "Feature",
  "properties": {
    "edtf:cessation":"uuuu",
    "edtf:inception":"uuuu",
    "geom:area":0.0,
    "geom:area_square_m":0.0,
    "geom:bbox":"-99.63981,32.43068,-99.63981,32.43068",
    "geom:latitude":32.43068,
    "geom:longitude":-99.63981,
    "gn:admin1_code":"TX",
    "gn:admin2_code":"441",
    "gn:asciiname":"Elmdale",
    "gn:country_code":"US",
    "gn:dem":545,
    "gn:elevation":"543.0",
    "gn:feature_class":"P",
    "gn:feature_code":"PPL",
    "gn:geonameid":4689074,
    "gn:latitude":32.43068,
    "gn:longitude":-99.63981,
    "gn:modification_date":"2006-01-15",
    "gn:name":"Elmdale",
    "gn:population":0,
    "gn:timezone":"America/Chicago",
    "iso:country":"US",
    "mz:hierarchy_label":1,
    "mz:is_current":-1,
    "src:geom":"geonames",
    "wof:belongsto":[
        102191575,
        85633793,
        85688753,
        102081085
    ],
    "wof:breaches":[],
    "wof:concordances":{
        "gn:id":4689074
    },
    "wof:country":"US",
    "wof:geomhash":"cc492757e08f7d77d248e7aca5912992",
    "wof:hierarchy":[
        {
            "continent_id":102191575,
            "country_id":85633793,
            "county_id":102081085,
            "locality_id":1293026923,
            "region_id":85688753
        }
    ],
    "wof:id":1293026923,
    "wof:lastmodified":1536954204,
    "wof:name":"Elmdale",
    "wof:parent_id":102081085,
    "wof:placetype":"locality",
    "wof:repo":"whosonfirst-data-admin-us",
    "wof:superseded_by":[],
    "wof:supersedes":[],
    "wof:tags":[]
},
  "bbox": [
    -99.63981,
    32.43068,
    -99.63981,
    32.43068
],
  "geometry": {"coordinates":[-99.63981,32.43068],"type":"Point"}
}