{
  "id": 1292940379,
  "type": "Feature",
  "properties": {
    "edtf:cessation":"2018-09-06",
    "edtf:inception":"uuuu",
    "geom:area":0.0,
    "geom:area_square_m":0.0,
    "geom:bbox":"-122.98564,44.34846,-122.98564,44.34846",
    "geom:latitude":44.34846,
    "geom:longitude":-122.98564,
    "gn:admin1_code":"OR",
    "gn:admin2_code":"43.0",
    "gn:asciiname":"Union Point (historical)",
    "gn:country_code":"US",
    "gn:dem":125,
    "gn:elevation":"123.0",
    "gn:feature_class":"P",
    "gn:feature_code":"PPLQ",
    "gn:geonameid":5758150,
    "gn:latitude":44.34846,
    "gn:longitude":-122.98564,
    "gn:modification_date":"2011-12-11",
    "gn:name":"Union Point (historical)",
    "gn:population":0,
    "gn:timezone":"America/Los_Angeles",
    "iso:country":"US",
    "mz:hierarchy_label":1,
    "mz:is_current":0,
    "src:geom":"geonames",
    "wof:belongsto":[
        102191575,
        85633793,
        85688513,
        102081639
    ],
    "wof:breaches":[],
    "wof:concordances":{
        "gn:id":5758150
    },
    "wof:country":"US",
    "wof:geomhash":"67c7b39f650d1958883d0c96d404326e",
    "wof:hierarchy":[
        {
            "continent_id":102191575,
            "country_id":85633793,
            "county_id":102081639,
            "locality_id":1292940379,
            "region_id":85688513
        }
    ],
    "wof:id":1292940379,
    "wof:lastmodified":1537075729,
    "wof:name":"Union Point (historical)",
    "wof:parent_id":102081639,
    "wof:placetype":"locality",
    "wof:repo":"whosonfirst-data-admin-us",
    "wof:superseded_by":[],
    "wof:supersedes":[],
    "wof:tags":[]
},
  "bbox": [
    -122.98564,
    44.34846,
    -122.98564,
    44.34846
],
  "geometry": {"coordinates":[-122.98564,44.34846],"type":"Point"}
}