{
  "id": 1243474197,
  "type": "Feature",
  "properties": {
    "edtf:cessation":"uuuu",
    "edtf:inception":"uuuu",
    "geom:area":0.0,
    "geom:area_square_m":0.0,
    "geom:bbox":"-108.8193,45.15856,-108.8193,45.15856",
    "geom:latitude":45.15856,
    "geom:longitude":-108.8193,
    "gn:admin1_code":"MT",
    "gn:admin2_code":"9.0",
    "gn:asciiname":"Wade",
    "gn:country_code":"US",
    "gn:dem":1237,
    "gn:elevation":"1240.0",
    "gn:feature_class":"P",
    "gn:feature_code":"PPL",
    "gn:geonameid":5684666,
    "gn:latitude":45.15856,
    "gn:longitude":-108.8193,
    "gn:modification_date":"2006-01-15",
    "gn:name":"Wade",
    "gn:population":0,
    "gn:timezone":"America/Denver",
    "iso:country":"US",
    "mz:hierarchy_label":1,
    "mz:is_current":-1,
    "src:geom":"geonames",
    "wof:belongsto":[
        102191575,
        85633793,
        85688617,
        102085111
    ],
    "wof:breaches":[],
    "wof:concordances":{
        "gn:id":5684666
    },
    "wof:country":"US",
    "wof:geomhash":"7c4123e724465f2bb14b0fc434ecd1f2",
    "wof:hierarchy":[
        {
            "continent_id":102191575,
            "country_id":85633793,
            "county_id":102085111,
            "locality_id":1243474197,
            "region_id":85688617
        }
    ],
    "wof:id":1243474197,
    "wof:lastmodified":1536765972,
    "wof:name":"Wade",
    "wof:parent_id":102085111,
    "wof:placetype":"locality",
    "wof:repo":"whosonfirst-data-admin-us",
    "wof:superseded_by":[],
    "wof:supersedes":[],
    "wof:tags":[]
},
  "bbox": [
    -108.8193,
    45.15856,
    -108.8193,
    45.15856
],
  "geometry": {"coordinates":[-108.8193,45.15856],"type":"Point"}
}