{
  "id": 1226259033,
  "type": "Feature",
  "properties": {
    "edtf:cessation":"2018-09-07",
    "edtf:inception":"uuuu",
    "geom:area":0.0,
    "geom:area_square_m":0.0,
    "geom:bbox":"-106.44115,48.04363,-106.44115,48.04363",
    "geom:latitude":48.04363,
    "geom:longitude":-106.44115,
    "gn:admin1_code":"MT",
    "gn:admin2_code":"105.0",
    "gn:asciiname":"Park Dale (historical)",
    "gn:country_code":"US",
    "gn:dem":624,
    "gn:elevation":"623.0",
    "gn:feature_class":"P",
    "gn:feature_code":"PPLQ",
    "gn:geonameid":5670668,
    "gn:latitude":48.04363,
    "gn:longitude":-106.44115,
    "gn:modification_date":"2011-12-12",
    "gn:name":"Park Dale (historical)",
    "gn:population":0,
    "gn:timezone":"America/Denver",
    "iso:country":"US",
    "mz:hierarchy_label":1,
    "mz:is_current":0,
    "name:eng_x_preferred":[
        "Park Dale (historical)"
    ],
    "name:und_x_variant":[
        "Parkdale"
    ],
    "src:geom":"geonames",
    "wof:belongsto":[
        102191575,
        85633793,
        85688617,
        102085109
    ],
    "wof:breaches":[],
    "wof:concordances":{
        "gn:id":5670668
    },
    "wof:country":"US",
    "wof:geomhash":"8320ab17cd629b849f671cf9459c3e8f",
    "wof:hierarchy":[
        {
            "continent_id":102191575,
            "country_id":85633793,
            "county_id":102085109,
            "locality_id":1226259033,
            "region_id":85688617
        }
    ],
    "wof:id":1226259033,
    "wof:lastmodified":1537713087,
    "wof:name":"Park Dale (historical)",
    "wof:parent_id":102085109,
    "wof:placetype":"locality",
    "wof:repo":"whosonfirst-data-admin-us",
    "wof:superseded_by":[],
    "wof:supersedes":[],
    "wof:tags":[]
},
  "bbox": [
    -106.44115,
    48.04363,
    -106.44115,
    48.04363
],
  "geometry": {"coordinates":[-106.44114999999999,48.04363],"type":"Point"}
}