{
  "id": 420532135,
  "type": "Feature",
  "properties": {
    "edtf:cessation":"uuuu",
    "edtf:inception":"uuuu",
    "geom:area":0.0,
    "geom:area_square_m":5220322.986126,
    "geom:bbox":"-80.917017,35.263226,-80.917017,35.263226",
    "geom:latitude":35.263226,
    "geom:longitude":-80.917017,
    "iso:country":"US",
    "lbl:latitude":35.263226,
    "lbl:longitude":-80.917017,
    "mz:hierarchy_label":0,
    "mz:is_current":-1,
    "name:eng_x_preferred":[
        "Westchester"
    ],
    "src:geom":"mz",
    "src:geom_alt":[
        "zetashapes"
    ],
    "src:lbl":"mapshaper",
    "src:lbl:centroid":"mapshaper",
    "src:population":"zetashapes",
    "wof:belongsto":[
        102191575,
        85633793,
        85981333,
        102080981,
        85688773
    ],
    "wof:breaches":[],
    "wof:concordances":{
        "gp:id":2518050
    },
    "wof:country":"US",
    "wof:geomhash":"67d60adecc2fae919801d0a20b05cca8",
    "wof:hierarchy":[
        {
            "continent_id":102191575,
            "country_id":85633793,
            "county_id":102080981,
            "locality_id":85981333,
            "neighbourhood_id":420532135,
            "region_id":85688773
        }
    ],
    "wof:id":420532135,
    "wof:lastmodified":1533597917,
    "wof:name":"Westchester",
    "wof:parent_id":85981333,
    "wof:placetype":"neighbourhood",
    "wof:population":4006,
    "wof:population_rank":4,
    "wof:repo":"whosonfirst-data-admin-us",
    "wof:superseded_by":[],
    "wof:supersedes":[],
    "wof:tags":[],
    "zs:area_m":5219964.229241,
    "zs:blockids":[
        371190043042002,
        371190043041011,
        371190043041009,
        371190043042008,
        371190043042001,
        371190043041019,
        371190043031007,
        371190043041010,
        371190043041016,
        371190043041007,
        371190043041022,
        371190043041012,
        371190043051000,
        371190043041029,
        371190043041018,
        371190043041017,
        371190043041038,
        371190043051005,
        371190043051007,
        371190043042000,
        371190043041008,
        371190043041030,
        371190043041006,
        371190043041023,
        371190043051006,
        371190043051004,
        371190043041015,
        371190043042003,
        371190043041027,
        371190043031008,
        371190043051001,
        371190043041013,
        371190043041014
    ],
    "zs:housing10":1537,
    "zs:id":2518050,
    "zs:label":"Westchester",
    "zs:pop10":4006
},
  "bbox": [
    -80.917017,
    35.263226,
    -80.917017,
    35.263226
],
  "geometry": {"coordinates":[-80.917017,35.263226],"type":"Point"}
}