{
  "id": 1243283467,
  "type": "Feature",
  "properties": {
    "edtf:cessation":"2018-09-06",
    "edtf:inception":"uuuu",
    "geom:area":0.0,
    "geom:area_square_m":0.0,
    "geom:bbox":"-91.09123,35.63675,-91.09123,35.63675",
    "geom:latitude":35.63675,
    "geom:longitude":-91.09123,
    "gn:admin1_code":"AR",
    "gn:admin2_code":"67.0",
    "gn:admin3_code":"91554.0",
    "gn:asciiname":"Hale (historical)",
    "gn:country_code":"US",
    "gn:dem":70,
    "gn:elevation":"70.0",
    "gn:feature_class":"P",
    "gn:feature_code":"PPLQ",
    "gn:geonameid":4113489,
    "gn:latitude":35.63675,
    "gn:longitude":-91.09123,
    "gn:modification_date":"2017-05-23",
    "gn:name":"Hale (historical)",
    "gn:population":0,
    "gn:timezone":"America/Chicago",
    "iso:country":"US",
    "mz:hierarchy_label":1,
    "mz:is_current":0,
    "src:geom":"geonames",
    "wof:belongsto":[
        102191575,
        85633793,
        85688549,
        102083219
    ],
    "wof:breaches":[],
    "wof:concordances":{
        "gn:id":4113489
    },
    "wof:country":"US",
    "wof:geomhash":"340f6821e97f397b7df1a322f2986415",
    "wof:hierarchy":[
        {
            "continent_id":102191575,
            "country_id":85633793,
            "county_id":102083219,
            "locality_id":1243283467,
            "region_id":85688549
        }
    ],
    "wof:id":1243283467,
    "wof:lastmodified":1537038864,
    "wof:name":"Hale (historical)",
    "wof:parent_id":102083219,
    "wof:placetype":"locality",
    "wof:repo":"whosonfirst-data-admin-us",
    "wof:superseded_by":[],
    "wof:supersedes":[],
    "wof:tags":[]
},
  "bbox": [
    -91.09123,
    35.63675,
    -91.09123,
    35.63675
],
  "geometry": {"coordinates":[-91.09123,35.63675],"type":"Point"}
}