{
  "id": 1242899869,
  "type": "Feature",
  "properties": {
    "edtf:cessation":"uuuu",
    "edtf:inception":"uuuu",
    "geom:area":0.0,
    "geom:area_square_m":0.0,
    "geom:bbox":"-91.13987,40.73976,-91.13987,40.73976",
    "geom:latitude":40.73976,
    "geom:longitude":-91.13987,
    "gn:admin1_code":"IA",
    "gn:admin2_code":"57.0",
    "gn:admin3_code":"90813.0",
    "gn:asciiname":"Patterson",
    "gn:country_code":"US",
    "gn:dem":165,
    "gn:elevation":"166.0",
    "gn:feature_class":"P",
    "gn:feature_code":"PPL",
    "gn:geonameid":4870802,
    "gn:latitude":40.73976,
    "gn:longitude":-91.13987,
    "gn:modification_date":"2017-05-23",
    "gn:name":"Patterson",
    "gn:population":0,
    "gn:timezone":"America/Chicago",
    "iso:country":"US",
    "mz:hierarchy_label":1,
    "mz:is_current":-1,
    "src:geom":"geonames",
    "wof:belongsto":[
        102191575,
        85633793,
        85688713,
        102086609
    ],
    "wof:breaches":[],
    "wof:concordances":{
        "gn:id":4870802
    },
    "wof:country":"US",
    "wof:geomhash":"f0b042f142f566b53533d31dace7bbaa",
    "wof:hierarchy":[
        {
            "continent_id":102191575,
            "country_id":85633793,
            "county_id":102086609,
            "locality_id":1242899869,
            "region_id":85688713
        }
    ],
    "wof:id":1242899869,
    "wof:lastmodified":1537093339,
    "wof:name":"Patterson",
    "wof:parent_id":102086609,
    "wof:placetype":"locality",
    "wof:repo":"whosonfirst-data-admin-us",
    "wof:superseded_by":[],
    "wof:supersedes":[],
    "wof:tags":[]
},
  "bbox": [
    -91.13987,
    40.73976,
    -91.13987,
    40.73976
],
  "geometry": {"coordinates":[-91.13987,40.73976],"type":"Point"}
}