{
  "id": 1125302657,
  "type": "Feature",
  "properties": {
    "edtf:cessation":"uuuu",
    "edtf:deprecated":"2017-11-04",
    "edtf:inception":"uuuu",
    "geom:area":0.0,
    "geom:area_square_m":0.0,
    "geom:bbox":"-97.81427,46.40247,-97.81427,46.40247",
    "geom:latitude":46.40247,
    "geom:longitude":-97.81427,
    "gn:gn_country":"US",
    "gn:gn_fcode":"ADMD",
    "gn:gn_pop":25,
    "gn:population":25,
    "iso:country":"US",
    "lbl:latitude":46.40247,
    "lbl:longitude":-97.81427,
    "mz:hierarchy_label":1,
    "mz:is_current":0,
    "mz:note":"Quattroshapes Point Gazetteer import 20170519",
    "qs_pg:aaroncc":"US",
    "qs_pg:gn_country":"US",
    "qs_pg:gn_fcode":"ADMD",
    "qs_pg:gn_id":5059060,
    "qs_pg:gn_pop":25,
    "qs_pg:name":"City of Elliott",
    "qs_pg:photos_9r":0,
    "qs_pg:photos_sr":0,
    "qs_pg:pop_sr":1,
    "qs_pg:qs_id":602576,
    "qs_pg:qs_pg_placetype":"localadmin",
    "src:geom":"qs_pg",
    "src:lbl:centroid":"qs_pg",
    "src:population":"geonames",
    "wof:belongsto":[
        85633793
    ],
    "wof:breaches":[],
    "wof:concordances":{
        "gn:id":5059060,
        "qs_pg:id":602576
    },
    "wof:country":"US",
    "wof:created":1497043512,
    "wof:geomhash":"2eeb9e91728741e219d0d36560684ca9",
    "wof:hierarchy":[
        {
            "country_id":85633793,
            "localadmin_id":1125302657
        }
    ],
    "wof:id":1125302657,
    "wof:lastmodified":1509752511,
    "wof:name":"City of Elliott",
    "wof:parent_id":-1,
    "wof:placetype":"localadmin",
    "wof:population":25,
    "wof:population_rank":1,
    "wof:repo":"whosonfirst-data-admin-us",
    "wof:superseded_by":[
        85982483
    ],
    "wof:supersedes":[],
    "wof:tags":[]
},
  "bbox": [
    -97.81427,
    46.40247,
    -97.81427,
    46.40247
],
  "geometry": {"coordinates":[-97.81426999999999,46.40247],"type":"Point"}
}