{
  "id": 1209635193,
  "type": "Feature",
  "properties": {
    "edtf:cessation":"2018-09-06",
    "edtf:inception":"uuuu",
    "geom:area":0.0,
    "geom:area_square_m":0.0,
    "geom:bbox":"-77.63416,37.63709,-77.63416,37.63709",
    "geom:latitude":37.63709,
    "geom:longitude":-77.63416,
    "gn:admin1_code":"VA",
    "gn:admin2_code":"87",
    "gn:asciiname":"Gayton (historical)",
    "gn:country_code":"US",
    "gn:dem":64,
    "gn:elevation":"58.0",
    "gn:feature_class":"P",
    "gn:feature_code":"PPLQ",
    "gn:geonameid":4760623,
    "gn:latitude":37.63709,
    "gn:longitude":-77.63416,
    "gn:modification_date":"2011-12-12",
    "gn:name":"Gayton (historical)",
    "gn:population":0,
    "gn:timezone":"America/New_York",
    "iso:country":"US",
    "mz:hierarchy_label":1,
    "mz:is_current":0,
    "src:geom":"geonames",
    "wof:belongsto":[
        85633793
    ],
    "wof:breaches":[],
    "wof:concordances":{
        "gn:id":4760623
    },
    "wof:country":"US",
    "wof:geomhash":"b4861f074ab2a2f4d83234dea861ed6a",
    "wof:hierarchy":[
        {
            "country_id":85633793,
            "locality_id":1209635193
        }
    ],
    "wof:id":1209635193,
    "wof:lastmodified":1536281068,
    "wof:name":"Gayton (historical)",
    "wof:parent_id":85633793,
    "wof:placetype":"locality",
    "wof:repo":"whosonfirst-data-admin-us",
    "wof:superseded_by":[],
    "wof:supersedes":[],
    "wof:tags":[]
},
  "bbox": [
    -77.63416,
    37.63709,
    -77.63416,
    37.63709
],
  "geometry": {"coordinates":[-77.63415999999999,37.63709],"type":"Point"}
}