{
  "id": 1326864415,
  "type": "Feature",
  "properties": {
    "edtf:cessation":"2018-09-07",
    "edtf:inception":"uuuu",
    "geom:area":0.0,
    "geom:area_square_m":0.0,
    "geom:bbox":"-148.63333,64.58333,-148.63333,64.58333",
    "geom:latitude":64.58333,
    "geom:longitude":-148.63333,
    "gn:admin1_code":"AK",
    "gn:admin2_code":"290.0",
    "gn:asciiname":"Wood River (historical)",
    "gn:country_code":"US",
    "gn:dem":115,
    "gn:elevation":"111.0",
    "gn:feature_class":"P",
    "gn:feature_code":"PPLQ",
    "gn:geonameid":5878352,
    "gn:latitude":64.58333,
    "gn:longitude":-148.63333,
    "gn:modification_date":"2011-12-12",
    "gn:name":"Wood River (historical)",
    "gn:population":0,
    "gn:timezone":"America/Anchorage",
    "iso:country":"US",
    "mz:hierarchy_label":1,
    "mz:is_current":0,
    "name:eng_x_preferred":[
        "Wood River (historical)"
    ],
    "name:und_x_variant":[
        "Dool Kayex",
        "Wood River Landing",
        "Dool Toteth"
    ],
    "src:geom":"geonames",
    "wof:belongsto":[
        102191575,
        85633793,
        85688573,
        102081905
    ],
    "wof:breaches":[],
    "wof:concordances":{
        "gn:id":5878352
    },
    "wof:country":"US",
    "wof:geomhash":"2056752c84d7527650fd63243dc998fc",
    "wof:hierarchy":[
        {
            "continent_id":102191575,
            "country_id":85633793,
            "county_id":102081905,
            "locality_id":1326864415,
            "region_id":85688573
        }
    ],
    "wof:id":1326864415,
    "wof:lastmodified":1537713164,
    "wof:name":"Wood River (historical)",
    "wof:parent_id":102081905,
    "wof:placetype":"locality",
    "wof:repo":"whosonfirst-data-admin-us",
    "wof:superseded_by":[],
    "wof:supersedes":[],
    "wof:tags":[]
},
  "bbox": [
    -148.63333,
    64.58333,
    -148.63333,
    64.58333
],
  "geometry": {"coordinates":[-148.63333,64.58333],"type":"Point"}
}