{
  "id": 1243087107,
  "type": "Feature",
  "properties": {
    "edtf:cessation":"uuuu",
    "edtf:inception":"uuuu",
    "geom:area":0.0,
    "geom:area_square_m":0.0,
    "geom:bbox":"-79.89143,37.28125,-79.89143,37.28125",
    "geom:latitude":37.28125,
    "geom:longitude":-79.89143,
    "gn:admin1_code":"VA",
    "gn:admin2_code":"161",
    "gn:asciiname":"Bowman",
    "gn:country_code":"US",
    "gn:dem":292,
    "gn:elevation":"294.0",
    "gn:feature_class":"P",
    "gn:feature_code":"PPL",
    "gn:geonameid":4748561,
    "gn:latitude":37.28125,
    "gn:longitude":-79.89143,
    "gn:modification_date":"2006-01-15",
    "gn:name":"Bowman",
    "gn:population":0,
    "gn:timezone":"America/New_York",
    "iso:country":"US",
    "mz:hierarchy_label":1,
    "mz:is_current":-1,
    "src:geom":"geonames",
    "wof:belongsto":[
        102191575,
        85633793,
        85688747,
        102084967
    ],
    "wof:breaches":[],
    "wof:concordances":{
        "gn:id":4748561
    },
    "wof:country":"US",
    "wof:geomhash":"40be71ad9625953e4087597ad267e65e",
    "wof:hierarchy":[
        {
            "continent_id":102191575,
            "country_id":85633793,
            "county_id":102084967,
            "locality_id":1243087107,
            "region_id":85688747
        }
    ],
    "wof:id":1243087107,
    "wof:lastmodified":1536825602,
    "wof:name":"Bowman",
    "wof:parent_id":102084967,
    "wof:placetype":"locality",
    "wof:repo":"whosonfirst-data-admin-us",
    "wof:superseded_by":[],
    "wof:supersedes":[],
    "wof:tags":[]
},
  "bbox": [
    -79.89143,
    37.28125,
    -79.89143,
    37.28125
],
  "geometry": {"coordinates":[-79.89143,37.28125],"type":"Point"}
}