{
  "id": 85857523,
  "type": "Feature",
  "properties": {"wof:repo":"whosonfirst-data-admin-us",
    "src:geom":"quattroshapes",
    "wof:geomhash":"d83fcdb657c897843735e55bb90c172d",
    "wof:id":85857523
},
  "bbox": [
    -81.84990478514999,
    30.294131973050014,
    -81.7990856465089,
    30.322527147053947
],
  "geometry": {"coordinates":[[[-81.80145263672492,30.32196478476708],[-81.80145263672492,30.31581527593158],[-81.79908564650890,30.31124554655020],[-81.79990448606719,30.30650320245020],[-81.80419921874994,30.30152862508257],[-81.80419921874994,30.29848494385267],[-81.80536789703802,30.29706090523827],[-81.80542066876617,30.29701759660026],[-81.81793212889988,30.29701759660026],[-81.82138569065378,30.29435102681661],[-81.82147438972970,30.29432412024605],[-81.82342529294991,30.29413197305001],[-81.82537619616994,30.29432412024605],[-81.82725212727365,30.29489317772513],[-81.82898099528009,30.29581727692701],[-81.83049636076180,30.29706090523827],[-81.83173998907299,30.29857627071972],[-81.83222126513590,30.29947667490373],[-81.83223464189712,30.29948073269988],[-81.83274529137350,30.29963563652503],[-81.83441162109989,30.30052630831975],[-81.83607795082617,30.29963563652503],[-81.83795388192971,30.29906657904620],[-81.83990478514991,30.29887443185000],[-81.84185568837012,30.29906657904620],[-81.84373161947366,30.29963563652503],[-81.84546048748010,30.30055973572716],[-81.84697585296180,30.30180336403825],[-81.84821948127299,30.30331872952006],[-81.84914358047513,30.30504759752650],[-81.84971263795396,30.30692352863011],[-81.84990478514999,30.30887443185024],[-81.84971263795396,30.31082533507028],[-81.84914358047513,30.31270126617372],[-81.84821948127299,30.31443013418043],[-81.84697585296180,30.31594549966196],[-81.84546048748010,30.31718912797314],[-81.84373161947366,30.31811322717527],[-81.84185568837012,30.31868228465429],[-81.83990478514991,30.31887443185003],[-81.83795388192971,30.31868228465429],[-81.83607795082617,30.31811322717527],[-81.83441162109989,30.31722255538030],[-81.83274529137350,30.31811322717527],[-81.83086936027007,30.31868228465429],[-81.82891845704995,30.31887443185003],[-81.82696755382955,30.31868228465429],[-81.82658529546325,30.31856632784657],[-81.82657278615767,30.31856253319008],[-81.82624682502296,30.31917236358035],[-81.82500319671169,30.32068772906197],[-81.82348783123007,30.32193135737324],[-81.82238203544330,30.32252241753521],[-81.82238250126028,30.32252714705395],[-81.81243896484995,30.31676767847758],[-81.80249542843958,30.32252714705395],[-81.80249589425648,30.32252241753521],[-81.80145263672492,30.32196478476708]]],"type":"Polygon"}
}