{
  "id": 1327344757,
  "type": "Feature",
  "properties": {
    "edtf:cessation":"2018-09-06",
    "edtf:inception":"uuuu",
    "geom:area":0.0,
    "geom:area_square_m":0.0,
    "geom:bbox":"-82.99127,36.11177,-82.99127,36.11177",
    "geom:latitude":36.11177,
    "geom:longitude":-82.99127,
    "gn:admin1_code":"TN",
    "gn:admin2_code":"59",
    "gn:asciiname":"Little Chucky (historical)",
    "gn:country_code":"US",
    "gn:dem":408,
    "gn:elevation":"408.0",
    "gn:feature_class":"P",
    "gn:feature_code":"PPLQ",
    "gn:geonameid":4637122,
    "gn:latitude":36.11177,
    "gn:longitude":-82.99127,
    "gn:modification_date":"2011-12-11",
    "gn:name":"Little Chucky (historical)",
    "gn:population":0,
    "gn:timezone":"America/New_York",
    "iso:country":"US",
    "mz:hierarchy_label":1,
    "mz:is_current":0,
    "src:geom":"geonames",
    "wof:belongsto":[
        102191575,
        85633793,
        85688701,
        102086377
    ],
    "wof:breaches":[],
    "wof:concordances":{
        "gn:id":4637122
    },
    "wof:country":"US",
    "wof:geomhash":"f8d9f33491c9dc15fa5a656aa22d5aed",
    "wof:hierarchy":[
        {
            "continent_id":102191575,
            "country_id":85633793,
            "county_id":102086377,
            "locality_id":1327344757,
            "region_id":85688701
        }
    ],
    "wof:id":1327344757,
    "wof:lastmodified":1536807036,
    "wof:name":"Little Chucky (historical)",
    "wof:parent_id":102086377,
    "wof:placetype":"locality",
    "wof:repo":"whosonfirst-data-admin-us",
    "wof:superseded_by":[],
    "wof:supersedes":[],
    "wof:tags":[]
},
  "bbox": [
    -82.99127,
    36.11177,
    -82.99127,
    36.11177
],
  "geometry": {"coordinates":[-82.99127,36.11177],"type":"Point"}
}