{
  "id": 1108800863,
  "type": "Feature",
  "properties": {
    "edtf:cessation":"uuuu",
    "edtf:deprecated":"",
    "edtf:inception":"uuuu",
    "geom:area":0.000102,
    "geom:area_square_m":1063879.252649,
    "geom:bbox":"-117.274070808,32.8055712399,-117.259282365,32.8190360328",
    "geom:latitude":32.812497,
    "geom:longitude":-117.266186,
    "iso:country":"US",
    "lbl:latitude":32.812585,
    "lbl:longitude":-117.266075,
    "mps:latitude":32.812585,
    "mps:longitude":-117.266075,
    "mz:hierarchy_label":1,
    "mz:is_current":0,
    "mz:is_funky":0,
    "mz:is_hard_boundary":0,
    "mz:is_landuse_aoi":0,
    "mz:is_official":0,
    "mz:max_zoom":18.0,
    "mz:min_zoom":14.0,
    "mz:note":"",
    "mz:tier_metro":1,
    "reversegeo:latitude":32.812585,
    "reversegeo:longitude":-117.266075,
    "src:geom":"mz",
    "src:geom_alt":[],
    "src:lbl:centroid":"mz",
    "wof:belongsto":[
        85828909,
        102191575,
        85633793,
        85922227,
        102083569,
        85688637
    ],
    "wof:breaches":[],
    "wof:concordances":{},
    "wof:country":"US",
    "wof:geomhash":"8302ba169f221f7785c25deae400309b",
    "wof:hierarchy":[
        {
            "continent_id":102191575,
            "country_id":85633793,
            "county_id":102083569,
            "locality_id":85922227,
            "microhood_id":1108800863,
            "neighbourhood_id":85828909,
            "region_id":85688637
        }
    ],
    "wof:id":1108800863,
    "wof:lastmodified":1511300774,
    "wof:name":"Bird Rock",
    "wof:parent_id":85828909,
    "wof:placetype":"microhood",
    "wof:repo":"whosonfirst-data-admin-us",
    "wof:superseded_by":[],
    "wof:supersedes":[
        85868393
    ],
    "wof:tags":[]
},
  "bbox": [
    -117.27407080800624,
    32.80557123985983,
    -117.2592823651737,
    32.81903603279729
],
  "geometry": {"coordinates":[[[[-117.27302892431078,32.81691061711712],[-117.27273616893777,32.81692746872973],[-117.27261913520483,32.81693420543659],[-117.27261753200301,32.81697597297354],[-117.27261432559938,32.81705950804742],[-117.27259669037934,32.81714439037884],[-117.27256462634293,32.81723061996777],[-117.27253256230651,32.81731819680637],[-117.27250049827008,32.81740712089465],[-117.27247965664641,32.81746909826507],[-117.2724700374355,32.81750412891764],[-117.27246522783004,32.81752164424393],[-117.27242995738997,32.81751894957925],[-117.27235941650984,32.81751356024988],[-117.27228406602426,32.81751625491424],[-117.27220390593322,32.81752703357232],[-117.27207564978755,32.81755263287361],[-117.27189929758723,32.81759305281811],[-117.27159308603943,32.81766041932077],[-117.27115701514415,32.81775473238159],[-117.27079629473445,32.8178342247607],[-117.27051092481034,32.81789889645811],[-117.27032014379365,32.81794470556322],[-117.27022395168439,32.81797165207601],[-117.27012615637331,32.81800398787765],[-117.27002675786041,32.8180417129681],[-117.26990812092566,32.81808213268826],[-117.26977024556906,32.81812524703812],[-117.2696580214416,32.81816701404555],[-117.26957144854326,32.81820743371054],[-117.26948166924129,32.81825593727764],[-117.26938868353568,32.81831252474684],[-117.26927004660094,32.81838527999157],[-117.26912575843704,32.81847420301181],[-117.26898627987863,32.81856851520017],[-117.26885161092568,32.81866821655665],[-117.26875381561462,32.81875309737428],[-117.26869289394541,32.81882315765308],[-117.26866243311082,32.81885818779247],[-117.26842515924132,32.81890264904368],[-117.26795061150233,32.81899157154608],[-117.26771333763283,32.81903603279729],[-117.26742315810324,32.81849710254134],[-117.2668427990441,32.81741924202946],[-117.26651574587262,32.81683315475397],[-117.26644199858885,32.81673884071486],[-117.26637306091054,32.81667686289706],[-117.26630893283772,32.81664722130056],[-117.26624320156306,32.81664048457531],[-117.26617586708659,32.81665665272131],[-117.2660925005919,32.8166647367943],[-117.26599310207902,32.8166647367943],[-117.26588889396065,32.81665126333768],[-117.26577987623682,32.81662431642441],[-117.26566765210936,32.81661084296778],[-117.26555222157825,32.81661084296778],[-117.26540312380891,32.81662162173374],[-117.26522035880132,32.81664317926565],[-117.26492857606991,32.81669707304314],[-117.26452777561465,32.81678330306622],[-117.26432737538704,32.81682641807775],[-117.26403078305017,32.81638987471998],[-117.26343759837644,32.81551678800446],[-117.26314100603958,32.81508024464669],[-117.26288128734458,32.81486062236805],[-117.26236184995463,32.81442137781077],[-117.26173179163901,32.81388916056886],[-117.26099111239776,32.81326397064232],[-117.26057427992433,32.81291769061446],[-117.26048129421869,32.81285032048523],[-117.26040594373312,32.81280181397601],[-117.26034822846756,32.81277217108678],[-117.26031937083479,32.81275734964218],[-117.2603209740366,32.8127384859711],[-117.26032418044025,32.81270075862895],[-117.26033219644934,32.81262126162092],[-117.2603450220639,32.81249999494703],[-117.26035143487118,32.81237468586826],[-117.26035143487118,32.81224533438463],[-117.26033540285297,32.81210250853692],[-117.26030333881657,32.81194620832512],[-117.26024722675284,32.81175352739496],[-117.26011497728652,32.8114063009218],[-117.25998623106868,32.81096483897899],[-117.25984756517076,32.81050971534022],[-117.25971553564969,32.8100655314496],[-117.25958015524654,32.80961312920471],[-117.2594244686228,32.80909217931103],[-117.2592823651737,32.80862059194111],[-117.26032784859667,32.80840040317437],[-117.26092851971896,32.80827455039982],[-117.26094636121438,32.80827080921649],[-117.26126944280416,32.80820304484212],[-117.26129215699692,32.80819736170546],[-117.26164919017634,32.80811198042333],[-117.26217181598653,32.80799225813485],[-117.26216747027844,32.80799191171476],[-117.26215128208099,32.80799054097593],[-117.26213510538506,32.80798903821069],[-117.26211894676267,32.80798740886225],[-117.26210280940498,32.80798564740734],[-117.262086690121,32.80798375936923],[-117.26207078771098,32.80798176785516],[-117.26207059864217,32.8079817419196],[-117.26205883451379,32.80798017273852],[-117.26205843681853,32.80798011827921],[-117.26205452198278,32.80797959791349],[-117.26203847306557,32.80797731899931],[-117.26202245201694,32.80797491617027],[-117.26200645877377,32.80797238392966],[-117.26199049336773,32.80796972502595],[-117.26197455902165,32.8079669366841],[-117.26196438302532,32.80796507137675],[-117.26195865902159,32.80796402162574],[-117.26195283988355,32.80796290668917],[-117.26194704358934,32.80796179706221],[-117.26194664889587,32.80796172058957],[-117.26194279011322,32.80796097987758],[-117.26192695555093,32.80795781141294],[-117.2619111586208,32.80795451895343],[-117.26189539600534,32.8079510970292],[-117.26187967749922,32.80794754830853],[-117.26186399662544,32.80794387559303],[-117.26184835660681,32.80794007610779],[-117.26183694203752,32.80793720398037],[-117.26183648506928,32.80793708953819],[-117.26183276072932,32.80793615257444],[-117.26182682598809,32.80793460705831],[-117.26181721224744,32.80793210496628],[-117.2618017079068,32.80792793331005],[-117.26178625093024,32.80792363483081],[-117.26177084463541,32.80791921499845],[-117.26175548576798,32.80791467383968],[-117.26174018077351,32.80791000580459],[-117.26172492649248,32.80790521916473],[-117.26172273618887,32.80790437681988],[-117.26170795897926,32.80789862153024],[-117.26169323599035,32.80789276959564],[-117.26167856722229,32.80788682101598],[-117.26166395592942,32.80788077576467],[-117.26164939882582,32.80787463112011],[-117.26163489922909,32.80786839255226],[-117.26162045713927,32.80786206006101],[-117.2616060757791,32.80785563087158],[-117.26159175189429,32.80784910501057],[-117.26157749531107,32.8078424878946],[-117.26156329620336,32.80783577410713],[-117.26154915788857,32.80782896911802],[-117.26153508681237,32.80782206737749],[-117.26152692293569,32.80781799770935],[-117.26152314865921,32.80781611289849],[-117.26152305700056,32.80781606692422],[-117.26152107656075,32.80781507718368],[-117.26151381205284,32.80781138494203],[-117.26150713351619,32.80780798749016],[-117.26149325786811,32.80780081478669],[-117.26147944620442,32.80779354535847],[-117.26141799830208,32.80775700117024],[-117.26139803872431,32.80774804227082],[-117.26132554115041,32.80771998329],[-117.26132300099043,32.80771900019262],[-117.26133700060429,32.80771599954602],[-117.26127318746228,32.80766691313805],[-117.2612200003209,32.80762600040742],[-117.26111199838215,32.80754299946426],[-117.26110011961624,32.80753342462895],[-117.26108870692202,32.80752362334371],[-117.26107737814901,32.80751376090219],[-117.26106612997968,32.8075038318346],[-117.26097090204617,32.80743040102582],[-117.26088823760274,32.80736437629253],[-117.2608789286087,32.80735694349752],[-117.26087506367234,32.80735396274125],[-117.26086305822338,32.80734468851186],[-117.26085106885932,32.80733539765833],[-117.2608446355911,32.80733039576315],[-117.2608445305374,32.80733031691558],[-117.2608390923574,32.80732609295571],[-117.26082713519469,32.80731677160231],[-117.26081519414844,32.80730743637309],[-117.26080326921864,32.80729808726811],[-117.26079135715101,32.80728872431397],[-117.26077946442257,32.80727934470914],[-117.26076758781062,32.80726995122854],[-117.26075572731511,32.80726054387214],[-117.26074388290449,32.80725111989168],[-117.26073205461039,32.80724168203547],[-117.26072024243273,32.80723223030351],[-117.26070844959429,32.80722276192083],[-117.26069666964955,32.80721328243737],[-117.26068490578973,32.80720378632986],[-117.26068050365969,32.80720022177732],[-117.26067316130066,32.80719427631998],[-117.26066143615091,32.80718474965941],[-117.2606497173546,32.80717520920305],[-117.26063802121494,32.807165657566],[-117.2606263411602,32.8071560893049],[-117.2606199177492,32.80715080971481],[-117.26061468044473,32.80714650439317],[-117.26060303262292,32.80713690838063],[-117.26059140414037,32.80712729571751],[-117.26057978851999,32.80711766920528],[-117.26056819227037,32.80710802879069],[-117.26055661213721,32.80709837450046],[-117.26054505137489,32.80708870630789],[-117.26053350347469,32.80707902426627],[-117.2605219749137,32.80706932557403],[-117.26051413998563,32.80706271349489],[-117.2605104624692,32.80705961300612],[-117.26049896617273,32.80704988931083],[-117.26048748596118,32.80704014899161],[-117.26047602837473,32.80703039474341],[-117.26046458036458,32.80702062392458],[-117.26045315175675,32.80701084195172],[-117.26044173926536,32.80700104610323],[-117.26043034611322,32.80699123360414],[-117.26041896910914,32.80698140997774],[-117.26020532547626,32.80679900600192],[-117.25999819134879,32.80661654841087],[-117.26080425993386,32.80595579855456],[-117.26091086252731,32.80588621216675],[-117.26092660271222,32.80588970036202],[-117.26094242432274,32.80589291028581],[-117.26095831759598,32.80589584201802],[-117.26097428575443,32.80589849278378],[-117.2609903157493,32.80590085994123],[-117.26100639781757,32.80590294357039],[-117.26101786867343,32.80590422390552],[-117.26102253199068,32.80590474641953],[-117.26102502445232,32.8059049816227],[-117.26103870196546,32.80590626587351],[-117.26105491086985,32.80590749091264],[-117.26107114262159,32.80590843815976],[-117.2610873970943,32.80590909662183],[-117.26110366130227,32.80590946915368],[-117.26111993195944,32.80590955303364],[-117.26113620258872,32.80590935106338],[-117.26115026081355,32.80590892808783],[-117.26115246668132,32.80590886329608],[-117.26115369620089,32.80590880100377],[-117.26116871118843,32.80590808709023],[-117.26118493614139,32.80590702519403],[-117.26120112855456,32.80590568046239],[-117.26121728511031,32.80590404742541],[-117.26123339936309,32.80590213163304],[-117.261249458264,32.80589993044355],[-117.26126546513032,32.80589744932693],[-117.26126571201394,32.8058974088251],[-117.26128140365891,32.80589468566821],[-117.26129727059541,32.80589163949404],[-117.26131305949411,32.8058883163543],[-117.26132876384644,32.8058847163024],[-117.26134437063506,32.80588083944498],[-117.26135988636841,32.80587668572876],[-117.26137529161537,32.80587226355858],[-117.2613905830584,32.80586756746457],[-117.2613907062476,32.80586752522725],[-117.26140575753776,32.8058626057183],[-117.26142080525899,32.80585737565146],[-117.2614357197765,32.80585188281405],[-117.26145049458167,32.80584612725942],[-117.26146528164685,32.80584002253772],[-117.26147981730954,32.80583384841182],[-117.26149427332047,32.80582754025829],[-117.26150864642528,32.80582109810371],[-117.26151870850833,32.80581646957518],[-117.26152293665557,32.80581452469644],[-117.26152969882254,32.80581133320591],[-117.26153714072535,32.80580781731487],[-117.26155125544354,32.80580098148231],[-117.26156528074684,32.80579401170218],[-117.26157921347577,32.80578691624599],[-117.26159305356708,32.80577968961732],[-117.261606797798,32.80577233459106],[-117.26162044945441,32.80576485388882],[-117.26163400202768,32.80575724756407],[-117.26163951792415,32.80575407727378],[-117.26164745223191,32.80574951289518],[-117.26165616769563,32.80574438690961],[-117.26166080667045,32.80574165807371],[-117.26167405226283,32.80573367770975],[-117.26168719558092,32.80572557724662],[-117.26170023008447,32.80571735398933],[-117.26170849724295,32.80571201728743],[-117.26171315902769,32.80570900791135],[-117.2617259792511,32.80570054728413],[-117.2617386906599,32.80569196386296],[-117.26175128684032,32.80568326594594],[-117.26175710762402,32.80567915589889],[-117.26176377101496,32.80567445075825],[-117.2617699393433,32.80566999704319],[-117.26177613996113,32.80566552107485],[-117.26178839042448,32.80565647692247],[-117.26180052243674,32.80564732104934],[-117.26181253596619,32.80563805070729],[-117.26182442782179,32.80562867141957],[-117.26183619803507,32.80561918593452],[-117.26184784322538,32.80560958328563],[-117.26185936358229,32.80559987996273],[-117.26187075575682,32.80559006774766],[-117.26188202306625,32.8055801521103],[-117.26188370470929,32.80557865136605],[-117.26215074180806,32.80561678625714],[-117.26215095466284,32.80561668762597],[-117.26224900444302,32.80557123985983],[-117.26228949218924,32.8055829162695],[-117.26241146541247,32.8056237983808],[-117.2624466622491,32.80565877079383],[-117.26275340736591,32.80570242214558],[-117.26275358341292,32.80570244818687],[-117.26290716954171,32.80594002277595],[-117.26291407524491,32.80595072666151],[-117.26298810166578,32.8060574416229],[-117.26299095141464,32.80606157403643],[-117.26299258979525,32.80606395182519],[-117.26301245077825,32.80609264855652],[-117.26303857533276,32.80612800033263],[-117.26310307651225,32.80621525674715],[-117.26310758149341,32.80622125008117],[-117.26311435667527,32.8062302234453],[-117.26311631979891,32.80623282119954],[-117.26312499368484,32.80624445056532],[-117.26313311854291,32.80625588379238],[-117.26314004995929,32.80626400932199],[-117.26314272973391,32.8062675109623],[-117.2631469325395,32.80627298180305],[-117.2631499859033,32.8062772719576],[-117.26315126953651,32.80627908370722],[-117.26315312024245,32.80628124536517],[-117.26315487199145,32.8062832923964],[-117.26316045899907,32.80629054667557],[-117.26316946571737,32.80630196716625],[-117.26317095465964,32.80630408506757],[-117.26317771305109,32.80631357804062],[-117.26318339499748,32.8063200317138],[-117.26318726665431,32.80632500778474],[-117.26319219429755,32.8063312450159],[-117.26319587322735,32.80633644255156],[-117.26320086153039,32.80634229448869],[-117.26320529372533,32.80634790087213],[-117.26321045261922,32.80635443579585],[-117.26321403015872,32.80635930708657],[-117.26321703442041,32.80636272360596],[-117.26322338494299,32.8063707109742],[-117.26322933859399,32.80637814914219],[-117.26323221995881,32.80638219883465],[-117.26323621708087,32.80638676434151],[-117.26324164179148,32.8063934894804],[-117.2632473309901,32.80640057250743],[-117.26324869329957,32.80640243308415],[-117.26325037605193,32.8064047060608],[-117.26325201921186,32.8064066495373],[-117.26325615971831,32.80641151345787],[-117.26325995956402,32.80641618777629],[-117.26326220806584,32.80641897833259],[-117.2632685332329,32.80642758982575],[-117.26327840720181,32.80643885751817],[-117.2632876727767,32.80645014394593],[-117.26329401370393,32.80645786203224],[-117.26329659586146,32.80646136447047],[-117.26330184964287,32.80646737638868],[-117.26330627868774,32.80647270794018],[-117.26331559902364,32.80648394444268],[-117.2633224073806,32.80649212044614],[-117.26332462618991,32.80649515861391],[-117.26333103030848,32.80650242816724],[-117.26333453587603,32.8065064177632],[-117.26334379050043,32.80651759983213],[-117.26334835392575,32.80652301273545],[-117.26335269202092,32.80652892497431],[-117.26336269712952,32.80653999094019],[-117.26337221147298,32.80655111590443],[-117.26338172613511,32.80656226835072],[-117.26338644962713,32.80656773216114],[-117.2633906209313,32.80657329120578],[-117.2634005306347,32.80658455034978],[-117.26341049932562,32.80659556163999],[-117.26342011424836,32.8066066582896],[-117.26342975817758,32.80661772996349],[-117.26343395633241,32.80662251094881],[-117.26343943759035,32.80662877385996],[-117.26344340117907,32.80663325168221],[-117.26344597589009,32.80663667172225],[-117.26344836519667,32.80663981842999],[-117.26345823825955,32.80665072055969],[-117.26346814472598,32.80666197972497],[-117.26347801782538,32.80667288460142],[-117.26348792050079,32.80668381397119],[-117.26349779357348,32.80669471609772],[-117.26350769919175,32.8067056179564],[-117.2635175693314,32.80671654759092],[-117.26352747495456,32.80672744944795],[-117.26353734835341,32.8067383790542],[-117.26354725075879,32.80674928368464],[-117.26355715259299,32.80675985574538],[-117.26356702246009,32.80677076064141],[-117.26357226747929,32.80677572542564],[-117.26357777418579,32.80678165279975],[-117.26358784127409,32.80679244338477],[-117.26359794059158,32.80680320621895],[-117.26360803665722,32.80681396907907],[-117.26360817134966,32.80681407791491],[-117.26361813768371,32.80682459721907],[-117.26361822014897,32.80682469274099],[-117.26362797233763,32.80683555187321],[-117.26363786755607,32.80684611298776],[-117.26364347590116,32.80685125618986],[-117.26364881901095,32.80685682484496],[-117.26365904756679,32.80686750415691],[-117.26365917932151,32.80686764050225],[-117.26366481178734,32.80687346514394],[-117.26366934089518,32.80687815545082],[-117.26367904749942,32.80688872910493],[-117.26368385634908,32.80689312302037],[-117.26368995946977,32.80689940280315],[-117.26370031432126,32.80691002610392],[-117.26370404225497,32.80691382146589],[-117.26371031572002,32.80692076224776],[-117.26371562103787,32.80692559185238],[-117.26372109436117,32.80693116218377],[-117.2637315169281,32.80694172995517],[-117.26373168154262,32.80694189351605],[-117.26374161185045,32.80695210801801],[-117.26374411531619,32.80695442647148],[-117.26375245874981,32.80696278224517],[-117.26375526699293,32.80696556544805],[-117.26376300697707,32.80697323904045],[-117.26376416348324,32.8069744663882],[-117.26377289578181,32.80698380569417],[-117.26378144151707,32.8069916403302],[-117.26378414542894,32.80699412479804],[-117.26378895158302,32.8069991316566],[-117.26378979077022,32.8069999355857],[-117.26379427057006,32.80700458231629],[-117.26379802694137,32.80700802013143],[-117.26380521289688,32.80701506335732],[-117.26381582912944,32.80702548935578],[-117.26382647733813,32.807035865617],[-117.26383705948186,32.80704615721503],[-117.26383715806094,32.80704623886179],[-117.26384783878622,32.80705661210563],[-117.26385858722199,32.80706692982169],[-117.26385987096589,32.80706818360913],[-117.26386932911997,32.80707724484197],[-117.26387645072299,32.80708406870889],[-117.26387988062916,32.80708770160055],[-117.2638858096367,32.80709299057986],[-117.26389088394905,32.8070978248227],[-117.26389550046734,32.80710219007561],[-117.26390123862133,32.80710814576882],[-117.26391256832837,32.80711834876499],[-117.26391267016193,32.80711843038497],[-117.2639145128712,32.80712017706758],[-117.26392262913501,32.8071285869179],[-117.26393422339717,32.80713887019574],[-117.26393834028768,32.80714252492925],[-117.26394525570218,32.8071489656897],[-117.26394881555994,32.80715229517254],[-117.26395554792161,32.80715923217343],[-117.26396704064285,32.80716945856275],[-117.26397037695526,32.80717231163452],[-117.26397115563715,32.80717294839823],[-117.2639781397139,32.80717941607837],[-117.26398265282455,32.80718356229396],[-117.26398844018449,32.80718955056159],[-117.26399995237621,32.80719977129095],[-117.26400301260513,32.80720239025469],[-117.26400670074146,32.80720555376979],[-117.2640112950865,32.80720968832298],[-117.26402234999962,32.80721976713326],[-117.26402791466036,32.80722478699265],[-117.2640328307286,32.80722972697416],[-117.26404435244049,32.80723992563291],[-117.26405575032632,32.80724982846507],[-117.2640669473324,32.80725980990537],[-117.26407814437266,32.8072697940929],[-117.26408357633426,32.80727459515639],[-117.26408875563546,32.80727978309096],[-117.26410024427297,32.80728965219113],[-117.26411189954884,32.80729957764093],[-117.26412319293148,32.80730944834286],[-117.26413451889164,32.80731932152467],[-117.26414584450619,32.80732916447442],[-117.26415723849588,32.80733900961],[-117.26416862888566,32.80734882454018],[-117.26418005153643,32.8073586144674],[-117.26418901193668,32.80736627525987],[-117.26419147709584,32.80736837413572],[-117.26419776513104,32.80737374810441],[-117.26419993800172,32.80737590160347],[-117.26420215093761,32.80737814272675],[-117.26421366876308,32.80738800058266],[-117.2642251567576,32.80739752885747],[-117.26423668119186,32.8074073949026],[-117.26424325515833,32.80741216184067],[-117.26424351797468,32.80741237406796],[-117.26424462851465,32.80741328295795],[-117.26424901579425,32.80741695744843],[-117.26426059956515,32.80742660586905],[-117.26427218337022,32.80743625703681],[-117.26428383517076,32.80744587741101],[-117.26429545089115,32.80745547334363],[-117.26430713460694,32.80746503848258],[-117.26431881665398,32.80747474106129],[-117.26433030482953,32.80748428306771],[-117.26434182194832,32.80749379460132],[-117.26435330687448,32.80750333663234],[-117.2643602429729,32.80750817754826],[-117.26436583388232,32.80751264746855],[-117.26437761397713,32.8075221018674],[-117.26438944924006,32.80753154206914],[-117.26439275049655,32.80753389243444],[-117.26439435716307,32.8075352067797],[-117.26440422515692,32.80754310746861],[-117.26441253666609,32.80754868193574],[-117.26441710603737,32.80755205808155],[-117.26442151047542,32.80755524318439],[-117.2644288488184,32.80756109775225],[-117.26444073941241,32.80756912474359],[-117.26444185769292,32.80756985766153],[-117.26444195627315,32.80756993930781],[-117.26445431456641,32.80757872929833],[-117.26446219912968,32.80758425229944],[-117.26446657292739,32.80758760256506],[-117.26447370148122,32.80759219727297],[-117.26447944938758,32.80759616841198],[-117.26449213447722,32.8076047908009],[-117.26449396155536,32.80760602637449],[-117.2644980125591,32.80760876086936],[-117.26450430190673,32.80761339820248],[-117.26451742791404,32.80762187129297],[-117.26453052994009,32.80763024013458],[-117.26453470088187,32.80763293241451],[-117.26454343673953,32.80763861332758],[-117.26455643990506,32.80764687578569],[-117.26456951074938,32.80765507996688],[-117.26458261322124,32.80766320417906],[-117.26459577364037,32.80767127294276],[-117.26460903424993,32.80767928041383],[-117.26462232781716,32.80768732334366],[-117.26463542318058,32.80769511228649],[-117.26464853823076,32.8077029148089],[-117.2646575759739,32.80770767796832],[-117.26465964340322,32.80770887033606],[-117.26466255915642,32.8077105284812],[-117.2646760760404,32.80771817927695],[-117.26468969254464,32.80772571931075],[-117.2647025914552,32.8077334054165],[-117.26471216108081,32.80773800478507],[-117.26471701806774,32.80774063644956],[-117.26473043321309,32.807747930765],[-117.26474460043235,32.8077552463831],[-117.26475837356082,32.80776253775327],[-117.2647635544019,32.80776502932698],[-117.26477237458306,32.8077695523945],[-117.26477898401451,32.80777287327952],[-117.26478003524959,32.80777343633588],[-117.26478608401459,32.80777668212114],[-117.26479212774372,32.80777949092923],[-117.26480037306317,32.80778355421612],[-117.26480696183027,32.807786776322],[-117.26481391491176,32.80779054514153],[-117.26482859293492,32.80779727935744],[-117.2648427889994,32.80780399004785],[-117.26484796592572,32.8078064239308],[-117.26485645912796,32.80781081500155],[-117.26487129961357,32.80781724278874],[-117.26487267701364,32.80781786637969],[-117.26488562007003,32.80782373256836],[-117.26490000498217,32.80783016684563],[-117.2649089486986,32.80783411169402],[-117.26491370129538,32.80783643912073],[-117.26492842444269,32.80784285137445],[-117.26494341169307,32.8078490223321],[-117.26495805252671,32.80785506970278],[-117.26497262856037,32.80786114234138],[-117.26498730099111,32.80786710699259],[-117.26500200173095,32.80787298620452],[-117.26501670607557,32.80787889561908],[-117.26503144071631,32.80788460963625],[-117.26504613959273,32.80789032669424],[-117.26506084111439,32.80789570840657],[-117.2650755716419,32.80790106514176],[-117.26507867860609,32.80790208679169],[-117.26509115052177,32.8079066072981],[-117.26510614108462,32.80791193440628],[-117.26512119546906,32.80791715104618],[-117.26513628501944,32.80792231242426],[-117.26515071433973,32.8079272318603],[-117.26515431398103,32.80792835939907],[-117.26516655239577,32.8079323870802],[-117.26518174987447,32.80793731119062],[-117.26519644433985,32.80794095036876],[-117.26519703170855,32.80794108296606],[-117.26521271919788,32.80794475245644],[-117.26522847249495,32.80794820152025],[-117.26523314449175,32.80794918281158],[-117.2652437659781,32.80795157190691],[-117.26526009610363,32.80795452148567],[-117.26527564587171,32.80795725484745],[-117.26527606992063,32.80795733656517],[-117.26527639567337,32.80795736137178],[-117.26528139474513,32.80795819979589],[-117.26529207371537,32.80795992876409],[-117.26530147642906,32.80796133840168],[-117.26530734044151,32.80796238959525],[-117.26532364963086,32.80796465220202],[-117.26533993546009,32.80796658242511],[-117.26535275692136,32.80796782651603],[-117.26535638345929,32.80796818148716],[-117.26537257079342,32.80796975520542],[-117.26538881615775,32.8079709986191],[-117.26540497017859,32.80797222354214],[-117.26540509725707,32.80797223623966],[-117.26542121097982,32.80797307119892],[-117.26542137401471,32.80797309734345],[-117.26543679846912,32.80797371258905],[-117.26543748220136,32.80797373445098],[-117.26545372194695,32.80797420831034],[-117.2654539497521,32.80797420643668],[-117.26546999135195,32.80797443180619],[-117.26547021947404,32.80797445741532],[-117.26548625528393,32.80797446294692],[-117.26550255247808,32.8079742739285],[-117.26550274773962,32.80797427232242],[-117.26551881459277,32.807973865313],[-117.26553425764443,32.80797327103456],[-117.26553507060011,32.80797320937673],[-117.26555129573306,32.80797241626517],[-117.26555155608175,32.80797241412363],[-117.26555797214468,32.80797194631711],[-117.26556780603408,32.8079712332611],[-117.26557536374263,32.80797070109195],[-117.26558373443845,32.80797011001242],[-117.26559991865797,32.80796859161559],[-117.26560033821661,32.80796856617594],[-117.26560050718966,32.80796854279761],[-117.2656021649787,32.80796836149945],[-117.26560889976722,32.80796759147725],[-117.26561603449291,32.80796678793077],[-117.26563217920435,32.8079649482752],[-117.26564822573445,32.80796277960008],[-117.2656637145005,32.8079605055696],[-117.26566426353597,32.80796041859661],[-117.2656802434763,32.80795783818363],[-117.26569619193893,32.8079550683781],[-117.26570333978493,32.80795370951293],[-117.26571280234451,32.80795184236364],[-117.26571917673078,32.80795058331128],[-117.26573514415573,32.80794720041955],[-117.26574190804968,32.80794585020809],[-117.26575140608848,32.80794395527848],[-117.26575952983698,32.80794198919862],[-117.26576603536778,32.80794053116975],[-117.26576652225312,32.8079404172222],[-117.26578219038902,32.80793676468102],[-117.26579786436648,32.80793305437034],[-117.26579845848701,32.80793292579769],[-117.26581310304002,32.80792913325291],[-117.26581342752451,32.80792904812685],[-117.26582928774708,32.80792511914487],[-117.26583851623808,32.80792242934888],[-117.26584390874443,32.80792097772525],[-117.26584449622926,32.80792083821277],[-117.2658600925492,32.80791660356145],[-117.26586632879773,32.80791465575369],[-117.26587532717848,32.80791205030466],[-117.26588965372569,32.80790777662379],[-117.26589066231074,32.80790746323643],[-117.26590553892598,32.80790291017327],[-117.26590596040676,32.80790276927791],[-117.26590641443109,32.8079026281148],[-117.26592122560882,32.80789804535421],[-117.26593635686149,32.8078929954542],[-117.26595093642581,32.8078880847707],[-117.26595148744644,32.80788788783838],[-117.26596710912017,32.80788274869409],[-117.26598170730729,32.80787747779456],[-117.2659939814952,32.80787275648691],[-117.26599628841606,32.80787185522028],[-117.26599641795603,32.80787179918342],[-117.26601131568665,32.80786625645808],[-117.26602549445688,32.80786074163598],[-117.26602608095796,32.80786051692593],[-117.26604081244689,32.80785467047681],[-117.26604833767959,32.80785160713763],[-117.26604996145095,32.80785101658045],[-117.26605622247641,32.80784867826604],[-117.2660708095964,32.80784273130534],[-117.26607894310054,32.80783879167011],[-117.26608457166979,32.80783636236031],[-117.26609900451851,32.80783002087567],[-117.26611333818047,32.80782354552709],[-117.26612763799643,32.80781695776508],[-117.26614002276612,32.80781110313287],[-117.26614183891098,32.80781026087372],[-117.2661420332206,32.80781017681817],[-117.266156593095,32.80780356217548],[-117.26616656820654,32.80779816714033],[-117.26616961664674,32.80779665508781],[-117.26617000526588,32.80779648697663],[-117.26618410600591,32.80778957102135],[-117.26618928610937,32.80778663691748],[-117.26619780789223,32.80778221858048],[-117.26621160475509,32.80777491757868],[-117.26622322277453,32.80777030884212],[-117.26623753791326,32.80776476813612],[-117.26623802384547,32.80776457173825],[-117.26625285221812,32.80775894434958],[-117.2662619457972,32.80775556574787],[-117.26626831089889,32.80775350416877],[-117.26628087013641,32.80774866779563],[-117.26628268461039,32.80774796297529],[-117.26628291143149,32.80774787590335],[-117.26629771855366,32.80774266371418],[-117.26631278273594,32.80773744665861],[-117.26632310878904,32.80773397819904],[-117.26632827191696,32.80773239376376],[-117.26634304510767,32.80772734401246],[-117.26635824326542,32.80772245567356],[-117.26637347494845,32.80771765226165],[-117.26637366960665,32.80771759843681],[-117.26638472596157,32.80771423939878],[-117.26638502093346,32.80771413527436],[-117.26638881232351,32.80771298265635],[-117.2663918612911,32.80771208077051],[-117.26639907475644,32.80770992424708],[-117.2664041744126,32.80770848050677],[-117.2664195394055,32.80770394809743],[-117.26643318755548,32.80770011970495],[-117.26643497530792,32.80769963773434],[-117.26645044081525,32.80769535461105],[-117.2664577512554,32.8076934226663],[-117.26646614115529,32.807691396629],[-117.2664728007252,32.80768947004208],[-117.26648154252447,32.80768719648613],[-117.26649711009971,32.80768329731261],[-117.26651274339503,32.80767945256692],[-117.26652844725137,32.80767579963629],[-117.26654414848659,32.80767220169604],[-117.26655988678753,32.80766871339038],[-117.26657230866387,32.80766607695302],[-117.26657490936697,32.80766553331571],[-117.26657565596294,32.80766536225566],[-117.26657741904353,32.80766499867346],[-117.26659109838369,32.80766218147054],[-117.26659146223591,32.80766212350368],[-117.2666073312605,32.80765896394069],[-117.26662356468958,32.8076560762294],[-117.26663800532185,32.80765323351265],[-117.2666390770349,32.80765303228961],[-117.26663982394791,32.80765288871201],[-117.26665443043798,32.80765031673338],[-117.26665501852267,32.8076502294344],[-117.26667099059968,32.80764753901556],[-117.26668696716763,32.80764495575078],[-117.26670316831623,32.80764237338309],[-117.26670905987721,32.80764158275915],[-117.26671901978609,32.8076402309113],[-117.26673565109222,32.80763797757066],[-117.26675114040773,32.80763575836937],[-117.26675748754448,32.80763496124273],[-117.26676117298993,32.80763449937004],[-117.26676722126622,32.80763375142943],[-117.26677282129957,32.8076330813907],[-117.26678333242869,32.80763183219116],[-117.26679948094335,32.80763004732181],[-117.26681526981191,32.80762840283953],[-117.26681562421824,32.80762837243521],[-117.26683177852503,32.80762680739739],[-117.26684796370733,32.8076253795303],[-117.26686417916214,32.80762403661663],[-117.26688036688259,32.80762282860783],[-117.26689658484388,32.80762170280413],[-117.26691284022144,32.80762071686584],[-117.2669284718452,32.80761926606228],[-117.26694462059187,32.80761778351177],[-117.26696084120272,32.80761660545544],[-117.26696986212147,32.80761595670332],[-117.26697706178135,32.80761542464874],[-117.26698755298061,32.8076149864163],[-117.2669933170768,32.80761471355487],[-117.26699755596451,32.80761454670741],[-117.2670087636273,32.807614146548],[-117.26700957689607,32.8076141123633],[-117.26702502241419,32.80761373776095],[-117.2670258392547,32.80761373103212],[-117.26704131596647,32.80761352108338],[-117.26704210026354,32.80761351462254],[-117.26705758792828,32.80761368937759],[-117.2670738536989,32.80761388520612],[-117.26708337519723,32.8076140266509],[-117.26709013283623,32.80761411115634],[-117.26709671134304,32.80761446649437],[-117.26710643289597,32.80761502131934],[-117.26712270660389,32.80761590421189],[-117.26713898391564,32.80761681730655],[-117.26715526503759,32.8076180601929],[-117.26715581565684,32.80761811062738],[-117.26717154671556,32.80761963289774],[-117.26718761013066,32.80762118815886],[-117.26718785446057,32.80762120813419],[-117.26718815765437,32.80762125236144],[-117.26720428342658,32.80762313418331],[-117.26720653567159,32.80762341796665],[-117.26722034301729,32.80762520344933],[-117.26723640872069,32.80762752003181],[-117.26724316771072,32.80762856650792],[-117.26725241127487,32.80763000479363],[-117.26726772808384,32.80763257491146],[-117.26726834796533,32.8076327044825],[-117.26728403227844,32.80763553268185],[-117.26728425746336,32.80763558579725],[-117.26730010189171,32.80763875074609],[-117.26730035962007,32.80763880359329],[-117.26731588291722,32.80764206188815],[-117.2673316365601,32.80764553816645],[-117.26734729249485,32.80764929010218],[-117.26736234694856,32.80765309646619],[-117.26737841842733,32.8076573204718],[-117.26737867941019,32.80765737329208],[-117.26739336634901,32.807661765372],[-117.26740458065987,32.80766475682454],[-117.26740928838501,32.8076660125935],[-117.26742204787945,32.80767006324292],[-117.2674244060922,32.80767078591598],[-117.26742453693299,32.8076708425572],[-117.2674390971172,32.80767581287041],[-117.26745043500297,32.80767935850622],[-117.26745165316174,32.80767971952063],[-117.26745490276528,32.80768069046166],[-117.26745542530277,32.80768084557088],[-117.2674698908135,32.80768607227525],[-117.26747015246337,32.80768618280923],[-117.26748481861888,32.80769159201075],[-117.2674996533522,32.80769722520175],[-117.2675142556799,32.80770302521902],[-117.26751435394556,32.80770307938002],[-117.26752897834214,32.80770909909713],[-117.2675404401175,32.80771519710059],[-117.2675437203804,32.80771684942533],[-117.26755454346261,32.80772259812939],[-117.26756825360559,32.80773005187117],[-117.26758137799978,32.8077375131878],[-117.26758675830928,32.80774036031027],[-117.26759535467178,32.80774521759583],[-117.26760880768182,32.80775295105542],[-117.26762216436595,32.80776079799779],[-117.26762232803632,32.80776087910504],[-117.26763544671063,32.80776868952816],[-117.26764855934059,32.80777682157932],[-117.26766178836723,32.80778488670464],[-117.26767479121175,32.80779309386867],[-117.2676877598491,32.8078014387405],[-117.26768792709161,32.80780154730368],[-117.26768999615246,32.80780287703476],[-117.26770063797053,32.80780983657942],[-117.26771341651195,32.8078183479282],[-117.26772117117295,32.80782359419096],[-117.26772561117838,32.80782702900135],[-117.26773868388712,32.80783564786437],[-117.26774131544781,32.8078374924324],[-117.26775120526442,32.80784443618354],[-117.26776241919877,32.80785246019017],[-117.26776359480412,32.80785336301543],[-117.26776523860941,32.80785450660142],[-117.26777595505715,32.80786229008754],[-117.26778818315488,32.80787132818964],[-117.26780032172169,32.80788050445583],[-117.2678123571047,32.80788976402778],[-117.2678125543039,32.80788993006325],[-117.2678241032021,32.80789905621742],[-117.26783558852668,32.80790859517626],[-117.2678374055952,32.80791008639789],[-117.26784710933403,32.80791810635602],[-117.26785483240759,32.80792371567873],[-117.26785953814097,32.80792761279744],[-117.26787109340319,32.80793728860356],[-117.26787482069794,32.8079404461846],[-117.26788254876777,32.80794705043716],[-117.26788781862386,32.80795160255433],[-117.26788998199484,32.80795376981035],[-117.26789312637979,32.80795689921414],[-117.26790461556385,32.80796677070862],[-117.2679161443611,32.80797697170068],[-117.26792160781648,32.80798165964742],[-117.26792734157952,32.80798692530799],[-117.2679309377374,32.8079902818637],[-117.26793749643899,32.80799708540376],[-117.26794902521222,32.8080072836444],[-117.2679490912526,32.80800736555621],[-117.26795983703063,32.80801768294204],[-117.2679704867373,32.80802813579775],[-117.26798032320596,32.80803862559193],[-117.26798740591217,32.80804514720588],[-117.26799136442592,32.80804916042255],[-117.26800172286819,32.8080597558529],[-117.26800377026338,32.8080620257594],[-117.26801159371746,32.80807068512819],[-117.26802149626802,32.80808125957911],[-117.26803137005876,32.80809216134314],[-117.26804127314119,32.80810306286483],[-117.26805115106774,32.80811432190387],[-117.26806104783704,32.80812523996736],[-117.2680643509989,32.80812830758966],[-117.26807587824131,32.80813780770129],[-117.26808477996144,32.80814429781876],[-117.26808836453851,32.8081472146985],[-117.26810011352769,32.80815675145897],[-117.26811176195184,32.80816631653308],[-117.26811192594121,32.80816642512247],[-117.26812341398241,32.80817591181031],[-117.26813496446289,32.80818545020457],[-117.26813506304723,32.80818553184789],[-117.26814658260734,32.80819521067171],[-117.26815797458228,32.80820483282726],[-117.26815810602814,32.80820494168502],[-117.26816949637207,32.8082147040287],[-117.26818095050282,32.80822435315503],[-117.26818101654358,32.8082244350667],[-117.26818108552088,32.80822448946871],[-117.26819244300837,32.80823422459586],[-117.26820380173787,32.80824406690492],[-117.26821512827581,32.80825393971242],[-117.26822639326934,32.80826383776342],[-117.26823149658549,32.80826833901742],[-117.26823687621905,32.80827393740979],[-117.26824839802667,32.80828380860382],[-117.26825988726145,32.80829367731693],[-117.26825998584604,32.80829375896015],[-117.26827111900968,32.8083037955216],[-117.26827131946506,32.80830396152949],[-117.26827253983582,32.80830507561863],[-117.26828219072424,32.80831386557139],[-117.26828930566897,32.80832035666852],[-117.2682928038294,32.8083239613911],[-117.26829964718141,32.80833004519469],[-117.26830419865347,32.80833410848176],[-117.26830429723815,32.80833419012494],[-117.26831517041187,32.80834425906083],[-117.26832568168535,32.80835427326136],[-117.26833695245735,32.80836466874121],[-117.26833718248839,32.80836485924194],[-117.26834708062938,32.80837504615907],[-117.26835857341534,32.80838521992224],[-117.26836931928749,32.80839553727244],[-117.26838000036074,32.80840587989312],[-117.26838986851052,32.80841628693778],[-117.26840126656829,32.80842671159589],[-117.26840139798301,32.80842681770512],[-117.26841126423039,32.80843705985117],[-117.26841755376361,32.80844281564291],[-117.26842237095723,32.80844762158917],[-117.26842893337857,32.80845417770409],[-117.26843266409286,32.80845819003749],[-117.26844256670579,32.80846876170637],[-117.2684510670579,32.80847656341564],[-117.2684537050305,32.80847924072468],[-117.268464063579,32.80848983611623],[-117.26846786716422,32.80849395778921],[-117.26847383308773,32.80850043636613],[-117.26847821471324,32.80850444607714],[-117.2684846485256,32.80851113792877],[-117.26849487786019,32.80852181684005],[-117.26849986545457,32.80852700342521],[-117.26850513974102,32.80853249548201],[-117.2685084429739,32.80853612929211],[-117.26851504293163,32.80854339696573],[-117.26852491302029,32.80855396889649],[-117.2685348194701,32.80856487035173],[-117.26854469044214,32.80857579958438],[-117.26855459689692,32.80858670103805],[-117.26856446755589,32.80859760278629],[-117.2685743743653,32.80860853446949],[-117.26858424828355,32.80861943618923],[-117.26859415181168,32.80863036514941],[-117.2686040257349,32.80864126686765],[-117.26861393308322,32.80865252562],[-117.26862149576995,32.80866086002575],[-117.26862380701135,32.8086634273366],[-117.26862915827216,32.80866966360855],[-117.26863335157016,32.808674554402],[-117.26864290586276,32.80868567863783],[-117.268648323772,32.80869204903768],[-117.26865186849574,32.8086968627254],[-117.26866177914268,32.80870812419531],[-117.26866325688418,32.80870982159703],[-117.26866646929356,32.80871348088925],[-117.26867129407189,32.80871922126833],[-117.26867390166561,32.80872236607588],[-117.26867989452121,32.80873032588593],[-117.26868997305698,32.8087417508811],[-117.26869106485351,32.80874300345425],[-117.2686992620942,32.8087530147285],[-117.2687026032927,32.80875711547266],[-117.26870799979585,32.80876444803692],[-117.26871768230066,32.80877568115098],[-117.26871774837419,32.80877576581064],[-117.26871976577254,32.80877825308801],[-117.26872615777992,32.80878695445776],[-117.26873590498472,32.80879843440549],[-117.26873600420629,32.80879857101401],[-117.2687433943053,32.80880858344829],[-117.26874431697063,32.8088098456622],[-117.26874712534499,32.80881318395809],[-117.26875393725915,32.80882132665578],[-117.26875410188657,32.80882149020999],[-117.26875681418815,32.80882496397705],[-117.26875788913145,32.80882644756638],[-117.26876247910718,32.8088327093543],[-117.26876634252949,32.80883721806922],[-117.2687718012687,32.80884430274828],[-117.26878064181473,32.80885590286434],[-117.26878892614852,32.80886753230639],[-117.26879229027425,32.80887136350176],[-117.26879374482687,32.8088730253622],[-117.26879824969539,32.80887896352291],[-117.26880695678649,32.80889056198983],[-117.26881043456287,32.80889521406148],[-117.26881537324252,32.80890235800108],[-117.2688236376773,32.8089139546226],[-117.26882858036646,32.80891975723915],[-117.268832819694,32.80892552992876],[-117.26884133280279,32.80893723993585],[-117.26884981371968,32.80894898044203],[-117.26884994643954,32.80894919923028],[-117.26885822955101,32.8089607214847],[-117.26886654546294,32.80897226545628],[-117.26886661817268,32.80897236105528],[-117.26886668440545,32.80897245945626],[-117.26887228156326,32.80898053521305],[-117.26887489974091,32.80898431209419],[-117.26888321890117,32.80899613638933],[-117.26888328494314,32.80899621830063],[-117.26889143746359,32.80900798625101],[-117.2688997244024,32.80901983829642],[-117.26890778448976,32.80903177466975],[-117.26891587709146,32.80904370802573],[-117.26892390138484,32.80905564469346],[-117.26892751825498,32.80906106520626],[-117.26893118169538,32.80906769744243],[-117.26893946956748,32.80907962918538],[-117.26894772588382,32.80909164639301],[-117.26895555262163,32.80910366714554],[-117.26895874427129,32.80910862391437],[-117.2689607496751,32.80911232339474],[-117.26896267181081,32.80911585864964],[-117.26897109018576,32.80912781679887],[-117.2689726848772,32.80913033779495],[-117.26897879453504,32.80913994850183],[-117.26898244844074,32.80914575625209],[-117.26898588055019,32.8091520853076],[-117.26899174957472,32.80916087068822],[-117.2689940050395,32.80916424102751],[-117.26899410457995,32.80916440511857],[-117.26899828860816,32.80917186586505],[-117.26900079459008,32.8091763527939],[-117.26900220877454,32.8091784629978],[-117.26900905410453,32.80918864482559],[-117.2690157160275,32.80920097752806],[-117.26902248138852,32.80921071749959],[-117.26902387533782,32.80921304775376],[-117.26902580345634,32.80921625588168],[-117.26903066585048,32.80922524196696],[-117.26903511036248,32.80923186775347],[-117.2690385032554,32.80923761993706],[-117.26904575066098,32.80924992032009],[-117.26905224891922,32.80926217191521],[-117.26905699142054,32.80926923500842],[-117.26906009022102,32.8092746048227],[-117.26906717229414,32.80928696154005],[-117.26906727151676,32.80928709814828],[-117.26907126443767,32.80929463742897],[-117.26907383288685,32.80929945916315],[-117.26908046521952,32.80931176462111],[-117.26908471062625,32.80931805947551],[-117.26908813730054,32.8093241989236],[-117.26909503158021,32.80933663964585],[-117.26910185783737,32.80934910841461],[-117.26910865187045,32.80936160493446],[-117.26911537954487,32.80937399205991],[-117.26912201276996,32.80938665481904],[-117.26912867726858,32.80939920737794],[-117.2691352766809,32.80941176047374],[-117.26914177909903,32.80942436934077],[-117.26914824897491,32.80943697847604],[-117.26915468630851,32.80944958787967],[-117.26915759073763,32.80945531660679],[-117.26916034322113,32.80946225869602],[-117.26916250346619,32.80946639941062],[-117.26916697645932,32.8094749214527],[-117.26917365818149,32.80948896082937],[-117.26917679168508,32.80949507795835],[-117.26917967693427,32.80950196123172],[-117.26918510632163,32.80951493901357],[-117.26919050603917,32.80952788405759],[-117.26919541628212,32.80954100080314],[-117.26919794897856,32.80954582557853],[-117.26920127041208,32.80955383765083],[-117.26920660214154,32.8095668134894],[-117.2692119371588,32.80957979204916],[-117.2692172366654,32.80959279563874],[-117.26922220320489,32.80960571402343],[-117.26922725215614,32.80961872242952],[-117.26923225876962,32.80963172843643],[-117.26923582521927,32.80963869403848],[-117.26923827852706,32.80964481403264],[-117.26924351295305,32.80965781815841],[-117.26924871512274,32.80967084728714],[-117.26925385555538,32.809683885171],[-117.2692590252157,32.80969691731627],[-117.26926412978918,32.80970994999866],[-117.26926920213803,32.80972301043234],[-117.26927414887038,32.80973618459315],[-117.26927918804168,32.80974919032943],[-117.26928423078711,32.80976222352147],[-117.26928926999327,32.80977523200568],[-117.26929427662482,32.80978823801001],[-117.26929931905649,32.80980124371867],[-117.26930436240322,32.80981460947876],[-117.26930949857999,32.80982755944213],[-117.26931440853919,32.80984064870021],[-117.26931945100867,32.80985365715627],[-117.26932426461073,32.80986685715121],[-117.26932914203003,32.80987994667731],[-117.26933398728836,32.80989306945134],[-117.26933883570709,32.80990618395345],[-117.26934142645206,32.80991320983048],[-117.26934299552455,32.8099194195794],[-117.269348038321,32.80993245551714],[-117.26935311161785,32.80994559564749],[-117.26935802194016,32.80995871513493],[-117.26936277308313,32.80997186067322],[-117.26936748842883,32.80998500650697],[-117.26937001440793,32.80999206040362],[-117.26937158610193,32.80999821515972],[-117.26937662530266,32.81001122089202],[-117.26938153719124,32.81002447504424],[-117.26938624306554,32.81003764569242],[-117.26938800868599,32.81004283960528],[-117.26939009142529,32.81005096634479],[-117.26939513069541,32.81006397757291],[-117.26940001298161,32.81007720448345],[-117.26940007672506,32.81007736886978],[-117.26940459847924,32.81009037887339],[-117.26940692506163,32.810097077105],[-117.26940859686628,32.81010372577196],[-117.26941524669562,32.81011500311287],[-117.26941819327673,32.81012999133075],[-117.26942011752344,32.81013567317428],[-117.26942209471152,32.81014311639736],[-117.26942716968627,32.81015639943531],[-117.26942767535314,32.81015790695927],[-117.26943162565092,32.81016962986472],[-117.26943344292532,32.81017506797093],[-117.26943398860034,32.81017665762085],[-117.26943425517479,32.81017775483733],[-117.26943556090671,32.81018286459345],[-117.26943688129997,32.81018642954676],[-117.26944053920715,32.81019623088545],[-117.26944486308903,32.81020929749234],[-117.2694483099194,32.81021970250479],[-117.26944902708223,32.81022261003978],[-117.2694505060127,32.81022637432761],[-117.269453580114,32.81023579019319],[-117.26945594529438,32.81024301032858],[-117.26945748251337,32.81024899770711],[-117.26946067533818,32.81025742311639],[-117.26946223208715,32.81026228617911],[-117.26946358130988,32.81026637311745],[-117.26946593791777,32.8102753826256],[-117.26947094877254,32.81028874864761],[-117.26947159546991,32.81029119226038],[-117.26947436134698,32.8103020976328],[-117.26947937217271,32.81031546090621],[-117.26948281676158,32.8103284825501],[-117.26948786338896,32.81034184552757],[-117.26948840927166,32.81034401511836],[-117.2694912437737,32.81035522501215],[-117.2694952116448,32.81036565320638],[-117.26949605742888,32.81036842500039],[-117.26949727753561,32.81037232335501],[-117.26949969916656,32.81038160718],[-117.26950232120991,32.81038852285371],[-117.26950432013535,32.81039503139111],[-117.26950682539902,32.810403105166],[-117.26950815841515,32.81040832188935],[-117.26950963661085,32.81041230331755],[-117.26951251743959,32.81042161083593],[-117.26951655127512,32.810434924456],[-117.26951999424266,32.81044808628808],[-117.26952281760298,32.81045552252235],[-117.26952461582265,32.81046156271576],[-117.26952861718097,32.81047488210077],[-117.26953186641245,32.81048817746246],[-117.26953539909087,32.81049756205388],[-117.26953658732492,32.81050151839076],[-117.26953889474976,32.81050937116673],[-117.26954029345467,32.81051491992111],[-117.26954372260715,32.81052829350456],[-117.26954703776609,32.81053716316562],[-117.26954832837663,32.81054152819008],[-117.26955216567453,32.81055501384179],[-117.26955558184432,32.81056839028066],[-117.26955793590345,32.81057464851566],[-117.26955993989731,32.81058159402891],[-117.26956374303111,32.81059493978663],[-117.26956745216884,32.81060831930299],[-117.26957083357075,32.81062150363056],[-117.2695724389111,32.8106257835994],[-117.26957265065685,32.81062636179357],[-117.26957509781397,32.81063503797819],[-117.26957883946781,32.81064841447723],[-117.26958261264069,32.8106619831139],[-117.26958353282079,32.81066527651631],[-117.26958609359016,32.81067533153162],[-117.26958950976983,32.8106887079696],[-117.26959293539558,32.81070205684401],[-117.26959557860565,32.81070911251677],[-117.26959728142954,32.81071534589509],[-117.26960089291185,32.81072872346847],[-117.26960449817271,32.81074212583],[-117.26960808068526,32.81075553112788],[-117.26961165991266,32.81076893370418],[-117.26961500746971,32.8107822859713],[-117.2696184236579,32.81079566240847],[-117.26962184044365,32.8108093714144],[-117.26962285389966,32.81081341165026],[-117.26962522412114,32.81082275086839],[-117.26962863673968,32.81083609984936],[-117.26963205293204,32.81084947628609],[-117.26963546590278,32.81086285549793],[-117.2696388820972,32.81087623193452],[-117.26964229888931,32.81088994093992],[-117.2696457151176,32.81090332012455],[-117.26964909519776,32.81091666937373],[-117.26965251142813,32.81093004855817],[-117.26965592762775,32.8109434249943],[-117.26965950683019,32.81095710517251],[-117.26966276062683,32.81097051043512],[-117.26966589636504,32.8109796234469],[-117.26967054675239,32.81099277255485],[-117.2696724525419,32.81099798179764],[-117.26967259537247,32.81099851108699],[-117.26967455126024,32.81100579781528],[-117.26967958809666,32.81101915262066],[-117.2696846306558,32.81103215831352],[-117.26968833084605,32.81103942239001],[-117.26969061605807,32.81104507376299],[-117.26969598049467,32.81105804931163],[-117.26970140973582,32.81107099958792],[-117.26970638562024,32.81108386840336],[-117.26971179227336,32.81109458704802],[-117.2697129581075,32.81109688894485],[-117.26971359240395,32.8110982607267],[-117.26971806488208,32.8111095367953],[-117.26972482294947,32.81112228094908],[-117.26972575976944,32.81112419994106],[-117.26973103363053,32.81113497465255],[-117.26973734166123,32.81114764281483],[-117.26974067492411,32.81115413757948],[-117.26974105739322,32.81115512389641],[-117.26974305901031,32.81116017567965],[-117.26974972825947,32.81117283810937],[-117.26975637466553,32.81118549523029],[-117.26976087210294,32.81119218102272],[-117.26976396736991,32.8111977982184],[-117.26976475501027,32.811199201716],[-117.26977095595331,32.81121021064053],[-117.26977804510912,32.81122259474612],[-117.26978460739933,32.81123473308554],[-117.26979084336458,32.81124398814873],[-117.26979273473765,32.81124710861531],[-117.26979439712711,32.81124984892558],[-117.26979952940481,32.81125935772494],[-117.26980791360421,32.81127142879225],[-117.26981565013267,32.81128350246018],[-117.26982358139087,32.81129552779396],[-117.26982474402293,32.81129727176178],[-117.26982805918479,32.81130220275215],[-117.26983102093818,32.81130753245188],[-117.26983930933402,32.81131948062402],[-117.26984756152643,32.81133111301209],[-117.26985584970396,32.81134304194517],[-117.26986067378076,32.81134870257762],[-117.26986501286925,32.81135464207041],[-117.26987368489664,32.81136627098884],[-117.26987941647963,32.8113738481051],[-117.26988246043305,32.81137784408079],[-117.26989055664424,32.81138949699437],[-117.2699003932497,32.81140078921423],[-117.26990344116714,32.81140456527316],[-117.26990955675249,32.81141213646744],[-117.26991878180634,32.81142345847459],[-117.26992030218061,32.81142517749797],[-117.26992820082636,32.81143466618848],[-117.26993771978275,32.81144579061974],[-117.26994290533409,32.81145174785426],[-117.26994667999577,32.81145672726797],[-117.2699565582557,32.81146796142001],[-117.26996646227457,32.81147889027006],[-117.26997634325976,32.81148979732124],[-117.26998180400416,32.81149478479324],[-117.26998365301348,32.81149677595538],[-117.26998708694828,32.81150043888152],[-117.26999728426749,32.81151111793713],[-117.27000764137753,32.81152182315732],[-117.27001751197923,32.81153239496867],[-117.27002386887746,32.81153803743445],[-117.27002861674207,32.81154273669967],[-117.27003451931867,32.81154849560858],[-117.27003891241318,32.81155319505584],[-117.27004500289864,32.8115585978497],[-117.27005004516612,32.8115634238634],[-117.27005419760945,32.81156729798656],[-117.27006030185875,32.8115736076855],[-117.27007192512146,32.81158375273078],[-117.27007568129642,32.81158713538925],[-117.27008306248055,32.81159381658469],[-117.27009426046756,32.811603775492],[-117.27010555504108,32.81161364289837],[-117.27011056168797,32.81161792224371],[-117.27011112125638,32.81161846183215],[-117.27011621923933,32.81162332036546],[-117.27012771901003,32.81163319981714],[-117.27013465766187,32.81163820530548],[-117.27014015244714,32.81164275821939],[-117.2701518692616,32.81165226757065],[-117.27015580151011,32.81165539590585],[-117.27016371208036,32.8116616961719],[-117.27017559035079,32.81167109424513],[-117.27017759607429,32.81167256463466],[-117.27018765840981,32.81168029835093],[-117.27019999139104,32.8116896129569],[-117.27021147276061,32.81169846459746],[-117.2702245855201,32.81170766006733],[-117.27023609892993,32.81171646746419],[-117.27024930018342,32.81172515371954],[-117.27025311318104,32.81172782128167],[-117.27026188653082,32.81173386154602],[-117.27026655139886,32.81173701405776],[-117.27027382223615,32.81174259673621],[-117.27028695927328,32.81175107737744],[-117.27030025680837,32.81175936429288],[-117.27031316444328,32.81176770939988],[-117.2703262910296,32.81177584930386],[-117.27033289999716,32.81178301786145],[-117.27033591896603,32.81178569748007],[-117.27033882938998,32.81178827904803],[-117.27034394296133,32.81179335732678],[-117.27035446032365,32.81180384131058],[-117.27036416763667,32.81181435947342],[-117.27037250384608,32.81182199749833],[-117.27037536908578,32.8118248927729],[-117.27038081614342,32.81183038057573],[-117.27038556875679,32.81183548657285],[-117.27039547201591,32.8118460608333],[-117.27040294956949,32.81185290887478],[-117.27040657941082,32.81185662239276],[-117.27041697209224,32.81186729979989],[-117.27042674355421,32.81187773497143],[-117.27043082768442,32.81188160964679],[-117.27043749225534,32.8118885193762],[-117.27044775476422,32.8118991978567],[-117.27045804886497,32.81190979361885],[-117.27046128332346,32.81191337297595],[-117.27046790720973,32.8119207035673],[-117.27047782337893,32.81193126672046],[-117.27048769790549,32.81194216828795],[-117.27049382318839,32.811947760422],[-117.27049857878248,32.81195284165334],[-117.27050864405567,32.81196363170086],[-117.2705188778594,32.81197464023811],[-117.27052871344267,32.81198527001841],[-117.27053871749293,32.8119961127919],[-117.27054865680587,32.81200698633371],[-117.27055859615317,32.812017862623],[-117.27056849999001,32.81202876394193],[-117.27057837485732,32.81203969298502],[-117.27058821424608,32.81205064980599],[-117.2705980243467,32.81206160686833],[-117.27060783441793,32.81207256118159],[-117.27061757687963,32.8120835792695],[-117.27062729030803,32.81209461958506],[-117.27063700016581,32.81210563244392],[-117.27064202084772,32.81211139861457],[-117.27064596276306,32.81211676142104],[-117.27065587016307,32.81212768744059],[-117.27066574568472,32.8121389517938],[-117.27066888096365,32.81214239728682],[-117.27066993932958,32.81214356766306],[-117.27067545912531,32.81214999210555],[-117.27068500754402,32.81216111623709],[-117.27068874240508,32.81216546379252],[-117.2706910211804,32.81216858654028],[-117.27069381230677,32.81217238669141],[-117.27070011949741,32.81217934883522],[-117.27070368363259,32.81218328826851],[-117.27071346535919,32.81219460286723],[-117.27072288456287,32.81220581052047],[-117.27072774288092,32.81221160826399],[-117.27073004459972,32.81221474456409],[-117.27073175117069,32.8122170804609],[-117.27073850272475,32.81222475080208],[-117.27074166244797,32.81222833901549],[-117.27075099021381,32.81223951993715],[-117.27075567802629,32.81224520914748],[-117.27075981841172,32.81225084516402],[-117.27076956697063,32.81226210506176],[-117.2707787918736,32.81227339677358],[-117.27078798522153,32.81228477395046],[-117.27078897853229,32.81228594761215],[-117.27079717790271,32.81229609341275],[-117.27080239928948,32.81230260552175],[-117.27080601683168,32.81230750100404],[-117.27080769220834,32.81230939189351],[-117.27080998140114,32.81231200882083],[-117.27081546987897,32.81231881831234],[-117.27082033200122,32.81232494309764],[-117.27082420948391,32.81233036140225],[-117.27082893282315,32.81233574522769],[-117.27083360038149,32.8123416517376],[-117.27083872736075,32.81234816187713],[-117.27084237320543,32.812353252271],[-117.27084603782559,32.81235743548994],[-117.27085163038565,32.81236451897376],[-117.27086059717891,32.8123760052118],[-117.27086881412836,32.81238738495888],[-117.27087568780946,32.81239548030737],[-117.27087843316872,32.81239898124154],[-117.27088214092159,32.81240379626798],[-117.27088697818783,32.81241058365544],[-117.27089081226659,32.81241506506326],[-117.27089614319752,32.81242204076664],[-117.27090494823237,32.81243361079539],[-117.27090961544643,32.8124397674229],[-117.2709126162146,32.81244396162613],[-117.2709134265745,32.81244507633165],[-117.27092167540921,32.8124566784437],[-117.27092785570794,32.81246392197698],[-117.27093120097526,32.81246835245457],[-117.27093985710799,32.81247999242574],[-117.27094074401163,32.81248125217102],[-117.27094812767946,32.81249150365443],[-117.27095641267343,32.81250313569924],[-117.27096209705149,32.81250999578691],[-117.27096574131654,32.8125149487631],[-117.27097428731449,32.81252663361938],[-117.27098283360147,32.81253834320962],[-117.270991250379,32.81255011158965],[-117.2709994097325,32.81256185461237],[-117.27100765565369,32.81257348422849],[-117.27101594448777,32.81258544606298],[-117.2710241966037,32.81259704814132],[-117.27102912164729,32.81260298274874],[-117.27103333066344,32.81260892052876],[-117.27104161791071,32.81262074494749],[-117.27104990512842,32.81263256661742],[-117.2710581276083,32.81264441905618],[-117.27106240426873,32.81265057615936],[-117.27106556415505,32.81265614056675],[-117.27107385297286,32.81266809964912],[-117.27108214182486,32.81268006147922],[-117.27109039813371,32.81269202357786],[-117.27109868663959,32.81270395517576],[-117.27110700574531,32.81271599921034],[-117.2711134345741,32.81272558518756],[-117.27111493469529,32.8127277991021],[-117.2711228984239,32.81273979110382],[-117.27112641016073,32.81274510248227],[-117.27113014318961,32.81275181378811],[-117.27113842880254,32.81276377564131],[-117.27114366656554,32.81277141450404],[-117.27114665647365,32.81277579294407],[-117.27115452321236,32.8127878407169],[-117.27115784038547,32.81279293382011],[-117.27116016573233,32.81279726278523],[-117.27116163907999,32.81279997440722],[-117.27116509195631,32.81280498118299],[-117.27116992795627,32.81281193623136],[-117.27117277862651,32.81281609593884],[-117.27117788972051,32.81282403818773],[-117.27118034634077,32.81282789881422],[-117.27118381550797,32.81283430996098],[-117.27118484647262,32.81283620342675],[-117.27118724665387,32.81283968796933],[-117.27119319843487,32.81284827192088],[-117.2711952887695,32.81285142095507],[-117.27120093532371,32.81286034825027],[-117.2712042908523,32.81286566091855],[-117.27120731278956,32.81287111652168],[-117.27120805059792,32.81287242972058],[-117.27121087325612,32.81287669960064],[-117.27121624634584,32.81288477985674],[-117.27121721158656,32.81288633854351],[-117.27121844487277,32.81288855741237],[-117.27122296945373,32.81289672439411],[-117.27123126217283,32.81290901600788],[-117.27123738190272,32.81291945108715],[-117.27124223296411,32.81292742296966],[-117.27124453036967,32.81293158725176],[-117.2712475173844,32.81293599594737],[-117.27125239936719,32.81294382739801],[-117.27125512018276,32.81294801566313],[-117.27125944892684,32.81295585443812],[-117.27126773783108,32.8129678162557],[-117.27127602638697,32.8129797478417],[-117.27128429257769,32.81299171534319],[-117.27129256458123,32.81300334197655],[-117.27129818367465,32.81300990024931],[-117.27130189338897,32.81301488016],[-117.27131085835975,32.81302647907174],[-117.27131245067299,32.8130285025718],[-117.27131982665395,32.81303780310097],[-117.27132866378308,32.81304876265813],[-117.27132889839449,32.81304906580584],[-117.27132899405149,32.81304917495638],[-117.27133173173131,32.81305229114804],[-117.27133847465552,32.81306032983377],[-117.27134805580219,32.81307145364475],[-117.27135780133908,32.81308243866798],[-117.27136773794008,32.81309333965352],[-117.27137780670465,32.81310412960321],[-117.27138820089452,32.81311491411157],[-117.27139004843932,32.81311677333513],[-117.27139813654898,32.81312545229468],[-117.27140251703929,32.81312933273271],[-117.27140323488399,32.81313004691297],[-117.27140907904315,32.81313580349246],[-117.27141616623933,32.81314265470336],[-117.27141953425044,32.81314623567974],[-117.27143083079645,32.81315624312716],[-117.27144173871217,32.81316641870131],[-117.27144819447639,32.81317214823092],[-117.2714524507517,32.81317654367267],[-117.27146393683898,32.81318605481102],[-117.27147543036031,32.81319592594616],[-117.27148694596671,32.81320545607806],[-117.27149168261828,32.81320889379926],[-117.2714933580949,32.81321022947289],[-117.27149928484938,32.81321496840345],[-117.27151125724805,32.81322431334996],[-117.27151767055879,32.81322918842991],[-117.27152307046323,32.81323368434922],[-117.27152835863561,32.81323724668763],[-117.27153556139709,32.81324255500219],[-117.27154795562159,32.81325150616184],[-117.27156044206227,32.81326026965632],[-117.27156227612113,32.81326152705772],[-117.27156514352738,32.81326347953667],[-117.2715723096621,32.81326899704159],[-117.27158541788857,32.81327748878008],[-117.27159855528105,32.81328596928172],[-117.27161165595291,32.81329409002652],[-117.27162476023258,32.81330224097408],[-117.27163788969177,32.81331003714963],[-117.27165098651206,32.8133178253483],[-117.27166056224208,32.81332286665138],[-117.27166476596359,32.8133252560833],[-117.27166519192589,32.81332549992762],[-117.27166847078335,32.81332728683547],[-117.27167883918689,32.81333303894819],[-117.2716919419827,32.81334050001627],[-117.27170665195855,32.81334761795827],[-117.27171977307576,32.8133546940756],[-117.27173448867373,32.81336145465703],[-117.27173619319568,32.81336220739563],[-117.27174871545267,32.81336816431091],[-117.27175562967783,32.81337132563877],[-117.27176231771114,32.81337462901381],[-117.27177702916936,32.81338103231369],[-117.27179177314339,32.81338743259415],[-117.27180647736441,32.81339349238232],[-117.2718094581713,32.8133973624013],[-117.2718176341404,32.81340238779112],[-117.27181918269795,32.81340372451083],[-117.27182126378634,32.81340607378471],[-117.27182947325943,32.81341118135281],[-117.27183440600517,32.81341496650337],[-117.27184186402998,32.81341954982056],[-117.27184258197735,32.81341999189153],[-117.27184300975877,32.81342039238722],[-117.27184673522511,32.81342392092002],[-117.27184991903687,32.81342593124183],[-117.27185409685647,32.81342917293058],[-117.27185896419417,32.81343293113604],[-117.27186708018282,32.81343811643461],[-117.27186816704202,32.8134392151029],[-117.27187051455782,32.81344208439445],[-117.2718787237181,32.81344716447651],[-117.27188106070813,32.81344912683528],[-117.27188320437043,32.81345125845525],[-117.27189124946368,32.81345650480701],[-117.2718951423506,32.81346043598877],[-117.27190239802464,32.81346525185488],[-117.2719033231153,32.813465873615],[-117.27190375552338,32.8134663922596],[-117.27190663209625,32.81346997454186],[-117.2719129395162,32.81347413585642],[-117.2719148418346,32.81347538444209],[-117.27191569730206,32.81347645753964],[-117.27191815084841,32.81347948811688],[-117.27192254420935,32.8134822305328],[-117.27192632743741,32.81348456571683],[-117.27192827133024,32.81348631144469],[-117.27193058282663,32.81348888144192],[-117.27193360455257,32.81349094807409],[-117.27193785034059,32.81349443656646],[-117.27194081469625,32.81349688846954],[-117.27194220014572,32.81349847390672],[-117.27194532078516,32.81350064966169],[-117.27194934009529,32.81350397511558],[-117.27195200544745,32.81350618487271],[-117.27195372407401,32.81350815234831],[-117.27195704190176,32.81351049138351],[-117.27196086300361,32.81351384596309],[-117.27196369264749,32.8135161890388],[-117.27196514803855,32.8135179113241],[-117.27196961813925,32.81352109561882],[-117.27197234918975,32.81352335705413],[-117.27197406842264,32.81352565709836],[-117.2719756620362,32.81352779052109],[-117.27197969905905,32.81353039845725],[-117.27198397203752,32.81353314461597],[-117.27198545796384,32.81353525419303],[-117.27198715237303,32.81353765888726],[-117.27199332055721,32.81354188181825],[-117.27199549910077,32.81354337273675],[-117.27199628877672,32.8135443859104],[-117.2719988428677,32.81354766577137],[-117.27200656759284,32.81355335178614],[-117.27200987983596,32.81355773303483],[-117.27201185305555,32.81355920091568],[-117.27201675968421,32.81356353873272],[-117.27202007247057,32.81356796670185],[-117.27202420748394,32.81357088441104],[-117.27202828643614,32.81357373936758],[-117.2720315670288,32.81357819783693],[-117.27203383446799,32.81357977597233],[-117.27203926345662,32.81358396928884],[-117.27204241032587,32.81358840412793],[-117.27204981607778,32.81359437038343],[-117.27205309217345,32.81359872169619],[-117.27206053079159,32.81360471516442],[-117.27206195421425,32.81360676753855],[-117.27206286434051,32.81360918422102],[-117.27207108239647,32.81361530866378],[-117.27207406947578,32.81361971733939],[-117.27207650474975,32.81362173385183],[-117.2720809534807,32.81362588031016],[-117.27208426633642,32.81363031377418],[-117.27208577651753,32.81363142817611],[-117.27209170298099,32.81363641719871],[-117.27209352885356,32.81363921109655],[-117.27209413413742,32.81364088269815],[-117.27209748940129,32.81364336159554],[-117.27209842320576,32.81364417293168],[-117.2721019011219,32.81364712356326],[-117.27210302876377,32.81364893101644],[-117.27210404195249,32.81365181409802],[-117.27211025683074,32.81365641318738],[-117.27211196678525,32.81365791348002],[-117.27211482528062,32.81366246064636],[-117.27212134359988,32.81366824459447],[-117.27212193870669,32.8136687591429],[-117.27212224415706,32.81366927608924],[-117.27212472885701,32.81367330687478],[-117.27212930685027,32.81367737255356],[-117.27213197763633,32.81367976916299],[-117.27213314659934,32.81368177142046],[-117.27213457155628,32.81368423606277],[-117.27213826960505,32.81368764387799],[-117.27214155643006,32.81369067579822],[-117.27214258838265,32.8136923713529],[-117.27214270979063,32.81369273590426],[-117.27214359640419,32.81369508956428],[-117.27214701928352,32.8136977850356],[-117.2721475887051,32.81369833003055],[-117.27215120513554,32.81370171653268],[-117.27215259627135,32.81370407151299],[-117.27215283538627,32.81370448181515],[-117.27215350802844,32.81370634800552],[-117.27216007048148,32.81371284895641],[-117.27216348222589,32.81371738879296],[-117.2721654917942,32.81371946379888],[-117.27216997850422,32.81372407719226],[-117.27217097411508,32.81372544597071],[-117.27217283700475,32.8137286243572],[-117.27217949898051,32.81373528664734],[-117.27218052930702,32.81373712239095],[-117.27218153991481,32.81373978286116],[-117.27218812898333,32.81374661341562],[-117.27219050357543,32.81374985078207],[-117.27219131973879,32.81375118256641],[-117.27219204145584,32.81375194893241],[-117.27219778768784,32.81375795365513],[-117.27219852229572,32.81375926962334],[-117.27219955894095,32.81376221022942],[-117.27219973357107,32.8137626732877],[-117.2722004353779,32.81376340683596],[-117.27220629950973,32.8137694737987],[-117.27220838572249,32.81377226279101],[-117.27220935325596,32.81377401659786],[-117.27221565978776,32.81378090171241],[-117.27221715599832,32.81378361588143],[-117.27221789762662,32.81378553647123],[-117.27222446388748,32.81379236446408],[-117.27222699588297,32.81379710398064],[-117.27223287804711,32.81380388266593],[-117.27223394092128,32.81380571813962],[-117.27223563917174,32.81380873297563],[-117.27223795256816,32.81381146511562],[-117.2722410379378,32.81381592794443],[-117.27224352111529,32.81381926610702],[-117.2722441528861,32.81382041526514],[-117.27224554255801,32.81382208312039],[-117.272249287044,32.81382752721946],[-117.27225260409601,32.81383232070373],[-117.27225757619676,32.81383949171889],[-117.27226089002674,32.81384400762659],[-117.27226582862575,32.81385109646248],[-117.27226908020512,32.81385585750584],[-117.27227411771909,32.81386305546421],[-117.27227627288889,32.81386617645837],[-117.27227717373773,32.8138677933896],[-117.27228250607942,32.81387515381931],[-117.27228314436029,32.81387630292335],[-117.27228513447315,32.81387978534332],[-117.27228951861662,32.81388593601815],[-117.27229053446064,32.81388736509618],[-117.27229079568893,32.81388799784708],[-117.27229234665842,32.81389178349428],[-117.27229501155338,32.8138947930745],[-117.27229522233527,32.81389500571579],[-117.27229813917447,32.81389925005497],[-117.27230073531121,32.81390390658265],[-117.27230571453575,32.81391141011089],[-117.27230840831052,32.81391606582994],[-117.27231331915846,32.81392356717549],[-117.27231481735248,32.81392617138515],[-117.27231522165569,32.81392735266035],[-117.2723155586016,32.81392833934657],[-117.27232050228375,32.81393586515684],[-117.27232285244438,32.8139389597988],[-117.2723237185152,32.81394038461961],[-117.27233044953954,32.81394990756508],[-117.27233210433671,32.81395226310885],[-117.27233214476777,32.81395462377395],[-117.27233214812054,32.81395603374965],[-117.27233670556097,32.81396197135001],[-117.27233711219273,32.81396251219492],[-117.27234043713703,32.81396798450209],[-117.27234539722146,32.81397411941198],[-117.27234681752867,32.81397562209978],[-117.27234972891594,32.81397939648185],[-117.27235495083593,32.8139856556564],[-117.27235673712552,32.81398784244985],[-117.27235859396387,32.81399049866027],[-117.27236122995461,32.81399298075785],[-117.27236473013471,32.8139967255273],[-117.272366945966,32.81399918361833],[-117.27236850181924,32.8140014272906],[-117.27237505981032,32.81400754072256],[-117.27237640854914,32.8140087663996],[-117.27237954399281,32.81401193424586],[-117.27238603242586,32.81401766345697],[-117.27238801044918,32.81401954357386],[-117.27238988611387,32.81402185880839],[-117.27239456269835,32.81402516231431],[-117.27239749000765,32.81402750457164],[-117.27240226391315,32.8140316208406],[-117.2724095956989,32.81403681809499],[-117.27241453169614,32.81404087805038],[-117.27242199015599,32.81404577191519],[-117.27242701932364,32.81404944630228],[-117.27243128685262,32.8140520000929],[-117.27243421161056,32.81405412248688],[-117.27243693311482,32.81405555942776],[-117.27244008537453,32.8140576524523],[-117.27244829344247,32.81406207010694],[-117.27245377442361,32.8140654109262],[-117.27246206593026,32.81406944584129],[-117.27246702429525,32.81407234847205],[-117.27246997074887,32.81407353618037],[-117.27247626192906,32.81407629309487],[-117.27248180484305,32.81407908094254],[-117.27248445646963,32.81408010617935],[-117.27249077665375,32.81408255776445],[-117.27249644723037,32.81408512741925],[-117.27249952224028,32.81408617388645],[-117.27250560688142,32.81408824262517],[-117.27251137675499,32.81409067402967],[-117.27251405738517,32.81409139393719],[-117.27251991369448,32.81409314023789],[-117.27252073014894,32.81409337534836],[-117.27252240061382,32.81409399642813],[-117.27252582096344,32.81409563097188],[-117.27253561595907,32.81409796032725],[-117.27254212628192,32.81409996781941],[-117.27255193324227,32.81410192602086],[-117.27255781297224,32.81410344674509],[-117.27256748454833,32.81410523840534],[-117.27257317295938,32.81410654082978],[-117.27258289801134,32.81410789227873],[-117.27258944891925,32.81410919030773],[-117.27259922802153,32.8141101510144],[-117.27260585256954,32.81411078328479],[-117.27261551042126,32.81411139318071],[-117.27262203701279,32.81411199877611],[-117.27263188557632,32.81411249440084],[-117.27263831264716,32.81411293865553],[-117.2726429451962,32.81411301022818],[-117.27265413940627,32.81411418459054],[-117.27266273689679,32.81411373682995],[-117.27267084769696,32.81411286157833],[-117.27268061389867,32.81411187091864],[-117.27269464343975,32.81410999014785],[-117.27271086619126,32.81410889928114],[-117.27272713575854,32.81410903662399],[-117.27272778067682,32.81410907525872],[-117.27274331758703,32.81411030709196],[-117.27275873044783,32.81411262837454],[-117.27277367092348,32.81411603374636],[-117.27277504161584,32.81411634672038],[-117.2727763515566,32.81411675364816],[-117.27278973280661,32.81412098825184],[-117.27280447250837,32.81412700365211],[-117.27281920433622,32.81413374198316],[-117.2728250630613,32.81413737649972],[-117.27283232180713,32.81414188719814],[-117.27283790523454,32.81414563943355],[-117.27284484331255,32.81415056506939],[-117.27284639473838,32.81415186602156],[-117.27285636445816,32.81416026818821],[-117.27286973532178,32.81416921112663],[-117.27287792832344,32.81417288951926],[-117.272878445709,32.81417315733893],[-117.27288475073966,32.81417374276766],[-117.2728940812805,32.81417699670502],[-117.27290035166291,32.81417796171917],[-117.27290674372198,32.81418043467605],[-117.27290942145711,32.81418146518459],[-117.27291429485628,32.81418237580648],[-117.2729154005557,32.81418257278693],[-117.27291863239611,32.8141831094637],[-117.27292059239358,32.81418343679371],[-117.27293140245227,32.8141851640226],[-117.27294677675013,32.81418696612635],[-117.27295865765944,32.8141881320234],[-117.27296305665135,32.81418855183579],[-117.2729793374051,32.81418909034043],[-117.27299560829688,32.81418934032742],[-117.27300701306642,32.81418902595059],[-117.273009845988,32.81418856545982],[-117.27301189251321,32.81418821592943],[-117.27301316831095,32.8141882053588],[-117.2730232666527,32.81418806671754],[-117.2730281464479,32.8141870065753],[-117.27304440392686,32.81418610227815],[-117.27305575951175,32.81418435631242],[-117.27306063445496,32.81418315878185],[-117.27306333779944,32.8141827515859],[-117.27307472982265,32.81418106028742],[-117.27307687433635,32.814180740178],[-117.27309251328842,32.81417730684123],[-117.27310772211713,32.81417327238677],[-117.27311905981138,32.81416970702671],[-117.2731230509369,32.81416807979866],[-117.27313146643668,32.81416541543778],[-117.2731317292277,32.81416534179797],[-117.27313386627041,32.81416465894154],[-117.27313804650969,32.81416278002832],[-117.27314474011258,32.81416039104681],[-117.27314873044187,32.81415897546245],[-117.27314989803322,32.8141583363703],[-117.27315164458622,32.81415738189492],[-117.27315307219297,32.81415671041407],[-117.273159555611,32.81415360030616],[-117.27316101119941,32.81415281590301],[-117.27316289610555,32.81415200320534],[-117.2731733119426,32.81414781606264],[-117.27319196994763,32.81414061417666],[-117.27320494040684,32.81413638662144],[-117.27322115489513,32.81413010375476],[-117.27323738099585,32.81412650062105],[-117.27324551255447,32.8141248912981],[-117.27325201870899,32.81412373796088],[-117.27326824109434,32.81412177573517],[-117.27328451626556,32.81412071459259],[-117.27330077849274,32.81412050010699],[-117.27331705997429,32.81412138212906],[-117.27333661529812,32.81412361403606],[-117.27335255079872,32.81412637342866],[-117.27336523200404,32.81412918452901],[-117.27338231124162,32.81413457304123],[-117.27339379711543,32.81414375692775],[-117.27339849192595,32.81414666445446],[-117.27340148371876,32.81414895118284],[-117.27340612912361,32.81415320865433],[-117.27340939028851,32.81415598788789],[-117.27341189903753,32.81415872113561],[-117.27341681088002,32.81416349862183],[-117.27341914725639,32.81416568358917],[-117.27342287594422,32.81416920105429],[-117.27342668634031,32.81417442743704],[-117.27342893992291,32.81417705010907],[-117.27343167477706,32.81418019376395],[-117.27343443929396,32.81418476916488],[-117.27343500311603,32.81418567151122],[-117.2734363849693,32.81418750433082],[-117.27343993154578,32.81419215570549],[-117.27344135495021,32.81419448291869],[-117.27344202518742,32.81419557952965],[-117.27344292823749,32.814197663687],[-117.27344770172627,32.81420425910706],[-117.27344949741645,32.81421005189807],[-117.27345079749448,32.81421213001583],[-117.27345158684587,32.81421339330065],[-117.27345325707266,32.81421679314888],[-117.27345496093623,32.81422280658451],[-117.27345826782646,32.81422979895727],[-117.27345894657034,32.81423218731378],[-117.2734592495236,32.81423584861297],[-117.27346075698978,32.81423924706171],[-117.27346168147766,32.81424317531495],[-117.27346171802185,32.81424603899587],[-117.27346174933474,32.814249012662],[-117.27346510971378,32.81425668623034],[-117.27346353569295,32.8142624025085],[-117.27346561343612,32.81426725845596],[-117.27346595097539,32.81426857495965],[-117.27346639751765,32.81427030833859],[-117.27346616093942,32.81427151691092],[-117.27346522700181,32.81427601577495],[-117.27346658938785,32.81428401374197],[-117.27346486042016,32.81428956089472],[-117.27346555469632,32.81429580533105],[-117.27346562297552,32.81429775898054],[-117.27346501168441,32.81429977323403],[-117.2734637176207,32.81430325262447],[-117.27346405021304,32.81430666356042],[-117.27346410653712,32.81431150877837],[-117.27346253195986,32.81431633728106],[-117.27346353076034,32.81431797812886],[-117.27346419452154,32.81431907754192],[-117.27346301297069,32.81432299576694],[-117.27346105306609,32.81432939688283],[-117.27346214067121,32.81433139705388],[-117.27346222073022,32.81433156405151],[-117.27346187721386,32.8143339333962],[-117.27346143335646,32.81433691100109],[-117.27345958576475,32.81434317375872],[-117.27346025109148,32.8143444078375],[-117.27346060414537,32.81434621895067],[-117.27345892939071,32.81435418987064],[-117.27345814743481,32.81435692290899],[-117.27345899533081,32.81435986232089],[-117.27345751881431,32.81436752650908],[-117.27345667591551,32.81437033701184],[-117.27345755601016,32.81437352627451],[-117.27345645636679,32.81437973060989],[-117.27345520181615,32.81438408920715],[-117.27345597027185,32.81438551482926],[-117.27345636113499,32.8143872184358],[-117.27345461357274,32.81439788628177],[-117.27345504732473,32.81439991935825],[-117.27345526711986,32.81440090701254],[-117.27345384176206,32.81441157218774],[-117.27345392674565,32.81441468283622],[-117.27345241664018,32.8144253377197],[-117.27345345491626,32.81442729432303],[-117.27345278686779,32.81443646625801],[-117.27345258483594,32.81443924671166],[-117.27345261876424,32.81444216538515],[-117.273452684704,32.81444783783543],[-117.27345221860308,32.81445282206244],[-117.27345290894144,32.8144559276931],[-117.27345279540229,32.81445736062616],[-117.27345208536329,32.81446656039465],[-117.27345277538231,32.81446963854251],[-117.27345266631576,32.81447145623481],[-117.27345143170744,32.81448033052604],[-117.27345300046767,32.81448340139004],[-117.27345276760678,32.81448576981746],[-117.2734515913493,32.81449406368203],[-117.27345325774769,32.81449713373666],[-117.27345282504035,32.81450779068369],[-117.27345340780558,32.81451004240854],[-117.27345354125073,32.81452152197477],[-117.27345357741542,32.8145246330279],[-117.27345370089299,32.81453525513076],[-117.27345483212009,32.81453736763067],[-117.27345529259088,32.81454897916485],[-117.27345552403163,32.81455208859935],[-117.2734562326409,32.81455648589468],[-117.27345646412644,32.81456267919628],[-117.2734570410497,32.81456470833739],[-117.2734573123119,32.81456564334273],[-117.27345742835831,32.81457646615092],[-117.2734582709687,32.81457783069038],[-117.27345867912399,32.81457934175543],[-117.2734591889882,32.81458652222569],[-117.27345918233151,32.81458734959291],[-117.2734592315427,32.81459018293488],[-117.27345997154768,32.81459224095815],[-117.27346027050399,32.8145930383067],[-117.27346040323643,32.81459493645103],[-117.2734610820132,32.81460376739668],[-117.27346203077234,32.81460670322397],[-117.27346273010266,32.81461366224011],[-117.27346277233784,32.8146172954665],[-117.27346347085169,32.81461858424109],[-117.27346401206661,32.81462034157224],[-117.2734644844287,32.81462457591314],[-117.27346455963426,32.8146310453646],[-117.27346609457366,32.81463400656695],[-117.27346755572657,32.81464462033016],[-117.27346799476703,32.81464598821482],[-117.27346801240236,32.81464750526546],[-117.2734697667895,32.81465814408336],[-117.27347046498434,32.8146594053752],[-117.27347100651913,32.81466119018906],[-117.2734727924625,32.81467174354049],[-117.27347319873353,32.81467309245696],[-117.27347325204185,32.81467459821774],[-117.27347496734293,32.81468523461107],[-117.27347663709624,32.81468831288323],[-117.27347758688856,32.81469413742262],[-117.27347838823061,32.81469895172803],[-117.27347925432758,32.81470037654067],[-117.27347972661741,32.81470180461768],[-117.27348117256021,32.81470858978367],[-117.27348180518962,32.8147123308064],[-117.27348301431907,32.81471526447532],[-117.27348466036294,32.81472246301284],[-117.27348518925224,32.81472567992339],[-117.2734864615294,32.81472872575917],[-117.27348772882816,32.81473386327889],[-117.27348860295872,32.8147390590286],[-117.27349010660079,32.81474212768338],[-117.27349054953984,32.81474383085814],[-117.27349201988895,32.81475243535845],[-117.27349368303904,32.81475550543949],[-117.27349554255771,32.814761187759],[-117.27349683598179,32.81476577260458],[-117.27349801126071,32.81476887421517],[-117.27349960402154,32.8147740090369],[-117.27350048080076,32.8147791525422],[-117.27350214423922,32.81478224735767],[-117.273507161629,32.81479470065184],[-117.27350563421963,32.81480470702282],[-117.27350566595452,32.8148186363857],[-117.27350598836787,32.81483237094096],[-117.27350614801884,32.81484610409679],[-117.27350668710579,32.81485047806023],[-117.27350715294217,32.81485975053802],[-117.27350807870501,32.81487358728505],[-117.27350823832444,32.81488731769266],[-117.27351002863247,32.81490104557687],[-117.27351104671001,32.81490882376552],[-117.27351163891494,32.81491468699998],[-117.27351320130531,32.81492840852788],[-117.27351492288462,32.81494210399923],[-117.27351681013032,32.81495577061184],[-117.27351895346877,32.81496934714809],[-117.27351917152164,32.81497102470153],[-117.27352074371623,32.8149830695356],[-117.27352225299332,32.81498914230297],[-117.27352236072369,32.81498972959855],[-117.27352360999603,32.81499667581003],[-117.27352538093601,32.81500593746902],[-117.27352595094158,32.81501017100027],[-117.27352732099723,32.815015747435],[-117.27352898056095,32.81502382814288],[-117.27352990889413,32.81502808618921],[-117.27353112233739,32.81503727001321],[-117.27353454315158,32.81505097888373],[-117.27353796010088,32.81506435521229],[-117.27354137382855,32.81507773431596],[-117.2735447313632,32.81508879961059],[-117.27354564535197,32.81509182367899],[-117.27354961523848,32.81510516518954],[-117.27355093511839,32.81510950519473],[-117.27355325647338,32.81511851492152],[-117.27355662224257,32.81512748850476],[-117.27355797661403,32.81513171553367],[-117.27355908904411,32.81513501006285],[-117.27356168102665,32.81514489982898],[-117.27356672191213,32.81515825170038],[-117.27357183343787,32.81517124017804],[-117.27357677693892,32.81518433449315],[-117.27358188569227,32.81519736422159],[-117.27358686008101,32.81521031535595],[-117.27359190348923,32.81522332363733],[-117.27359673666369,32.81523280727819],[-117.27359824450373,32.8152362359563],[-117.27360058712061,32.81524147450223],[-117.27360357792374,32.81524899171544],[-117.27360774094478,32.81525710663908],[-117.27360994140464,32.81526187636214],[-117.27361139205918,32.81526486574698],[-117.27361527192475,32.8152746623788],[-117.27362191922809,32.81528732203981],[-117.27362858612506,32.81529998703508],[-117.27363535002368,32.81531259625498],[-117.27364188316052,32.8153249545215],[-117.27364855003121,32.81533761676739],[-117.27365521274983,32.81534992173659],[-117.27366181374958,32.81535971779547],[-117.27366321213225,32.81536213041867],[-117.27366540894067,32.81536574578221],[-117.27367013618375,32.81537451567682],[-117.27367514489509,32.81538173855537],[-117.27367813400475,32.81538658969221],[-117.27367882381374,32.81538768888824],[-117.27368045838406,32.81539025896868],[-117.2736850690017,32.81539879620335],[-117.2736933452872,32.81541074422461],[-117.27370163475325,32.81542270587872],[-117.27372208382857,32.81544634972852],[-117.27372313618096,32.81544755586022],[-117.27373455620032,32.81545609710317],[-117.27373568397982,32.81545707173159],[-117.27373939568994,32.81546024301178],[-117.27374557160576,32.81546707141369],[-117.27375777466936,32.81547633177796],[-117.27377068701185,32.81548500631702],[-117.273783814504,32.81549314860161],[-117.27379487819972,32.81549903769908],[-117.27379697580787,32.81550055949153],[-117.27380839291823,32.81550633021846],[-117.27381163420867,32.81550767486619],[-117.27382307166397,32.81551267583048],[-117.27382631525592,32.81551421835395],[-117.27383289726154,32.81551678039088],[-117.27384108688126,32.81552015366044],[-117.27385252933104,32.81552418434422],[-117.27385264356288,32.81552421088244],[-117.27385604413466,32.81552525736537],[-117.27386726641042,32.81552882811791],[-117.27386906479626,32.81552925022382],[-117.27387138750341,32.81552997581887],[-117.2738835845995,32.8155331234561],[-117.27388695361095,32.8155339750532],[-117.27389907660769,32.81553662856523],[-117.27390273661898,32.81553731283605],[-117.27391456420077,32.81553947405823],[-117.27391779750343,32.81554013163316],[-117.27393085961022,32.81554209021807],[-117.27393412459084,32.81554239296759],[-117.27393638350543,32.8155426710776],[-117.27394714932548,32.81554393683037],[-117.27395041238843,32.81554407468264],[-117.27395305819496,32.81554459420437],[-117.27396312287934,32.81554658588909],[-117.27396671070846,32.81554694093121],[-117.27397544379276,32.81554386709527],[-117.27398459002018,32.81554217235055],[-117.27399128727033,32.81554092943689],[-117.2740073283092,32.81554042534897],[-117.27402206662848,32.81554433523244],[-117.27403616279001,32.81555096325408],[-117.27403691544799,32.81555130882552],[-117.27404825100447,32.81556070004078],[-117.27406105460436,32.81556897691267],[-117.27406184411052,32.81557053153824],[-117.27406285018691,32.81557251588914],[-117.27406636689744,32.81558046849695],[-117.27406803365753,32.81558356602606],[-117.27406973081851,32.81558927716944],[-117.27407080800624,32.81559513637916],[-117.27406917918763,32.8156025764574],[-117.27406879645515,32.81560437168319],[-117.27406672678349,32.81561140863312],[-117.27406502023646,32.81561888233851],[-117.27406323098253,32.81562484228149],[-117.27406013539736,32.81563042826266],[-117.27405565534735,32.81563759789406],[-117.27405302162258,32.81564119559486],[-117.27405050648521,32.81564407494184],[-117.27404603128296,32.81564970259883],[-117.27403359599317,32.81565826025808],[-117.27402019955912,32.81566673793385],[-117.27400837536665,32.81567354519619],[-117.27400562691859,32.8156751154211],[-117.27400164163419,32.81567780906428],[-117.27399272129651,32.81568381440406],[-117.27397981177222,32.81569217809547],[-117.27396686232112,32.81570018755436],[-117.27395394538209,32.8157081939937],[-117.27395012853134,32.81571053717316],[-117.2739473484296,32.81571218461855],[-117.27394070820723,32.81571609314551],[-117.2739349459914,32.81571937047123],[-117.2739342277758,32.81571974748087],[-117.27392645395142,32.81572386055455],[-117.27391356615813,32.81573129505049],[-117.27390990430806,32.81573325214703],[-117.27389983081308,32.81573862113456],[-117.27388602619131,32.81574586808375],[-117.27388047809595,32.81574852520868],[-117.27387146973925,32.8157528409142],[-117.2738659626483,32.8157556653597],[-117.27386074170469,32.81575818509216],[-117.27385779305607,32.81575961404955],[-117.27384518334544,32.81576605125903],[-117.27383951192266,32.81576873963876],[-117.27383101782239,32.815772773474],[-117.2738164246923,32.8157793920397],[-117.27380225082875,32.81578567730183],[-117.27378775114714,32.81579193502982],[-117.27377269561711,32.81579797748135],[-117.27375813724684,32.81580394709528],[-117.27374359224473,32.8158099468306],[-117.27372786866306,32.81581704201125],[-117.27371936585313,32.81582900546339],[-117.27371135190413,32.81584074222962],[-117.27370350455199,32.81585281018801],[-117.27369536105192,32.81586460299809],[-117.27369392176922,32.8158667917787],[-117.27368719052663,32.81587659117847],[-117.2736789829198,32.81588846972387],[-117.27367077495929,32.81590031803765],[-117.27366256409339,32.81591219660899],[-117.2736576276746,32.81591931228968],[-117.27365545141072,32.81592194419844],[-117.27365373742535,32.8159240225656],[-117.27364574321054,32.81593577840362],[-117.27363771696299,32.815947858835],[-117.27362953962067,32.8159595419794],[-117.27362123371968,32.81597136636482],[-117.27361292778453,32.81598318800146],[-117.27360831075195,32.81598977880873],[-117.27360662905514,32.81599183491922],[-117.27360413208356,32.81599487901897],[-117.27359773167743,32.81600457947192],[-117.27359615480452,32.81600697278429],[-117.27359522275009,32.8160082750758],[-117.27358788967136,32.81601866489927],[-117.27358702500587,32.81601988417567],[-117.27357951062311,32.81603035795803],[-117.27357537073276,32.81603627416364],[-117.27357451384987,32.81603732296568],[-117.27357048590942,32.81604222952706],[-117.27356250775431,32.81605396873508],[-117.2735613587278,32.81605564662704],[-117.27355448725463,32.81606570554508],[-117.27354592325725,32.81607744960846],[-117.27354191338456,32.81608307064077],[-117.27354000373498,32.81608539799736],[-117.2735368648374,32.8160892225067],[-117.27353173976491,32.81609691144341],[-117.27352898527177,32.81610104335156],[-117.27352622065865,32.81610486475803],[-117.2735205761811,32.8161126734387],[-117.27351207726778,32.81612441696019],[-117.27350567938116,32.81613321586457],[-117.27350321769217,32.81613621569304],[-117.27349907983648,32.816142307786],[-117.27349506899942,32.81614784636841],[-117.27348981130116,32.81615504716164],[-117.27348653360708,32.81615953247099],[-117.27348197781505,32.8161657929404],[-117.27347760998153,32.81617114208324],[-117.27346958945984,32.81618287888773],[-117.27346086238722,32.81619459681129],[-117.27345422010741,32.81620365335342],[-117.27345197025114,32.81620639581024],[-117.27344785874132,32.81621223481693],[-117.27344378867897,32.81621799926918],[-117.27344218435098,32.81621999151951],[-117.27343433711584,32.81622955553477],[-117.27342565440108,32.81624229004977],[-117.27341779001007,32.81625289865321],[-117.27341268762461,32.81625974084493],[-117.27340870002681,32.81626447940525],[-117.27340376516513,32.81627173248977],[-117.27340045756334,32.81627616582227],[-117.27339811428054,32.8162792718604],[-117.27339107337785,32.8162876390696],[-117.27337980809374,32.81629941650455],[-117.27337645754255,32.81630631563717],[-117.27337018291233,32.81631899995528],[-117.27336383967673,32.81633166285332],[-117.27335752831515,32.81634426776739],[-117.2733509012491,32.81635687529771],[-117.27334432919102,32.81636945488626],[-117.27333769465358,32.8163819800214],[-117.27333338711071,32.81638999749643],[-117.27333047261661,32.81639464745255],[-117.2733240971709,32.81640706049781],[-117.27331726217632,32.81641942238048],[-117.27331377972864,32.81642561622839],[-117.27331078421702,32.81643029708943],[-117.27330974855117,32.81643192731424],[-117.27330337319566,32.81644434860326],[-117.27330177454634,32.81644683004565],[-117.27329536734466,32.81645679165047],[-117.27329387387002,32.81645964052608],[-117.27328902028363,32.81646884714776],[-117.27328101781077,32.81648130116017],[-117.27327619874546,32.81649039755341],[-117.27327437616802,32.81649349652524],[-117.27327098758188,32.81649908491416],[-117.27326666501423,32.81650581069516],[-117.27325865509576,32.81651790470841],[-117.27325406295539,32.81652664190928],[-117.27325188651496,32.81653010112419],[-117.27324420241092,32.81654222267033],[-117.27323639067313,32.81655456515729],[-117.27322831086138,32.81656624746595],[-117.2732203009641,32.81657834422499],[-117.27321746041768,32.81658263625469],[-117.27321229431928,32.81659044095652],[-117.27320432018708,32.81660253466951],[-117.2731962996216,32.81661427420451],[-117.27318829297025,32.81662637093449],[-117.27318628388022,32.81662938624565],[-117.27318040970373,32.81663816155297],[-117.27317216781378,32.81664990292038],[-117.27316379602198,32.81666167010054],[-117.27316062183527,32.81666610232082],[-117.2731546747258,32.81667336378298],[-117.27314679502463,32.81668518185522],[-117.27314441748555,32.8166884228509],[-117.27313825535315,32.81669678826053],[-117.2731347559226,32.8167015227666],[-117.27312903414192,32.81670828762231],[-117.27312098522277,32.8167201098435],[-117.27311925136186,32.81672216088225],[-117.27311140733053,32.81673144724672],[-117.27310560190027,32.81673997736022],[-117.27310319372469,32.81674310317008],[-117.27309966279464,32.81674764828655],[-117.27309377725517,32.81675460689561],[-117.27309012380181,32.81675981267777],[-117.27308523855706,32.81676601814242],[-117.27307614330621,32.81677743400008],[-117.27307292209966,32.81678090186841],[-117.27307197483893,32.81678201738072],[-117.27306330938309,32.8167923247612],[-117.27305529197236,32.81680405876349],[-117.2730530955504,32.81680832071541],[-117.27304842962621,32.81681631366403],[-117.27304228577037,32.81682905460071],[-117.27303725559226,32.81684211613506],[-117.27303439864703,32.81685172123346],[-117.27303310398861,32.81685543425017],[-117.27303000163779,32.81686885086489],[-117.27302853065264,32.81688260027973],[-117.27302862565989,32.81689077641344],[-117.27302843052865,32.81689639330729],[-117.27302876476969,32.81690274792221],[-117.27302885667385,32.81691009676966],[-117.27302892431078,32.81691061711712]]]],"type":"MultiPolygon"}
}