{
  "id": 85877927,
  "type": "Feature",
  "properties": {
    "edtf:cessation":"uuuu",
    "edtf:inception":"uuuu",
    "geom:area":0.0,
    "geom:area_square_m":1146535.897041,
    "geom:bbox":"-85.681348,42.98647,-85.681348,42.98647",
    "geom:latitude":42.98647,
    "geom:longitude":-85.681348,
    "gn:id":"",
    "iso:country":"US",
    "lbl:latitude":42.98647,
    "lbl:longitude":-85.681348,
    "mps:latitude":42.987966,
    "mps:longitude":-85.68308,
    "mz:hierarchy_label":0,
    "mz:is_current":-1,
    "mz:is_funky":0,
    "mz:is_hard_boundary":0,
    "mz:is_landuse_aoi":0,
    "mz:is_official":0,
    "mz:max_zoom":18.0,
    "mz:min_zoom":16.0,
    "mz:tier_locality":3,
    "name:eng_x_preferred":[
        "West Grand"
    ],
    "name:unk_x_variant":[
        "West Grand"
    ],
    "qs:gn_adm0_cc":"US",
    "qs:gn_id":0,
    "qs:gn_local":4994358,
    "qs:gn_nam_loc":"Grand Rapids, Kent, Michigan, US",
    "qs:gn_namadm1":"MI",
    "qs:local_max":13433,
    "qs:local_sum":52783,
    "qs:localhoods":34,
    "qs:name":"West Grand",
    "qs:name_adm0":"United States",
    "qs:name_adm1":"Michigan",
    "qs:name_adm2":"Kent",
    "qs:name_local":"Grand Rapids",
    "qs:photo_max":16,
    "qs:photo_sum":62,
    "qs:placetype":"Suburb",
    "qs:quad_count":9,
    "qs:woe_adm0":23424977,
    "qs:woe_adm1":2347581,
    "qs:woe_adm2":12588754,
    "qs:woe_lau":0,
    "qs:woe_local":2412843,
    "qs:woe_ver":"7.10.0",
    "src:geom":"mz",
    "src:geom_alt":[
        "quattroshapes_pg",
        "quattroshapes"
    ],
    "src:lbl:centroid":"yerbashapes",
    "wof:belongsto":[
        85688599,
        102191575,
        404507947,
        85633793,
        85951337,
        102083023
    ],
    "wof:breaches":[],
    "wof:concordances":{
        "gp:id":55859485,
        "qs:id":382325,
        "qs_pg:id":382325
    },
    "wof:country":"US",
    "wof:geomhash":"f0c0bcccd2dda9b5091463983d98a007",
    "wof:hierarchy":[
        {
            "continent_id":102191575,
            "country_id":85633793,
            "county_id":102083023,
            "localadmin_id":404507947,
            "locality_id":85951337,
            "neighbourhood_id":85877927,
            "region_id":85688599
        }
    ],
    "wof:id":85877927,
    "wof:lang":[
        "eng"
    ],
    "wof:lastmodified":1531872862,
    "wof:name":"West Grand",
    "wof:parent_id":85951337,
    "wof:placetype":"neighbourhood",
    "wof:repo":"whosonfirst-data-admin-us",
    "wof:superseded_by":[],
    "wof:supersedes":[],
    "wof:tags":[]
},
  "bbox": [
    -85.681348,
    42.98647,
    -85.681348,
    42.98647
],
  "geometry": {"coordinates":[-85.681348,42.98647],"type":"Point"}
}