{
  "id": 1126094731,
  "type": "Feature",
  "properties": {
    "edtf:cessation":"uuuu",
    "edtf:deprecated":"2018-08-15",
    "edtf:inception":"uuuu",
    "edtf:superseded":"2018-08-15",
    "geom:area":0.0,
    "geom:area_square_m":0.0,
    "geom:bbox":"-79.85786,32.75907,-79.85786,32.75907",
    "geom:latitude":32.75907,
    "geom:longitude":-79.85786,
    "gn:gn_country":"US",
    "gn:gn_fcode":"PPL",
    "gn:gn_pop":0,
    "iso:country":"US",
    "lbl:latitude":32.75907,
    "lbl:longitude":-79.85786,
    "mz:hierarchy_label":1,
    "mz:is_current":0,
    "mz:note":"Quattroshapes Point Gazetteer import 20170519",
    "qs_pg:aaroncc":"US",
    "qs_pg:gn_country":"US",
    "qs_pg:gn_fcode":"PPL",
    "qs_pg:gn_id":4578990,
    "qs_pg:gn_pop":0,
    "qs_pg:name":"Fort Moultrie",
    "qs_pg:name_adm0":"United States",
    "qs_pg:name_adm1":"South Carolina",
    "qs_pg:photos":3307,
    "qs_pg:photos_1k":670,
    "qs_pg:photos_9k":15,
    "qs_pg:photos_9r":11,
    "qs_pg:photos_all":3307,
    "qs_pg:photos_sr":20,
    "qs_pg:pop_sr":0,
    "qs_pg:qs_id":1332765,
    "qs_pg:qs_pg_placetype":"neighbourhood",
    "qs_pg:qs_pg_placetype_gp":"Suburb",
    "qs_pg:woe_adm0":23424977,
    "qs_pg:woe_id":2405861,
    "src:geom":"qs_pg",
    "src:lbl:centroid":"qs_pg",
    "woe:adm0_id":23424977,
    "woe:name_adm0":"United States",
    "woe:name_adm1":"South Carolina",
    "woe:placetype":"Suburb",
    "wof:belongsto":[
        85688683,
        102191575,
        85633793,
        101720783,
        102085591
    ],
    "wof:breaches":[],
    "wof:concordances":{
        "gn:id":4578990,
        "gp:id":2405861,
        "qs_pg:id":1332765
    },
    "wof:country":"US",
    "wof:created":1497314921,
    "wof:geomhash":"114ae3a072ada3ef022032db4295eb38",
    "wof:hierarchy":[
        {
            "continent_id":102191575,
            "country_id":85633793,
            "county_id":102085591,
            "locality_id":101720783,
            "neighbourhood_id":1126094731,
            "region_id":85688683
        }
    ],
    "wof:id":1126094731,
    "wof:lastmodified":1534379499,
    "wof:name":"Fort Moultrie",
    "wof:parent_id":101720783,
    "wof:placetype":"neighbourhood",
    "wof:repo":"whosonfirst-data-admin-us",
    "wof:superseded_by":[
        85820163
    ],
    "wof:supersedes":[],
    "wof:tags":[]
},
  "bbox": [
    -79.85786,
    32.75907,
    -79.85786,
    32.75907
],
  "geometry": {"coordinates":[-79.85786,32.75907],"type":"Point"}
}