{
  "id": 1260105727,
  "type": "Feature",
  "properties": {
    "edtf:cessation":"uuuu",
    "edtf:inception":"uuuu",
    "geom:area":0.0,
    "geom:area_square_m":0.0,
    "geom:bbox":"-75.01517,40.56149,-75.01517,40.56149",
    "geom:latitude":40.56149,
    "geom:longitude":-75.01517,
    "gn:admin1_code":"NJ",
    "gn:admin2_code":"19.0",
    "gn:admin3_code":"550.0",
    "gn:asciiname":"Palmyra",
    "gn:country_code":"US",
    "gn:dem":143,
    "gn:elevation":"143.0",
    "gn:feature_class":"P",
    "gn:feature_code":"PPL",
    "gn:geonameid":5102379,
    "gn:latitude":40.56149,
    "gn:longitude":-75.01517,
    "gn:modification_date":"2017-05-23",
    "gn:name":"Palmyra",
    "gn:population":0,
    "gn:timezone":"America/New_York",
    "iso:country":"US",
    "mz:hierarchy_label":1,
    "mz:is_current":-1,
    "src:geom":"geonames",
    "wof:belongsto":[
        85688607,
        102191575,
        404478151,
        85633793,
        102085997
    ],
    "wof:breaches":[],
    "wof:concordances":{
        "gn:id":5102379
    },
    "wof:country":"US",
    "wof:geomhash":"401e396be7bd0e524252792769ee2173",
    "wof:hierarchy":[
        {
            "continent_id":102191575,
            "country_id":85633793,
            "county_id":102085997,
            "localadmin_id":404478151,
            "locality_id":1260105727,
            "region_id":85688607
        }
    ],
    "wof:id":1260105727,
    "wof:lastmodified":1536956118,
    "wof:name":"Palmyra",
    "wof:parent_id":404478151,
    "wof:placetype":"locality",
    "wof:repo":"whosonfirst-data-admin-us",
    "wof:superseded_by":[],
    "wof:supersedes":[],
    "wof:tags":[]
},
  "bbox": [
    -75.01517,
    40.56149,
    -75.01517,
    40.56149
],
  "geometry": {"coordinates":[-75.01517,40.56149],"type":"Point"}
}