{
  "id": 1242596827,
  "type": "Feature",
  "properties": {
    "edtf:cessation":"uuuu",
    "edtf:inception":"uuuu",
    "geom:area":0.0,
    "geom:area_square_m":0.0,
    "geom:bbox":"-80.02004,37.30097,-80.02004,37.30097",
    "geom:latitude":37.30097,
    "geom:longitude":-80.02004,
    "gn:admin1_code":"VA",
    "gn:admin2_code":"775",
    "gn:asciiname":"Oak Park",
    "gn:country_code":"US",
    "gn:dem":342,
    "gn:elevation":"343.0",
    "gn:feature_class":"P",
    "gn:feature_code":"PPL",
    "gn:geonameid":4776855,
    "gn:latitude":37.30097,
    "gn:longitude":-80.02004,
    "gn:modification_date":"2006-01-15",
    "gn:name":"Oak Park",
    "gn:population":0,
    "gn:timezone":"America/New_York",
    "iso:country":"US",
    "mz:hierarchy_label":1,
    "mz:is_current":-1,
    "src:geom":"geonames",
    "wof:belongsto":[
        102191575,
        85633793,
        85688747,
        102081927
    ],
    "wof:breaches":[],
    "wof:concordances":{
        "gn:id":4776855
    },
    "wof:country":"US",
    "wof:geomhash":"4010f809098f073336277dd0cace31d6",
    "wof:hierarchy":[
        {
            "continent_id":102191575,
            "country_id":85633793,
            "county_id":102081927,
            "locality_id":1242596827,
            "region_id":85688747
        }
    ],
    "wof:id":1242596827,
    "wof:lastmodified":1537034459,
    "wof:name":"Oak Park",
    "wof:parent_id":102081927,
    "wof:placetype":"locality",
    "wof:repo":"whosonfirst-data-admin-us",
    "wof:superseded_by":[],
    "wof:supersedes":[],
    "wof:tags":[]
},
  "bbox": [
    -80.02004000000002,
    37.30097,
    -80.02004000000002,
    37.30097
],
  "geometry": {"coordinates":[-80.02004000000002,37.30097],"type":"Point"}
}