{
  "id": 1326746625,
  "type": "Feature",
  "properties": {
    "edtf:cessation":"uuuu",
    "edtf:inception":"uuuu",
    "geom:area":0.0,
    "geom:area_square_m":0.0,
    "geom:bbox":"-88.84837,30.62436,-88.84837,30.62436",
    "geom:latitude":30.62436,
    "geom:longitude":-88.84837,
    "gn:admin1_code":"MS",
    "gn:admin2_code":"59.0",
    "gn:asciiname":"Larue",
    "gn:country_code":"US",
    "gn:dem":43,
    "gn:elevation":"40.0",
    "gn:feature_class":"P",
    "gn:feature_code":"PPL",
    "gn:geonameid":4433008,
    "gn:latitude":30.62436,
    "gn:longitude":-88.84837,
    "gn:modification_date":"2006-01-15",
    "gn:name":"Larue",
    "gn:population":0,
    "gn:timezone":"America/Chicago",
    "iso:country":"US",
    "mz:hierarchy_label":1,
    "mz:is_current":-1,
    "src:geom":"geonames",
    "wof:belongsto":[
        102191575,
        85633793,
        85688579,
        102083161
    ],
    "wof:breaches":[],
    "wof:concordances":{
        "gn:id":4433008
    },
    "wof:country":"US",
    "wof:geomhash":"517268bec0896c1fecf53e397e769754",
    "wof:hierarchy":[
        {
            "continent_id":102191575,
            "country_id":85633793,
            "county_id":102083161,
            "locality_id":1326746625,
            "region_id":85688579
        }
    ],
    "wof:id":1326746625,
    "wof:lastmodified":1536674908,
    "wof:name":"Larue",
    "wof:parent_id":102083161,
    "wof:placetype":"locality",
    "wof:repo":"whosonfirst-data-admin-us",
    "wof:superseded_by":[],
    "wof:supersedes":[],
    "wof:tags":[]
},
  "bbox": [
    -88.84836999999997,
    30.62436,
    -88.84836999999997,
    30.62436
],
  "geometry": {"coordinates":[-88.84836999999997,30.62436],"type":"Point"}
}