{
  "id": 1310239859,
  "type": "Feature",
  "properties": {
    "edtf:cessation":"uuuu",
    "edtf:inception":"uuuu",
    "geom:area":0.0,
    "geom:area_square_m":0.0,
    "geom:bbox":"-122.38842,45.58206,-122.38842,45.58206",
    "geom:latitude":45.58206,
    "geom:longitude":-122.38842,
    "gn:admin1_code":"WA",
    "gn:admin2_code":"11.0",
    "gn:asciiname":"Oak Park",
    "gn:country_code":"US",
    "gn:dem":12,
    "gn:elevation":"14.0",
    "gn:feature_class":"P",
    "gn:feature_code":"PPL",
    "gn:geonameid":5805454,
    "gn:latitude":45.58206,
    "gn:longitude":-122.38842,
    "gn:modification_date":"2006-01-15",
    "gn:name":"Oak Park",
    "gn:population":0,
    "gn:timezone":"America/Los_Angeles",
    "iso:country":"US",
    "mz:hierarchy_label":1,
    "mz:is_current":-1,
    "src:geom":"geonames",
    "wof:belongsto":[
        102191575,
        85633793,
        85688623,
        102084251
    ],
    "wof:breaches":[],
    "wof:concordances":{
        "gn:id":5805454
    },
    "wof:country":"US",
    "wof:geomhash":"53a479688082713b3e5d6fa8dee5d7df",
    "wof:hierarchy":[
        {
            "continent_id":102191575,
            "country_id":85633793,
            "county_id":102084251,
            "locality_id":1310239859,
            "region_id":85688623
        }
    ],
    "wof:id":1310239859,
    "wof:lastmodified":1536802598,
    "wof:name":"Oak Park",
    "wof:parent_id":102084251,
    "wof:placetype":"locality",
    "wof:repo":"whosonfirst-data-admin-us",
    "wof:superseded_by":[],
    "wof:supersedes":[],
    "wof:tags":[]
},
  "bbox": [
    -122.38842,
    45.58206,
    -122.38842,
    45.58206
],
  "geometry": {"coordinates":[-122.38842,45.58206],"type":"Point"}
}