{
  "id": 1343496103,
  "type": "Feature",
  "properties": {
    "edtf:cessation":"2018-09-06",
    "edtf:inception":"uuuu",
    "geom:area":0.0,
    "geom:area_square_m":0.0,
    "geom:bbox":"-107.89956,47.59305,-107.89956,47.59305",
    "geom:latitude":47.59305,
    "geom:longitude":-107.89956,
    "gn:admin1_code":"MT",
    "gn:admin2_code":"71.0",
    "gn:asciiname":"Legg (historical)",
    "gn:country_code":"US",
    "gn:dem":723,
    "gn:elevation":"725.0",
    "gn:feature_class":"P",
    "gn:feature_code":"PPLQ",
    "gn:geonameid":5661961,
    "gn:latitude":47.59305,
    "gn:longitude":-107.89956,
    "gn:modification_date":"2011-12-12",
    "gn:name":"Legg (historical)",
    "gn:population":0,
    "gn:timezone":"America/Denver",
    "iso:country":"US",
    "mz:hierarchy_label":1,
    "mz:is_current":0,
    "src:geom":"geonames",
    "wof:belongsto":[
        102191575,
        85633793,
        85688617,
        102085089
    ],
    "wof:breaches":[],
    "wof:concordances":{
        "gn:id":5661961
    },
    "wof:country":"US",
    "wof:geomhash":"535bcd5a14f6eb32962163126bfc7c42",
    "wof:hierarchy":[
        {
            "continent_id":102191575,
            "country_id":85633793,
            "county_id":102085089,
            "locality_id":1343496103,
            "region_id":85688617
        }
    ],
    "wof:id":1343496103,
    "wof:lastmodified":1536694921,
    "wof:name":"Legg (historical)",
    "wof:parent_id":102085089,
    "wof:placetype":"locality",
    "wof:repo":"whosonfirst-data-admin-us",
    "wof:superseded_by":[],
    "wof:supersedes":[],
    "wof:tags":[]
},
  "bbox": [
    -107.89956,
    47.59305,
    -107.89956,
    47.59305
],
  "geometry": {"coordinates":[-107.89955999999999,47.59305],"type":"Point"}
}