{
  "id": 1326656035,
  "type": "Feature",
  "properties": {
    "edtf:cessation":"2018-09-07",
    "edtf:inception":"uuuu",
    "geom:area":0.0,
    "geom:area_square_m":0.0,
    "geom:bbox":"-89.43397,36.91311,-89.43397,36.91311",
    "geom:latitude":36.91311,
    "geom:longitude":-89.43397,
    "gn:admin1_code":"MO",
    "gn:admin2_code":"133.0",
    "gn:admin3_code":"43886.0",
    "gn:asciiname":"Never Spur (historical)",
    "gn:country_code":"US",
    "gn:dem":99,
    "gn:elevation":"98.0",
    "gn:feature_class":"P",
    "gn:feature_code":"PPLQ",
    "gn:geonameid":4400212,
    "gn:latitude":36.91311,
    "gn:longitude":-89.43397,
    "gn:modification_date":"2017-05-23",
    "gn:name":"Never Spur (historical)",
    "gn:population":0,
    "gn:timezone":"America/Chicago",
    "iso:country":"US",
    "mz:hierarchy_label":1,
    "mz:is_current":0,
    "src:geom":"geonames",
    "wof:belongsto":[
        85688661,
        102191575,
        404516931,
        85633793,
        102085295
    ],
    "wof:breaches":[],
    "wof:concordances":{
        "gn:id":4400212
    },
    "wof:country":"US",
    "wof:geomhash":"8368ede5f1fc6826ab75ccbf45d7bf19",
    "wof:hierarchy":[
        {
            "continent_id":102191575,
            "country_id":85633793,
            "county_id":102085295,
            "localadmin_id":404516931,
            "locality_id":1326656035,
            "region_id":85688661
        }
    ],
    "wof:id":1326656035,
    "wof:lastmodified":1536805440,
    "wof:name":"Never Spur (historical)",
    "wof:parent_id":404516931,
    "wof:placetype":"locality",
    "wof:repo":"whosonfirst-data-admin-us",
    "wof:superseded_by":[],
    "wof:supersedes":[],
    "wof:tags":[]
},
  "bbox": [
    -89.43397,
    36.91311,
    -89.43397,
    36.91311
],
  "geometry": {"coordinates":[-89.43397,36.91311],"type":"Point"}
}