{
  "id": 1310125235,
  "type": "Feature",
  "properties": {
    "edtf:cessation":"uuuu",
    "edtf:inception":"uuuu",
    "geom:area":0.0,
    "geom:area_square_m":0.0,
    "geom:bbox":"-75.39492,38.13345,-75.39492,38.13345",
    "geom:latitude":38.13345,
    "geom:longitude":-75.39492,
    "gn:admin1_code":"MD",
    "gn:admin2_code":"47.0",
    "gn:asciiname":"Scarboro",
    "gn:country_code":"US",
    "gn:dem":10,
    "gn:elevation":"10.0",
    "gn:feature_class":"P",
    "gn:feature_code":"PPL",
    "gn:geonameid":4368924,
    "gn:latitude":38.13345,
    "gn:longitude":-75.39492,
    "gn:modification_date":"2006-01-15",
    "gn:name":"Scarboro",
    "gn:population":0,
    "gn:timezone":"America/New_York",
    "iso:country":"US",
    "mz:hierarchy_label":1,
    "mz:is_current":-1,
    "name:eng_x_preferred":[
        "Scarboro"
    ],
    "name:und_x_variant":[
        "Scarboroughs",
        "Scarborough Switch"
    ],
    "src:geom":"geonames",
    "wof:belongsto":[
        102191575,
        85633793,
        85688501,
        102081599
    ],
    "wof:breaches":[],
    "wof:concordances":{
        "gn:id":4368924
    },
    "wof:country":"US",
    "wof:geomhash":"90703b4356e26e672bf10d8a02171d1c",
    "wof:hierarchy":[
        {
            "continent_id":102191575,
            "country_id":85633793,
            "county_id":102081599,
            "locality_id":1310125235,
            "region_id":85688501
        }
    ],
    "wof:id":1310125235,
    "wof:lastmodified":1537712441,
    "wof:name":"Scarboro",
    "wof:parent_id":102081599,
    "wof:placetype":"locality",
    "wof:repo":"whosonfirst-data-admin-us",
    "wof:superseded_by":[],
    "wof:supersedes":[],
    "wof:tags":[]
},
  "bbox": [
    -75.39492,
    38.13345,
    -75.39492,
    38.13345
],
  "geometry": {"coordinates":[-75.39492,38.13345],"type":"Point"}
}