{
  "id": 1125413605,
  "type": "Feature",
  "properties": {
    "edtf:cessation":"uuuu",
    "edtf:deprecated":"2017-11-04",
    "edtf:inception":"uuuu",
    "geom:area":0.0,
    "geom:area_square_m":0.0,
    "geom:bbox":"-79.01782,34.63058,-79.01782,34.63058",
    "geom:latitude":34.63058,
    "geom:longitude":-79.01782,
    "gn:gn_country":"US",
    "gn:gn_fcode":"ADMD",
    "gn:gn_pop":21542,
    "gn:population":21542,
    "iso:country":"US",
    "lbl:latitude":34.63058,
    "lbl:longitude":-79.01782,
    "mz:hierarchy_label":1,
    "mz:is_current":0,
    "mz:note":"Quattroshapes Point Gazetteer import 20170519",
    "qs_pg:aaroncc":"US",
    "qs_pg:gn_country":"US",
    "qs_pg:gn_fcode":"ADMD",
    "qs_pg:gn_id":7170380,
    "qs_pg:gn_pop":21542,
    "qs_pg:name":"City of Lumberton",
    "qs_pg:photos_9r":0,
    "qs_pg:photos_sr":0,
    "qs_pg:pop_sr":7,
    "qs_pg:qs_id":663050,
    "qs_pg:qs_pg_placetype":"localadmin",
    "src:geom":"qs_pg",
    "src:lbl:centroid":"qs_pg",
    "src:population":"geonames",
    "wof:belongsto":[
        85633793
    ],
    "wof:breaches":[],
    "wof:concordances":{
        "gn:id":7170380,
        "qs_pg:id":663050
    },
    "wof:country":"US",
    "wof:created":1497050861,
    "wof:geomhash":"f26e7d45c81f4bfca395de55affced07",
    "wof:hierarchy":[
        {
            "country_id":85633793,
            "localadmin_id":1125413605
        }
    ],
    "wof:id":1125413605,
    "wof:lastmodified":1509752728,
    "wof:name":"City of Lumberton",
    "wof:parent_id":-1,
    "wof:placetype":"localadmin",
    "wof:population":21542,
    "wof:population_rank":7,
    "wof:repo":"whosonfirst-data-admin-us",
    "wof:superseded_by":[
        85981189
    ],
    "wof:supersedes":[],
    "wof:tags":[]
},
  "bbox": [
    -79.01782,
    34.63058,
    -79.01782,
    34.63058
],
  "geometry": {"coordinates":[-79.01782,34.63058],"type":"Point"}
}