{
  "id": 1343277813,
  "type": "Feature",
  "properties": {
    "edtf:cessation":"2018-09-06",
    "edtf:inception":"uuuu",
    "geom:area":0.0,
    "geom:area_square_m":0.0,
    "geom:bbox":"-81.04204,34.02015,-81.04204,34.02015",
    "geom:latitude":34.02015,
    "geom:longitude":-81.04204,
    "gn:admin1_code":"SC",
    "gn:admin2_code":"79.0",
    "gn:asciiname":"Butchertown (historical)",
    "gn:country_code":"US",
    "gn:dem":88,
    "gn:elevation":"90.0",
    "gn:feature_class":"P",
    "gn:feature_code":"PPLQ",
    "gn:geonameid":4572914,
    "gn:latitude":34.02015,
    "gn:longitude":-81.04204,
    "gn:modification_date":"2011-12-11",
    "gn:name":"Butchertown (historical)",
    "gn:population":0,
    "gn:timezone":"America/New_York",
    "iso:country":"US",
    "mz:hierarchy_label":1,
    "mz:is_current":0,
    "name:eng_x_preferred":[
        "Butchertown (historical)"
    ],
    "name:und_x_variant":[
        "Butcher Town"
    ],
    "src:geom":"geonames",
    "wof:belongsto":[
        102191575,
        85633793,
        85688683,
        102085405
    ],
    "wof:breaches":[],
    "wof:concordances":{
        "gn:id":4572914
    },
    "wof:country":"US",
    "wof:geomhash":"9496d12133860b8f8e146671a6ca68b1",
    "wof:hierarchy":[
        {
            "continent_id":102191575,
            "country_id":85633793,
            "county_id":102085405,
            "locality_id":1343277813,
            "region_id":85688683
        }
    ],
    "wof:id":1343277813,
    "wof:lastmodified":1537712584,
    "wof:name":"Butchertown (historical)",
    "wof:parent_id":102085405,
    "wof:placetype":"locality",
    "wof:repo":"whosonfirst-data-admin-us",
    "wof:superseded_by":[],
    "wof:supersedes":[],
    "wof:tags":[]
},
  "bbox": [
    -81.04204,
    34.02015,
    -81.04204,
    34.02015
],
  "geometry": {"coordinates":[-81.04204,34.02015],"type":"Point"}
}