{
  "id": 1125953085,
  "type": "Feature",
  "properties": {
    "edtf:cessation":"uuuu",
    "edtf:inception":"uuuu",
    "geom:area":0.0,
    "geom:area_square_m":0.0,
    "geom:bbox":"-104.907846,39.556471,-104.907846,39.556471",
    "geom:latitude":39.556471,
    "geom:longitude":-104.907846,
    "gn:gn_country":null,
    "iso:country":"US",
    "lbl:latitude":39.556471,
    "lbl:longitude":-104.907846,
    "mz:hierarchy_label":1,
    "mz:is_current":-1,
    "mz:note":"Quattroshapes Point Gazetteer import 20170519",
    "qs_pg:aaroncc":"US",
    "qs_pg:gn_country":null,
    "qs_pg:name":"Gateway",
    "qs_pg:name_adm0":"United States",
    "qs_pg:name_adm1":"Colorado",
    "qs_pg:photos":484,
    "qs_pg:photos_1k":98,
    "qs_pg:photos_9k":2,
    "qs_pg:photos_9r":5,
    "qs_pg:photos_all":484,
    "qs_pg:photos_sr":7,
    "qs_pg:pop_sr":0,
    "qs_pg:qs_id":1288891,
    "qs_pg:qs_pg_placetype":"locality",
    "qs_pg:qs_pg_placetype_gp":"Town",
    "qs_pg:woe_adm0":23424977,
    "qs_pg:woe_id":28747515,
    "src:geom":"qs_pg",
    "src:lbl:centroid":"qs_pg",
    "woe:adm0_id":23424977,
    "woe:name_adm0":"United States",
    "woe:name_adm1":"Colorado",
    "woe:placetype":"Town",
    "wof:belongsto":[
        102191575,
        85633793,
        85688603,
        102085225
    ],
    "wof:breaches":[],
    "wof:concordances":{
        "gp:id":28747515,
        "qs_pg:id":1288891
    },
    "wof:country":"US",
    "wof:created":1497297528,
    "wof:geomhash":"3843347f807b290c5bd677440b305c01",
    "wof:hierarchy":[
        {
            "continent_id":102191575,
            "country_id":85633793,
            "county_id":102085225,
            "locality_id":1125953085,
            "region_id":85688603
        }
    ],
    "wof:id":1125953085,
    "wof:lastmodified":1509402817,
    "wof:name":"Gateway",
    "wof:parent_id":102085225,
    "wof:placetype":"locality",
    "wof:repo":"whosonfirst-data-admin-us",
    "wof:superseded_by":[],
    "wof:supersedes":[],
    "wof:tags":[]
},
  "bbox": [
    -104.907846,
    39.556471,
    -104.907846,
    39.556471
],
  "geometry": {"coordinates":[-104.90784600000001,39.556471],"type":"Point"}
}