{
  "id": 1260296011,
  "type": "Feature",
  "properties": {
    "edtf:cessation":"2018-09-07",
    "edtf:inception":"uuuu",
    "geom:area":0.0,
    "geom:area_square_m":0.0,
    "geom:bbox":"-80.05341,33.70072,-80.05341,33.70072",
    "geom:latitude":33.70072,
    "geom:longitude":-80.05341,
    "gn:admin1_code":"SC",
    "gn:admin2_code":"27.0",
    "gn:asciiname":"Brewington (historical)",
    "gn:country_code":"US",
    "gn:dem":32,
    "gn:elevation":"27.0",
    "gn:feature_class":"P",
    "gn:feature_code":"PPLQ",
    "gn:geonameid":4572159,
    "gn:latitude":33.70072,
    "gn:longitude":-80.05341,
    "gn:modification_date":"2011-12-11",
    "gn:name":"Brewington (historical)",
    "gn:population":0,
    "gn:timezone":"America/New_York",
    "iso:country":"US",
    "mz:hierarchy_label":1,
    "mz:is_current":0,
    "src:geom":"geonames",
    "wof:belongsto":[
        102191575,
        85633793,
        85688683,
        102085455
    ],
    "wof:breaches":[],
    "wof:concordances":{
        "gn:id":4572159
    },
    "wof:country":"US",
    "wof:geomhash":"256a2d030ef16d9f11319a493a624316",
    "wof:hierarchy":[
        {
            "continent_id":102191575,
            "country_id":85633793,
            "county_id":102085455,
            "locality_id":1260296011,
            "region_id":85688683
        }
    ],
    "wof:id":1260296011,
    "wof:lastmodified":1536695257,
    "wof:name":"Brewington (historical)",
    "wof:parent_id":102085455,
    "wof:placetype":"locality",
    "wof:repo":"whosonfirst-data-admin-us",
    "wof:superseded_by":[],
    "wof:supersedes":[],
    "wof:tags":[]
},
  "bbox": [
    -80.05341,
    33.70072,
    -80.05341,
    33.70072
],
  "geometry": {"coordinates":[-80.05341,33.70072],"type":"Point"}
}