{
  "id": 85831331,
  "type": "Feature",
  "properties": {
    "edtf:cessation":"uuuu",
    "edtf:inception":"uuuu",
    "geom:area":0.0,
    "geom:area_square_m":3200577.159404,
    "geom:bbox":"-105.164122,40.17145,-105.164122,40.17145",
    "geom:latitude":40.17145,
    "geom:longitude":-105.164122,
    "gn:elevation":1519,
    "gn:population":86270,
    "iso:country":"US",
    "lbl:latitude":40.17145,
    "lbl:longitude":-105.164122,
    "mps:latitude":40.17145,
    "mps:longitude":-105.164122,
    "mz:hierarchy_label":0,
    "mz:is_current":-1,
    "mz:is_funky":0,
    "mz:is_hard_boundary":0,
    "mz:is_landuse_aoi":0,
    "mz:is_official":0,
    "mz:max_zoom":0.0,
    "mz:min_zoom":0.0,
    "mz:tier_locality":1,
    "name:eng_x_preferred":[
        "Longmont"
    ],
    "name:unk_x_variant":[
        "Longmont"
    ],
    "qs:gn_adm0_cc":"US",
    "qs:gn_fcode":"PPL",
    "qs:gn_local":5579276,
    "qs:gn_nam_loc":"Longmont, Boulder, Colorado, US",
    "qs:gn_namadm1":"CO",
    "qs:gn_name":"Longmont",
    "qs:local_max":386,
    "qs:local_sum":2203,
    "qs:localhoods":19,
    "qs:name":"Longmont",
    "qs:name_adm0":"United States",
    "qs:name_adm1":"Colorado",
    "qs:name_adm2":"Boulder",
    "qs:name_local":"Longmont",
    "qs:photo_max":4,
    "qs:photo_sum":12,
    "qs:placetype":"Town",
    "qs:quad_count":5,
    "qs:woe_adm0":23424977,
    "qs:woe_adm1":2347564,
    "qs:woe_adm2":12587734,
    "qs:woe_lau":0,
    "qs:woe_local":2441696,
    "qs:woe_ver":"7.10.0",
    "src:geom":"mz",
    "src:geom_alt":[
        "quattroshapes"
    ],
    "src:lbl:centroid":"mapshaper",
    "src:population":"geonames",
    "wof:belongsto":[
        102191575,
        85633793,
        102085251,
        85688603
    ],
    "wof:breaches":[],
    "wof:concordances":{
        "gn:id":5579276,
        "gp:id":2441696,
        "qs:id":823586,
        "wd:id":"Q988283",
        "wk:page":"Longmont, Colorado"
    },
    "wof:country":"US",
    "wof:geomhash":"9e43780bf40fd1e6e5cb25d89fc85694",
    "wof:hierarchy":[
        {
            "continent_id":102191575,
            "country_id":85633793,
            "county_id":102085251,
            "locality_id":-1,
            "neighbourhood_id":85831331,
            "region_id":85688603
        }
    ],
    "wof:id":85831331,
    "wof:lang":[
        "eng"
    ],
    "wof:lastmodified":1531866053,
    "wof:name":"Longmont",
    "wof:parent_id":-1,
    "wof:placetype":"neighbourhood",
    "wof:population":86270,
    "wof:population_rank":8,
    "wof:repo":"whosonfirst-data-admin-us",
    "wof:superseded_by":[],
    "wof:supersedes":[],
    "wof:tags":[]
},
  "bbox": [
    -105.164122,
    40.17145,
    -105.164122,
    40.17145
],
  "geometry": {"coordinates":[-105.16412200000001,40.17145],"type":"Point"}
}