{
  "id": 1326640879,
  "type": "Feature",
  "properties": {
    "edtf:cessation":"uuuu",
    "edtf:inception":"uuuu",
    "geom:area":0.0,
    "geom:area_square_m":0.0,
    "geom:bbox":"-84.22939,41.64588,-84.22939,41.64588",
    "geom:latitude":41.64588,
    "geom:longitude":-84.22939,
    "gn:admin1_code":"OH",
    "gn:admin2_code":"51.0",
    "gn:admin3_code":"30940.0",
    "gn:asciiname":"Thelma",
    "gn:country_code":"US",
    "gn:dem":221,
    "gn:elevation":"222.0",
    "gn:feature_class":"P",
    "gn:feature_code":"PPL",
    "gn:geonameid":5173841,
    "gn:latitude":41.64588,
    "gn:longitude":-84.22939,
    "gn:modification_date":"2017-05-23",
    "gn:name":"Thelma",
    "gn:population":0,
    "gn:timezone":"America/New_York",
    "iso:country":"US",
    "mz:hierarchy_label":1,
    "mz:is_current":-1,
    "src:geom":"geonames",
    "wof:belongsto":[
        85688485,
        102191575,
        404524667,
        85633793,
        102083693
    ],
    "wof:breaches":[],
    "wof:concordances":{
        "gn:id":5173841
    },
    "wof:country":"US",
    "wof:geomhash":"15491f92b85e53f32425020fead86cbc",
    "wof:hierarchy":[
        {
            "continent_id":102191575,
            "country_id":85633793,
            "county_id":102083693,
            "localadmin_id":404524667,
            "locality_id":1326640879,
            "region_id":85688485
        }
    ],
    "wof:id":1326640879,
    "wof:lastmodified":1536826349,
    "wof:name":"Thelma",
    "wof:parent_id":404524667,
    "wof:placetype":"locality",
    "wof:repo":"whosonfirst-data-admin-us",
    "wof:superseded_by":[],
    "wof:supersedes":[],
    "wof:tags":[]
},
  "bbox": [
    -84.22939000000002,
    41.64588,
    -84.22939000000002,
    41.64588
],
  "geometry": {"coordinates":[-84.22939000000002,41.64588],"type":"Point"}
}