{
  "id": 1125354643,
  "type": "Feature",
  "properties": {
    "edtf:cessation":"2017-05-19",
    "edtf:inception":"uuuu",
    "geom:area":0.0,
    "geom:area_square_m":0.0,
    "geom:bbox":"-91.15026,38.22692,-91.15026,38.22692",
    "geom:latitude":38.22692,
    "geom:longitude":-91.15026,
    "gn:gn_country":"US",
    "gn:gn_fcode":"ADMD",
    "gn:gn_pop":509,
    "gn:population":509,
    "iso:country":"US",
    "lbl:latitude":38.22692,
    "lbl:longitude":-91.15026,
    "mz:hierarchy_label":1,
    "mz:is_current":0,
    "mz:note":"Quattroshapes Point Gazetteer import 20170519",
    "qs_pg:aaroncc":"US",
    "qs_pg:gn_country":"US",
    "qs_pg:gn_fcode":"ADMD",
    "qs_pg:gn_id":7317577,
    "qs_pg:gn_pop":509,
    "qs_pg:name":"Village of Oak Grove Village",
    "qs_pg:photos_9r":0,
    "qs_pg:photos_sr":0,
    "qs_pg:pop_sr":2,
    "qs_pg:qs_id":683585,
    "qs_pg:qs_pg_placetype":"localadmin",
    "src:geom":"qs_pg",
    "src:lbl:centroid":"qs_pg",
    "src:population":"geonames",
    "wof:belongsto":[
        85633793
    ],
    "wof:breaches":[],
    "wof:concordances":{
        "gn:id":7317577,
        "qs_pg:id":683585
    },
    "wof:country":"US",
    "wof:created":1497046391,
    "wof:geomhash":"03fbeebda880d0ad1c4ae8683cc967b5",
    "wof:hierarchy":[
        {
            "country_id":85633793,
            "localadmin_id":1125354643
        }
    ],
    "wof:id":1125354643,
    "wof:lastmodified":1505187173,
    "wof:name":"Village of Oak Grove Village",
    "wof:parent_id":-1,
    "wof:placetype":"localadmin",
    "wof:population":509,
    "wof:population_rank":2,
    "wof:repo":"whosonfirst-data-admin-us",
    "wof:superseded_by":[],
    "wof:supersedes":[],
    "wof:tags":[]
},
  "bbox": [
    -91.15026,
    38.22692,
    -91.15026,
    38.22692
],
  "geometry": {"coordinates":[-91.15026,38.22692],"type":"Point"}
}