{
  "id": 1209940573,
  "type": "Feature",
  "properties": {
    "edtf:cessation":"uuuu",
    "edtf:inception":"uuuu",
    "geom:area":0.0,
    "geom:area_square_m":0.0,
    "geom:bbox":"-86.60638,36.50143,-86.60638,36.50143",
    "geom:latitude":36.50143,
    "geom:longitude":-86.60638,
    "gn:admin1_code":"TN",
    "gn:admin2_code":"165.0",
    "gn:asciiname":"Pleasant Valley",
    "gn:country_code":"US",
    "gn:dem":269,
    "gn:elevation":"270.0",
    "gn:feature_class":"P",
    "gn:feature_code":"PPL",
    "gn:geonameid":4650264,
    "gn:latitude":36.50143,
    "gn:longitude":-86.60638,
    "gn:modification_date":"2006-01-15",
    "gn:name":"Pleasant Valley",
    "gn:population":0,
    "gn:timezone":"America/Chicago",
    "iso:country":"US",
    "mz:hierarchy_label":1,
    "mz:is_current":-1,
    "src:geom":"geonames",
    "wof:belongsto":[
        102191575,
        85633793,
        85688701,
        102086357
    ],
    "wof:breaches":[],
    "wof:concordances":{
        "gn:id":4650264
    },
    "wof:country":"US",
    "wof:geomhash":"8ce887f90da850049678e45e75092a29",
    "wof:hierarchy":[
        {
            "continent_id":102191575,
            "country_id":85633793,
            "county_id":102086357,
            "locality_id":1209940573,
            "region_id":85688701
        }
    ],
    "wof:id":1209940573,
    "wof:lastmodified":1536388670,
    "wof:name":"Pleasant Valley",
    "wof:parent_id":102086357,
    "wof:placetype":"locality",
    "wof:repo":"whosonfirst-data-admin-us",
    "wof:superseded_by":[],
    "wof:supersedes":[],
    "wof:tags":[]
},
  "bbox": [
    -86.60638,
    36.50143,
    -86.60638,
    36.50143
],
  "geometry": {"coordinates":[-86.60638,36.50143],"type":"Point"}
}