{
  "id": 1125405389,
  "type": "Feature",
  "properties": {
    "edtf:cessation":"2017-05-19",
    "edtf:inception":"uuuu",
    "geom:area":0.0,
    "geom:area_square_m":0.0,
    "geom:bbox":"-80.29867,40.61673,-80.29867,40.61673",
    "geom:latitude":40.61673,
    "geom:longitude":-80.29867,
    "gn:gn_country":"US",
    "gn:gn_fcode":"ADMD",
    "gn:gn_pop":0,
    "iso:country":"US",
    "lbl:latitude":40.61673,
    "lbl:longitude":-80.29867,
    "mz:hierarchy_label":1,
    "mz:is_current":0,
    "mz:note":"Quattroshapes Point Gazetteer import 20170519",
    "name:eng_x_preferred":[
        "Center Township"
    ],
    "qs_pg:aaroncc":"US",
    "qs_pg:gn_country":"US",
    "qs_pg:gn_fcode":"ADMD",
    "qs_pg:gn_id":5183671,
    "qs_pg:gn_pop":0,
    "qs_pg:name":"Township of Center",
    "qs_pg:photos_9r":0,
    "qs_pg:photos_sr":0,
    "qs_pg:pop_sr":0,
    "qs_pg:qs_id":1152815,
    "qs_pg:qs_pg_placetype":"localadmin",
    "src:geom":"qs_pg",
    "src:lbl:centroid":"qs_pg",
    "wof:belongsto":[
        85633793
    ],
    "wof:breaches":[],
    "wof:concordances":{
        "gn:id":5183671,
        "qs_pg:id":1152815
    },
    "wof:country":"US",
    "wof:created":1497049609,
    "wof:geomhash":"4dc4a3e4924da742b750b755a8717d4e",
    "wof:hierarchy":[
        {
            "country_id":85633793,
            "localadmin_id":1125405389
        }
    ],
    "wof:id":1125405389,
    "wof:lastmodified":1505248210,
    "wof:name":"Township of Center",
    "wof:parent_id":-1,
    "wof:placetype":"localadmin",
    "wof:repo":"whosonfirst-data-admin-us",
    "wof:superseded_by":[],
    "wof:supersedes":[],
    "wof:tags":[]
},
  "bbox": [
    -80.29867,
    40.61673,
    -80.29867,
    40.61673
],
  "geometry": {"coordinates":[-80.29867,40.61673],"type":"Point"}
}