{
  "id": 85886057,
  "type": "Feature",
  "properties": {"wof:repo":"whosonfirst-data-admin-us",
    "src:geom":"quattroshapes",
    "wof:geomhash":"274e8c0859c9b9c969b49c33e25b5c9b",
    "wof:id":85886057
},
  "bbox": [
    -118.37219238299986,
    33.96614220460046,
    -118.35382395520907,
    33.98436372830005
],
  "geometry": {"coordinates":[[[-118.35968231916550,33.97936859376871],[-118.35845947299984,33.97907366085028],[-118.35578811366912,33.97971795432422],[-118.35571289099997,33.97944581784074],[-118.35455406637394,33.97525348510004],[-118.35397466368249,33.97315735353830],[-118.35382395520907,33.97297561920023],[-118.35571284039048,33.97069799740018],[-118.35571289099997,33.97069793637522],[-118.35571289099997,33.96614226560003],[-118.35571289099988,33.96614220460046],[-118.36120605499991,33.96614220460046],[-118.36120610559090,33.96614226560003],[-118.36309519320790,33.96842000947539],[-118.36481008079193,33.96842000947539],[-118.36669921899983,33.97069793637522],[-118.36669921899983,33.97069799740009],[-118.36669921899983,33.97385603435906],[-118.36944580099998,33.97496002354748],[-118.36944580099998,33.97525348510004],[-118.36944580099998,33.97753112850441],[-118.37219238299986,33.97753113159065],[-118.37219238299986,33.97980872870006],[-118.37219238299986,33.98120613920808],[-118.37219238299986,33.98436366727536],[-118.37219238299986,33.98436372830005],[-118.36669921900003,33.98436372830005],[-118.36120605500000,33.98436372830005],[-118.36120605499991,33.98296624982649],[-118.36120605499991,33.98120613920808],[-118.36004728938747,33.97980872870006],[-118.35968231916550,33.97936859376871]]],"type":"Polygon"}
}