{
  "id": 1259405427,
  "type": "Feature",
  "properties": {
    "edtf:cessation":"uuuu",
    "edtf:inception":"uuuu",
    "geom:area":0.0,
    "geom:area_square_m":0.0,
    "geom:bbox":"-117.03933,46.53183,-117.03933,46.53183",
    "geom:latitude":46.53183,
    "geom:longitude":-117.03933,
    "gn:admin1_code":"WA",
    "gn:admin2_code":"75.0",
    "gn:asciiname":"Leon",
    "gn:country_code":"US",
    "gn:dem":785,
    "gn:elevation":"787.0",
    "gn:feature_class":"P",
    "gn:feature_code":"PPL",
    "gn:geonameid":5800774,
    "gn:latitude":46.53183,
    "gn:longitude":-117.03933,
    "gn:modification_date":"2006-01-15",
    "gn:name":"Leon",
    "gn:population":0,
    "gn:timezone":"America/Los_Angeles",
    "iso:country":"US",
    "mz:hierarchy_label":1,
    "mz:is_current":-1,
    "src:geom":"geonames",
    "wof:belongsto":[
        102191575,
        85633793,
        85688657,
        102086039
    ],
    "wof:breaches":[],
    "wof:concordances":{
        "gn:id":5800774
    },
    "wof:country":"US",
    "wof:geomhash":"e05e21f4adce4b4b89094e5aef045165",
    "wof:hierarchy":[
        {
            "continent_id":102191575,
            "country_id":85633793,
            "county_id":102086039,
            "locality_id":1259405427,
            "region_id":85688657
        }
    ],
    "wof:id":1259405427,
    "wof:lastmodified":1536970583,
    "wof:name":"Leon",
    "wof:parent_id":102086039,
    "wof:placetype":"locality",
    "wof:repo":"whosonfirst-data-admin-us",
    "wof:superseded_by":[],
    "wof:supersedes":[],
    "wof:tags":[]
},
  "bbox": [
    -117.03933,
    46.53183,
    -117.03933,
    46.53183
],
  "geometry": {"coordinates":[-117.03933000000001,46.53183],"type":"Point"}
}