{
  "id": 1125367619,
  "type": "Feature",
  "properties": {
    "edtf:cessation":"2017-05-19",
    "edtf:inception":"uuuu",
    "geom:area":0.0,
    "geom:area_square_m":0.0,
    "geom:bbox":"-97.43554,36.53611,-97.43554,36.53611",
    "geom:latitude":36.53611,
    "geom:longitude":-97.43554,
    "gn:gn_country":"US",
    "gn:gn_fcode":"ADMD",
    "gn:gn_pop":509,
    "gn:population":509,
    "iso:country":"US",
    "lbl:latitude":36.53611,
    "lbl:longitude":-97.43554,
    "mz:hierarchy_label":1,
    "mz:is_current":0,
    "mz:note":"Quattroshapes Point Gazetteer import 20170519",
    "qs_pg:aaroncc":"US",
    "qs_pg:gn_country":"US",
    "qs_pg:gn_fcode":"ADMD",
    "qs_pg:gn_id":7174296,
    "qs_pg:gn_pop":509,
    "qs_pg:name":"Town of Billings",
    "qs_pg:photos_9r":0,
    "qs_pg:photos_sr":0,
    "qs_pg:pop_sr":2,
    "qs_pg:qs_id":666868,
    "qs_pg:qs_pg_placetype":"localadmin",
    "src:geom":"qs_pg",
    "src:lbl:centroid":"qs_pg",
    "src:population":"geonames",
    "wof:belongsto":[
        85633793
    ],
    "wof:breaches":[],
    "wof:concordances":{
        "gn:id":7174296,
        "qs_pg:id":666868
    },
    "wof:country":"US",
    "wof:created":1497047177,
    "wof:geomhash":"5d9748fbc350429b1c9f7b506d057c1e",
    "wof:hierarchy":[
        {
            "country_id":85633793,
            "localadmin_id":1125367619
        }
    ],
    "wof:id":1125367619,
    "wof:lastmodified":1505187139,
    "wof:name":"Town of Billings",
    "wof:parent_id":-1,
    "wof:placetype":"localadmin",
    "wof:population":509,
    "wof:population_rank":2,
    "wof:repo":"whosonfirst-data-admin-us",
    "wof:superseded_by":[],
    "wof:supersedes":[],
    "wof:tags":[]
},
  "bbox": [
    -97.43554,
    36.53611,
    -97.43554,
    36.53611
],
  "geometry": {"coordinates":[-97.43554,36.53611],"type":"Point"}
}