{
  "id": 1242812523,
  "type": "Feature",
  "properties": {
    "edtf:cessation":"2018-09-06",
    "edtf:inception":"uuuu",
    "geom:area":0.0,
    "geom:area_square_m":0.0,
    "geom:bbox":"-120.20823,37.19855,-120.20823,37.19855",
    "geom:latitude":37.19855,
    "geom:longitude":-120.20823,
    "gn:admin1_code":"CA",
    "gn:admin2_code":"47",
    "gn:asciiname":"Dickenson (historical)",
    "gn:country_code":"US",
    "gn:dem":85,
    "gn:elevation":"83.0",
    "gn:feature_class":"P",
    "gn:feature_code":"PPLQ",
    "gn:geonameid":5343068,
    "gn:latitude":37.19855,
    "gn:longitude":-120.20823,
    "gn:modification_date":"2011-12-12",
    "gn:name":"Dickenson (historical)",
    "gn:population":0,
    "gn:timezone":"America/Los_Angeles",
    "iso:country":"US",
    "mz:hierarchy_label":1,
    "mz:is_current":0,
    "src:geom":"geonames",
    "wof:belongsto":[
        102191575,
        85633793,
        85688637,
        102087591
    ],
    "wof:breaches":[],
    "wof:concordances":{
        "gn:id":5343068
    },
    "wof:country":"US",
    "wof:geomhash":"a123d2439d2712cbfd3ce1eeb15ecf93",
    "wof:hierarchy":[
        {
            "continent_id":102191575,
            "country_id":85633793,
            "county_id":102087591,
            "locality_id":1242812523,
            "region_id":85688637
        }
    ],
    "wof:id":1242812523,
    "wof:lastmodified":1536725729,
    "wof:name":"Dickenson (historical)",
    "wof:parent_id":102087591,
    "wof:placetype":"locality",
    "wof:repo":"whosonfirst-data-admin-us",
    "wof:superseded_by":[],
    "wof:supersedes":[],
    "wof:tags":[]
},
  "bbox": [
    -120.20823,
    37.19855,
    -120.20823,
    37.19855
],
  "geometry": {"coordinates":[-120.20823,37.19855],"type":"Point"}
}