{
  "id": 1125393205,
  "type": "Feature",
  "properties": {
    "edtf:cessation":"2017-05-19",
    "edtf:inception":"uuuu",
    "geom:area":0.0,
    "geom:area_square_m":0.0,
    "geom:bbox":"-89.86818,43.66859,-89.86818,43.66859",
    "geom:latitude":43.66859,
    "geom:longitude":-89.86818,
    "gn:gn_country":"US",
    "gn:gn_fcode":"ADMD",
    "gn:gn_pop":0,
    "gn:population":1352,
    "iso:country":"US",
    "lbl:latitude":43.66859,
    "lbl:longitude":-89.86818,
    "mz:hierarchy_label":1,
    "mz:is_current":0,
    "mz:note":"Quattroshapes Point Gazetteer import 20170519",
    "name:eng_x_preferred":[
        "Town of Lyndon"
    ],
    "name:unk_x_variant":[
        "Lyndon Township"
    ],
    "qs_pg:aaroncc":"US",
    "qs_pg:gn_country":"US",
    "qs_pg:gn_fcode":"ADMD",
    "qs_pg:gn_id":5261380,
    "qs_pg:gn_pop":0,
    "qs_pg:name":"Town of Lyndon",
    "qs_pg:photos_9r":0,
    "qs_pg:photos_sr":0,
    "qs_pg:pop_sr":0,
    "qs_pg:qs_id":1040028,
    "qs_pg:qs_pg_placetype":"localadmin",
    "src:geom":"qs_pg",
    "src:lbl:centroid":"qs_pg",
    "src:population":"geonames",
    "wof:belongsto":[
        85633793
    ],
    "wof:breaches":[],
    "wof:concordances":{
        "gn:id":5261380,
        "qs_pg:id":1040028
    },
    "wof:country":"US",
    "wof:created":1497048834,
    "wof:geomhash":"e0e1bb8fdfc34588d181002112d99f3a",
    "wof:hierarchy":[
        {
            "country_id":85633793,
            "localadmin_id":1125393205
        }
    ],
    "wof:id":1125393205,
    "wof:lastmodified":1505186990,
    "wof:name":"Town of Lyndon",
    "wof:parent_id":-1,
    "wof:placetype":"localadmin",
    "wof:population":1352,
    "wof:population_rank":3,
    "wof:repo":"whosonfirst-data-admin-us",
    "wof:superseded_by":[],
    "wof:supersedes":[],
    "wof:tags":[]
},
  "bbox": [
    -89.86818,
    43.66859,
    -89.86818,
    43.66859
],
  "geometry": {"coordinates":[-89.86818,43.66859],"type":"Point"}
}