{
  "id": 1125378921,
  "type": "Feature",
  "properties": {
    "edtf:cessation":"2017-05-19",
    "edtf:inception":"uuuu",
    "geom:area":0.0,
    "geom:area_square_m":0.0,
    "geom:bbox":"-91.8549,45.68912,-91.8549,45.68912",
    "geom:latitude":45.68912,
    "geom:longitude":-91.8549,
    "gn:gn_country":"US",
    "gn:gn_fcode":"ADMD",
    "gn:gn_pop":0,
    "gn:population":381,
    "iso:country":"US",
    "lbl:latitude":45.68912,
    "lbl:longitude":-91.8549,
    "mz:hierarchy_label":1,
    "mz:is_current":0,
    "mz:note":"Quattroshapes Point Gazetteer import 20170519",
    "qs_pg:aaroncc":"US",
    "qs_pg:gn_country":"US",
    "qs_pg:gn_fcode":"ADMD",
    "qs_pg:gn_id":5272219,
    "qs_pg:gn_pop":0,
    "qs_pg:name":"Town of Sarona",
    "qs_pg:photos_9r":0,
    "qs_pg:photos_sr":0,
    "qs_pg:pop_sr":0,
    "qs_pg:qs_id":377802,
    "qs_pg:qs_pg_placetype":"localadmin",
    "src:geom":"qs_pg",
    "src:lbl:centroid":"qs_pg",
    "src:population":"geonames",
    "wof:belongsto":[
        85633793
    ],
    "wof:breaches":[],
    "wof:concordances":{
        "gn:id":5272219,
        "qs_pg:id":377802
    },
    "wof:country":"US",
    "wof:created":1497047925,
    "wof:geomhash":"98ec46ce7406239845cde39d99e09a93",
    "wof:hierarchy":[
        {
            "country_id":85633793,
            "localadmin_id":1125378921
        }
    ],
    "wof:id":1125378921,
    "wof:lastmodified":1505186993,
    "wof:name":"Town of Sarona",
    "wof:parent_id":-1,
    "wof:placetype":"localadmin",
    "wof:population":381,
    "wof:population_rank":2,
    "wof:repo":"whosonfirst-data-admin-us",
    "wof:superseded_by":[],
    "wof:supersedes":[],
    "wof:tags":[]
},
  "bbox": [
    -91.8549,
    45.68912,
    -91.8549,
    45.68912
],
  "geometry": {"coordinates":[-91.8549,45.68912],"type":"Point"}
}