{
  "id": 420521681,
  "type": "Feature",
  "properties": {
    "edtf:cessation":"uuuu",
    "edtf:inception":"uuuu",
    "geom:area":0.0,
    "geom:area_square_m":63619.909285,
    "geom:bbox":"-91.06157,30.440688,-91.06157,30.440688",
    "geom:latitude":30.440688,
    "geom:longitude":-91.06157,
    "iso:country":"US",
    "lbl:latitude":30.440688,
    "lbl:longitude":-91.06157,
    "mz:hierarchy_label":0,
    "mz:is_current":-1,
    "name:eng_x_preferred":[
        "Broadmoor Forest"
    ],
    "src:geom":"mz",
    "src:geom_alt":[
        "zetashapes"
    ],
    "src:lbl":"mapshaper",
    "src:lbl:centroid":"mapshaper",
    "src:population":"zetashapes",
    "wof:belongsto":[
        102191575,
        85633793,
        85948205,
        102087229,
        85688735
    ],
    "wof:breaches":[],
    "wof:concordances":{
        "gp:id":2369528
    },
    "wof:country":"US",
    "wof:geomhash":"f61ff7dca5f29370028ec95cdbfcbd9e",
    "wof:hierarchy":[
        {
            "continent_id":102191575,
            "country_id":85633793,
            "county_id":102087229,
            "locality_id":85948205,
            "neighbourhood_id":420521681,
            "region_id":85688735
        }
    ],
    "wof:id":420521681,
    "wof:lastmodified":1533594743,
    "wof:name":"Broadmoor Forest",
    "wof:parent_id":85948205,
    "wof:placetype":"neighbourhood",
    "wof:population":84,
    "wof:population_rank":1,
    "wof:repo":"whosonfirst-data-admin-us",
    "wof:superseded_by":[],
    "wof:supersedes":[],
    "wof:tags":[],
    "zs:area_m":63615.527802,
    "zs:blockids":[
        220330037023027,
        220330037023026
    ],
    "zs:housing10":40,
    "zs:id":2369528,
    "zs:label":"Broadmoor Forest",
    "zs:pop10":84
},
  "bbox": [
    -91.06157,
    30.440688,
    -91.06157,
    30.440688
],
  "geometry": {"coordinates":[-91.06157,30.440688],"type":"Point"}
}