{
  "id": 420527379,
  "type": "Feature",
  "properties": {
    "edtf:cessation":"uuuu",
    "edtf:inception":"uuuu",
    "geom:area":0.0,
    "geom:area_square_m":3561248.819435,
    "geom:bbox":"-74.302887,40.17567,-74.302887,40.17567",
    "geom:latitude":40.17567,
    "geom:longitude":-74.302887,
    "iso:country":"US",
    "lbl:latitude":40.17567,
    "lbl:longitude":-74.302887,
    "mz:hierarchy_label":0,
    "mz:is_current":-1,
    "name:eng_x_preferred":[
        "Harmony"
    ],
    "src:geom":"mz",
    "src:geom_alt":[
        "zetashapes"
    ],
    "src:lbl":"mapshaper",
    "src:lbl:centroid":"mapshaper",
    "src:population":"zetashapes",
    "wof:belongsto":[
        102191575,
        404478343,
        85633793,
        102085049,
        85688607
    ],
    "wof:breaches":[],
    "wof:concordances":{
        "gp:id":2417738
    },
    "wof:country":"US",
    "wof:geomhash":"be8274ececc95b1c86a12a71c7b73544",
    "wof:hierarchy":[
        {
            "continent_id":102191575,
            "country_id":85633793,
            "county_id":102085049,
            "localadmin_id":404478343,
            "locality_id":-1,
            "neighbourhood_id":420527379,
            "region_id":85688607
        }
    ],
    "wof:id":420527379,
    "wof:lastmodified":1533596470,
    "wof:name":"Harmony",
    "wof:parent_id":-1,
    "wof:placetype":"neighbourhood",
    "wof:population":641,
    "wof:population_rank":2,
    "wof:repo":"whosonfirst-data-admin-us",
    "wof:superseded_by":[],
    "wof:supersedes":[
        420527305
    ],
    "wof:tags":[],
    "zs:blockids":[
        340297171013014,
        340297171013015,
        340258106003044,
        340258106002033,
        340258106003040,
        340258106003030,
        340258106003039,
        340258106003037,
        340258106003038,
        340258106002032
    ],
    "zs:housing10":193,
    "zs:id":2417738,
    "zs:label":"Harmony",
    "zs:pop10":641
},
  "bbox": [
    -74.302887,
    40.17567,
    -74.302887,
    40.17567
],
  "geometry": {"coordinates":[-74.302887,40.17567],"type":"Point"}
}