{
  "id": 1125318945,
  "type": "Feature",
  "properties": {
    "edtf:cessation":"uuuu",
    "edtf:deprecated":"2017-11-15",
    "edtf:inception":"uuuu",
    "geom:area":0.0,
    "geom:area_square_m":0.0,
    "geom:bbox":"-83.52317,35.86511,-83.52317,35.86511",
    "geom:latitude":35.86511,
    "geom:longitude":-83.52317,
    "gn:gn_country":"US",
    "gn:gn_fcode":"ADMD",
    "gn:gn_pop":14807,
    "gn:population":14807,
    "iso:country":"US",
    "lbl:latitude":35.86511,
    "lbl:longitude":-83.52317,
    "mz:hierarchy_label":1,
    "mz:is_current":0,
    "mz:note":"Quattroshapes Point Gazetteer import 20170519",
    "qs_pg:aaroncc":"US",
    "qs_pg:gn_country":"US",
    "qs_pg:gn_fcode":"ADMD",
    "qs_pg:gn_id":7170805,
    "qs_pg:gn_pop":14807,
    "qs_pg:name":"City of Sevierville",
    "qs_pg:photos_9r":0,
    "qs_pg:photos_sr":0,
    "qs_pg:pop_sr":6,
    "qs_pg:qs_id":663464,
    "qs_pg:qs_pg_placetype":"localadmin",
    "src:geom":"qs_pg",
    "src:lbl:centroid":"qs_pg",
    "src:population":"geonames",
    "wof:belongsto":[
        85633793
    ],
    "wof:breaches":[],
    "wof:concordances":{
        "gn:id":7170805,
        "qs_pg:id":663464
    },
    "wof:country":"US",
    "wof:created":1497044416,
    "wof:geomhash":"bf5636ce19eb7dab58be2bd091ec8dc4",
    "wof:hierarchy":[
        {
            "country_id":85633793,
            "localadmin_id":1125318945
        }
    ],
    "wof:id":1125318945,
    "wof:lastmodified":1510790353,
    "wof:name":"City of Sevierville",
    "wof:parent_id":-1,
    "wof:placetype":"localadmin",
    "wof:population":14807,
    "wof:population_rank":6,
    "wof:repo":"whosonfirst-data-admin-us",
    "wof:superseded_by":[
        101722577
    ],
    "wof:supersedes":[],
    "wof:tags":[]
},
  "bbox": [
    -83.52317,
    35.86511,
    -83.52317,
    35.86511
],
  "geometry": {"coordinates":[-83.52316999999999,35.86511],"type":"Point"}
}