{
  "id": 1360201125,
  "type": "Feature",
  "properties": {
    "edtf:cessation":"uuuu",
    "edtf:inception":"uuuu",
    "geom:area":0.0,
    "geom:area_square_m":0.0,
    "geom:bbox":"-117.92757,35.54773,-117.92757,35.54773",
    "geom:latitude":35.54773,
    "geom:longitude":-117.92757,
    "gn:admin1_code":"CA",
    "gn:admin2_code":"29.0",
    "gn:asciiname":"Armistead",
    "gn:country_code":"US",
    "gn:dem":936,
    "gn:elevation":"935.0",
    "gn:feature_class":"P",
    "gn:feature_code":"PPL",
    "gn:geonameid":5324665,
    "gn:latitude":35.54773,
    "gn:longitude":-117.92757,
    "gn:modification_date":"2006-01-15",
    "gn:name":"Armistead",
    "gn:population":0,
    "gn:timezone":"America/Los_Angeles",
    "iso:country":"US",
    "mz:hierarchy_label":1,
    "mz:is_current":-1,
    "src:geom":"geonames",
    "wof:belongsto":[
        102191575,
        85633793,
        85688637,
        102081727
    ],
    "wof:breaches":[],
    "wof:concordances":{
        "gn:id":5324665,
        "wk:page":"Armistead%2C_California"
    },
    "wof:country":"US",
    "wof:geomhash":"2f08efec0be251a3b40d03ae7fa21ccb",
    "wof:hierarchy":[
        {
            "continent_id":102191575,
            "country_id":85633793,
            "county_id":102081727,
            "locality_id":1360201125,
            "region_id":85688637
        }
    ],
    "wof:id":1360201125,
    "wof:lastmodified":1537575613,
    "wof:name":"Armistead",
    "wof:parent_id":102081727,
    "wof:placetype":"locality",
    "wof:repo":"whosonfirst-data-admin-us",
    "wof:superseded_by":[],
    "wof:supersedes":[],
    "wof:tags":[]
},
  "bbox": [
    -117.92757,
    35.54773,
    -117.92757,
    35.54773
],
  "geometry": {"coordinates":[-117.92757,35.54773],"type":"Point"}
}