{
  "id": 1242793507,
  "type": "Feature",
  "properties": {
    "edtf:cessation":"uuuu",
    "edtf:inception":"uuuu",
    "geom:area":0.0,
    "geom:area_square_m":0.0,
    "geom:bbox":"-92.57487,33.22513,-92.57487,33.22513",
    "geom:latitude":33.22513,
    "geom:longitude":-92.57487,
    "gn:admin1_code":"AR",
    "gn:admin2_code":"139.0",
    "gn:admin3_code":"91365.0",
    "gn:asciiname":"Smithville",
    "gn:country_code":"US",
    "gn:dem":77,
    "gn:elevation":"70.0",
    "gn:feature_class":"P",
    "gn:feature_code":"PPL",
    "gn:geonameid":4131518,
    "gn:latitude":33.22513,
    "gn:longitude":-92.57487,
    "gn:modification_date":"2017-05-23",
    "gn:name":"Smithville",
    "gn:population":0,
    "gn:timezone":"America/Chicago",
    "iso:country":"US",
    "mz:hierarchy_label":1,
    "mz:is_current":-1,
    "src:geom":"geonames",
    "wof:belongsto":[
        102191575,
        85633793,
        85688549,
        102082501
    ],
    "wof:breaches":[],
    "wof:concordances":{
        "gn:id":4131518
    },
    "wof:country":"US",
    "wof:geomhash":"91ae912826dcbfd2f32fac50f91f7ef0",
    "wof:hierarchy":[
        {
            "continent_id":102191575,
            "country_id":85633793,
            "county_id":102082501,
            "locality_id":1242793507,
            "region_id":85688549
        }
    ],
    "wof:id":1242793507,
    "wof:lastmodified":1536752569,
    "wof:name":"Smithville",
    "wof:parent_id":102082501,
    "wof:placetype":"locality",
    "wof:repo":"whosonfirst-data-admin-us",
    "wof:superseded_by":[],
    "wof:supersedes":[],
    "wof:tags":[]
},
  "bbox": [
    -92.57487,
    33.22513,
    -92.57487,
    33.22513
],
  "geometry": {"coordinates":[-92.57487,33.22513],"type":"Point"}
}