{
  "id": 1293808159,
  "type": "Feature",
  "properties": {
    "edtf:cessation":"uuuu",
    "edtf:inception":"uuuu",
    "geom:area":0.0,
    "geom:area_square_m":0.0,
    "geom:bbox":"-77.58999,37.09654,-77.58999,37.09654",
    "geom:latitude":37.09654,
    "geom:longitude":-77.58999,
    "gn:admin1_code":"VA",
    "gn:admin2_code":"53",
    "gn:asciiname":"Bonneville",
    "gn:country_code":"US",
    "gn:dem":82,
    "gn:elevation":"85.0",
    "gn:feature_class":"P",
    "gn:feature_code":"PPL",
    "gn:geonameid":4748340,
    "gn:latitude":37.09654,
    "gn:longitude":-77.58999,
    "gn:modification_date":"2006-01-15",
    "gn:name":"Bonneville",
    "gn:population":0,
    "gn:timezone":"America/New_York",
    "iso:country":"US",
    "mz:hierarchy_label":1,
    "mz:is_current":-1,
    "src:geom":"geonames",
    "wof:belongsto":[
        102191575,
        85633793,
        85688747,
        102084899
    ],
    "wof:breaches":[],
    "wof:concordances":{
        "gn:id":4748340
    },
    "wof:country":"US",
    "wof:geomhash":"4b3945b8de6c6c9fd49f27b96ce42e4b",
    "wof:hierarchy":[
        {
            "continent_id":102191575,
            "country_id":85633793,
            "county_id":102084899,
            "locality_id":1293808159,
            "region_id":85688747
        }
    ],
    "wof:id":1293808159,
    "wof:lastmodified":1536821012,
    "wof:name":"Bonneville",
    "wof:parent_id":102084899,
    "wof:placetype":"locality",
    "wof:repo":"whosonfirst-data-admin-us",
    "wof:superseded_by":[],
    "wof:supersedes":[],
    "wof:tags":[]
},
  "bbox": [
    -77.58999,
    37.09654000000001,
    -77.58999,
    37.09654000000001
],
  "geometry": {"coordinates":[-77.58999,37.09654000000001],"type":"Point"}
}