{
  "id": 1125280977,
  "type": "Feature",
  "properties": {
    "edtf:cessation":"uuuu",
    "edtf:deprecated":"2017-11-15",
    "edtf:inception":"uuuu",
    "geom:area":0.0,
    "geom:area_square_m":0.0,
    "geom:bbox":"-90.27103,35.3758,-90.27103,35.3758",
    "geom:latitude":35.3758,
    "geom:longitude":-90.27103,
    "gn:gn_country":"US",
    "gn:gn_fcode":"ADMD",
    "gn:gn_pop":615,
    "gn:population":615,
    "iso:country":"US",
    "lbl:latitude":35.3758,
    "lbl:longitude":-90.27103,
    "mz:hierarchy_label":1,
    "mz:is_current":0,
    "mz:note":"Quattroshapes Point Gazetteer import 20170519",
    "qs_pg:aaroncc":"US",
    "qs_pg:gn_country":"US",
    "qs_pg:gn_fcode":"ADMD",
    "qs_pg:gn_id":7170917,
    "qs_pg:gn_pop":615,
    "qs_pg:name":"City of Turrell",
    "qs_pg:photos_9r":0,
    "qs_pg:photos_sr":0,
    "qs_pg:pop_sr":2,
    "qs_pg:qs_id":663576,
    "qs_pg:qs_pg_placetype":"localadmin",
    "src:geom":"qs_pg",
    "src:lbl:centroid":"qs_pg",
    "src:population":"geonames",
    "wof:belongsto":[
        85633793
    ],
    "wof:breaches":[],
    "wof:concordances":{
        "gn:id":7170917,
        "qs_pg:id":663576
    },
    "wof:country":"US",
    "wof:created":1497042499,
    "wof:geomhash":"3474afb45254e297578a7b8cbdb329d8",
    "wof:hierarchy":[
        {
            "country_id":85633793,
            "localadmin_id":1125280977
        }
    ],
    "wof:id":1125280977,
    "wof:lastmodified":1510790346,
    "wof:name":"City of Turrell",
    "wof:parent_id":-1,
    "wof:placetype":"localadmin",
    "wof:population":615,
    "wof:population_rank":2,
    "wof:repo":"whosonfirst-data-admin-us",
    "wof:superseded_by":[
        85920247
    ],
    "wof:supersedes":[],
    "wof:tags":[]
},
  "bbox": [
    -90.27103,
    35.3758,
    -90.27103,
    35.3758
],
  "geometry": {"coordinates":[-90.27103,35.3758],"type":"Point"}
}