{
  "id": 1125406687,
  "type": "Feature",
  "properties": {
    "edtf:cessation":"2017-05-19",
    "edtf:inception":"uuuu",
    "geom:area":0.0,
    "geom:area_square_m":0.0,
    "geom:bbox":"-82.5995,41.28828,-82.5995,41.28828",
    "geom:latitude":41.28828,
    "geom:longitude":-82.5995,
    "gn:gn_country":"US",
    "gn:gn_fcode":"ADMD",
    "gn:gn_pop":1367,
    "gn:population":1367,
    "iso:country":"US",
    "lbl:latitude":41.28828,
    "lbl:longitude":-82.5995,
    "mz:hierarchy_label":1,
    "mz:is_current":0,
    "mz:note":"Quattroshapes Point Gazetteer import 20170519",
    "qs_pg:aaroncc":"US",
    "qs_pg:gn_country":"US",
    "qs_pg:gn_fcode":"ADMD",
    "qs_pg:gn_id":7167005,
    "qs_pg:gn_pop":1367,
    "qs_pg:name":"Village of Milan",
    "qs_pg:photos_9r":0,
    "qs_pg:photos_sr":0,
    "qs_pg:pop_sr":3,
    "qs_pg:qs_id":661789,
    "qs_pg:qs_pg_placetype":"localadmin",
    "src:geom":"qs_pg",
    "src:lbl:centroid":"qs_pg",
    "src:population":"geonames",
    "wof:belongsto":[
        85633793
    ],
    "wof:breaches":[],
    "wof:concordances":{
        "gn:id":7167005,
        "qs_pg:id":661789
    },
    "wof:country":"US",
    "wof:created":1497049682,
    "wof:geomhash":"e9df031e4fe2deed541031a07fdd7443",
    "wof:hierarchy":[
        {
            "country_id":85633793,
            "localadmin_id":1125406687
        }
    ],
    "wof:id":1125406687,
    "wof:lastmodified":1505187072,
    "wof:name":"Village of Milan",
    "wof:parent_id":-1,
    "wof:placetype":"localadmin",
    "wof:population":1367,
    "wof:population_rank":3,
    "wof:repo":"whosonfirst-data-admin-us",
    "wof:superseded_by":[],
    "wof:supersedes":[],
    "wof:tags":[]
},
  "bbox": [
    -82.5995,
    41.28828,
    -82.5995,
    41.28828
],
  "geometry": {"coordinates":[-82.59950000000001,41.28828],"type":"Point"}
}