{
  "id": 1125366871,
  "type": "Feature",
  "properties": {
    "edtf:cessation":"uuuu",
    "edtf:deprecated":"2017-11-04",
    "edtf:inception":"uuuu",
    "geom:area":0.0,
    "geom:area_square_m":0.0,
    "geom:bbox":"-98.15177,45.88191,-98.15177,45.88191",
    "geom:latitude":45.88191,
    "geom:longitude":-98.15177,
    "gn:gn_country":"US",
    "gn:gn_fcode":"ADMD",
    "gn:gn_pop":227,
    "gn:population":227,
    "iso:country":"US",
    "lbl:latitude":45.88191,
    "lbl:longitude":-98.15177,
    "mz:hierarchy_label":1,
    "mz:is_current":0,
    "mz:note":"Quattroshapes Point Gazetteer import 20170519",
    "qs_pg:aaroncc":"US",
    "qs_pg:gn_country":"US",
    "qs_pg:gn_fcode":"ADMD",
    "qs_pg:gn_id":5228399,
    "qs_pg:gn_pop":227,
    "qs_pg:name":"City of Hecla",
    "qs_pg:photos_9r":0,
    "qs_pg:photos_sr":0,
    "qs_pg:pop_sr":2,
    "qs_pg:qs_id":101596,
    "qs_pg:qs_pg_placetype":"localadmin",
    "src:geom":"qs_pg",
    "src:lbl:centroid":"qs_pg",
    "src:population":"geonames",
    "wof:belongsto":[
        85633793
    ],
    "wof:breaches":[],
    "wof:concordances":{
        "gn:id":5228399,
        "qs_pg:id":101596
    },
    "wof:country":"US",
    "wof:created":1497047130,
    "wof:geomhash":"45e088f83dca443f424d0fe702197e63",
    "wof:hierarchy":[
        {
            "country_id":85633793,
            "localadmin_id":1125366871
        }
    ],
    "wof:id":1125366871,
    "wof:lastmodified":1509752668,
    "wof:name":"City of Hecla",
    "wof:parent_id":-1,
    "wof:placetype":"localadmin",
    "wof:population":227,
    "wof:population_rank":2,
    "wof:repo":"whosonfirst-data-admin-us",
    "wof:superseded_by":[
        101722211
    ],
    "wof:supersedes":[],
    "wof:tags":[]
},
  "bbox": [
    -98.15177,
    45.88191,
    -98.15177,
    45.88191
],
  "geometry": {"coordinates":[-98.15177,45.88191],"type":"Point"}
}