{
  "id": 1126098361,
  "type": "Feature",
  "properties": {
    "edtf:cessation":"uuuu",
    "edtf:deprecated":"2018-08-15",
    "edtf:inception":"uuuu",
    "edtf:superseded":"2018-08-15",
    "geom:area":0.0,
    "geom:area_square_m":0.0,
    "geom:bbox":"-75.03767,39.82345,-75.03767,39.82345",
    "geom:latitude":39.82345,
    "geom:longitude":-75.03767,
    "gn:gn_country":"US",
    "gn:gn_fcode":"PPL",
    "gn:gn_pop":0,
    "iso:country":"US",
    "lbl:latitude":39.82345,
    "lbl:longitude":-75.03767,
    "mz:hierarchy_label":1,
    "mz:is_current":0,
    "mz:note":"Quattroshapes Point Gazetteer import 20170519",
    "qs_pg:aaroncc":"US",
    "qs_pg:gn_country":"US",
    "qs_pg:gn_fcode":"PPL",
    "qs_pg:gn_id":4504615,
    "qs_pg:gn_pop":0,
    "qs_pg:name":"Village of Glen Oaks",
    "qs_pg:name_adm0":"United States",
    "qs_pg:name_adm1":"New Jersey",
    "qs_pg:photos":147,
    "qs_pg:photos_1k":30,
    "qs_pg:photos_9k":1,
    "qs_pg:photos_9r":3,
    "qs_pg:photos_all":147,
    "qs_pg:photos_sr":3,
    "qs_pg:pop_sr":0,
    "qs_pg:qs_id":233354,
    "qs_pg:qs_pg_placetype":"neighbourhood",
    "qs_pg:qs_pg_placetype_gp":"Suburb",
    "qs_pg:woe_adm0":23424977,
    "qs_pg:woe_id":2512364,
    "src:geom":"qs_pg",
    "src:lbl:centroid":"qs_pg",
    "woe:adm0_id":23424977,
    "woe:name_adm0":"United States",
    "woe:name_adm1":"New Jersey",
    "woe:placetype":"Suburb",
    "wof:belongsto":[
        102191575,
        404478001,
        85633793,
        102081131,
        85688607
    ],
    "wof:breaches":[],
    "wof:concordances":{
        "gn:id":4504615,
        "gp:id":2512364,
        "qs_pg:id":233354
    },
    "wof:country":"US",
    "wof:created":1497315597,
    "wof:geomhash":"7b1f6c8cac235d89d74306eb21f3efd9",
    "wof:hierarchy":[
        {
            "continent_id":102191575,
            "country_id":85633793,
            "county_id":102081131,
            "localadmin_id":404478001,
            "locality_id":-1,
            "neighbourhood_id":1126098361,
            "region_id":85688607
        }
    ],
    "wof:id":1126098361,
    "wof:lastmodified":1534379517,
    "wof:name":"Village of Glen Oaks",
    "wof:parent_id":-1,
    "wof:placetype":"neighbourhood",
    "wof:repo":"whosonfirst-data-admin-us",
    "wof:superseded_by":[
        85853873
    ],
    "wof:supersedes":[],
    "wof:tags":[]
},
  "bbox": [
    -75.03767,
    39.82345,
    -75.03767,
    39.82345
],
  "geometry": {"coordinates":[-75.03767000000001,39.82345],"type":"Point"}
}