{
  "id": 85896163,
  "type": "Feature",
  "properties": {"wof:repo":"whosonfirst-data-admin-us",
    "src:geom":"quattroshapes",
    "wof:geomhash":"19c07bba08cc95ac012ecb7a12cd0f91",
    "wof:id":85896163
},
  "bbox": [
    -80.19607543944991,
    25.7365303567411,
    -80.18646240231348,
    25.751805620561868
],
  "geometry": {"coordinates":[[[-80.18920898438182,25.75180562056187],[-80.18920898439001,25.75042483590006],[-80.18920898438529,25.74864137428798],[-80.18858713337886,25.74795097267931],[-80.18646240231348,25.74795096988980],[-80.18646240231621,25.74547706740009],[-80.18646240232493,25.74104699598647],[-80.18646240232493,25.73957944222352],[-80.19195556639991,25.73653035674110],[-80.19470214842494,25.73805489947529],[-80.19470214841550,25.74052909280009],[-80.19470214841658,25.74409624020883],[-80.19470214841596,25.74547706740009],[-80.19470215027854,25.74795096927713],[-80.19607543944991,25.74947563427440],[-80.19607543944991,25.75042482302521],[-80.19579049942439,25.75105753448061],[-80.19470214839987,25.75166171366409],[-80.19454661055789,25.75174805779781],[-80.19195556639991,25.75078914234969],[-80.18920898438182,25.75180562056187]]],"type":"Polygon"}
}