{
  "id": 420549319,
  "type": "Feature",
  "properties": {
    "edtf:cessation":"uuuu",
    "edtf:inception":"uuuu",
    "geom:area":0.0,
    "geom:area_square_m":6317943.895111,
    "geom:bbox":"-122.506026,45.734951,-122.506026,45.734951",
    "geom:latitude":45.734951,
    "geom:longitude":-122.506026,
    "iso:country":"US",
    "lbl:latitude":45.734951,
    "lbl:longitude":-122.506026,
    "mz:hierarchy_label":0,
    "mz:is_current":-1,
    "name:eng_x_preferred":[
        "Perro Meadows"
    ],
    "src:geom":"mz",
    "src:geom_alt":[
        "zetashapes"
    ],
    "src:lbl":"mapshaper",
    "src:lbl:centroid":"mapshaper",
    "src:population":"zetashapes",
    "wof:belongsto":[
        102191575,
        85633793,
        101730737,
        102084251,
        85688623
    ],
    "wof:breaches":[],
    "wof:concordances":{
        "gp:id":55996018
    },
    "wof:country":"US",
    "wof:geomhash":"7f1fbba4cd6fb524c1fbc29ee54870ff",
    "wof:hierarchy":[
        {
            "continent_id":102191575,
            "country_id":85633793,
            "county_id":102084251,
            "locality_id":101730737,
            "neighbourhood_id":420549319,
            "region_id":85688623
        }
    ],
    "wof:id":420549319,
    "wof:lastmodified":1533604234,
    "wof:name":"Perro Meadows",
    "wof:parent_id":101730737,
    "wof:placetype":"neighbourhood",
    "wof:population":592,
    "wof:population_rank":2,
    "wof:repo":"whosonfirst-data-admin-us",
    "wof:superseded_by":[],
    "wof:supersedes":[],
    "wof:tags":[],
    "zs:area_m":6317498.940417,
    "zs:blockids":[
        530110407102001,
        530110407101011,
        530110407102000,
        530110405053010
    ],
    "zs:housing10":200,
    "zs:id":55996018,
    "zs:label":"Perro Meadows",
    "zs:pop10":592
},
  "bbox": [
    -122.506026,
    45.734951,
    -122.506026,
    45.734951
],
  "geometry": {"coordinates":[-122.50602600000001,45.734951],"type":"Point"}
}