{
  "id": 1226661755,
  "type": "Feature",
  "properties": {
    "edtf:cessation":"2018-09-07",
    "edtf:inception":"uuuu",
    "geom:area":0.0,
    "geom:area_square_m":0.0,
    "geom:bbox":"-86.10608,33.70232,-86.10608,33.70232",
    "geom:latitude":33.70232,
    "geom:longitude":-86.10608,
    "gn:admin1_code":"AL",
    "gn:admin2_code":"15",
    "gn:asciiname":"Minden (historical)",
    "gn:country_code":"US",
    "gn:dem":148,
    "gn:elevation":"151.0",
    "gn:feature_class":"P",
    "gn:feature_code":"PPLQ",
    "gn:geonameid":4076422,
    "gn:latitude":33.70232,
    "gn:longitude":-86.10608,
    "gn:modification_date":"2011-12-11",
    "gn:name":"Minden (historical)",
    "gn:population":0,
    "gn:timezone":"America/Chicago",
    "iso:country":"US",
    "mz:hierarchy_label":1,
    "mz:is_current":0,
    "src:geom":"geonames",
    "wof:belongsto":[
        102191575,
        85633793,
        85688675,
        102085603
    ],
    "wof:breaches":[],
    "wof:concordances":{
        "gn:id":4076422
    },
    "wof:country":"US",
    "wof:geomhash":"0f2cd85ff75da2ca6fdb6190722424bc",
    "wof:hierarchy":[
        {
            "continent_id":102191575,
            "country_id":85633793,
            "county_id":102085603,
            "locality_id":1226661755,
            "region_id":85688675
        }
    ],
    "wof:id":1226661755,
    "wof:lastmodified":1536835293,
    "wof:name":"Minden (historical)",
    "wof:parent_id":102085603,
    "wof:placetype":"locality",
    "wof:repo":"whosonfirst-data-admin-us",
    "wof:superseded_by":[],
    "wof:supersedes":[],
    "wof:tags":[]
},
  "bbox": [
    -86.10608,
    33.70232,
    -86.10608,
    33.70232
],
  "geometry": {"coordinates":[-86.10608000000001,33.70232],"type":"Point"}
}