{
  "id": 1209440993,
  "type": "Feature",
  "properties": {
    "edtf:cessation":"uuuu",
    "edtf:inception":"uuuu",
    "geom:area":0.0,
    "geom:area_square_m":0.0,
    "geom:bbox":"-85.57496,33.97621,-85.57496,33.97621",
    "geom:latitude":33.97621,
    "geom:longitude":-85.57496,
    "gn:admin1_code":"AL",
    "gn:admin2_code":"19",
    "gn:asciiname":"McFrey Crossroads",
    "gn:country_code":"US",
    "gn:dem":214,
    "gn:elevation":"214.0",
    "gn:feature_class":"P",
    "gn:feature_code":"PPL",
    "gn:geonameid":4075419,
    "gn:latitude":33.97621,
    "gn:longitude":-85.57496,
    "gn:modification_date":"2006-01-15",
    "gn:name":"McFrey Crossroads",
    "gn:population":0,
    "gn:timezone":"America/Chicago",
    "iso:country":"US",
    "mz:hierarchy_label":1,
    "mz:is_current":-1,
    "src:geom":"geonames",
    "wof:belongsto":[
        85633793
    ],
    "wof:breaches":[],
    "wof:concordances":{
        "gn:id":4075419,
        "wk:page":"McFrey_Crossroads%2C_Alabama"
    },
    "wof:country":"US",
    "wof:geomhash":"07e8c9dc4696af98eb7fe1da5a42c5e6",
    "wof:hierarchy":[
        {
            "country_id":85633793,
            "locality_id":1209440993
        }
    ],
    "wof:id":1209440993,
    "wof:lastmodified":1537575082,
    "wof:name":"McFrey Crossroads",
    "wof:parent_id":85633793,
    "wof:placetype":"locality",
    "wof:repo":"whosonfirst-data-admin-us",
    "wof:superseded_by":[],
    "wof:supersedes":[],
    "wof:tags":[]
},
  "bbox": [
    -85.57496,
    33.97620999999999,
    -85.57496,
    33.97620999999999
],
  "geometry": {"coordinates":[-85.57496,33.97620999999999],"type":"Point"}
}