{
  "id": 1293803587,
  "type": "Feature",
  "properties": {
    "edtf:cessation":"uuuu",
    "edtf:inception":"uuuu",
    "geom:area":0.0,
    "geom:area_square_m":0.0,
    "geom:bbox":"-76.6583,39.41177,-76.6583,39.41177",
    "geom:latitude":39.41177,
    "geom:longitude":-76.6583,
    "gn:admin1_code":"MD",
    "gn:admin2_code":"5.0",
    "gn:asciiname":"Sunset Knoll",
    "gn:country_code":"US",
    "gn:dem":90,
    "gn:elevation":"91.0",
    "gn:feature_class":"P",
    "gn:feature_code":"PPL",
    "gn:geonameid":4370716,
    "gn:latitude":39.41177,
    "gn:longitude":-76.6583,
    "gn:modification_date":"2006-01-15",
    "gn:name":"Sunset Knoll",
    "gn:population":0,
    "gn:timezone":"America/New_York",
    "iso:country":"US",
    "mz:hierarchy_label":1,
    "mz:is_current":-1,
    "src:geom":"geonames",
    "wof:belongsto":[
        102191575,
        85633793,
        85688501,
        102082193
    ],
    "wof:breaches":[],
    "wof:concordances":{
        "gn:id":4370716
    },
    "wof:country":"US",
    "wof:geomhash":"569069972e8020583bb471a13ff9553f",
    "wof:hierarchy":[
        {
            "continent_id":102191575,
            "country_id":85633793,
            "county_id":102082193,
            "locality_id":1293803587,
            "region_id":85688501
        }
    ],
    "wof:id":1293803587,
    "wof:lastmodified":1536827544,
    "wof:name":"Sunset Knoll",
    "wof:parent_id":102082193,
    "wof:placetype":"locality",
    "wof:repo":"whosonfirst-data-admin-us",
    "wof:superseded_by":[],
    "wof:supersedes":[],
    "wof:tags":[]
},
  "bbox": [
    -76.6583,
    39.41177,
    -76.6583,
    39.41177
],
  "geometry": {"coordinates":[-76.6583,39.41177],"type":"Point"}
}