{
  "id": 1125346981,
  "type": "Feature",
  "properties": {
    "edtf:cessation":"uuuu",
    "edtf:deprecated":"2017-11-04",
    "edtf:inception":"uuuu",
    "geom:area":0.0,
    "geom:area_square_m":0.0,
    "geom:bbox":"-97.11152,27.88952,-97.11152,27.88952",
    "geom:latitude":27.88952,
    "geom:longitude":-97.11152,
    "gn:gn_country":"US",
    "gn:gn_fcode":"ADMD",
    "gn:gn_pop":8204,
    "gn:population":8204,
    "iso:country":"US",
    "lbl:latitude":27.88952,
    "lbl:longitude":-97.11152,
    "mz:hierarchy_label":1,
    "mz:is_current":0,
    "mz:note":"Quattroshapes Point Gazetteer import 20170519",
    "qs_pg:aaroncc":"US",
    "qs_pg:gn_country":"US",
    "qs_pg:gn_fcode":"ADMD",
    "qs_pg:gn_id":7172942,
    "qs_pg:gn_pop":8204,
    "qs_pg:name":"City of Aransas Pass",
    "qs_pg:photos_9r":0,
    "qs_pg:photos_sr":0,
    "qs_pg:pop_sr":5,
    "qs_pg:qs_id":665502,
    "qs_pg:qs_pg_placetype":"localadmin",
    "src:geom":"qs_pg",
    "src:lbl:centroid":"qs_pg",
    "src:population":"geonames",
    "wof:belongsto":[
        85633793
    ],
    "wof:breaches":[],
    "wof:concordances":{
        "gn:id":7172942,
        "qs_pg:id":665502
    },
    "wof:country":"US",
    "wof:created":1497045975,
    "wof:geomhash":"daa87ce6e7bc00dcad4469eabba2bc82",
    "wof:hierarchy":[
        {
            "country_id":85633793,
            "localadmin_id":1125346981
        }
    ],
    "wof:id":1125346981,
    "wof:lastmodified":1509752597,
    "wof:name":"City of Aransas Pass",
    "wof:parent_id":-1,
    "wof:placetype":"localadmin",
    "wof:population":8204,
    "wof:population_rank":5,
    "wof:repo":"whosonfirst-data-admin-us",
    "wof:superseded_by":[
        101724323
    ],
    "wof:supersedes":[],
    "wof:tags":[]
},
  "bbox": [
    -97.11152,
    27.88952,
    -97.11152,
    27.88952
],
  "geometry": {"coordinates":[-97.11152,27.88952],"type":"Point"}
}