{
  "id": 1309931623,
  "type": "Feature",
  "properties": {
    "edtf:cessation":"uuuu",
    "edtf:inception":"uuuu",
    "geom:area":0.0,
    "geom:area_square_m":0.0,
    "geom:bbox":"-85.83606,31.95293,-85.83606,31.95293",
    "geom:latitude":31.95293,
    "geom:longitude":-85.83606,
    "gn:admin1_code":"AL",
    "gn:admin2_code":"109",
    "gn:asciiname":"Colina",
    "gn:country_code":"US",
    "gn:dem":127,
    "gn:elevation":"122.0",
    "gn:feature_class":"P",
    "gn:feature_code":"PPL",
    "gn:geonameid":4056305,
    "gn:latitude":31.95293,
    "gn:longitude":-85.83606,
    "gn:modification_date":"2006-01-15",
    "gn:name":"Colina",
    "gn:population":0,
    "gn:timezone":"America/Chicago",
    "iso:country":"US",
    "mz:hierarchy_label":1,
    "mz:is_current":-1,
    "src:geom":"geonames",
    "wof:belongsto":[
        102191575,
        85633793,
        85688675,
        102085619
    ],
    "wof:breaches":[],
    "wof:concordances":{
        "gn:id":4056305
    },
    "wof:country":"US",
    "wof:geomhash":"74fd7e1e48e931daad67080e4c948829",
    "wof:hierarchy":[
        {
            "continent_id":102191575,
            "country_id":85633793,
            "county_id":102085619,
            "locality_id":1309931623,
            "region_id":85688675
        }
    ],
    "wof:id":1309931623,
    "wof:lastmodified":1536749698,
    "wof:name":"Colina",
    "wof:parent_id":102085619,
    "wof:placetype":"locality",
    "wof:repo":"whosonfirst-data-admin-us",
    "wof:superseded_by":[],
    "wof:supersedes":[],
    "wof:tags":[]
},
  "bbox": [
    -85.83606,
    31.95293,
    -85.83606,
    31.95293
],
  "geometry": {"coordinates":[-85.83606,31.95293],"type":"Point"}
}