{
  "id": 1125321077,
  "type": "Feature",
  "properties": {
    "edtf:cessation":"uuuu",
    "edtf:deprecated":"2017-11-04",
    "edtf:inception":"uuuu",
    "geom:area":0.0,
    "geom:area_square_m":0.0,
    "geom:bbox":"-88.32353,41.88304,-88.32353,41.88304",
    "geom:latitude":41.88304,
    "geom:longitude":-88.32353,
    "gn:gn_country":"US",
    "gn:gn_fcode":"ADMD",
    "gn:gn_pop":21495,
    "gn:population":21495,
    "iso:country":"US",
    "lbl:latitude":41.88304,
    "lbl:longitude":-88.32353,
    "mz:hierarchy_label":1,
    "mz:is_current":0,
    "mz:note":"Quattroshapes Point Gazetteer import 20170519",
    "qs_pg:aaroncc":"US",
    "qs_pg:gn_country":"US",
    "qs_pg:gn_fcode":"ADMD",
    "qs_pg:gn_id":7316983,
    "qs_pg:gn_pop":21495,
    "qs_pg:name":"City of Geneva",
    "qs_pg:photos_9r":0,
    "qs_pg:photos_sr":0,
    "qs_pg:pop_sr":7,
    "qs_pg:qs_id":682997,
    "qs_pg:qs_pg_placetype":"localadmin",
    "src:geom":"qs_pg",
    "src:lbl:centroid":"qs_pg",
    "src:population":"geonames",
    "wof:belongsto":[
        85633793
    ],
    "wof:breaches":[],
    "wof:concordances":{
        "gn:id":7316983,
        "qs_pg:id":682997
    },
    "wof:country":"US",
    "wof:created":1497044537,
    "wof:geomhash":"543229f9321a4f16d0bc3fba85fd94d0",
    "wof:hierarchy":[
        {
            "country_id":85633793,
            "localadmin_id":1125321077
        }
    ],
    "wof:id":1125321077,
    "wof:lastmodified":1509752548,
    "wof:name":"City of Geneva",
    "wof:parent_id":-1,
    "wof:placetype":"localadmin",
    "wof:population":21495,
    "wof:population_rank":7,
    "wof:repo":"whosonfirst-data-admin-us",
    "wof:superseded_by":[
        85940213
    ],
    "wof:supersedes":[],
    "wof:tags":[]
},
  "bbox": [
    -88.32353,
    41.88304,
    -88.32353,
    41.88304
],
  "geometry": {"coordinates":[-88.32353000000001,41.88304],"type":"Point"}
}