{
  "id": 1209531415,
  "type": "Feature",
  "properties": {
    "edtf:cessation":"uuuu",
    "edtf:inception":"uuuu",
    "geom:area":0.0,
    "geom:area_square_m":0.0,
    "geom:bbox":"-82.49934,40.91172,-82.49934,40.91172",
    "geom:latitude":40.91172,
    "geom:longitude":-82.49934,
    "gn:admin1_code":"OH",
    "gn:admin2_code":"139.0",
    "gn:admin3_code":"7230.0",
    "gn:asciiname":"Shenandoah",
    "gn:country_code":"US",
    "gn:dem":355,
    "gn:elevation":"355.0",
    "gn:feature_class":"P",
    "gn:feature_code":"PPL",
    "gn:geonameid":5171898,
    "gn:latitude":40.91172,
    "gn:longitude":-82.49934,
    "gn:modification_date":"2017-05-23",
    "gn:name":"Shenandoah",
    "gn:population":0,
    "gn:timezone":"America/New_York",
    "iso:country":"US",
    "mz:hierarchy_label":1,
    "mz:is_current":-1,
    "src:geom":"geonames",
    "wof:belongsto":[
        85633793
    ],
    "wof:breaches":[],
    "wof:concordances":{
        "gn:id":5171898
    },
    "wof:country":"US",
    "wof:geomhash":"af7a2d21e83bfb4dd1f908e8845635eb",
    "wof:hierarchy":[
        {
            "country_id":85633793,
            "locality_id":1209531415
        }
    ],
    "wof:id":1209531415,
    "wof:lastmodified":1536284269,
    "wof:name":"Shenandoah",
    "wof:parent_id":85633793,
    "wof:placetype":"locality",
    "wof:repo":"whosonfirst-data-admin-us",
    "wof:superseded_by":[],
    "wof:supersedes":[],
    "wof:tags":[]
},
  "bbox": [
    -82.49934,
    40.91172,
    -82.49934,
    40.91172
],
  "geometry": {"coordinates":[-82.49934,40.91172],"type":"Point"}
}