{
  "id": 1309924895,
  "type": "Feature",
  "properties": {
    "edtf:cessation":"2018-09-07",
    "edtf:inception":"uuuu",
    "geom:area":0.0,
    "geom:area_square_m":0.0,
    "geom:bbox":"-85.15735,37.61743,-85.15735,37.61743",
    "geom:latitude":37.61743,
    "geom:longitude":-85.15735,
    "gn:admin1_code":"KY",
    "gn:admin2_code":"155",
    "gn:asciiname":"Pleasant Run (historical)",
    "gn:country_code":"US",
    "gn:dem":261,
    "gn:elevation":"263.0",
    "gn:feature_class":"P",
    "gn:feature_code":"PPLQ",
    "gn:geonameid":7243565,
    "gn:latitude":37.61743,
    "gn:longitude":-85.15735,
    "gn:modification_date":"2011-12-12",
    "gn:name":"Pleasant Run (historical)",
    "gn:population":0,
    "gn:timezone":"America/New_York",
    "iso:country":"US",
    "mz:hierarchy_label":1,
    "mz:is_current":0,
    "src:geom":"geonames",
    "wof:belongsto":[
        102191575,
        85633793,
        85688641,
        102085629
    ],
    "wof:breaches":[],
    "wof:concordances":{
        "gn:id":7243565
    },
    "wof:country":"US",
    "wof:geomhash":"fa6e96b372e1199a5fab4abe5e8880f3",
    "wof:hierarchy":[
        {
            "continent_id":102191575,
            "country_id":85633793,
            "county_id":102085629,
            "locality_id":1309924895,
            "region_id":85688641
        }
    ],
    "wof:id":1309924895,
    "wof:lastmodified":1536759633,
    "wof:name":"Pleasant Run (historical)",
    "wof:parent_id":102085629,
    "wof:placetype":"locality",
    "wof:repo":"whosonfirst-data-admin-us",
    "wof:superseded_by":[],
    "wof:supersedes":[],
    "wof:tags":[]
},
  "bbox": [
    -85.15735,
    37.61743,
    -85.15735,
    37.61743
],
  "geometry": {"coordinates":[-85.15734999999999,37.61743],"type":"Point"}
}