{
  "id": 85887733,
  "type": "Feature",
  "properties": {"wof:repo":"whosonfirst-data-admin-us",
    "src:geom":"quattroshapes",
    "wof:geomhash":"46f1000582b4623718016db1d7b7fab9",
    "wof:id":85887733
},
  "bbox": [
    -121.86696557323498,
    37.322120343600304,
    -121.86144463813946,
    37.32867263592901
],
  "geometry": {"coordinates":[[[-121.86172485383244,37.32321244635200],[-121.86193501784513,37.32294816412913],[-121.86241149924984,37.32314788885726],[-121.86309814499990,37.32286007083373],[-121.86309814499990,37.32212035950002],[-121.86376509998729,37.32212035950002],[-121.86376511768896,37.32212034360030],[-121.86584472699994,37.32212034785209],[-121.86586327293202,37.32212034360030],[-121.86586329400555,37.32212035950002],[-121.86651745458016,37.32261391620450],[-121.86675543274436,37.32291317000313],[-121.86638663471552,37.32430450225033],[-121.86696557323498,37.32648854985025],[-121.86696553538417,37.32648859745049],[-121.86638665153399,37.32867262920044],[-121.86584472699994,37.32867263263502],[-121.86309814338776,37.32867263592901],[-121.86309814492697,37.32719336221002],[-121.86309814499990,37.32648861330004],[-121.86309814499990,37.32539657126431],[-121.86172485384361,37.32539657120036],[-121.86172485385410,37.32465689207227],[-121.86144463813946,37.32430451546705],[-121.86158937721407,37.32375848340037],[-121.86151469087525,37.32347672578642],[-121.86172485383244,37.32321244635200]]],"type":"Polygon"}
}