{
  "id": 1225968779,
  "type": "Feature",
  "properties": {
    "edtf:cessation":"uuuu",
    "edtf:inception":"uuuu",
    "geom:area":0.0,
    "geom:area_square_m":0.0,
    "geom:bbox":"-87.20362,36.40533,-87.20362,36.40533",
    "geom:latitude":36.40533,
    "geom:longitude":-87.20362,
    "gn:admin1_code":"TN",
    "gn:admin2_code":"21",
    "gn:asciiname":"Henrietta",
    "gn:country_code":"US",
    "gn:dem":192,
    "gn:elevation":"195.0",
    "gn:feature_class":"P",
    "gn:feature_code":"PPL",
    "gn:geonameid":4628805,
    "gn:latitude":36.40533,
    "gn:longitude":-87.20362,
    "gn:modification_date":"2006-01-15",
    "gn:name":"Henrietta",
    "gn:population":0,
    "gn:timezone":"America/Chicago",
    "iso:country":"US",
    "mz:hierarchy_label":1,
    "mz:is_current":-1,
    "src:geom":"geonames",
    "wof:belongsto":[
        102191575,
        85633793,
        85688701,
        102086233
    ],
    "wof:breaches":[],
    "wof:concordances":{
        "gn:id":4628805
    },
    "wof:country":"US",
    "wof:geomhash":"5b3bfb84e1dea8dea3c05ab5f0765866",
    "wof:hierarchy":[
        {
            "continent_id":102191575,
            "country_id":85633793,
            "county_id":102086233,
            "locality_id":1225968779,
            "region_id":85688701
        }
    ],
    "wof:id":1225968779,
    "wof:lastmodified":1536835062,
    "wof:name":"Henrietta",
    "wof:parent_id":102086233,
    "wof:placetype":"locality",
    "wof:repo":"whosonfirst-data-admin-us",
    "wof:superseded_by":[],
    "wof:supersedes":[],
    "wof:tags":[]
},
  "bbox": [
    -87.20362,
    36.40533,
    -87.20362,
    36.40533
],
  "geometry": {"coordinates":[-87.20362,36.40533],"type":"Point"}
}