{
  "id": 1326546293,
  "type": "Feature",
  "properties": {
    "edtf:cessation":"uuuu",
    "edtf:inception":"uuuu",
    "geom:area":0.0,
    "geom:area_square_m":0.0,
    "geom:bbox":"-77.23052,36.32238,-77.23052,36.32238",
    "geom:latitude":36.32238,
    "geom:longitude":-77.23052,
    "gn:admin1_code":"NC",
    "gn:admin2_code":"131",
    "gn:admin3_code":"92676.0",
    "gn:asciiname":"George",
    "gn:country_code":"US",
    "gn:dem":25,
    "gn:elevation":"21.0",
    "gn:feature_class":"P",
    "gn:feature_code":"PPL",
    "gn:geonameid":4467794,
    "gn:latitude":36.32238,
    "gn:longitude":-77.23052,
    "gn:modification_date":"2017-05-23",
    "gn:name":"George",
    "gn:population":0,
    "gn:timezone":"America/New_York",
    "iso:country":"US",
    "mz:hierarchy_label":1,
    "mz:is_current":-1,
    "src:geom":"geonames",
    "wof:belongsto":[
        102191575,
        85633793,
        85688773,
        102087649
    ],
    "wof:breaches":[],
    "wof:concordances":{
        "gn:id":4467794
    },
    "wof:country":"US",
    "wof:geomhash":"24ec45d022c956ea64e9b1ba6830501e",
    "wof:hierarchy":[
        {
            "continent_id":102191575,
            "country_id":85633793,
            "county_id":102087649,
            "locality_id":1326546293,
            "region_id":85688773
        }
    ],
    "wof:id":1326546293,
    "wof:lastmodified":1536963558,
    "wof:name":"George",
    "wof:parent_id":102087649,
    "wof:placetype":"locality",
    "wof:repo":"whosonfirst-data-admin-us",
    "wof:superseded_by":[],
    "wof:supersedes":[],
    "wof:tags":[]
},
  "bbox": [
    -77.23052,
    36.32238,
    -77.23052,
    36.32238
],
  "geometry": {"coordinates":[-77.23052,36.32238],"type":"Point"}
}