{
  "id": 1243191615,
  "type": "Feature",
  "properties": {
    "edtf:cessation":"2018-09-06",
    "edtf:inception":"uuuu",
    "geom:area":0.0,
    "geom:area_square_m":0.0,
    "geom:bbox":"-83.77574,36.14731,-83.77574,36.14731",
    "geom:latitude":36.14731,
    "geom:longitude":-83.77574,
    "gn:admin1_code":"TN",
    "gn:admin2_code":"93",
    "gn:asciiname":"House Mountain (historical)",
    "gn:country_code":"US",
    "gn:dem":308,
    "gn:elevation":"303.0",
    "gn:feature_class":"P",
    "gn:feature_code":"PPLQ",
    "gn:geonameid":4630913,
    "gn:latitude":36.14731,
    "gn:longitude":-83.77574,
    "gn:modification_date":"2011-12-11",
    "gn:name":"House Mountain (historical)",
    "gn:population":0,
    "gn:timezone":"America/New_York",
    "iso:country":"US",
    "mz:hierarchy_label":1,
    "mz:is_current":0,
    "src:geom":"geonames",
    "wof:belongsto":[
        102191575,
        85633793,
        85688701,
        102086455
    ],
    "wof:breaches":[],
    "wof:concordances":{
        "gn:id":4630913
    },
    "wof:country":"US",
    "wof:geomhash":"60b8a732d53b97442e3c7a7f24cf118e",
    "wof:hierarchy":[
        {
            "continent_id":102191575,
            "country_id":85633793,
            "county_id":102086455,
            "locality_id":1243191615,
            "region_id":85688701
        }
    ],
    "wof:id":1243191615,
    "wof:lastmodified":1536675944,
    "wof:name":"House Mountain (historical)",
    "wof:parent_id":102086455,
    "wof:placetype":"locality",
    "wof:repo":"whosonfirst-data-admin-us",
    "wof:superseded_by":[],
    "wof:supersedes":[],
    "wof:tags":[]
},
  "bbox": [
    -83.77574,
    36.14731,
    -83.77574,
    36.14731
],
  "geometry": {"coordinates":[-83.77574,36.14731],"type":"Point"}
}