{
  "id": 1242693525,
  "type": "Feature",
  "properties": {
    "edtf:cessation":"uuuu",
    "edtf:inception":"uuuu",
    "geom:area":0.0,
    "geom:area_square_m":0.0,
    "geom:bbox":"-88.32363,31.56683,-88.32363,31.56683",
    "geom:latitude":31.56683,
    "geom:longitude":-88.32363,
    "gn:admin1_code":"AL",
    "gn:admin2_code":"129.0",
    "gn:asciiname":"Barlow",
    "gn:country_code":"US",
    "gn:dem":71,
    "gn:elevation":"57.0",
    "gn:feature_class":"P",
    "gn:feature_code":"PPL",
    "gn:geonameid":4831418,
    "gn:latitude":31.56683,
    "gn:longitude":-88.32363,
    "gn:modification_date":"2010-09-05",
    "gn:name":"Barlow",
    "gn:population":0,
    "gn:timezone":"America/Chicago",
    "iso:country":"US",
    "mz:hierarchy_label":1,
    "mz:is_current":-1,
    "src:geom":"geonames",
    "wof:belongsto":[
        102191575,
        85633793,
        85688675,
        102085635
    ],
    "wof:breaches":[],
    "wof:concordances":{
        "gn:id":4831418
    },
    "wof:country":"US",
    "wof:geomhash":"6320b85ec6484e3d8c682802378e0a25",
    "wof:hierarchy":[
        {
            "continent_id":102191575,
            "country_id":85633793,
            "county_id":102085635,
            "locality_id":1242693525,
            "region_id":85688675
        }
    ],
    "wof:id":1242693525,
    "wof:lastmodified":1536896630,
    "wof:name":"Barlow",
    "wof:parent_id":102085635,
    "wof:placetype":"locality",
    "wof:repo":"whosonfirst-data-admin-us",
    "wof:superseded_by":[],
    "wof:supersedes":[],
    "wof:tags":[]
},
  "bbox": [
    -88.32363000000002,
    31.56683,
    -88.32363000000002,
    31.56683
],
  "geometry": {"coordinates":[-88.32363000000002,31.56683],"type":"Point"}
}