{
  "id": 420520863,
  "type": "Feature",
  "properties": {
    "edtf:cessation":"uuuu",
    "edtf:inception":"uuuu",
    "geom:area":0.0,
    "geom:area_square_m":697214.790497,
    "geom:bbox":"-93.670352,41.579908,-93.670352,41.579908",
    "geom:latitude":41.579908,
    "geom:longitude":-93.670352,
    "iso:country":"US",
    "lbl:latitude":41.579908,
    "lbl:longitude":-93.670352,
    "mz:hierarchy_label":0,
    "mz:is_current":-1,
    "name:eng_x_preferred":[
        "Brown's Woods"
    ],
    "src:geom":"mz",
    "src:geom_alt":[
        "zetashapes"
    ],
    "src:lbl":"mapshaper",
    "src:lbl:centroid":"mapshaper",
    "src:population":"zetashapes",
    "wof:belongsto":[
        102191575,
        85633793,
        85944061,
        102086603,
        85688713
    ],
    "wof:breaches":[],
    "wof:concordances":{
        "gp:id":56020982
    },
    "wof:country":"US",
    "wof:geomhash":"6831767dea41fc6a8484e6dfc60ac949",
    "wof:hierarchy":[
        {
            "continent_id":102191575,
            "country_id":85633793,
            "county_id":102086603,
            "locality_id":85944061,
            "neighbourhood_id":420520863,
            "region_id":85688713
        }
    ],
    "wof:id":420520863,
    "wof:lastmodified":1533594492,
    "wof:name":"Brown's Woods",
    "wof:parent_id":85944061,
    "wof:placetype":"neighbourhood",
    "wof:population":561,
    "wof:population_rank":2,
    "wof:repo":"whosonfirst-data-admin-us",
    "wof:superseded_by":[],
    "wof:supersedes":[],
    "wof:tags":[],
    "zs:area_m":697167.079003,
    "zs:blockids":[
        191530032002007,
        191530032002006,
        191530032002002,
        191530032002003,
        191530032002016,
        191530032002008,
        191530032002004,
        191530032002001,
        191530032002005,
        191530032002009
    ],
    "zs:housing10":292,
    "zs:id":56020982,
    "zs:label":"Brown's Woods",
    "zs:pop10":561
},
  "bbox": [
    -93.670352,
    41.579908,
    -93.670352,
    41.579908
],
  "geometry": {"coordinates":[-93.67035199999999,41.579908],"type":"Point"}
}