{
  "id": 1125279569,
  "type": "Feature",
  "properties": {
    "edtf:cessation":"2017-05-19",
    "edtf:inception":"uuuu",
    "geom:area":0.0,
    "geom:area_square_m":0.0,
    "geom:bbox":"-80.05344,26.50892,-80.05344,26.50892",
    "geom:latitude":26.50892,
    "geom:longitude":-80.05344,
    "gn:gn_country":"US",
    "gn:gn_fcode":"ADMD",
    "gn:gn_pop":601,
    "gn:population":601,
    "iso:country":"US",
    "lbl:latitude":26.50892,
    "lbl:longitude":-80.05344,
    "mz:hierarchy_label":1,
    "mz:is_current":0,
    "mz:note":"Quattroshapes Point Gazetteer import 20170519",
    "qs_pg:aaroncc":"US",
    "qs_pg:gn_country":"US",
    "qs_pg:gn_fcode":"ADMD",
    "qs_pg:gn_id":7170692,
    "qs_pg:gn_pop":601,
    "qs_pg:name":"Town of Briny Breezes",
    "qs_pg:photos_9r":0,
    "qs_pg:photos_sr":0,
    "qs_pg:pop_sr":2,
    "qs_pg:qs_id":663351,
    "qs_pg:qs_pg_placetype":"localadmin",
    "src:geom":"qs_pg",
    "src:lbl:centroid":"qs_pg",
    "src:population":"geonames",
    "wof:belongsto":[
        85633793
    ],
    "wof:breaches":[],
    "wof:concordances":{
        "gn:id":7170692,
        "qs_pg:id":663351
    },
    "wof:country":"US",
    "wof:created":1497042454,
    "wof:geomhash":"81269c901a6a564351953ebcfa43c0ae",
    "wof:hierarchy":[
        {
            "country_id":85633793,
            "localadmin_id":1125279569
        }
    ],
    "wof:id":1125279569,
    "wof:lastmodified":1505187097,
    "wof:name":"Town of Briny Breezes",
    "wof:parent_id":-1,
    "wof:placetype":"localadmin",
    "wof:population":601,
    "wof:population_rank":2,
    "wof:repo":"whosonfirst-data-admin-us",
    "wof:superseded_by":[],
    "wof:supersedes":[],
    "wof:tags":[]
},
  "bbox": [
    -80.05344,
    26.50892,
    -80.05344,
    26.50892
],
  "geometry": {"coordinates":[-80.05343999999999,26.50892],"type":"Point"}
}