{
  "id": 404509787,
  "type": "Feature",
  "properties": {
    "edtf:cessation":"uuuu",
    "edtf:inception":"uuuu",
    "geom:area":0.000086,
    "geom:area_square_m":744239.897661,
    "geom:bbox":"-93.322252,45.413651,-93.310104,45.420817",
    "geom:latitude":45.417234,
    "geom:longitude":-93.316208,
    "iso:country":"US",
    "lbl:latitude":45.417239,
    "lbl:longitude":-93.316208,
    "mz:hierarchy_label":1,
    "name:eng_x_preferred":[
        "St. Francis"
    ],
    "qs:a0":"United States",
    "qs:a1":"Minnesota",
    "qs:a1_lc":"27",
    "qs:a2":"Isanti",
    "qs:a2_lc":"27059",
    "qs:adm0":"United States",
    "qs:adm0_a3":"USA",
    "qs:la":"St. Francis",
    "qs:la_lc":"2705956950",
    "qs:level":"localadmin",
    "qs:source":"US Census",
    "qs:type":"city",
    "src:geom":"quattroshapes",
    "wof:belongsto":[
        102191575,
        85633793,
        85688727,
        102087813
    ],
    "wof:breaches":[],
    "wof:concordances":{},
    "wof:country":"US",
    "wof:geomhash":"6706a40a4991a382662f5ad5adc97219",
    "wof:hierarchy":[
        {
            "continent_id":102191575,
            "country_id":85633793,
            "county_id":102087813,
            "localadmin_id":404509787,
            "region_id":85688727
        }
    ],
    "wof:id":404509787,
    "wof:lastmodified":1479845179,
    "wof:name":"St. Francis",
    "wof:parent_id":102087813,
    "wof:placetype":"localadmin",
    "wof:repo":"whosonfirst-data-admin-us",
    "wof:superseded_by":[],
    "wof:supersedes":[],
    "wof:tags":[]
},
  "bbox": [
    -93.322252,
    45.413651,
    -93.310104,
    45.420817
],
  "geometry": {"coordinates":[[[-93.322157,45.413651],[-93.32225200000001,45.420817],[-93.310292,45.420802],[-93.310104,45.413685],[-93.322157,45.413651]]],"type":"Polygon"}
}