{
  "id": 1125274621,
  "type": "Feature",
  "properties": {
    "edtf:cessation":"uuuu",
    "edtf:deprecated":"2017-11-04",
    "edtf:inception":"uuuu",
    "geom:area":0.0,
    "geom:area_square_m":0.0,
    "geom:bbox":"-94.44527,36.41984,-94.44527,36.41984",
    "geom:latitude":36.41984,
    "geom:longitude":-94.44527,
    "gn:gn_country":"US",
    "gn:gn_fcode":"ADMD",
    "gn:gn_pop":2325,
    "gn:population":2325,
    "iso:country":"US",
    "lbl:latitude":36.41984,
    "lbl:longitude":-94.44527,
    "mz:hierarchy_label":1,
    "mz:is_current":0,
    "mz:note":"Quattroshapes Point Gazetteer import 20170519",
    "qs_pg:aaroncc":"US",
    "qs_pg:gn_country":"US",
    "qs_pg:gn_fcode":"ADMD",
    "qs_pg:gn_id":7169529,
    "qs_pg:gn_pop":2325,
    "qs_pg:name":"City of Gravette",
    "qs_pg:photos_9r":0,
    "qs_pg:photos_sr":0,
    "qs_pg:pop_sr":4,
    "qs_pg:qs_id":662210,
    "qs_pg:qs_pg_placetype":"localadmin",
    "src:geom":"qs_pg",
    "src:lbl:centroid":"qs_pg",
    "src:population":"geonames",
    "wof:belongsto":[
        85633793
    ],
    "wof:breaches":[],
    "wof:concordances":{
        "gn:id":7169529,
        "qs_pg:id":662210
    },
    "wof:country":"US",
    "wof:created":1497042262,
    "wof:geomhash":"581e4310ee548f795b83150dd9363078",
    "wof:hierarchy":[
        {
            "country_id":85633793,
            "localadmin_id":1125274621
        }
    ],
    "wof:id":1125274621,
    "wof:lastmodified":1509752415,
    "wof:name":"City of Gravette",
    "wof:parent_id":-1,
    "wof:placetype":"localadmin",
    "wof:population":2325,
    "wof:population_rank":4,
    "wof:repo":"whosonfirst-data-admin-us",
    "wof:superseded_by":[
        85921557
    ],
    "wof:supersedes":[],
    "wof:tags":[]
},
  "bbox": [
    -94.44527,
    36.41984,
    -94.44527,
    36.41984
],
  "geometry": {"coordinates":[-94.44526999999999,36.41984],"type":"Point"}
}