{
  "id": 1243382695,
  "type": "Feature",
  "properties": {
    "edtf:cessation":"uuuu",
    "edtf:inception":"uuuu",
    "geom:area":0.0,
    "geom:area_square_m":0.0,
    "geom:bbox":"-82.49587,34.78272,-82.49587,34.78272",
    "geom:latitude":34.78272,
    "geom:longitude":-82.49587,
    "gn:admin1_code":"SC",
    "gn:admin2_code":"7",
    "gn:asciiname":"Powderville",
    "gn:country_code":"US",
    "gn:dem":296,
    "gn:elevation":"293.0",
    "gn:feature_class":"P",
    "gn:feature_code":"PPL",
    "gn:geonameid":7260600,
    "gn:latitude":34.78272,
    "gn:longitude":-82.49587,
    "gn:modification_date":"2010-02-07",
    "gn:name":"Powderville",
    "gn:population":0,
    "gn:timezone":"America/New_York",
    "iso:country":"US",
    "mz:hierarchy_label":1,
    "mz:is_current":-1,
    "name:und_x_variant":[
        "Powderville Census Designated Place",
        "Powderville CDP",
        "Powderville"
    ],
    "src:geom":"geonames",
    "wof:belongsto":[
        102191575,
        85633793,
        85688683,
        102085401
    ],
    "wof:breaches":[],
    "wof:concordances":{
        "gn:id":7260600
    },
    "wof:country":"US",
    "wof:geomhash":"d6e289fdc373cd08575b8643de19526c",
    "wof:hierarchy":[
        {
            "continent_id":102191575,
            "country_id":85633793,
            "county_id":102085401,
            "locality_id":1243382695,
            "region_id":85688683
        }
    ],
    "wof:id":1243382695,
    "wof:lastmodified":1537713189,
    "wof:name":"Powderville",
    "wof:parent_id":102085401,
    "wof:placetype":"locality",
    "wof:repo":"whosonfirst-data-admin-us",
    "wof:superseded_by":[],
    "wof:supersedes":[],
    "wof:tags":[]
},
  "bbox": [
    -82.49587,
    34.78272,
    -82.49587,
    34.78272
],
  "geometry": {"coordinates":[-82.49587,34.78272],"type":"Point"}
}