{
  "id": 1125406635,
  "type": "Feature",
  "properties": {
    "edtf:cessation":"2017-05-19",
    "edtf:inception":"uuuu",
    "geom:area":0.0,
    "geom:area_square_m":0.0,
    "geom:bbox":"-86.81108,41.76373,-86.81108,41.76373",
    "geom:latitude":41.76373,
    "geom:longitude":-86.81108,
    "gn:gn_country":"US",
    "gn:gn_fcode":"ADMD",
    "gn:gn_pop":182,
    "gn:population":182,
    "iso:country":"US",
    "lbl:latitude":41.76373,
    "lbl:longitude":-86.81108,
    "mz:hierarchy_label":1,
    "mz:is_current":0,
    "mz:note":"Quattroshapes Point Gazetteer import 20170519",
    "qs_pg:aaroncc":"US",
    "qs_pg:gn_country":"US",
    "qs_pg:gn_fcode":"ADMD",
    "qs_pg:gn_id":7166995,
    "qs_pg:gn_pop":182,
    "qs_pg:name":"Village of Michiana",
    "qs_pg:photos_9r":0,
    "qs_pg:photos_sr":0,
    "qs_pg:pop_sr":1,
    "qs_pg:qs_id":661779,
    "qs_pg:qs_pg_placetype":"localadmin",
    "src:geom":"qs_pg",
    "src:lbl:centroid":"qs_pg",
    "src:population":"geonames",
    "wof:belongsto":[
        85633793
    ],
    "wof:breaches":[],
    "wof:concordances":{
        "gn:id":7166995,
        "qs_pg:id":661779
    },
    "wof:country":"US",
    "wof:created":1497049678,
    "wof:geomhash":"eb21c2fcabda5d72246dd8e543b5e5ee",
    "wof:hierarchy":[
        {
            "country_id":85633793,
            "localadmin_id":1125406635
        }
    ],
    "wof:id":1125406635,
    "wof:lastmodified":1505187072,
    "wof:name":"Village of Michiana",
    "wof:parent_id":-1,
    "wof:placetype":"localadmin",
    "wof:population":182,
    "wof:population_rank":1,
    "wof:repo":"whosonfirst-data-admin-us",
    "wof:superseded_by":[],
    "wof:supersedes":[],
    "wof:tags":[]
},
  "bbox": [
    -86.81108,
    41.76373,
    -86.81108,
    41.76373
],
  "geometry": {"coordinates":[-86.81108,41.76373],"type":"Point"}
}