{
  "id": 1125354921,
  "type": "Feature",
  "properties": {
    "edtf:cessation":"uuuu",
    "edtf:deprecated":"2017-11-04",
    "edtf:inception":"uuuu",
    "geom:area":0.0,
    "geom:area_square_m":0.0,
    "geom:bbox":"-85.28924,34.87422,-85.28924,34.87422",
    "geom:latitude":34.87422,
    "geom:longitude":-85.28924,
    "gn:gn_country":"US",
    "gn:gn_fcode":"ADMD",
    "gn:gn_pop":3101,
    "gn:population":3101,
    "iso:country":"US",
    "lbl:latitude":34.87422,
    "lbl:longitude":-85.28924,
    "mz:hierarchy_label":1,
    "mz:is_current":0,
    "mz:note":"Quattroshapes Point Gazetteer import 20170519",
    "qs_pg:aaroncc":"US",
    "qs_pg:gn_country":"US",
    "qs_pg:gn_fcode":"ADMD",
    "qs_pg:gn_id":7317788,
    "qs_pg:gn_pop":3101,
    "qs_pg:name":"City of Chickamauga",
    "qs_pg:photos_9r":0,
    "qs_pg:photos_sr":0,
    "qs_pg:pop_sr":4,
    "qs_pg:qs_id":683804,
    "qs_pg:qs_pg_placetype":"localadmin",
    "src:geom":"qs_pg",
    "src:lbl:centroid":"qs_pg",
    "src:population":"geonames",
    "wof:belongsto":[
        85633793
    ],
    "wof:breaches":[],
    "wof:concordances":{
        "gn:id":7317788,
        "qs_pg:id":683804
    },
    "wof:country":"US",
    "wof:created":1497046409,
    "wof:geomhash":"a5f89913e36453b8ba50fcff1edf1c70",
    "wof:hierarchy":[
        {
            "country_id":85633793,
            "localadmin_id":1125354921
        }
    ],
    "wof:id":1125354921,
    "wof:lastmodified":1509752646,
    "wof:name":"City of Chickamauga",
    "wof:parent_id":-1,
    "wof:placetype":"localadmin",
    "wof:population":3101,
    "wof:population_rank":4,
    "wof:repo":"whosonfirst-data-admin-us",
    "wof:superseded_by":[
        85936061
    ],
    "wof:supersedes":[],
    "wof:tags":[]
},
  "bbox": [
    -85.28924,
    34.87422,
    -85.28924,
    34.87422
],
  "geometry": {"coordinates":[-85.28924000000001,34.87422],"type":"Point"}
}