{
  "id": 1125301065,
  "type": "Feature",
  "properties": {
    "edtf:cessation":"2017-05-19",
    "edtf:inception":"uuuu",
    "geom:area":0.0,
    "geom:area_square_m":0.0,
    "geom:bbox":"-76.95303,39.9751,-76.95303,39.9751",
    "geom:latitude":39.9751,
    "geom:longitude":-76.95303,
    "gn:gn_country":"US",
    "gn:gn_fcode":"ADMD",
    "gn:gn_pop":2310,
    "gn:population":2310,
    "iso:country":"US",
    "lbl:latitude":39.9751,
    "lbl:longitude":-76.95303,
    "mz:hierarchy_label":1,
    "mz:is_current":0,
    "mz:note":"Quattroshapes Point Gazetteer import 20170519",
    "qs_pg:aaroncc":"US",
    "qs_pg:gn_country":"US",
    "qs_pg:gn_fcode":"ADMD",
    "qs_pg:gn_id":4562387,
    "qs_pg:gn_pop":2310,
    "qs_pg:name":"Borough of Wrightsville",
    "qs_pg:photos_9r":0,
    "qs_pg:photos_sr":0,
    "qs_pg:pop_sr":4,
    "qs_pg:qs_id":595132,
    "qs_pg:qs_pg_placetype":"localadmin",
    "src:geom":"qs_pg",
    "src:lbl:centroid":"qs_pg",
    "src:population":"geonames",
    "wof:belongsto":[
        85633793
    ],
    "wof:breaches":[],
    "wof:concordances":{
        "gn:id":4562387,
        "qs_pg:id":595132
    },
    "wof:country":"US",
    "wof:created":1497043424,
    "wof:geomhash":"a0d516717e107613f6c34638002af00e",
    "wof:hierarchy":[
        {
            "country_id":85633793,
            "localadmin_id":1125301065
        }
    ],
    "wof:id":1125301065,
    "wof:lastmodified":1505186918,
    "wof:name":"Borough of Wrightsville",
    "wof:parent_id":-1,
    "wof:placetype":"localadmin",
    "wof:population":2310,
    "wof:population_rank":4,
    "wof:repo":"whosonfirst-data-admin-us",
    "wof:superseded_by":[],
    "wof:supersedes":[],
    "wof:tags":[]
},
  "bbox": [
    -76.95303,
    39.9751,
    -76.95303,
    39.9751
],
  "geometry": {"coordinates":[-76.95303,39.9751],"type":"Point"}
}