{
  "id": 1309916975,
  "type": "Feature",
  "properties": {
    "edtf:cessation":"2018-09-07",
    "edtf:inception":"uuuu",
    "geom:area":0.0,
    "geom:area_square_m":0.0,
    "geom:bbox":"-86.00971,35.50508,-86.00971,35.50508",
    "geom:latitude":35.50508,
    "geom:longitude":-86.00971,
    "gn:admin1_code":"TN",
    "gn:admin2_code":"31.0",
    "gn:asciiname":"Brooksville (historical)",
    "gn:country_code":"US",
    "gn:dem":332,
    "gn:elevation":"332.0",
    "gn:feature_class":"P",
    "gn:feature_code":"PPLQ",
    "gn:geonameid":4608842,
    "gn:latitude":35.50508,
    "gn:longitude":-86.00971,
    "gn:modification_date":"2011-12-11",
    "gn:name":"Brooksville (historical)",
    "gn:population":0,
    "gn:timezone":"America/Chicago",
    "iso:country":"US",
    "mz:hierarchy_label":1,
    "mz:is_current":0,
    "src:geom":"geonames",
    "wof:belongsto":[
        102191575,
        85633793,
        85688701,
        102087095
    ],
    "wof:breaches":[],
    "wof:concordances":{
        "gn:id":4608842
    },
    "wof:country":"US",
    "wof:geomhash":"b8e6c7788a0c9445d74805f21a52668a",
    "wof:hierarchy":[
        {
            "continent_id":102191575,
            "country_id":85633793,
            "county_id":102087095,
            "locality_id":1309916975,
            "region_id":85688701
        }
    ],
    "wof:id":1309916975,
    "wof:lastmodified":1536771295,
    "wof:name":"Brooksville (historical)",
    "wof:parent_id":102087095,
    "wof:placetype":"locality",
    "wof:repo":"whosonfirst-data-admin-us",
    "wof:superseded_by":[],
    "wof:supersedes":[],
    "wof:tags":[]
},
  "bbox": [
    -86.00971,
    35.50508,
    -86.00971,
    35.50508
],
  "geometry": {"coordinates":[-86.00971,35.50508],"type":"Point"}
}