{
  "id": 1126081389,
  "type": "Feature",
  "properties": {
    "edtf:cessation":"uuuu",
    "edtf:deprecated":"2018-08-15",
    "edtf:inception":"uuuu",
    "edtf:superseded":"2018-08-15",
    "geom:area":0.0,
    "geom:area_square_m":0.0,
    "geom:bbox":"-81.76703,26.217149,-81.76703,26.217149",
    "geom:latitude":26.217149,
    "geom:longitude":-81.76703,
    "gn:gn_country":null,
    "iso:country":"US",
    "lbl:latitude":26.217149,
    "lbl:longitude":-81.76703,
    "mz:hierarchy_label":1,
    "mz:is_current":0,
    "mz:note":"Quattroshapes Point Gazetteer import 20170519",
    "qs_pg:aaroncc":"US",
    "qs_pg:gn_country":null,
    "qs_pg:name":"Summerwind",
    "qs_pg:name_adm0":"United States",
    "qs_pg:name_adm1":"Florida",
    "qs_pg:photos":2,
    "qs_pg:photos_1k":1,
    "qs_pg:photos_9k":1,
    "qs_pg:photos_9r":1,
    "qs_pg:photos_all":2,
    "qs_pg:photos_sr":1,
    "qs_pg:pop_sr":0,
    "qs_pg:qs_id":1018388,
    "qs_pg:qs_pg_placetype":"neighbourhood",
    "qs_pg:qs_pg_placetype_gp":"Suburb",
    "qs_pg:woe_adm0":23424977,
    "qs_pg:woe_id":55979931,
    "src:geom":"qs_pg",
    "src:lbl:centroid":"qs_pg",
    "woe:adm0_id":23424977,
    "woe:name_adm0":"United States",
    "woe:name_adm1":"Florida",
    "woe:placetype":"Suburb",
    "wof:belongsto":[
        85688651,
        102191575,
        85633793,
        102085853
    ],
    "wof:breaches":[],
    "wof:concordances":{
        "gp:id":55979931,
        "qs_pg:id":1018388
    },
    "wof:country":"US",
    "wof:created":1497311982,
    "wof:geomhash":"6eaed298c5dd33d9b7c4c26962121a66",
    "wof:hierarchy":[
        {
            "continent_id":102191575,
            "country_id":85633793,
            "county_id":102085853,
            "locality_id":-1,
            "neighbourhood_id":1126081389,
            "region_id":85688651
        }
    ],
    "wof:id":1126081389,
    "wof:lastmodified":1534379721,
    "wof:name":"Summerwind",
    "wof:parent_id":-1,
    "wof:placetype":"neighbourhood",
    "wof:repo":"whosonfirst-data-admin-us",
    "wof:superseded_by":[
        420511827
    ],
    "wof:supersedes":[],
    "wof:tags":[]
},
  "bbox": [
    -81.76703,
    26.217149,
    -81.76703,
    26.217149
],
  "geometry": {"coordinates":[-81.76703000000001,26.217149],"type":"Point"}
}