{
  "id": 1125311127,
  "type": "Feature",
  "properties": {
    "edtf:cessation":"uuuu",
    "edtf:deprecated":"2017-11-04",
    "edtf:inception":"uuuu",
    "geom:area":0.0,
    "geom:area_square_m":0.0,
    "geom:bbox":"-103.23324,44.07527,-103.23324,44.07527",
    "geom:latitude":44.07527,
    "geom:longitude":-103.23324,
    "gn:gn_country":"US",
    "gn:gn_fcode":"ADMD",
    "gn:gn_pop":67956,
    "gn:population":67956,
    "iso:country":"US",
    "lbl:latitude":44.07527,
    "lbl:longitude":-103.23324,
    "mz:hierarchy_label":1,
    "mz:is_current":0,
    "mz:note":"Quattroshapes Point Gazetteer import 20170519",
    "name:dan_x_preferred":[
        "Rapid City"
    ],
    "name:deu_x_preferred":[
        "Rapid City"
    ],
    "name:eng_x_preferred":[
        "Rapid City"
    ],
    "name:fra_x_preferred":[
        "Rapid City"
    ],
    "name:jpn_x_preferred":[
        "\u30e9\u30d4\u30c3\u30c9\u30b7\u30c6\u30a3"
    ],
    "name:pol_x_preferred":[
        "Rapid City"
    ],
    "name:por_x_preferred":[
        "Rapid City"
    ],
    "name:swe_x_preferred":[
        "Rapid City"
    ],
    "qs_pg:aaroncc":"US",
    "qs_pg:gn_country":"US",
    "qs_pg:gn_fcode":"ADMD",
    "qs_pg:gn_id":5768234,
    "qs_pg:gn_pop":67956,
    "qs_pg:name":"City of Rapid City",
    "qs_pg:photos_9r":0,
    "qs_pg:photos_sr":0,
    "qs_pg:pop_sr":8,
    "qs_pg:qs_id":613037,
    "qs_pg:qs_pg_placetype":"localadmin",
    "src:geom":"qs_pg",
    "src:lbl:centroid":"qs_pg",
    "src:population":"geonames",
    "wof:belongsto":[
        85633793
    ],
    "wof:breaches":[],
    "wof:concordances":{
        "gn:id":5768234,
        "qs_pg:id":613037
    },
    "wof:country":"US",
    "wof:created":1497043991,
    "wof:geomhash":"fde4282bef0aefb3a08b87082500a01e",
    "wof:hierarchy":[
        {
            "country_id":85633793,
            "localadmin_id":1125311127
        }
    ],
    "wof:id":1125311127,
    "wof:lastmodified":1509752527,
    "wof:name":"City of Rapid City",
    "wof:parent_id":-1,
    "wof:placetype":"localadmin",
    "wof:population":67956,
    "wof:population_rank":8,
    "wof:repo":"whosonfirst-data-admin-us",
    "wof:superseded_by":[
        101721605
    ],
    "wof:supersedes":[],
    "wof:tags":[]
},
  "bbox": [
    -103.23324,
    44.07527,
    -103.23324,
    44.07527
],
  "geometry": {"coordinates":[-103.23324,44.07527],"type":"Point"}
}