{
  "id": 1125349577,
  "type": "Feature",
  "properties": {
    "edtf:cessation":"uuuu",
    "edtf:deprecated":"2017-11-04",
    "edtf:inception":"uuuu",
    "geom:area":0.0,
    "geom:area_square_m":0.0,
    "geom:bbox":"-87.6586,36.66005,-87.6586,36.66005",
    "geom:latitude":36.66005,
    "geom:longitude":-87.6586,
    "gn:gn_country":"US",
    "gn:gn_fcode":"ADMD",
    "gn:gn_pop":165,
    "gn:population":165,
    "iso:country":"US",
    "lbl:latitude":36.66005,
    "lbl:longitude":-87.6586,
    "mz:hierarchy_label":1,
    "mz:is_current":0,
    "mz:note":"Quattroshapes Point Gazetteer import 20170519",
    "qs_pg:aaroncc":"US",
    "qs_pg:gn_country":"US",
    "qs_pg:gn_fcode":"ADMD",
    "qs_pg:gn_id":7170295,
    "qs_pg:gn_pop":165,
    "qs_pg:name":"City of LaFayette",
    "qs_pg:photos_9r":0,
    "qs_pg:photos_sr":0,
    "qs_pg:pop_sr":1,
    "qs_pg:qs_id":662965,
    "qs_pg:qs_pg_placetype":"localadmin",
    "src:geom":"qs_pg",
    "src:lbl:centroid":"qs_pg",
    "src:population":"geonames",
    "wof:belongsto":[
        85633793
    ],
    "wof:breaches":[],
    "wof:concordances":{
        "gn:id":7170295,
        "qs_pg:id":662965
    },
    "wof:country":"US",
    "wof:created":1497046121,
    "wof:geomhash":"c9f54d7704440ac36238ee94f81ce923",
    "wof:hierarchy":[
        {
            "country_id":85633793,
            "localadmin_id":1125349577
        }
    ],
    "wof:id":1125349577,
    "wof:lastmodified":1509752614,
    "wof:name":"City of LaFayette",
    "wof:parent_id":-1,
    "wof:placetype":"localadmin",
    "wof:population":165,
    "wof:population_rank":1,
    "wof:repo":"whosonfirst-data-admin-us",
    "wof:superseded_by":[
        85946963
    ],
    "wof:supersedes":[],
    "wof:tags":[]
},
  "bbox": [
    -87.6586,
    36.66005,
    -87.6586,
    36.66005
],
  "geometry": {"coordinates":[-87.65860000000001,36.66005],"type":"Point"}
}