{
  "id": 85819021,
  "type": "Feature",
  "properties": {"wof:repo":"whosonfirst-data-admin-us",
    "src:geom":"quattroshapes",
    "wof:geomhash":"2030f6ffef579f0a947e08a0d6b493e5",
    "wof:id":85819021
},
  "bbox": [
    -90.06042480470003,
    29.959693806600356,
    -90.04059774874708,
    29.97159097860009
],
  "geometry": {"coordinates":[[[-90.04943847659996,29.97159097860009],[-90.04943847659996,29.97099614527509],[-90.04858047060358,29.97099614527509],[-90.04851591498709,29.97092162508650],[-90.04806518549992,29.97074819041774],[-90.04737854000001,29.97048397842758],[-90.04628959019607,29.97090299172471],[-90.04609961853384,29.96980649380016],[-90.04601580081408,29.96964523412113],[-90.04531860349996,29.96937696433990],[-90.04531860349996,29.96921165960005],[-90.04531860350005,29.96854227524224],[-90.04531860350005,29.96802197880004],[-90.04531860350005,29.96744204221373],[-90.04519537992115,29.96747049015791],[-90.04508269757210,29.96742713300004],[-90.04463195799994,29.96742713300004],[-90.04463195801549,29.96725370045563],[-90.04426688008095,29.96683228370019],[-90.04394531250003,29.96683228370010],[-90.04394229890033,29.96683228370010],[-90.04370230982551,29.96704774590577],[-90.04327924895074,29.96726972139825],[-90.04257202150001,29.96699759870036],[-90.04119873047492,29.96752600530905],[-90.04059774874708,29.96683227895723],[-90.04094129781663,29.96564257085035],[-90.04119873049996,29.96564257224132],[-90.04257202150001,29.96564257218155],[-90.04257202150001,29.96479971210888],[-90.04257202150001,29.96445285090006],[-90.04325866699992,29.96445285090006],[-90.04325866699992,29.96385798311685],[-90.04325866699992,29.96326311256261],[-90.04257202150001,29.96326311167994],[-90.04227151917991,29.96326311080011],[-90.04244330774185,29.96266823790019],[-90.04227151753375,29.96207336100009],[-90.04119873049996,29.96207336100009],[-90.04119873048541,29.96137963105825],[-90.04119873048754,29.95969380707525],[-90.04394531249994,29.95969380660036],[-90.04669189451820,29.95969380660036],[-90.04943847658160,29.95969380660036],[-90.05218505859995,29.95969380786698],[-90.05218505859995,29.96207335388765],[-90.05218505859995,29.96445284257321],[-90.05403014879141,29.96445284566602],[-90.05493164059990,29.96445285090006],[-90.05493164059990,29.96683228370010],[-90.05767822269996,29.96683228370010],[-90.05767822269996,29.96921165960005],[-90.06042480470003,29.96921165960005],[-90.06042480469995,29.96990538358213],[-90.06042480469995,29.97159097146277],[-90.05767822268160,29.97159097098698],[-90.05493164061821,29.97159097098698],[-90.05218505859995,29.97159097098698],[-90.05003943476117,29.97159096989444],[-90.04943847659996,29.97159097860009]]],"type":"Polygon"}
}