{
  "id": 85822049,
  "type": "Feature",
  "properties": {
    "edtf:cessation":"uuuu",
    "edtf:inception":"uuuu",
    "geom:area":0.0,
    "geom:area_square_m":6630872.401365,
    "geom:bbox":"-87.564085,41.604253,-87.564085,41.604253",
    "geom:latitude":41.604253,
    "geom:longitude":-87.564085,
    "gn:elevation":182,
    "iso:country":"US",
    "lbl:latitude":41.604253,
    "lbl:longitude":-87.564085,
    "mps:latitude":41.598647,
    "mps:longitude":-87.565644,
    "mz:hierarchy_label":0,
    "mz:is_current":-1,
    "mz:is_funky":0,
    "mz:is_hard_boundary":0,
    "mz:is_landuse_aoi":0,
    "mz:is_official":0,
    "mz:max_zoom":18.0,
    "mz:min_zoom":15.0,
    "mz:tier_locality":1,
    "name:eng_x_preferred":[
        "Globe"
    ],
    "name:unk_x_variant":[
        "Globe"
    ],
    "qs:gn_adm0_cc":"US",
    "qs:gn_fcode":"PPL",
    "qs:gn_local":4886255,
    "qs:gn_nam_loc":"Calumet City, Cook, Illinois, US",
    "qs:gn_namadm1":"IL",
    "qs:gn_name":"Globe",
    "qs:local_max":68,
    "qs:local_sum":108,
    "qs:localhoods":2,
    "qs:name":"Globe",
    "qs:name_adm0":"United States",
    "qs:name_adm1":"Illinois",
    "qs:name_adm2":"Cook",
    "qs:name_local":"Calumet City",
    "qs:photo_max":51,
    "qs:photo_sum":68,
    "qs:placetype":"Suburb",
    "qs:quad_count":12,
    "qs:woe_adm0":23424977,
    "qs:woe_adm1":2347572,
    "qs:woe_adm2":12588093,
    "qs:woe_lau":0,
    "qs:woe_local":2373412,
    "qs:woe_ver":"7.10.0",
    "src:geom":"mz",
    "src:geom_alt":[
        "quattroshapes",
        "quattroshapes_pg"
    ],
    "src:lbl:centroid":"yerbashapes",
    "src:population":"zetashapes",
    "wd:wordcount":2112,
    "wof:belongsto":[
        102191575,
        404497591,
        85633793,
        102084317,
        85688697
    ],
    "wof:breaches":[],
    "wof:concordances":{
        "gn:id":4893919,
        "gp:id":2411478,
        "qs:id":884331,
        "qs_pg:id":884331,
        "wd:id":"Q133792"
    },
    "wof:country":"US",
    "wof:geomhash":"ab09ae9212d87af73b76a755d8d424bc",
    "wof:hierarchy":[
        {
            "continent_id":102191575,
            "country_id":85633793,
            "county_id":102084317,
            "localadmin_id":404497591,
            "locality_id":-1,
            "neighbourhood_id":85822049,
            "region_id":85688697
        }
    ],
    "wof:id":85822049,
    "wof:lang":[
        "eng"
    ],
    "wof:lastmodified":1532373443,
    "wof:name":"Globe",
    "wof:parent_id":-1,
    "wof:placetype":"neighbourhood",
    "wof:population":1139,
    "wof:population_rank":3,
    "wof:repo":"whosonfirst-data-admin-us",
    "wof:superseded_by":[],
    "wof:supersedes":[],
    "wof:tags":[],
    "zs:blockids":[
        170318262014026,
        170318262014005,
        170318262014023,
        170318262014030,
        170318262013000,
        170318262014032,
        170318262011031,
        170318262011030,
        170318279025007,
        170318262014024,
        170318262012021,
        170318262012001,
        170318262013001,
        170318262011027,
        170318262012020,
        170318279025005,
        170318262014020,
        170318262014002,
        170318262012014,
        170318262014031,
        170318262014021,
        170318262014022,
        170318262013002,
        170318279011000,
        170318262014004,
        170318262011032,
        170318279025003,
        170318262011026,
        170318262014001,
        170318262011034,
        170318262014019,
        170318279025002,
        170318262011028,
        170318262011020,
        170318262014027,
        170318262014028,
        170318262014025,
        170318262014000,
        170318262012032,
        170318262012024,
        170318262014003,
        170318262011033,
        170318262011029,
        170318262014029
    ],
    "zs:housing10":846,
    "zs:pop10":1139
},
  "bbox": [
    -87.564085,
    41.604253,
    -87.564085,
    41.604253
],
  "geometry": {"coordinates":[-87.56408500000001,41.604253],"type":"Point"}
}