{
  "id": 1125350809,
  "type": "Feature",
  "properties": {
    "edtf:cessation":"2017-05-19",
    "edtf:inception":"uuuu",
    "geom:area":0.0,
    "geom:area_square_m":0.0,
    "geom:bbox":"-91.61805,30.5942,-91.61805,30.5942",
    "geom:latitude":30.5942,
    "geom:longitude":-91.61805,
    "gn:gn_country":"US",
    "gn:gn_fcode":"ADMD",
    "gn:gn_pop":928,
    "gn:population":928,
    "iso:country":"US",
    "lbl:latitude":30.5942,
    "lbl:longitude":-91.61805,
    "mz:hierarchy_label":1,
    "mz:is_current":0,
    "mz:note":"Quattroshapes Point Gazetteer import 20170519",
    "qs_pg:aaroncc":"US",
    "qs_pg:gn_country":"US",
    "qs_pg:gn_fcode":"ADMD",
    "qs_pg:gn_id":7171742,
    "qs_pg:gn_pop":928,
    "qs_pg:name":"Town of Fordoche",
    "qs_pg:photos_9r":0,
    "qs_pg:photos_sr":0,
    "qs_pg:pop_sr":2,
    "qs_pg:qs_id":664362,
    "qs_pg:qs_pg_placetype":"localadmin",
    "src:geom":"qs_pg",
    "src:lbl:centroid":"qs_pg",
    "src:population":"geonames",
    "wof:belongsto":[
        85633793
    ],
    "wof:breaches":[],
    "wof:concordances":{
        "gn:id":7171742,
        "qs_pg:id":664362
    },
    "wof:country":"US",
    "wof:created":1497046187,
    "wof:geomhash":"b2f69de0307fd398aba4d19c056d8760",
    "wof:hierarchy":[
        {
            "country_id":85633793,
            "localadmin_id":1125350809
        }
    ],
    "wof:id":1125350809,
    "wof:lastmodified":1505187110,
    "wof:name":"Town of Fordoche",
    "wof:parent_id":-1,
    "wof:placetype":"localadmin",
    "wof:population":928,
    "wof:population_rank":2,
    "wof:repo":"whosonfirst-data-admin-us",
    "wof:superseded_by":[],
    "wof:supersedes":[],
    "wof:tags":[]
},
  "bbox": [
    -91.61805,
    30.5942,
    -91.61805,
    30.5942
],
  "geometry": {"coordinates":[-91.61805,30.5942],"type":"Point"}
}