{
  "id": 1209526295,
  "type": "Feature",
  "properties": {
    "edtf:cessation":"uuuu",
    "edtf:inception":"uuuu",
    "geom:area":0.0,
    "geom:area_square_m":0.0,
    "geom:bbox":"-95.4819,32.5643,-95.4819,32.5643",
    "geom:latitude":32.5643,
    "geom:longitude":-95.4819,
    "gn:admin1_code":"TX",
    "gn:admin2_code":"423",
    "gn:asciiname":"Friendship",
    "gn:country_code":"US",
    "gn:dem":176,
    "gn:elevation":"177.0",
    "gn:feature_class":"P",
    "gn:feature_code":"PPL",
    "gn:geonameid":4692440,
    "gn:latitude":32.5643,
    "gn:longitude":-95.4819,
    "gn:modification_date":"2006-01-15",
    "gn:name":"Friendship",
    "gn:population":0,
    "gn:timezone":"America/Chicago",
    "iso:country":"US",
    "mz:hierarchy_label":1,
    "mz:is_current":-1,
    "src:geom":"geonames",
    "wof:belongsto":[
        85633793
    ],
    "wof:breaches":[],
    "wof:concordances":{
        "gn:id":4692440
    },
    "wof:country":"US",
    "wof:geomhash":"f3a243286f353828ddbf4ab30c4d87ed",
    "wof:hierarchy":[
        {
            "country_id":85633793,
            "locality_id":1209526295
        }
    ],
    "wof:id":1209526295,
    "wof:lastmodified":1536284421,
    "wof:name":"Friendship",
    "wof:parent_id":85633793,
    "wof:placetype":"locality",
    "wof:repo":"whosonfirst-data-admin-us",
    "wof:superseded_by":[],
    "wof:supersedes":[],
    "wof:tags":[]
},
  "bbox": [
    -95.4819,
    32.5643,
    -95.4819,
    32.5643
],
  "geometry": {"coordinates":[-95.4819,32.5643],"type":"Point"}
}