{
  "id": 1125382147,
  "type": "Feature",
  "properties": {
    "edtf:cessation":"2017-05-19",
    "edtf:inception":"uuuu",
    "geom:area":0.0,
    "geom:area_square_m":0.0,
    "geom:bbox":"-98.1493,41.55891,-98.1493,41.55891",
    "geom:latitude":41.55891,
    "geom:longitude":-98.1493,
    "gn:gn_country":"US",
    "gn:gn_fcode":"ADMD",
    "gn:gn_pop":382,
    "gn:population":382,
    "iso:country":"US",
    "lbl:latitude":41.55891,
    "lbl:longitude":-98.1493,
    "mz:hierarchy_label":1,
    "mz:is_current":0,
    "mz:note":"Quattroshapes Point Gazetteer import 20170519",
    "qs_pg:aaroncc":"US",
    "qs_pg:gn_country":"US",
    "qs_pg:gn_fcode":"ADMD",
    "qs_pg:gn_id":7165343,
    "qs_pg:gn_pop":382,
    "qs_pg:name":"Village of Cedar Rapids",
    "qs_pg:photos_9r":0,
    "qs_pg:photos_sr":0,
    "qs_pg:pop_sr":2,
    "qs_pg:qs_id":1154049,
    "qs_pg:qs_pg_placetype":"localadmin",
    "src:geom":"qs_pg",
    "src:lbl:centroid":"qs_pg",
    "src:population":"geonames",
    "wof:belongsto":[
        85633793
    ],
    "wof:breaches":[],
    "wof:concordances":{
        "gn:id":7165343,
        "qs_pg:id":1154049
    },
    "wof:country":"US",
    "wof:created":1497048110,
    "wof:geomhash":"96850d83b87ddd0ec78de36b2e8bf677",
    "wof:hierarchy":[
        {
            "country_id":85633793,
            "localadmin_id":1125382147
        }
    ],
    "wof:id":1125382147,
    "wof:lastmodified":1505187054,
    "wof:name":"Village of Cedar Rapids",
    "wof:parent_id":-1,
    "wof:placetype":"localadmin",
    "wof:population":382,
    "wof:population_rank":2,
    "wof:repo":"whosonfirst-data-admin-us",
    "wof:superseded_by":[],
    "wof:supersedes":[],
    "wof:tags":[]
},
  "bbox": [
    -98.1493,
    41.55891,
    -98.1493,
    41.55891
],
  "geometry": {"coordinates":[-98.1493,41.55891],"type":"Point"}
}