{
  "id": 1125385279,
  "type": "Feature",
  "properties": {
    "edtf:cessation":"2017-05-19",
    "edtf:inception":"uuuu",
    "geom:area":0.0,
    "geom:area_square_m":0.0,
    "geom:bbox":"-84.9944,42.76113,-84.9944,42.76113",
    "geom:latitude":42.76113,
    "geom:longitude":-84.9944,
    "gn:gn_country":"US",
    "gn:gn_fcode":"ADMD",
    "gn:gn_pop":578,
    "gn:population":578,
    "iso:country":"US",
    "lbl:latitude":42.76113,
    "lbl:longitude":-84.9944,
    "mz:hierarchy_label":1,
    "mz:is_current":0,
    "mz:note":"Quattroshapes Point Gazetteer import 20170519",
    "qs_pg:aaroncc":"US",
    "qs_pg:gn_country":"US",
    "qs_pg:gn_fcode":"ADMD",
    "qs_pg:gn_id":7167547,
    "qs_pg:gn_pop":578,
    "qs_pg:name":"Village of Sunfield",
    "qs_pg:photos_9r":0,
    "qs_pg:photos_sr":0,
    "qs_pg:pop_sr":2,
    "qs_pg:qs_id":543698,
    "qs_pg:qs_pg_placetype":"localadmin",
    "src:geom":"qs_pg",
    "src:lbl:centroid":"qs_pg",
    "src:population":"geonames",
    "wof:belongsto":[
        85633793
    ],
    "wof:breaches":[],
    "wof:concordances":{
        "gn:id":7167547,
        "qs_pg:id":543698
    },
    "wof:country":"US",
    "wof:created":1497048328,
    "wof:geomhash":"22078763bb5c0efead036db3009ec098",
    "wof:hierarchy":[
        {
            "country_id":85633793,
            "localadmin_id":1125385279
        }
    ],
    "wof:id":1125385279,
    "wof:lastmodified":1505187079,
    "wof:name":"Village of Sunfield",
    "wof:parent_id":-1,
    "wof:placetype":"localadmin",
    "wof:population":578,
    "wof:population_rank":2,
    "wof:repo":"whosonfirst-data-admin-us",
    "wof:superseded_by":[],
    "wof:supersedes":[],
    "wof:tags":[]
},
  "bbox": [
    -84.9944,
    42.76113,
    -84.9944,
    42.76113
],
  "geometry": {"coordinates":[-84.9944,42.76113],"type":"Point"}
}