{
  "id": 1125278157,
  "type": "Feature",
  "properties": {
    "edtf:cessation":"uuuu",
    "edtf:deprecated":"2017-11-04",
    "edtf:inception":"uuuu",
    "geom:area":0.0,
    "geom:area_square_m":0.0,
    "geom:bbox":"-84.3712,39.03123,-84.3712,39.03123",
    "geom:latitude":39.03123,
    "geom:longitude":-84.3712,
    "gn:gn_country":"US",
    "gn:gn_fcode":"ADMD",
    "gn:gn_pop":401,
    "gn:population":401,
    "iso:country":"US",
    "lbl:latitude":39.03123,
    "lbl:longitude":-84.3712,
    "mz:hierarchy_label":1,
    "mz:is_current":0,
    "mz:note":"Quattroshapes Point Gazetteer import 20170519",
    "qs_pg:aaroncc":"US",
    "qs_pg:gn_country":"US",
    "qs_pg:gn_fcode":"ADMD",
    "qs_pg:gn_id":7170445,
    "qs_pg:gn_pop":401,
    "qs_pg:name":"City of Melbourne",
    "qs_pg:photos_9r":0,
    "qs_pg:photos_sr":0,
    "qs_pg:pop_sr":2,
    "qs_pg:qs_id":663115,
    "qs_pg:qs_pg_placetype":"localadmin",
    "src:geom":"qs_pg",
    "src:lbl:centroid":"qs_pg",
    "src:population":"geonames",
    "wof:belongsto":[
        85633793
    ],
    "wof:breaches":[],
    "wof:concordances":{
        "gn:id":7170445,
        "qs_pg:id":663115
    },
    "wof:country":"US",
    "wof:created":1497042400,
    "wof:geomhash":"decfe444dced79314bdc48d20ea6d80a",
    "wof:hierarchy":[
        {
            "country_id":85633793,
            "localadmin_id":1125278157
        }
    ],
    "wof:id":1125278157,
    "wof:lastmodified":1509752433,
    "wof:name":"City of Melbourne",
    "wof:parent_id":-1,
    "wof:placetype":"localadmin",
    "wof:population":401,
    "wof:population_rank":2,
    "wof:repo":"whosonfirst-data-admin-us",
    "wof:superseded_by":[
        85946861
    ],
    "wof:supersedes":[],
    "wof:tags":[]
},
  "bbox": [
    -84.3712,
    39.03123,
    -84.3712,
    39.03123
],
  "geometry": {"coordinates":[-84.3712,39.03123],"type":"Point"}
}