{
  "id": 1125355373,
  "type": "Feature",
  "properties": {
    "edtf:cessation":"2017-05-19",
    "edtf:inception":"uuuu",
    "geom:area":0.0,
    "geom:area_square_m":0.0,
    "geom:bbox":"-92.13008,31.69166,-92.13008,31.69166",
    "geom:latitude":31.69166,
    "geom:longitude":-92.13008,
    "gn:gn_country":"US",
    "gn:gn_fcode":"ADMD",
    "gn:gn_pop":3398,
    "gn:population":3398,
    "iso:country":"US",
    "lbl:latitude":31.69166,
    "lbl:longitude":-92.13008,
    "mz:hierarchy_label":1,
    "mz:is_current":0,
    "mz:note":"Quattroshapes Point Gazetteer import 20170519",
    "qs_pg:aaroncc":"US",
    "qs_pg:gn_country":"US",
    "qs_pg:gn_fcode":"ADMD",
    "qs_pg:gn_id":7318217,
    "qs_pg:gn_pop":3398,
    "qs_pg:name":"Town of Jena",
    "qs_pg:photos_9r":0,
    "qs_pg:photos_sr":0,
    "qs_pg:pop_sr":4,
    "qs_pg:qs_id":684246,
    "qs_pg:qs_pg_placetype":"localadmin",
    "src:geom":"qs_pg",
    "src:lbl:centroid":"qs_pg",
    "src:population":"geonames",
    "wof:belongsto":[
        85633793
    ],
    "wof:breaches":[],
    "wof:concordances":{
        "gn:id":7318217,
        "qs_pg:id":684246
    },
    "wof:country":"US",
    "wof:created":1497046437,
    "wof:geomhash":"9eb52023d76e33ebeb06f1dcc0eee74b",
    "wof:hierarchy":[
        {
            "country_id":85633793,
            "localadmin_id":1125355373
        }
    ],
    "wof:id":1125355373,
    "wof:lastmodified":1505187181,
    "wof:name":"Town of Jena",
    "wof:parent_id":-1,
    "wof:placetype":"localadmin",
    "wof:population":3398,
    "wof:population_rank":4,
    "wof:repo":"whosonfirst-data-admin-us",
    "wof:superseded_by":[],
    "wof:supersedes":[],
    "wof:tags":[]
},
  "bbox": [
    -92.13008,
    31.69166,
    -92.13008,
    31.69166
],
  "geometry": {"coordinates":[-92.13008000000001,31.69166],"type":"Point"}
}