{
  "id": 1209350455,
  "type": "Feature",
  "properties": {
    "edtf:cessation":"uuuu",
    "edtf:deprecated":"2019-02-08",
    "edtf:inception":"uuuu",
    "geom:area":0.0,
    "geom:area_square_m":0.0,
    "geom:bbox":"-112.11071,33.69143,-112.11071,33.69143",
    "geom:latitude":33.69143,
    "geom:longitude":-112.11071,
    "gn:admin1_code":"AZ",
    "gn:admin2_code":"13.0",
    "gn:asciiname":"Canyon Trails Mobile Home Park",
    "gn:country_code":"US",
    "gn:dem":430,
    "gn:elevation":"431.0",
    "gn:feature_class":"P",
    "gn:feature_code":"PPL",
    "gn:geonameid":5288470,
    "gn:latitude":33.69143,
    "gn:longitude":-112.11071,
    "gn:modification_date":"2006-01-15",
    "gn:name":"Canyon Trails Mobile Home Park",
    "gn:population":0,
    "gn:timezone":"America/Phoenix",
    "iso:country":"US",
    "mz:hierarchy_label":1,
    "mz:is_current":0,
    "src:geom":"geonames",
    "wof:belongsto":[
        85633793
    ],
    "wof:breaches":[],
    "wof:concordances":{
        "gn:id":5288470
    },
    "wof:country":"US",
    "wof:geomhash":"4566f926d6cdc8e03f98f3e3ac900e2c",
    "wof:hierarchy":[
        {
            "country_id":85633793,
            "locality_id":1209350455
        }
    ],
    "wof:id":1209350455,
    "wof:lastmodified":1549653919,
    "wof:name":"Canyon Trails Mobile Home Park",
    "wof:parent_id":85633793,
    "wof:placetype":"locality",
    "wof:repo":"whosonfirst-data-admin-us",
    "wof:superseded_by":[
        1376899817
    ],
    "wof:supersedes":[],
    "wof:tags":[]
},
  "bbox": [
    -112.11071,
    33.69143,
    -112.11071,
    33.69143
],
  "geometry": {"coordinates":[-112.11071,33.69143],"type":"Point"}
}