{
  "id": 1125306511,
  "type": "Feature",
  "properties": {
    "edtf:cessation":"2017-05-19",
    "edtf:inception":"uuuu",
    "geom:area":0.0,
    "geom:area_square_m":0.0,
    "geom:bbox":"-77.94028,40.39202,-77.94028,40.39202",
    "geom:latitude":40.39202,
    "geom:longitude":-77.94028,
    "gn:gn_country":"US",
    "gn:gn_fcode":"ADMD",
    "gn:gn_pop":441,
    "gn:population":441,
    "iso:country":"US",
    "lbl:latitude":40.39202,
    "lbl:longitude":-77.94028,
    "mz:hierarchy_label":1,
    "mz:is_current":0,
    "mz:note":"Quattroshapes Point Gazetteer import 20170519",
    "qs_pg:aaroncc":"US",
    "qs_pg:gn_country":"US",
    "qs_pg:gn_fcode":"ADMD",
    "qs_pg:gn_id":5199831,
    "qs_pg:gn_pop":441,
    "qs_pg:name":"Borough of Mapleton",
    "qs_pg:photos_9r":0,
    "qs_pg:photos_sr":0,
    "qs_pg:pop_sr":2,
    "qs_pg:qs_id":606692,
    "qs_pg:qs_pg_placetype":"localadmin",
    "src:geom":"qs_pg",
    "src:lbl:centroid":"qs_pg",
    "src:population":"geonames",
    "wof:belongsto":[
        85633793
    ],
    "wof:breaches":[],
    "wof:concordances":{
        "gn:id":5199831,
        "qs_pg:id":606692
    },
    "wof:country":"US",
    "wof:created":1497043727,
    "wof:geomhash":"e825684626fd44983011426d7add20d3",
    "wof:hierarchy":[
        {
            "country_id":85633793,
            "localadmin_id":1125306511
        }
    ],
    "wof:id":1125306511,
    "wof:lastmodified":1505186973,
    "wof:name":"Borough of Mapleton",
    "wof:parent_id":-1,
    "wof:placetype":"localadmin",
    "wof:population":441,
    "wof:population_rank":2,
    "wof:repo":"whosonfirst-data-admin-us",
    "wof:superseded_by":[],
    "wof:supersedes":[],
    "wof:tags":[]
},
  "bbox": [
    -77.94028,
    40.39202,
    -77.94028,
    40.39202
],
  "geometry": {"coordinates":[-77.94028,40.39202],"type":"Point"}
}