{
  "id": 1326849709,
  "type": "Feature",
  "properties": {
    "edtf:cessation":"2018-09-07",
    "edtf:inception":"uuuu",
    "geom:area":0.0,
    "geom:area_square_m":0.0,
    "geom:bbox":"-80.71814,40.29118,-80.71814,40.29118",
    "geom:latitude":40.29118,
    "geom:longitude":-80.71814,
    "gn:admin1_code":"OH",
    "gn:admin2_code":"81.0",
    "gn:admin3_code":"19484.0",
    "gn:asciiname":"Fells (historical)",
    "gn:country_code":"US",
    "gn:dem":272,
    "gn:elevation":"257.0",
    "gn:feature_class":"P",
    "gn:feature_code":"PPLQ",
    "gn:geonameid":5153868,
    "gn:latitude":40.29118,
    "gn:longitude":-80.71814,
    "gn:modification_date":"2017-05-23",
    "gn:name":"Fells (historical)",
    "gn:population":0,
    "gn:timezone":"America/New_York",
    "iso:country":"US",
    "mz:hierarchy_label":1,
    "mz:is_current":0,
    "src:geom":"geonames",
    "wof:belongsto":[
        85688485,
        102191575,
        404526755,
        85633793,
        102084713
    ],
    "wof:breaches":[],
    "wof:concordances":{
        "gn:id":5153868
    },
    "wof:country":"US",
    "wof:geomhash":"f478d19a3a3c23b34f13b3e1a89faeb1",
    "wof:hierarchy":[
        {
            "continent_id":102191575,
            "country_id":85633793,
            "county_id":102084713,
            "localadmin_id":404526755,
            "locality_id":1326849709,
            "region_id":85688485
        }
    ],
    "wof:id":1326849709,
    "wof:lastmodified":1537022588,
    "wof:name":"Fells (historical)",
    "wof:parent_id":404526755,
    "wof:placetype":"locality",
    "wof:repo":"whosonfirst-data-admin-us",
    "wof:superseded_by":[],
    "wof:supersedes":[],
    "wof:tags":[]
},
  "bbox": [
    -80.71814,
    40.29118,
    -80.71814,
    40.29118
],
  "geometry": {"coordinates":[-80.71814000000001,40.29118],"type":"Point"}
}