{
  "id": 1125313643,
  "type": "Feature",
  "properties": {
    "edtf:cessation":"uuuu",
    "edtf:deprecated":"2017-11-04",
    "edtf:inception":"uuuu",
    "geom:area":0.0,
    "geom:area_square_m":0.0,
    "geom:bbox":"-95.09357,37.03646,-95.09357,37.03646",
    "geom:latitude":37.03646,
    "geom:longitude":-95.09357,
    "gn:gn_country":"US",
    "gn:gn_fcode":"ADMD",
    "gn:gn_pop":1125,
    "gn:population":1125,
    "iso:country":"US",
    "lbl:latitude":37.03646,
    "lbl:longitude":-95.09357,
    "mz:hierarchy_label":1,
    "mz:is_current":0,
    "mz:note":"Quattroshapes Point Gazetteer import 20170519",
    "qs_pg:aaroncc":"US",
    "qs_pg:gn_country":"US",
    "qs_pg:gn_fcode":"ADMD",
    "qs_pg:gn_id":4269496,
    "qs_pg:gn_pop":1125,
    "qs_pg:name":"City of Chetopa",
    "qs_pg:photos_9r":0,
    "qs_pg:photos_sr":0,
    "qs_pg:pop_sr":3,
    "qs_pg:qs_id":589197,
    "qs_pg:qs_pg_placetype":"localadmin",
    "src:geom":"qs_pg",
    "src:lbl:centroid":"qs_pg",
    "src:population":"geonames",
    "wof:belongsto":[
        85633793
    ],
    "wof:breaches":[],
    "wof:concordances":{
        "gn:id":4269496,
        "qs_pg:id":589197
    },
    "wof:country":"US",
    "wof:created":1497044153,
    "wof:geomhash":"31c35d4022fe900eff250813ad4a00a8",
    "wof:hierarchy":[
        {
            "country_id":85633793,
            "localadmin_id":1125313643
        }
    ],
    "wof:id":1125313643,
    "wof:lastmodified":1509752528,
    "wof:name":"City of Chetopa",
    "wof:parent_id":-1,
    "wof:placetype":"localadmin",
    "wof:population":1125,
    "wof:population_rank":3,
    "wof:repo":"whosonfirst-data-admin-us",
    "wof:superseded_by":[
        85945445
    ],
    "wof:supersedes":[],
    "wof:tags":[]
},
  "bbox": [
    -95.09357,
    37.03646,
    -95.09357,
    37.03646
],
  "geometry": {"coordinates":[-95.09357,37.03646],"type":"Point"}
}