{
  "id": 1276575539,
  "type": "Feature",
  "properties": {
    "edtf:cessation":"2018-09-07",
    "edtf:inception":"uuuu",
    "geom:area":0.0,
    "geom:area_square_m":0.0,
    "geom:bbox":"-92.60431,31.44212,-92.60431,31.44212",
    "geom:latitude":31.44212,
    "geom:longitude":-92.60431,
    "gn:admin1_code":"LA",
    "gn:admin2_code":"43.0",
    "gn:asciiname":"Santiago (historical)",
    "gn:country_code":"US",
    "gn:dem":41,
    "gn:elevation":"37.0",
    "gn:feature_class":"P",
    "gn:feature_code":"PPLQ",
    "gn:geonameid":4340873,
    "gn:latitude":31.44212,
    "gn:longitude":-92.60431,
    "gn:modification_date":"2011-12-11",
    "gn:name":"Santiago (historical)",
    "gn:population":0,
    "gn:timezone":"America/Chicago",
    "iso:country":"US",
    "mz:hierarchy_label":1,
    "mz:is_current":0,
    "src:geom":"geonames",
    "wof:belongsto":[
        102191575,
        85633793,
        85688735,
        102086681
    ],
    "wof:breaches":[],
    "wof:concordances":{
        "gn:id":4340873
    },
    "wof:country":"US",
    "wof:geomhash":"a37b616f2fca88cea95f33ca09c6a37c",
    "wof:hierarchy":[
        {
            "continent_id":102191575,
            "country_id":85633793,
            "county_id":102086681,
            "locality_id":1276575539,
            "region_id":85688735
        }
    ],
    "wof:id":1276575539,
    "wof:lastmodified":1536951969,
    "wof:name":"Santiago (historical)",
    "wof:parent_id":102086681,
    "wof:placetype":"locality",
    "wof:repo":"whosonfirst-data-admin-us",
    "wof:superseded_by":[],
    "wof:supersedes":[],
    "wof:tags":[]
},
  "bbox": [
    -92.60431,
    31.44212000000001,
    -92.60431,
    31.44212000000001
],
  "geometry": {"coordinates":[-92.60431,31.44212000000001],"type":"Point"}
}