{
  "id": 1293702491,
  "type": "Feature",
  "properties": {
    "edtf:cessation":"uuuu",
    "edtf:inception":"uuuu",
    "geom:area":0.0,
    "geom:area_square_m":0.0,
    "geom:bbox":"-91.64323,41.86528,-91.64323,41.86528",
    "geom:latitude":41.86528,
    "geom:longitude":-91.64323,
    "gn:admin1_code":"IA",
    "gn:admin2_code":"113.0",
    "gn:admin3_code":"90774.0",
    "gn:asciiname":"Western",
    "gn:country_code":"US",
    "gn:dem":254,
    "gn:elevation":"252.0",
    "gn:feature_class":"P",
    "gn:feature_code":"PPL",
    "gn:geonameid":4881592,
    "gn:latitude":41.86528,
    "gn:longitude":-91.64323,
    "gn:modification_date":"2017-05-23",
    "gn:name":"Western",
    "gn:population":0,
    "gn:timezone":"America/Chicago",
    "iso:country":"US",
    "mz:hierarchy_label":1,
    "mz:is_current":-1,
    "src:geom":"geonames",
    "wof:belongsto":[
        102191575,
        85633793,
        85688713,
        102086551
    ],
    "wof:breaches":[],
    "wof:concordances":{
        "gn:id":4881592
    },
    "wof:country":"US",
    "wof:geomhash":"c96a222963e9985e89f59ed3622a1ef2",
    "wof:hierarchy":[
        {
            "continent_id":102191575,
            "country_id":85633793,
            "county_id":102086551,
            "locality_id":1293702491,
            "region_id":85688713
        }
    ],
    "wof:id":1293702491,
    "wof:lastmodified":1536973928,
    "wof:name":"Western",
    "wof:parent_id":102086551,
    "wof:placetype":"locality",
    "wof:repo":"whosonfirst-data-admin-us",
    "wof:superseded_by":[],
    "wof:supersedes":[],
    "wof:tags":[]
},
  "bbox": [
    -91.64323,
    41.86528,
    -91.64323,
    41.86528
],
  "geometry": {"coordinates":[-91.64323,41.86528],"type":"Point"}
}