{
  "id": 1125384295,
  "type": "Feature",
  "properties": {
    "edtf:cessation":"2017-05-19",
    "edtf:inception":"uuuu",
    "geom:area":0.0,
    "geom:area_square_m":0.0,
    "geom:bbox":"-77.38676,38.96991,-77.38676,38.96991",
    "geom:latitude":38.96991,
    "geom:longitude":-77.38676,
    "gn:gn_country":"US",
    "gn:gn_fcode":"ADMD",
    "gn:gn_pop":23292,
    "gn:population":23292,
    "iso:country":"US",
    "lbl:latitude":38.96991,
    "lbl:longitude":-77.38676,
    "mz:hierarchy_label":1,
    "mz:is_current":0,
    "mz:note":"Quattroshapes Point Gazetteer import 20170519",
    "qs_pg:aaroncc":"US",
    "qs_pg:gn_country":"US",
    "qs_pg:gn_fcode":"ADMD",
    "qs_pg:gn_id":7161403,
    "qs_pg:gn_pop":23292,
    "qs_pg:name":"Town of Herndon",
    "qs_pg:photos_9r":0,
    "qs_pg:photos_sr":0,
    "qs_pg:pop_sr":7,
    "qs_pg:qs_id":656981,
    "qs_pg:qs_pg_placetype":"localadmin",
    "src:geom":"qs_pg",
    "src:lbl:centroid":"qs_pg",
    "src:population":"geonames",
    "wof:belongsto":[
        85633793
    ],
    "wof:breaches":[],
    "wof:concordances":{
        "gn:id":7161403,
        "qs_pg:id":656981
    },
    "wof:country":"US",
    "wof:created":1497048265,
    "wof:geomhash":"e5d55458b037836fae29f5eae54d2826",
    "wof:hierarchy":[
        {
            "country_id":85633793,
            "localadmin_id":1125384295
        }
    ],
    "wof:id":1125384295,
    "wof:lastmodified":1505187015,
    "wof:name":"Town of Herndon",
    "wof:parent_id":-1,
    "wof:placetype":"localadmin",
    "wof:population":23292,
    "wof:population_rank":7,
    "wof:repo":"whosonfirst-data-admin-us",
    "wof:superseded_by":[],
    "wof:supersedes":[],
    "wof:tags":[]
},
  "bbox": [
    -77.38676,
    38.96991,
    -77.38676,
    38.96991
],
  "geometry": {"coordinates":[-77.38676,38.96991],"type":"Point"}
}