{
  "id": 1125310629,
  "type": "Feature",
  "properties": {
    "edtf:cessation":"uuuu",
    "edtf:deprecated":"2017-11-04",
    "edtf:inception":"uuuu",
    "geom:area":0.0,
    "geom:area_square_m":0.0,
    "geom:bbox":"-102.56796,46.86001,-102.56796,46.86001",
    "geom:latitude":46.86001,
    "geom:longitude":-102.56796,
    "gn:gn_country":"US",
    "gn:gn_fcode":"ADMD",
    "gn:gn_pop":239,
    "gn:population":239,
    "iso:country":"US",
    "lbl:latitude":46.86001,
    "lbl:longitude":-102.56796,
    "mz:hierarchy_label":1,
    "mz:is_current":0,
    "mz:note":"Quattroshapes Point Gazetteer import 20170519",
    "qs_pg:aaroncc":"US",
    "qs_pg:gn_country":"US",
    "qs_pg:gn_fcode":"ADMD",
    "qs_pg:gn_id":5689292,
    "qs_pg:gn_pop":239,
    "qs_pg:name":"City of Gladstone",
    "qs_pg:photos_9r":0,
    "qs_pg:photos_sr":0,
    "qs_pg:pop_sr":2,
    "qs_pg:qs_id":611757,
    "qs_pg:qs_pg_placetype":"localadmin",
    "src:geom":"qs_pg",
    "src:lbl:centroid":"qs_pg",
    "src:population":"geonames",
    "wof:belongsto":[
        85633793
    ],
    "wof:breaches":[],
    "wof:concordances":{
        "gn:id":5689292,
        "qs_pg:id":611757
    },
    "wof:country":"US",
    "wof:created":1497043961,
    "wof:geomhash":"3a83a013b23927ebbd31995d0485312f",
    "wof:hierarchy":[
        {
            "country_id":85633793,
            "localadmin_id":1125310629
        }
    ],
    "wof:id":1125310629,
    "wof:lastmodified":1509752526,
    "wof:name":"City of Gladstone",
    "wof:parent_id":-1,
    "wof:placetype":"localadmin",
    "wof:population":239,
    "wof:population_rank":2,
    "wof:repo":"whosonfirst-data-admin-us",
    "wof:superseded_by":[
        85982525
    ],
    "wof:supersedes":[],
    "wof:tags":[]
},
  "bbox": [
    -102.56796,
    46.86001,
    -102.56796,
    46.86001
],
  "geometry": {"coordinates":[-102.56796,46.86001],"type":"Point"}
}