{
  "id": 1260209307,
  "type": "Feature",
  "properties": {
    "edtf:cessation":"2018-09-07",
    "edtf:inception":"uuuu",
    "geom:area":0.0,
    "geom:area_square_m":0.0,
    "geom:bbox":"-92.74043,31.55295,-92.74043,31.55295",
    "geom:latitude":31.55295,
    "geom:longitude":-92.74043,
    "gn:admin1_code":"LA",
    "gn:admin2_code":"43.0",
    "gn:asciiname":"Givens (historical)",
    "gn:country_code":"US",
    "gn:dem":34,
    "gn:elevation":"28.0",
    "gn:feature_class":"P",
    "gn:feature_code":"PPLQ",
    "gn:geonameid":4325738,
    "gn:latitude":31.55295,
    "gn:longitude":-92.74043,
    "gn:modification_date":"2011-12-11",
    "gn:name":"Givens (historical)",
    "gn:population":0,
    "gn:timezone":"America/Chicago",
    "iso:country":"US",
    "mz:hierarchy_label":1,
    "mz:is_current":0,
    "src:geom":"geonames",
    "wof:belongsto":[
        102191575,
        85633793,
        85688735,
        102086681
    ],
    "wof:breaches":[],
    "wof:concordances":{
        "gn:id":4325738
    },
    "wof:country":"US",
    "wof:geomhash":"5d7e3527a3fd56a33837460f98875ea9",
    "wof:hierarchy":[
        {
            "continent_id":102191575,
            "country_id":85633793,
            "county_id":102086681,
            "locality_id":1260209307,
            "region_id":85688735
        }
    ],
    "wof:id":1260209307,
    "wof:lastmodified":1536812052,
    "wof:name":"Givens (historical)",
    "wof:parent_id":102086681,
    "wof:placetype":"locality",
    "wof:repo":"whosonfirst-data-admin-us",
    "wof:superseded_by":[],
    "wof:supersedes":[],
    "wof:tags":[]
},
  "bbox": [
    -92.74043,
    31.55295,
    -92.74043,
    31.55295
],
  "geometry": {"coordinates":[-92.74043,31.55295],"type":"Point"}
}