{
  "id": 1310717337,
  "type": "Feature",
  "properties": {
    "edtf:cessation":"uuuu",
    "edtf:inception":"uuuu",
    "geom:area":0.0,
    "geom:area_square_m":0.0,
    "geom:bbox":"-95.58001,41.52055,-95.58001,41.52055",
    "geom:latitude":41.52055,
    "geom:longitude":-95.58001,
    "gn:admin1_code":"IA",
    "gn:admin2_code":"85.0",
    "gn:admin3_code":"94503.0",
    "gn:asciiname":"Yorkshire",
    "gn:country_code":"US",
    "gn:dem":355,
    "gn:elevation":"356.0",
    "gn:feature_class":"P",
    "gn:feature_code":"PPL",
    "gn:geonameid":4882635,
    "gn:latitude":41.52055,
    "gn:longitude":-95.58001,
    "gn:modification_date":"2017-05-23",
    "gn:name":"Yorkshire",
    "gn:population":0,
    "gn:timezone":"America/Chicago",
    "iso:country":"US",
    "mz:hierarchy_label":1,
    "mz:is_current":-1,
    "src:geom":"geonames",
    "wof:belongsto":[
        102191575,
        85633793,
        85688713,
        102086597
    ],
    "wof:breaches":[],
    "wof:concordances":{
        "gn:id":4882635
    },
    "wof:country":"US",
    "wof:geomhash":"90d5609fd73f4a05a13db033b5c5d73f",
    "wof:hierarchy":[
        {
            "continent_id":102191575,
            "country_id":85633793,
            "county_id":102086597,
            "locality_id":1310717337,
            "region_id":85688713
        }
    ],
    "wof:id":1310717337,
    "wof:lastmodified":1536608556,
    "wof:name":"Yorkshire",
    "wof:parent_id":102086597,
    "wof:placetype":"locality",
    "wof:repo":"whosonfirst-data-admin-us",
    "wof:superseded_by":[],
    "wof:supersedes":[],
    "wof:tags":[]
},
  "bbox": [
    -95.58001,
    41.52055,
    -95.58001,
    41.52055
],
  "geometry": {"coordinates":[-95.58001,41.52055],"type":"Point"}
}