{
  "id": 1141906839,
  "type": "Feature",
  "properties": {
    "edtf:cessation":"uuuu",
    "edtf:inception":"uuuu",
    "geom:area":0.0,
    "geom:area_square_m":0.0,
    "geom:bbox":"-82.1760024431,36.6115236603,-82.1760024431,36.6115236603",
    "geom:latitude":36.611524,
    "geom:longitude":-82.176002,
    "iso:country":"US",
    "lbl:latitude":36.611524,
    "lbl:longitude":-82.176002,
    "mz:hierarchy_label":1,
    "mz:is_current":-1,
    "ne:ADM0CAP":0.0,
    "ne:ADM0NAME":"United States of America",
    "ne:ADM0_A3":"USA",
    "ne:ADM1NAME":"Virginia",
    "ne:ADMIN1_COD":0,
    "ne:CAPALT":0,
    "ne:CAPIN":null,
    "ne:CHANGED":0,
    "ne:CHECKME":1,
    "ne:CITYALT":null,
    "ne:COMPARE":0,
    "ne:DIFFASCII":0,
    "ne:DIFFNOTE":null,
    "ne:ELEVATION":511.0,
    "ne:FEATURECLA":"Populated place",
    "ne:FEATURE_CL":"P",
    "ne:FEATURE_CO":"PPL",
    "ne:GEONAMEID":4608657,
    "ne:GEONAMESNO":"Geonames ascii name + lat.d + long.d matching.",
    "ne:GN_ASCII":"Bristol",
    "ne:GN_POP":25110,
    "ne:GTOPO30":508.0,
    "ne:ISO_A2":"US",
    "ne:LABELRANK":1,
    "ne:LATITUDE":36.611524,
    "ne:LONGITUDE":-82.176002,
    "ne:LS_MATCH":1,
    "ne:LS_NAME":"Bristol1",
    "ne:MAX_AREAKM":57.0,
    "ne:MAX_AREAMI":22.0,
    "ne:MAX_BBXMAX":-82.108333,
    "ne:MAX_BBXMIN":-82.241667,
    "ne:MAX_BBYMAX":36.641667,
    "ne:MAX_BBYMIN":36.533333,
    "ne:MAX_NATSCA":20.0,
    "ne:MAX_PERKM":73.0,
    "ne:MAX_PERMI":45.0,
    "ne:MAX_POP10":37443,
    "ne:MAX_POP20":37443,
    "ne:MAX_POP300":0,
    "ne:MAX_POP310":0,
    "ne:MAX_POP50":0,
    "ne:MEAN_BBXC":-82.175813,
    "ne:MEAN_BBYC":36.588923,
    "ne:MEGACITY":0,
    "ne:MEGANAME":null,
    "ne:MIN_AREAKM":57.0,
    "ne:MIN_AREAMI":22.0,
    "ne:MIN_BBXMAX":-82.108333,
    "ne:MIN_BBXMIN":-82.241667,
    "ne:MIN_BBYMAX":36.641667,
    "ne:MIN_BBYMIN":36.533333,
    "ne:MIN_PERKM":73.0,
    "ne:MIN_PERMI":45.0,
    "ne:NAME":"Bristol",
    "ne:NAMEALT":null,
    "ne:NAMEASCII":"Bristol",
    "ne:NAMEDIFF":0,
    "ne:NAMEPAR":null,
    "ne:NATSCALE":20,
    "ne:NOTE":null,
    "ne:POP1950":0,
    "ne:POP1955":0,
    "ne:POP1960":0,
    "ne:POP1965":0,
    "ne:POP1970":0,
    "ne:POP1975":0,
    "ne:POP1980":0,
    "ne:POP1985":0,
    "ne:POP1990":0,
    "ne:POP1995":0,
    "ne:POP2000":0,
    "ne:POP2005":0,
    "ne:POP2010":0,
    "ne:POP2015":0,
    "ne:POP2020":0,
    "ne:POP2025":0,
    "ne:POP2050":0,
    "ne:POP_MAX":37443,
    "ne:POP_MIN":25110,
    "ne:POP_OTHER":36360,
    "ne:RANK_MAX":7,
    "ne:RANK_MIN":7,
    "ne:SCALERANK":7,
    "ne:SOV0NAME":"United States",
    "ne:SOV_A3":"USA",
    "ne:TIMEZONE":"America/New_York",
    "ne:UN_ADM0":null,
    "ne:UN_FID":0,
    "ne:UN_LAT":0.0,
    "ne:UN_LONG":0.0,
    "ne:WORLDCITY":0,
    "ne:min_zoom":6.7,
    "reversegeo:latitude":36.611524,
    "reversegeo:longitude":-82.176002,
    "src:geom":"naturalearth",
    "wof:belongsto":[
        102191575,
        85633793,
        85688747,
        102084925
    ],
    "wof:breaches":[],
    "wof:concordances":{},
    "wof:country":"US",
    "wof:created":1499130645,
    "wof:geomhash":"25628edf91b758529c1c5ae0f11af8a7",
    "wof:hierarchy":[
        {
            "continent_id":102191575,
            "country_id":85633793,
            "county_id":102084925,
            "locality_id":1141906839,
            "region_id":85688747
        }
    ],
    "wof:id":1141906839,
    "wof:lastmodified":1501688545,
    "wof:name":"Bristol",
    "wof:parent_id":102084925,
    "wof:placetype":"locality",
    "wof:repo":"whosonfirst-data-admin-us",
    "wof:superseded_by":[],
    "wof:supersedes":[],
    "wof:tags":[]
},
  "bbox": [
    -82.17600244314963,
    36.61152366031922,
    -82.17600244314963,
    36.61152366031922
],
  "geometry": {"coordinates":[-82.17600244314963,36.61152366031922],"type":"Point"}
}