{
  "id": 1125414571,
  "type": "Feature",
  "properties": {
    "edtf:cessation":"uuuu",
    "edtf:deprecated":"2017-11-04",
    "edtf:inception":"uuuu",
    "geom:area":0.0,
    "geom:area_square_m":0.0,
    "geom:bbox":"-72.63287,42.21676,-72.63287,42.21676",
    "geom:latitude":42.21676,
    "geom:longitude":-72.63287,
    "gn:gn_country":"US",
    "gn:gn_fcode":"ADMD",
    "gn:gn_pop":39880,
    "gn:population":39880,
    "iso:country":"US",
    "lbl:latitude":42.21676,
    "lbl:longitude":-72.63287,
    "mz:hierarchy_label":1,
    "mz:is_current":0,
    "mz:note":"Quattroshapes Point Gazetteer import 20170519",
    "name:eng_x_preferred":[
        "City of Holyoke"
    ],
    "name:unk_x_variant":[
        "Town of Holyoke"
    ],
    "qs_pg:aaroncc":"US",
    "qs_pg:gn_country":"US",
    "qs_pg:gn_fcode":"ADMD",
    "qs_pg:gn_id":4939805,
    "qs_pg:gn_pop":39880,
    "qs_pg:name":"City of Holyoke",
    "qs_pg:photos_9r":0,
    "qs_pg:photos_sr":0,
    "qs_pg:pop_sr":7,
    "qs_pg:qs_id":598657,
    "qs_pg:qs_pg_placetype":"localadmin",
    "src:geom":"qs_pg",
    "src:lbl:centroid":"qs_pg",
    "src:population":"geonames",
    "wof:belongsto":[
        85633793
    ],
    "wof:breaches":[],
    "wof:concordances":{
        "gn:id":4939805,
        "qs_pg:id":598657
    },
    "wof:country":"US",
    "wof:created":1497051056,
    "wof:geomhash":"b03db854be112ae76912361e60e37d4a",
    "wof:hierarchy":[
        {
            "country_id":85633793,
            "localadmin_id":1125414571
        }
    ],
    "wof:id":1125414571,
    "wof:lastmodified":1509752739,
    "wof:name":"City of Holyoke",
    "wof:parent_id":-1,
    "wof:placetype":"localadmin",
    "wof:population":39880,
    "wof:population_rank":7,
    "wof:repo":"whosonfirst-data-admin-us",
    "wof:superseded_by":[
        85950395
    ],
    "wof:supersedes":[],
    "wof:tags":[]
},
  "bbox": [
    -72.63287,
    42.21676,
    -72.63287,
    42.21676
],
  "geometry": {"coordinates":[-72.63287,42.21676],"type":"Point"}
}