{
  "id": 1125385651,
  "type": "Feature",
  "properties": {
    "edtf:cessation":"2017-05-19",
    "edtf:inception":"uuuu",
    "geom:area":0.0,
    "geom:area_square_m":0.0,
    "geom:bbox":"-74.21604,42.21297,-74.21604,42.21297",
    "geom:latitude":42.21297,
    "geom:longitude":-74.21604,
    "gn:gn_country":"US",
    "gn:gn_fcode":"ADMD",
    "gn:gn_pop":502,
    "gn:population":502,
    "iso:country":"US",
    "lbl:latitude":42.21297,
    "lbl:longitude":-74.21604,
    "mz:hierarchy_label":1,
    "mz:is_current":0,
    "mz:note":"Quattroshapes Point Gazetteer import 20170519",
    "qs_pg:aaroncc":"US",
    "qs_pg:gn_country":"US",
    "qs_pg:gn_fcode":"ADMD",
    "qs_pg:gn_id":7161677,
    "qs_pg:gn_pop":502,
    "qs_pg:name":"Village of Hunter",
    "qs_pg:photos_9r":0,
    "qs_pg:photos_sr":0,
    "qs_pg:pop_sr":2,
    "qs_pg:qs_id":657235,
    "qs_pg:qs_pg_placetype":"localadmin",
    "src:geom":"qs_pg",
    "src:lbl:centroid":"qs_pg",
    "src:population":"geonames",
    "wof:belongsto":[
        85633793
    ],
    "wof:breaches":[],
    "wof:concordances":{
        "gn:id":7161677,
        "qs_pg:id":657235
    },
    "wof:country":"US",
    "wof:created":1497048357,
    "wof:geomhash":"6b4fcd5522b6ea7d960bb5be43547604",
    "wof:hierarchy":[
        {
            "country_id":85633793,
            "localadmin_id":1125385651
        }
    ],
    "wof:id":1125385651,
    "wof:lastmodified":1505187018,
    "wof:name":"Village of Hunter",
    "wof:parent_id":-1,
    "wof:placetype":"localadmin",
    "wof:population":502,
    "wof:population_rank":2,
    "wof:repo":"whosonfirst-data-admin-us",
    "wof:superseded_by":[],
    "wof:supersedes":[],
    "wof:tags":[]
},
  "bbox": [
    -74.21604,
    42.21297,
    -74.21604,
    42.21297
],
  "geometry": {"coordinates":[-74.21604000000001,42.21297],"type":"Point"}
}