{
  "id": 1343681733,
  "type": "Feature",
  "properties": {
    "edtf:cessation":"uuuu",
    "edtf:inception":"uuuu",
    "geom:area":0.0,
    "geom:area_square_m":0.0,
    "geom:bbox":"-85.3269,35.15424,-85.3269,35.15424",
    "geom:latitude":35.15424,
    "geom:longitude":-85.3269,
    "gn:admin1_code":"TN",
    "gn:admin2_code":"65.0",
    "gn:asciiname":"Rustic Villa",
    "gn:country_code":"US",
    "gn:dem":591,
    "gn:elevation":"586.0",
    "gn:feature_class":"P",
    "gn:feature_code":"PPL",
    "gn:geonameid":4654949,
    "gn:latitude":35.15424,
    "gn:longitude":-85.3269,
    "gn:modification_date":"2006-01-15",
    "gn:name":"Rustic Villa",
    "gn:population":0,
    "gn:timezone":"America/New_York",
    "iso:country":"US",
    "mz:hierarchy_label":1,
    "mz:is_current":-1,
    "src:geom":"geonames",
    "wof:belongsto":[
        102191575,
        85633793,
        85688701,
        102087185
    ],
    "wof:breaches":[],
    "wof:concordances":{
        "gn:id":4654949
    },
    "wof:country":"US",
    "wof:geomhash":"cd66c629c388940f18ada54699d06b50",
    "wof:hierarchy":[
        {
            "continent_id":102191575,
            "country_id":85633793,
            "county_id":102087185,
            "locality_id":1343681733,
            "region_id":85688701
        }
    ],
    "wof:id":1343681733,
    "wof:lastmodified":1536925115,
    "wof:name":"Rustic Villa",
    "wof:parent_id":102087185,
    "wof:placetype":"locality",
    "wof:repo":"whosonfirst-data-admin-us",
    "wof:superseded_by":[],
    "wof:supersedes":[],
    "wof:tags":[]
},
  "bbox": [
    -85.3269,
    35.15424,
    -85.3269,
    35.15424
],
  "geometry": {"coordinates":[-85.32689999999999,35.15424],"type":"Point"}
}