{
  "id": 420520297,
  "type": "Feature",
  "properties": {
    "edtf:cessation":"uuuu",
    "edtf:inception":"uuuu",
    "geom:area":0.0,
    "geom:area_square_m":19571.859294,
    "geom:bbox":"-93.696647,41.586062,-93.696647,41.586062",
    "geom:latitude":41.586062,
    "geom:longitude":-93.696647,
    "iso:country":"US",
    "lbl:latitude":41.586062,
    "lbl:longitude":-93.696647,
    "mz:hierarchy_label":0,
    "mz:is_current":-1,
    "name:eng_x_preferred":[
        "Ingersoll Oaks"
    ],
    "src:geom":"mz",
    "src:geom_alt":[
        "zetashapes"
    ],
    "src:lbl":"mapshaper",
    "src:lbl:centroid":"mapshaper",
    "src:population":"zetashapes",
    "wof:belongsto":[
        102191575,
        85633793,
        85944061,
        102086603,
        85688713
    ],
    "wof:breaches":[],
    "wof:concordances":{
        "gp:id":56021119
    },
    "wof:country":"US",
    "wof:geomhash":"b16157247dc6ff10becc6e1dfddfcbd5",
    "wof:hierarchy":[
        {
            "continent_id":102191575,
            "country_id":85633793,
            "county_id":102086603,
            "locality_id":85944061,
            "neighbourhood_id":420520297,
            "region_id":85688713
        }
    ],
    "wof:id":420520297,
    "wof:lastmodified":1533594311,
    "wof:name":"Ingersoll Oaks",
    "wof:parent_id":85944061,
    "wof:placetype":"neighbourhood",
    "wof:population":39,
    "wof:population_rank":1,
    "wof:repo":"whosonfirst-data-admin-us",
    "wof:superseded_by":[],
    "wof:supersedes":[],
    "wof:tags":[],
    "zs:area_m":19570.510507,
    "zs:blockids":[
        191530030024027
    ],
    "zs:housing10":20,
    "zs:id":56021119,
    "zs:label":"Ingersoll Oaks",
    "zs:pop10":39
},
  "bbox": [
    -93.696647,
    41.586062,
    -93.696647,
    41.586062
],
  "geometry": {"coordinates":[-93.696647,41.586062],"type":"Point"}
}