{
  "id": 1125903269,
  "type": "Feature",
  "properties": {
    "edtf:cessation":"uuuu",
    "edtf:deprecated":"2018-08-15",
    "edtf:inception":"uuuu",
    "edtf:superseded":"2018-08-15",
    "geom:area":0.0,
    "geom:area_square_m":0.0,
    "geom:bbox":"-81.79872,37.35178,-81.79872,37.35178",
    "geom:latitude":37.35178,
    "geom:longitude":-81.79872,
    "gn:gn_country":"US",
    "gn:gn_fcode":"PPL",
    "gn:gn_pop":337,
    "gn:population":307,
    "iso:country":"US",
    "lbl:latitude":37.35178,
    "lbl:longitude":-81.79872,
    "mz:hierarchy_label":1,
    "mz:is_current":0,
    "mz:note":"Quattroshapes Point Gazetteer import 20170519",
    "qs_pg:aaroncc":"US",
    "qs_pg:gn_country":"US",
    "qs_pg:gn_fcode":"PPL",
    "qs_pg:gn_id":4799953,
    "qs_pg:gn_pop":337,
    "qs_pg:name":"Bradshaw",
    "qs_pg:name_adm0":"United States",
    "qs_pg:name_adm1":"West Virginia",
    "qs_pg:photos_9k":1,
    "qs_pg:photos_9r":1,
    "qs_pg:photos_all":21,
    "qs_pg:photos_sr":0,
    "qs_pg:pop_sr":2,
    "qs_pg:qs_id":896305,
    "qs_pg:qs_pg_placetype":"locality",
    "qs_pg:qs_pg_placetype_gp":"Town",
    "qs_pg:woe_adm0":23424977,
    "qs_pg:woe_id":2367944,
    "src:geom":"qs_pg",
    "src:lbl:centroid":"qs_pg",
    "src:population":"geonames",
    "woe:adm0_id":23424977,
    "woe:name_adm0":"United States",
    "woe:name_adm1":"West Virginia",
    "woe:placetype":"Town",
    "wof:belongsto":[
        102191575,
        85633793,
        85688589,
        102083405
    ],
    "wof:breaches":[],
    "wof:concordances":{
        "gn:id":4799953,
        "gp:id":2367944,
        "qs_pg:id":896305
    },
    "wof:country":"US",
    "wof:created":1497295890,
    "wof:geomhash":"d2f3a806dc55e99786c3c39e3d52f2df",
    "wof:hierarchy":[
        {
            "continent_id":102191575,
            "country_id":85633793,
            "county_id":102083405,
            "locality_id":1125903269,
            "region_id":85688589
        }
    ],
    "wof:id":1125903269,
    "wof:lastmodified":1534379523,
    "wof:name":"Bradshaw",
    "wof:parent_id":102083405,
    "wof:placetype":"locality",
    "wof:population":307,
    "wof:population_rank":2,
    "wof:repo":"whosonfirst-data-admin-us",
    "wof:superseded_by":[
        101731677
    ],
    "wof:supersedes":[],
    "wof:tags":[]
},
  "bbox": [
    -81.79872,
    37.35178,
    -81.79872,
    37.35178
],
  "geometry": {"coordinates":[-81.79872,37.35178],"type":"Point"}
}