{
  "id": 1293401171,
  "type": "Feature",
  "properties": {
    "edtf:cessation":"uuuu",
    "edtf:inception":"uuuu",
    "geom:area":0.0,
    "geom:area_square_m":0.0,
    "geom:bbox":"-89.84036,35.49203,-89.84036,35.49203",
    "geom:latitude":35.49203,
    "geom:longitude":-89.84036,
    "gn:admin1_code":"TN",
    "gn:admin2_code":"167",
    "gn:asciiname":"Hopewell",
    "gn:country_code":"US",
    "gn:dem":130,
    "gn:elevation":"126.0",
    "gn:feature_class":"P",
    "gn:feature_code":"PPL",
    "gn:geonameid":4630571,
    "gn:latitude":35.49203,
    "gn:longitude":-89.84036,
    "gn:modification_date":"2006-01-15",
    "gn:name":"Hopewell",
    "gn:population":0,
    "gn:timezone":"America/Chicago",
    "iso:country":"US",
    "mz:hierarchy_label":1,
    "mz:is_current":-1,
    "src:geom":"geonames",
    "wof:belongsto":[
        102191575,
        85633793,
        85688701,
        102086277
    ],
    "wof:breaches":[],
    "wof:concordances":{
        "gn:id":4630571
    },
    "wof:country":"US",
    "wof:geomhash":"c5292ed9c6ac060e0ea0c33909f8772f",
    "wof:hierarchy":[
        {
            "continent_id":102191575,
            "country_id":85633793,
            "county_id":102086277,
            "locality_id":1293401171,
            "region_id":85688701
        }
    ],
    "wof:id":1293401171,
    "wof:lastmodified":1536911755,
    "wof:name":"Hopewell",
    "wof:parent_id":102086277,
    "wof:placetype":"locality",
    "wof:repo":"whosonfirst-data-admin-us",
    "wof:superseded_by":[],
    "wof:supersedes":[],
    "wof:tags":[]
},
  "bbox": [
    -89.84036,
    35.49203,
    -89.84036,
    35.49203
],
  "geometry": {"coordinates":[-89.84036,35.49203],"type":"Point"}
}