{
  "id": 1326640953,
  "type": "Feature",
  "properties": {
    "edtf:cessation":"2018-09-07",
    "edtf:inception":"uuuu",
    "geom:area":0.0,
    "geom:area_square_m":0.0,
    "geom:bbox":"-96.99475,40.70834,-96.99475,40.70834",
    "geom:latitude":40.70834,
    "geom:longitude":-96.99475,
    "gn:admin1_code":"NE",
    "gn:admin2_code":"159.0",
    "gn:asciiname":"Camden (historical)",
    "gn:country_code":"US",
    "gn:dem":421,
    "gn:elevation":"412.0",
    "gn:feature_class":"P",
    "gn:feature_code":"PPLQ",
    "gn:geonameid":5065112,
    "gn:latitude":40.70834,
    "gn:longitude":-96.99475,
    "gn:modification_date":"2011-12-12",
    "gn:name":"Camden (historical)",
    "gn:population":0,
    "gn:timezone":"America/Chicago",
    "iso:country":"US",
    "mz:hierarchy_label":1,
    "mz:is_current":0,
    "src:geom":"geonames",
    "wof:belongsto":[
        85688563,
        102191575,
        404521041,
        85633793,
        102082261
    ],
    "wof:breaches":[],
    "wof:concordances":{
        "gn:id":5065112
    },
    "wof:country":"US",
    "wof:geomhash":"a8582c3f8d2a800243ba81d3e2adb5f1",
    "wof:hierarchy":[
        {
            "continent_id":102191575,
            "country_id":85633793,
            "county_id":102082261,
            "localadmin_id":404521041,
            "locality_id":1326640953,
            "region_id":85688563
        }
    ],
    "wof:id":1326640953,
    "wof:lastmodified":1536826253,
    "wof:name":"Camden (historical)",
    "wof:parent_id":404521041,
    "wof:placetype":"locality",
    "wof:repo":"whosonfirst-data-admin-us",
    "wof:superseded_by":[],
    "wof:supersedes":[],
    "wof:tags":[]
},
  "bbox": [
    -96.99475,
    40.70834,
    -96.99475,
    40.70834
],
  "geometry": {"coordinates":[-96.99475,40.70834],"type":"Point"}
}