{
  "id": 420548065,
  "type": "Feature",
  "properties": {
    "edtf:cessation":"uuuu",
    "edtf:inception":"uuuu",
    "geom:area":0.0,
    "geom:area_square_m":165096.28234,
    "geom:bbox":"-76.543195,37.106796,-76.543195,37.106796",
    "geom:latitude":37.106796,
    "geom:longitude":-76.543195,
    "iso:country":"US",
    "lbl:latitude":37.106796,
    "lbl:longitude":-76.543195,
    "mz:hierarchy_label":0,
    "mz:is_current":-1,
    "name:eng_x_preferred":[
        "Old Orchard"
    ],
    "src:geom":"mz",
    "src:geom_alt":[
        "zetashapes"
    ],
    "src:lbl":"mapshaper",
    "src:lbl:centroid":"mapshaper",
    "src:population":"zetashapes",
    "wof:belongsto":[
        102191575,
        85633793,
        101729041,
        102085961,
        85688747
    ],
    "wof:breaches":[],
    "wof:concordances":{
        "gp:id":2464982
    },
    "wof:country":"US",
    "wof:geomhash":"e14998cafdca712e070d4232f14c7b60",
    "wof:hierarchy":[
        {
            "continent_id":102191575,
            "country_id":85633793,
            "county_id":102085961,
            "locality_id":101729041,
            "neighbourhood_id":420548065,
            "region_id":85688747
        }
    ],
    "wof:id":420548065,
    "wof:lastmodified":1533603295,
    "wof:name":"Old Orchard",
    "wof:parent_id":101729041,
    "wof:placetype":"neighbourhood",
    "wof:population":221,
    "wof:population_rank":2,
    "wof:repo":"whosonfirst-data-admin-us",
    "wof:superseded_by":[],
    "wof:supersedes":[],
    "wof:tags":[],
    "zs:area_m":165084.507589,
    "zs:blockids":[
        517000320051010
    ],
    "zs:housing10":80,
    "zs:id":2464982,
    "zs:label":"Old Orchard",
    "zs:pop10":221
},
  "bbox": [
    -76.543195,
    37.106796,
    -76.543195,
    37.106796
],
  "geometry": {"coordinates":[-76.543195,37.106796],"type":"Point"}
}