{
  "id": 1243388921,
  "type": "Feature",
  "properties": {
    "edtf:cessation":"uuuu",
    "edtf:inception":"uuuu",
    "geom:area":0.0,
    "geom:area_square_m":0.0,
    "geom:bbox":"-79.81645,34.19293,-79.81645,34.19293",
    "geom:latitude":34.19293,
    "geom:longitude":-79.81645,
    "gn:admin1_code":"SC",
    "gn:admin2_code":"41.0",
    "gn:asciiname":"Lakewood",
    "gn:country_code":"US",
    "gn:dem":43,
    "gn:elevation":"42.0",
    "gn:feature_class":"P",
    "gn:feature_code":"PPL",
    "gn:geonameid":4584521,
    "gn:latitude":34.19293,
    "gn:longitude":-79.81645,
    "gn:modification_date":"2006-01-15",
    "gn:name":"Lakewood",
    "gn:population":0,
    "gn:timezone":"America/New_York",
    "iso:country":"US",
    "mz:hierarchy_label":1,
    "mz:is_current":-1,
    "src:geom":"geonames",
    "wof:belongsto":[
        102191575,
        85633793,
        85688683,
        102085723
    ],
    "wof:breaches":[],
    "wof:concordances":{
        "gn:id":4584521
    },
    "wof:country":"US",
    "wof:geomhash":"005a973b8a2c54f6f60873e3c1927cb3",
    "wof:hierarchy":[
        {
            "continent_id":102191575,
            "country_id":85633793,
            "county_id":102085723,
            "locality_id":1243388921,
            "region_id":85688683
        }
    ],
    "wof:id":1243388921,
    "wof:lastmodified":1536888125,
    "wof:name":"Lakewood",
    "wof:parent_id":102085723,
    "wof:placetype":"locality",
    "wof:repo":"whosonfirst-data-admin-us",
    "wof:superseded_by":[],
    "wof:supersedes":[],
    "wof:tags":[]
},
  "bbox": [
    -79.81645,
    34.19293,
    -79.81645,
    34.19293
],
  "geometry": {"coordinates":[-79.81645,34.19293],"type":"Point"}
}