{
  "id": 1243093407,
  "type": "Feature",
  "properties": {
    "edtf:cessation":"2018-09-06",
    "edtf:inception":"uuuu",
    "geom:area":0.0,
    "geom:area_square_m":0.0,
    "geom:bbox":"-90.71013,37.97088,-90.71013,37.97088",
    "geom:latitude":37.97088,
    "geom:longitude":-90.71013,
    "gn:admin1_code":"MO",
    "gn:admin2_code":"221.0",
    "gn:admin3_code":"75040.0",
    "gn:asciiname":"Adelbert (historical)",
    "gn:country_code":"US",
    "gn:dem":257,
    "gn:elevation":"250.0",
    "gn:feature_class":"P",
    "gn:feature_code":"PPLQ",
    "gn:geonameid":4374482,
    "gn:latitude":37.97088,
    "gn:longitude":-90.71013,
    "gn:modification_date":"2017-05-23",
    "gn:name":"Adelbert (historical)",
    "gn:population":0,
    "gn:timezone":"America/Chicago",
    "iso:country":"US",
    "mz:hierarchy_label":1,
    "mz:is_current":0,
    "src:geom":"geonames",
    "wof:belongsto":[
        85688661,
        102191575,
        404516027,
        85633793,
        102087487
    ],
    "wof:breaches":[],
    "wof:concordances":{
        "gn:id":4374482
    },
    "wof:country":"US",
    "wof:geomhash":"c42a02fae5ae7e99c293e4cb6c8987e9",
    "wof:hierarchy":[
        {
            "continent_id":102191575,
            "country_id":85633793,
            "county_id":102087487,
            "localadmin_id":404516027,
            "locality_id":1243093407,
            "region_id":85688661
        }
    ],
    "wof:id":1243093407,
    "wof:lastmodified":1536816665,
    "wof:name":"Adelbert (historical)",
    "wof:parent_id":404516027,
    "wof:placetype":"locality",
    "wof:repo":"whosonfirst-data-admin-us",
    "wof:superseded_by":[],
    "wof:supersedes":[],
    "wof:tags":[]
},
  "bbox": [
    -90.71013,
    37.97088,
    -90.71013,
    37.97088
],
  "geometry": {"coordinates":[-90.71013000000001,37.97088],"type":"Point"}
}