{
  "id": 1225979355,
  "type": "Feature",
  "properties": {
    "edtf:cessation":"2018-09-07",
    "edtf:inception":"uuuu",
    "geom:area":0.0,
    "geom:area_square_m":0.0,
    "geom:bbox":"-119.09927,36.25273,-119.09927,36.25273",
    "geom:latitude":36.25273,
    "geom:longitude":-119.09927,
    "gn:admin1_code":"CA",
    "gn:admin2_code":"107.0",
    "gn:asciiname":"Sides (historical)",
    "gn:country_code":"US",
    "gn:dem":110,
    "gn:elevation":"109.0",
    "gn:feature_class":"P",
    "gn:feature_code":"PPLQ",
    "gn:geonameid":5395547,
    "gn:latitude":36.25273,
    "gn:longitude":-119.09927,
    "gn:modification_date":"2011-12-12",
    "gn:name":"Sides (historical)",
    "gn:population":0,
    "gn:timezone":"America/Los_Angeles",
    "iso:country":"US",
    "mz:hierarchy_label":1,
    "mz:is_current":0,
    "src:geom":"geonames",
    "wof:belongsto":[
        102191575,
        85633793,
        85688637,
        102082895
    ],
    "wof:breaches":[],
    "wof:concordances":{
        "gn:id":5395547
    },
    "wof:country":"US",
    "wof:geomhash":"8a7ce10603417e2362f171860c85196f",
    "wof:hierarchy":[
        {
            "continent_id":102191575,
            "country_id":85633793,
            "county_id":102082895,
            "locality_id":1225979355,
            "region_id":85688637
        }
    ],
    "wof:id":1225979355,
    "wof:lastmodified":1536819935,
    "wof:name":"Sides (historical)",
    "wof:parent_id":102082895,
    "wof:placetype":"locality",
    "wof:repo":"whosonfirst-data-admin-us",
    "wof:superseded_by":[],
    "wof:supersedes":[],
    "wof:tags":[]
},
  "bbox": [
    -119.09927,
    36.25273,
    -119.09927,
    36.25273
],
  "geometry": {"coordinates":[-119.09927,36.25273],"type":"Point"}
}