{
  "id": 420514797,
  "type": "Feature",
  "properties": {
    "edtf:cessation":"uuuu",
    "edtf:inception":"uuuu",
    "geom:area":0.0,
    "geom:area_square_m":1089139.89295,
    "geom:bbox":"-81.901106,26.540029,-81.901106,26.540029",
    "geom:latitude":26.540029,
    "geom:longitude":-81.901106,
    "iso:country":"US",
    "lbl:latitude":26.540029,
    "lbl:longitude":-81.901106,
    "mz:hierarchy_label":0,
    "mz:is_current":-1,
    "name:eng_x_preferred":[
        "Myerlee"
    ],
    "src:geom":"mz",
    "src:geom_alt":[
        "zetashapes"
    ],
    "src:lbl":"mapshaper",
    "src:lbl:centroid":"mapshaper",
    "src:population":"zetashapes",
    "wof:belongsto":[
        102191575,
        85633793,
        85934551,
        102084769,
        85688651
    ],
    "wof:breaches":[],
    "wof:concordances":{
        "gp:id":55977010
    },
    "wof:country":"US",
    "wof:geomhash":"456f57b8df396ff29f094758e326a1e5",
    "wof:hierarchy":[
        {
            "continent_id":102191575,
            "country_id":85633793,
            "county_id":102084769,
            "locality_id":85934551,
            "neighbourhood_id":420514797,
            "region_id":85688651
        }
    ],
    "wof:id":420514797,
    "wof:lastmodified":1533592597,
    "wof:name":"Myerlee",
    "wof:parent_id":85934551,
    "wof:placetype":"neighbourhood",
    "wof:population":1516,
    "wof:population_rank":3,
    "wof:repo":"whosonfirst-data-admin-us",
    "wof:superseded_by":[],
    "wof:supersedes":[],
    "wof:tags":[],
    "zs:area_m":1089059.679523,
    "zs:blockids":[
        120710017012014,
        120710017071007,
        120710017071018,
        120710017071017,
        120710017051018,
        120710017012022,
        120710017052005,
        120710017071009,
        120710017012028,
        120710017071020,
        120710017071003,
        120710017012027,
        120710017051017,
        120710017012012,
        120710017071002,
        120710017071010,
        120710017071011,
        120710017012016,
        120710017012011,
        120710017012023,
        120710017071012,
        120710017012024,
        120710017071001,
        120710017012021,
        120710017012000,
        120710017071004,
        120710017012013,
        120710017071006,
        120710017071014,
        120710017012015,
        120710017071005,
        120710017012017,
        120710017071000,
        120710017071008,
        120710017071019,
        120710017051019,
        120710017012026,
        120710017012025,
        120710017071013,
        120710017012018
    ],
    "zs:housing10":1088,
    "zs:id":55977010,
    "zs:label":"Myerlee",
    "zs:pop10":1516
},
  "bbox": [
    -81.901106,
    26.540029,
    -81.901106,
    26.540029
],
  "geometry": {"coordinates":[-81.901106,26.540029],"type":"Point"}
}