{
  "id": 1226564705,
  "type": "Feature",
  "properties": {
    "edtf:cessation":"uuuu",
    "edtf:inception":"uuuu",
    "geom:area":0.0,
    "geom:area_square_m":0.0,
    "geom:bbox":"-76.87276,39.50705,-76.87276,39.50705",
    "geom:latitude":39.50705,
    "geom:longitude":-76.87276,
    "gn:admin1_code":"MD",
    "gn:admin2_code":"13.0",
    "gn:asciiname":"Berrywood Village",
    "gn:country_code":"US",
    "gn:dem":163,
    "gn:elevation":"163.0",
    "gn:feature_class":"P",
    "gn:feature_code":"PPL",
    "gn:geonameid":4348481,
    "gn:latitude":39.50705,
    "gn:longitude":-76.87276,
    "gn:modification_date":"2006-01-15",
    "gn:name":"Berrywood Village",
    "gn:population":0,
    "gn:timezone":"America/New_York",
    "iso:country":"US",
    "mz:hierarchy_label":1,
    "mz:is_current":-1,
    "src:geom":"geonames",
    "wof:belongsto":[
        102191575,
        85633793,
        85688501,
        102082717
    ],
    "wof:breaches":[],
    "wof:concordances":{
        "gn:id":4348481
    },
    "wof:country":"US",
    "wof:geomhash":"07e688ab625815b551210aba55838821",
    "wof:hierarchy":[
        {
            "continent_id":102191575,
            "country_id":85633793,
            "county_id":102082717,
            "locality_id":1226564705,
            "region_id":85688501
        }
    ],
    "wof:id":1226564705,
    "wof:lastmodified":1536970587,
    "wof:name":"Berrywood Village",
    "wof:parent_id":102082717,
    "wof:placetype":"locality",
    "wof:repo":"whosonfirst-data-admin-us",
    "wof:superseded_by":[],
    "wof:supersedes":[],
    "wof:tags":[]
},
  "bbox": [
    -76.87276,
    39.50705,
    -76.87276,
    39.50705
],
  "geometry": {"coordinates":[-76.87276,39.50705],"type":"Point"}
}