{
  "id": 1209340473,
  "type": "Feature",
  "properties": {
    "edtf:cessation":"uuuu",
    "edtf:inception":"uuuu",
    "geom:area":0.0,
    "geom:area_square_m":0.0,
    "geom:bbox":"-87.68585,37.67977,-87.68585,37.67977",
    "geom:latitude":37.67977,
    "geom:longitude":-87.68585,
    "gn:admin1_code":"KY",
    "gn:admin2_code":"101",
    "gn:asciiname":"Dixie",
    "gn:country_code":"US",
    "gn:dem":138,
    "gn:elevation":"141.0",
    "gn:feature_class":"P",
    "gn:feature_code":"PPL",
    "gn:geonameid":4289960,
    "gn:latitude":37.67977,
    "gn:longitude":-87.68585,
    "gn:modification_date":"2006-01-15",
    "gn:name":"Dixie",
    "gn:population":0,
    "gn:timezone":"America/Chicago",
    "iso:country":"US",
    "mz:hierarchy_label":1,
    "mz:is_current":-1,
    "name:eng_x_preferred":[
        "Dixie"
    ],
    "name:und_x_variant":[
        "Little Dixie"
    ],
    "src:geom":"geonames",
    "wof:belongsto":[
        85633793
    ],
    "wof:breaches":[],
    "wof:concordances":{
        "gn:id":4289960
    },
    "wof:country":"US",
    "wof:geomhash":"4b74c25035e6e5cfec292d43c256fb90",
    "wof:hierarchy":[
        {
            "country_id":85633793,
            "locality_id":1209340473
        }
    ],
    "wof:id":1209340473,
    "wof:lastmodified":1537712379,
    "wof:name":"Dixie",
    "wof:parent_id":85633793,
    "wof:placetype":"locality",
    "wof:repo":"whosonfirst-data-admin-us",
    "wof:superseded_by":[],
    "wof:supersedes":[],
    "wof:tags":[]
},
  "bbox": [
    -87.68585,
    37.67977,
    -87.68585,
    37.67977
],
  "geometry": {"coordinates":[-87.68585,37.67977],"type":"Point"}
}