{
  "id": 1125367143,
  "type": "Feature",
  "properties": {
    "edtf:cessation":"2017-05-19",
    "edtf:inception":"uuuu",
    "geom:area":0.0,
    "geom:area_square_m":0.0,
    "geom:bbox":"-89.40403,42.1238,-89.40403,42.1238",
    "geom:latitude":42.1238,
    "geom:longitude":-89.40403,
    "gn:gn_country":"US",
    "gn:gn_fcode":"ADMD",
    "gn:gn_pop":443,
    "gn:population":443,
    "iso:country":"US",
    "lbl:latitude":42.1238,
    "lbl:longitude":-89.40403,
    "mz:hierarchy_label":1,
    "mz:is_current":0,
    "mz:note":"Quattroshapes Point Gazetteer import 20170519",
    "qs_pg:aaroncc":"US",
    "qs_pg:gn_country":"US",
    "qs_pg:gn_fcode":"ADMD",
    "qs_pg:gn_id":7166128,
    "qs_pg:gn_pop":443,
    "qs_pg:name":"Village of Leaf River",
    "qs_pg:photos_9r":0,
    "qs_pg:photos_sr":0,
    "qs_pg:pop_sr":2,
    "qs_pg:qs_id":660972,
    "qs_pg:qs_pg_placetype":"localadmin",
    "src:geom":"qs_pg",
    "src:lbl:centroid":"qs_pg",
    "src:population":"geonames",
    "wof:belongsto":[
        85633793
    ],
    "wof:breaches":[],
    "wof:concordances":{
        "gn:id":7166128,
        "qs_pg:id":660972
    },
    "wof:country":"US",
    "wof:created":1497047144,
    "wof:geomhash":"c014bdb821e3ecdc1149dac2caeaad9a",
    "wof:hierarchy":[
        {
            "country_id":85633793,
            "localadmin_id":1125367143
        }
    ],
    "wof:id":1125367143,
    "wof:lastmodified":1505187062,
    "wof:name":"Village of Leaf River",
    "wof:parent_id":-1,
    "wof:placetype":"localadmin",
    "wof:population":443,
    "wof:population_rank":2,
    "wof:repo":"whosonfirst-data-admin-us",
    "wof:superseded_by":[],
    "wof:supersedes":[],
    "wof:tags":[]
},
  "bbox": [
    -89.40403,
    42.1238,
    -89.40403,
    42.1238
],
  "geometry": {"coordinates":[-89.40403000000001,42.1238],"type":"Point"}
}