{
  "id": 1125377679,
  "type": "Feature",
  "properties": {
    "edtf:cessation":"2017-05-19",
    "edtf:inception":"uuuu",
    "geom:area":0.0,
    "geom:area_square_m":0.0,
    "geom:bbox":"-75.49548,39.65011,-75.49548,39.65011",
    "geom:latitude":39.65011,
    "geom:longitude":-75.49548,
    "gn:gn_country":"US",
    "gn:gn_fcode":"ADMD",
    "gn:gn_pop":0,
    "iso:country":"US",
    "lbl:latitude":39.65011,
    "lbl:longitude":-75.49548,
    "mz:hierarchy_label":1,
    "mz:is_current":0,
    "mz:note":"Quattroshapes Point Gazetteer import 20170519",
    "name:eng_x_preferred":[
        "Pennsville Township"
    ],
    "qs_pg:aaroncc":"US",
    "qs_pg:gn_country":"US",
    "qs_pg:gn_fcode":"ADMD",
    "qs_pg:gn_id":4503557,
    "qs_pg:gn_pop":0,
    "qs_pg:name":"Township of Pennsville",
    "qs_pg:photos_9r":0,
    "qs_pg:photos_sr":0,
    "qs_pg:pop_sr":0,
    "qs_pg:qs_id":376470,
    "qs_pg:qs_pg_placetype":"localadmin",
    "src:geom":"qs_pg",
    "src:lbl:centroid":"qs_pg",
    "wof:belongsto":[
        85633793
    ],
    "wof:breaches":[],
    "wof:concordances":{
        "gn:id":4503557,
        "qs_pg:id":376470
    },
    "wof:country":"US",
    "wof:created":1497047853,
    "wof:geomhash":"3d6382d8fe68a50657a46988b6e894f2",
    "wof:hierarchy":[
        {
            "country_id":85633793,
            "localadmin_id":1125377679
        }
    ],
    "wof:id":1125377679,
    "wof:lastmodified":1505248135,
    "wof:name":"Township of Pennsville",
    "wof:parent_id":-1,
    "wof:placetype":"localadmin",
    "wof:repo":"whosonfirst-data-admin-us",
    "wof:superseded_by":[],
    "wof:supersedes":[],
    "wof:tags":[]
},
  "bbox": [
    -75.49548,
    39.65011,
    -75.49548,
    39.65011
],
  "geometry": {"coordinates":[-75.49548,39.65011],"type":"Point"}
}