{
  "id": 1209735371,
  "type": "Feature",
  "properties": {
    "edtf:cessation":"uuuu",
    "edtf:inception":"uuuu",
    "geom:area":0.0,
    "geom:area_square_m":0.0,
    "geom:bbox":"-97.16679,27.9252,-97.16679,27.9252",
    "geom:latitude":27.9252,
    "geom:longitude":-97.16679,
    "gn:admin1_code":"TX",
    "gn:admin2_code":"409",
    "gn:asciiname":"Falman-County Acres",
    "gn:country_code":"US",
    "gn:dem":11,
    "gn:elevation":"6.0",
    "gn:feature_class":"P",
    "gn:feature_code":"PPL",
    "gn:geonameid":7261166,
    "gn:latitude":27.9252,
    "gn:longitude":-97.16679,
    "gn:modification_date":"2010-02-07",
    "gn:name":"Falman-County Acres",
    "gn:population":0,
    "gn:timezone":"America/Chicago",
    "iso:country":"US",
    "mz:hierarchy_label":1,
    "mz:is_current":-1,
    "src:geom":"geonames",
    "wof:belongsto":[
        102191575,
        85633793,
        85688753,
        102083843
    ],
    "wof:breaches":[],
    "wof:concordances":{
        "gn:id":7261166,
        "wk:page":"Falman-County_Acres%2C_Texas"
    },
    "wof:country":"US",
    "wof:geomhash":"cb262c49ea1fddfe9f79145ff5ea7f5d",
    "wof:hierarchy":[
        {
            "continent_id":102191575,
            "country_id":85633793,
            "county_id":102083843,
            "locality_id":1209735371,
            "region_id":85688753
        }
    ],
    "wof:id":1209735371,
    "wof:lastmodified":1537575730,
    "wof:name":"Falman-County Acres",
    "wof:parent_id":102083843,
    "wof:placetype":"locality",
    "wof:repo":"whosonfirst-data-admin-us",
    "wof:superseded_by":[],
    "wof:supersedes":[],
    "wof:tags":[]
},
  "bbox": [
    -97.16679,
    27.9252,
    -97.16679,
    27.9252
],
  "geometry": {"coordinates":[-97.16679000000001,27.9252],"type":"Point"}
}