{
  "id": 1226665819,
  "type": "Feature",
  "properties": {
    "edtf:cessation":"2018-09-07",
    "edtf:inception":"uuuu",
    "geom:area":0.0,
    "geom:area_square_m":0.0,
    "geom:bbox":"-117.36365,33.25976,-117.36365,33.25976",
    "geom:latitude":33.25976,
    "geom:longitude":-117.36365,
    "gn:admin1_code":"CA",
    "gn:admin2_code":"73.0",
    "gn:asciiname":"Ysidora (historical)",
    "gn:country_code":"US",
    "gn:dem":11,
    "gn:elevation":"10.0",
    "gn:feature_class":"P",
    "gn:feature_code":"PPLQ",
    "gn:geonameid":5411014,
    "gn:latitude":33.25976,
    "gn:longitude":-117.36365,
    "gn:modification_date":"2011-12-12",
    "gn:name":"Ysidora (historical)",
    "gn:population":0,
    "gn:timezone":"America/Los_Angeles",
    "iso:country":"US",
    "mz:hierarchy_label":1,
    "mz:is_current":0,
    "src:geom":"geonames",
    "wof:belongsto":[
        102191575,
        85633793,
        85688637,
        102083569
    ],
    "wof:breaches":[],
    "wof:concordances":{
        "gn:id":5411014
    },
    "wof:country":"US",
    "wof:geomhash":"ab8458896965bd68524928577a1e5df5",
    "wof:hierarchy":[
        {
            "continent_id":102191575,
            "country_id":85633793,
            "county_id":102083569,
            "locality_id":1226665819,
            "region_id":85688637
        }
    ],
    "wof:id":1226665819,
    "wof:lastmodified":1536829636,
    "wof:name":"Ysidora (historical)",
    "wof:parent_id":102083569,
    "wof:placetype":"locality",
    "wof:repo":"whosonfirst-data-admin-us",
    "wof:superseded_by":[],
    "wof:supersedes":[],
    "wof:tags":[]
},
  "bbox": [
    -117.36365,
    33.25976,
    -117.36365,
    33.25976
],
  "geometry": {"coordinates":[-117.36365000000001,33.25976],"type":"Point"}
}