{
  "id": 1343576809,
  "type": "Feature",
  "properties": {
    "edtf:cessation":"uuuu",
    "edtf:inception":"uuuu",
    "geom:area":0.0,
    "geom:area_square_m":0.0,
    "geom:bbox":"-82.64349,36.94177,-82.64349,36.94177",
    "geom:latitude":36.94177,
    "geom:longitude":-82.64349,
    "gn:admin1_code":"VA",
    "gn:admin2_code":"195",
    "gn:asciiname":"Dorchester",
    "gn:country_code":"US",
    "gn:dem":617,
    "gn:elevation":"614.0",
    "gn:feature_class":"P",
    "gn:feature_code":"PPL",
    "gn:geonameid":4756204,
    "gn:latitude":36.94177,
    "gn:longitude":-82.64349,
    "gn:modification_date":"2006-01-15",
    "gn:name":"Dorchester",
    "gn:population":0,
    "gn:timezone":"America/New_York",
    "iso:country":"US",
    "mz:hierarchy_label":1,
    "mz:is_current":-1,
    "src:geom":"geonames",
    "wof:belongsto":[
        102191575,
        85633793,
        85688747,
        102084983
    ],
    "wof:breaches":[],
    "wof:concordances":{
        "gn:id":4756204
    },
    "wof:country":"US",
    "wof:geomhash":"e05c828bea3bf97debc03f3acc80b523",
    "wof:hierarchy":[
        {
            "continent_id":102191575,
            "country_id":85633793,
            "county_id":102084983,
            "locality_id":1343576809,
            "region_id":85688747
        }
    ],
    "wof:id":1343576809,
    "wof:lastmodified":1537072724,
    "wof:name":"Dorchester",
    "wof:parent_id":102084983,
    "wof:placetype":"locality",
    "wof:repo":"whosonfirst-data-admin-us",
    "wof:superseded_by":[],
    "wof:supersedes":[],
    "wof:tags":[]
},
  "bbox": [
    -82.64349,
    36.94177,
    -82.64349,
    36.94177
],
  "geometry": {"coordinates":[-82.64349,36.94177],"type":"Point"}
}