{
  "id": 1242893445,
  "type": "Feature",
  "properties": {
    "edtf:cessation":"2018-09-06",
    "edtf:inception":"uuuu",
    "geom:area":0.0,
    "geom:area_square_m":0.0,
    "geom:bbox":"-81.0098,35.48263,-81.0098,35.48263",
    "geom:latitude":35.48263,
    "geom:longitude":-81.0098,
    "gn:admin1_code":"NC",
    "gn:admin2_code":"109.0",
    "gn:admin3_code":"90560.0",
    "gn:asciiname":"Triangle (historical)",
    "gn:country_code":"US",
    "gn:dem":230,
    "gn:elevation":"221.0",
    "gn:feature_class":"P",
    "gn:feature_code":"PPLQ",
    "gn:geonameid":4495595,
    "gn:latitude":35.48263,
    "gn:longitude":-81.0098,
    "gn:modification_date":"2017-05-23",
    "gn:name":"Triangle (historical)",
    "gn:population":0,
    "gn:timezone":"America/New_York",
    "iso:country":"US",
    "mz:hierarchy_label":1,
    "mz:is_current":0,
    "src:geom":"geonames",
    "wof:belongsto":[
        102191575,
        85633793,
        85688773,
        102087857
    ],
    "wof:breaches":[],
    "wof:concordances":{
        "gn:id":4495595
    },
    "wof:country":"US",
    "wof:geomhash":"e095b6bffb150ee78f580e45662cdeb2",
    "wof:hierarchy":[
        {
            "continent_id":102191575,
            "country_id":85633793,
            "county_id":102087857,
            "locality_id":1242893445,
            "region_id":85688773
        }
    ],
    "wof:id":1242893445,
    "wof:lastmodified":1536605808,
    "wof:name":"Triangle (historical)",
    "wof:parent_id":102087857,
    "wof:placetype":"locality",
    "wof:repo":"whosonfirst-data-admin-us",
    "wof:superseded_by":[],
    "wof:supersedes":[],
    "wof:tags":[]
},
  "bbox": [
    -81.0098,
    35.48263,
    -81.0098,
    35.48263
],
  "geometry": {"coordinates":[-81.0098,35.48263],"type":"Point"}
}