{
  "id": 1125298801,
  "type": "Feature",
  "properties": {
    "edtf:cessation":"uuuu",
    "edtf:deprecated":"2017-11-04",
    "edtf:inception":"uuuu",
    "geom:area":0.0,
    "geom:area_square_m":0.0,
    "geom:bbox":"-84.86997,35.18179,-84.86997,35.18179",
    "geom:latitude":35.18179,
    "geom:longitude":-84.86997,
    "gn:gn_country":"US",
    "gn:gn_fcode":"ADMD",
    "gn:gn_pop":41285,
    "gn:population":41285,
    "iso:country":"US",
    "lbl:latitude":35.18179,
    "lbl:longitude":-84.86997,
    "mz:hierarchy_label":1,
    "mz:is_current":0,
    "mz:note":"Quattroshapes Point Gazetteer import 20170519",
    "qs_pg:aaroncc":"US",
    "qs_pg:gn_country":"US",
    "qs_pg:gn_fcode":"ADMD",
    "qs_pg:gn_id":7317797,
    "qs_pg:gn_pop":41285,
    "qs_pg:name":"City of Cleveland",
    "qs_pg:photos_9r":0,
    "qs_pg:photos_sr":0,
    "qs_pg:pop_sr":7,
    "qs_pg:qs_id":683813,
    "qs_pg:qs_pg_placetype":"localadmin",
    "src:geom":"qs_pg",
    "src:lbl:centroid":"qs_pg",
    "src:population":"geonames",
    "wof:belongsto":[
        85633793
    ],
    "wof:breaches":[],
    "wof:concordances":{
        "gn:id":7317797,
        "qs_pg:id":683813
    },
    "wof:country":"US",
    "wof:created":1497043304,
    "wof:geomhash":"c8641575c9d827da7963271a9f6867cd",
    "wof:hierarchy":[
        {
            "country_id":85633793,
            "localadmin_id":1125298801
        }
    ],
    "wof:id":1125298801,
    "wof:lastmodified":1509752488,
    "wof:name":"City of Cleveland",
    "wof:parent_id":-1,
    "wof:placetype":"localadmin",
    "wof:population":41285,
    "wof:population_rank":7,
    "wof:repo":"whosonfirst-data-admin-us",
    "wof:superseded_by":[
        101723129
    ],
    "wof:supersedes":[],
    "wof:tags":[]
},
  "bbox": [
    -84.86997,
    35.18179,
    -84.86997,
    35.18179
],
  "geometry": {"coordinates":[-84.86997,35.18179],"type":"Point"}
}