{
  "id": 1209831157,
  "type": "Feature",
  "properties": {
    "edtf:cessation":"uuuu",
    "edtf:inception":"uuuu",
    "geom:area":0.0,
    "geom:area_square_m":0.0,
    "geom:bbox":"-102.27851,32.91537,-102.27851,32.91537",
    "geom:latitude":32.91537,
    "geom:longitude":-102.27851,
    "gn:admin1_code":"TX",
    "gn:admin2_code":"165.0",
    "gn:asciiname":"Ashmore",
    "gn:country_code":"US",
    "gn:dem":967,
    "gn:elevation":"965.0",
    "gn:feature_class":"P",
    "gn:feature_code":"PPL",
    "gn:geonameid":5516483,
    "gn:latitude":32.91537,
    "gn:longitude":-102.27851,
    "gn:modification_date":"2006-01-15",
    "gn:name":"Ashmore",
    "gn:population":0,
    "gn:timezone":"America/Chicago",
    "iso:country":"US",
    "mz:hierarchy_label":1,
    "mz:is_current":-1,
    "src:geom":"geonames",
    "wof:belongsto":[
        102191575,
        85633793,
        85688753,
        102080705
    ],
    "wof:breaches":[],
    "wof:concordances":{
        "gn:id":5516483
    },
    "wof:country":"US",
    "wof:geomhash":"2c8ca33ceed12cdf7b08a64d233818cf",
    "wof:hierarchy":[
        {
            "continent_id":102191575,
            "country_id":85633793,
            "county_id":102080705,
            "locality_id":1209831157,
            "region_id":85688753
        }
    ],
    "wof:id":1209831157,
    "wof:lastmodified":1536368154,
    "wof:name":"Ashmore",
    "wof:parent_id":102080705,
    "wof:placetype":"locality",
    "wof:repo":"whosonfirst-data-admin-us",
    "wof:superseded_by":[],
    "wof:supersedes":[],
    "wof:tags":[]
},
  "bbox": [
    -102.27851,
    32.91537,
    -102.27851,
    32.91537
],
  "geometry": {"coordinates":[-102.27851,32.91537],"type":"Point"}
}