{
  "id": 1242990327,
  "type": "Feature",
  "properties": {
    "edtf:cessation":"2018-09-06",
    "edtf:inception":"uuuu",
    "geom:area":0.0,
    "geom:area_square_m":0.0,
    "geom:bbox":"-90.69067,36.58784,-90.69067,36.58784",
    "geom:latitude":36.58784,
    "geom:longitude":-90.69067,
    "gn:admin1_code":"MO",
    "gn:admin2_code":"181.0",
    "gn:admin3_code":"75778.0",
    "gn:asciiname":"Martinsburg (historical)",
    "gn:country_code":"US",
    "gn:dem":105,
    "gn:elevation":"103.0",
    "gn:feature_class":"P",
    "gn:feature_code":"PPLQ",
    "gn:geonameid":4397312,
    "gn:latitude":36.58784,
    "gn:longitude":-90.69067,
    "gn:modification_date":"2017-05-23",
    "gn:name":"Martinsburg (historical)",
    "gn:population":0,
    "gn:timezone":"America/Chicago",
    "iso:country":"US",
    "mz:hierarchy_label":1,
    "mz:is_current":0,
    "name:eng_x_preferred":[
        "Martinsburg (historical)"
    ],
    "name:und_x_variant":[
        "Oakdale"
    ],
    "src:geom":"geonames",
    "wof:belongsto":[
        85688661,
        102191575,
        404518119,
        85633793,
        102086911
    ],
    "wof:breaches":[],
    "wof:concordances":{
        "gn:id":4397312
    },
    "wof:country":"US",
    "wof:geomhash":"8275c41b669c93a45c8d472681379b19",
    "wof:hierarchy":[
        {
            "continent_id":102191575,
            "country_id":85633793,
            "county_id":102086911,
            "localadmin_id":404518119,
            "locality_id":1242990327,
            "region_id":85688661
        }
    ],
    "wof:id":1242990327,
    "wof:lastmodified":1537712462,
    "wof:name":"Martinsburg (historical)",
    "wof:parent_id":404518119,
    "wof:placetype":"locality",
    "wof:repo":"whosonfirst-data-admin-us",
    "wof:superseded_by":[],
    "wof:supersedes":[],
    "wof:tags":[]
},
  "bbox": [
    -90.69067,
    36.58784,
    -90.69067,
    36.58784
],
  "geometry": {"coordinates":[-90.69067,36.58784],"type":"Point"}
}