{
  "id": 1125335489,
  "type": "Feature",
  "properties": {
    "edtf:cessation":"uuuu",
    "edtf:deprecated":"2017-11-04",
    "edtf:inception":"uuuu",
    "geom:area":0.0,
    "geom:area_square_m":0.0,
    "geom:bbox":"-102.54323,48.31307,-102.54323,48.31307",
    "geom:latitude":48.31307,
    "geom:longitude":-102.54323,
    "gn:gn_country":"US",
    "gn:gn_fcode":"ADMD",
    "gn:gn_pop":97,
    "gn:population":97,
    "iso:country":"US",
    "lbl:latitude":48.31307,
    "lbl:longitude":-102.54323,
    "mz:hierarchy_label":1,
    "mz:is_current":0,
    "mz:note":"Quattroshapes Point Gazetteer import 20170519",
    "qs_pg:aaroncc":"US",
    "qs_pg:gn_country":"US",
    "qs_pg:gn_fcode":"ADMD",
    "qs_pg:gn_id":5691402,
    "qs_pg:gn_pop":97,
    "qs_pg:name":"City of Ross",
    "qs_pg:photos_9r":0,
    "qs_pg:photos_sr":0,
    "qs_pg:pop_sr":1,
    "qs_pg:qs_id":612056,
    "qs_pg:qs_pg_placetype":"localadmin",
    "src:geom":"qs_pg",
    "src:lbl:centroid":"qs_pg",
    "src:population":"geonames",
    "wof:belongsto":[
        85633793
    ],
    "wof:breaches":[],
    "wof:concordances":{
        "gn:id":5691402,
        "qs_pg:id":612056
    },
    "wof:country":"US",
    "wof:created":1497045382,
    "wof:geomhash":"9d6014403571d59d62c12dab35616fce",
    "wof:hierarchy":[
        {
            "country_id":85633793,
            "localadmin_id":1125335489
        }
    ],
    "wof:id":1125335489,
    "wof:lastmodified":1509752567,
    "wof:name":"City of Ross",
    "wof:parent_id":-1,
    "wof:placetype":"localadmin",
    "wof:population":97,
    "wof:population_rank":1,
    "wof:repo":"whosonfirst-data-admin-us",
    "wof:superseded_by":[
        85981983
    ],
    "wof:supersedes":[],
    "wof:tags":[]
},
  "bbox": [
    -102.54323,
    48.31307,
    -102.54323,
    48.31307
],
  "geometry": {"coordinates":[-102.54322999999999,48.31307],"type":"Point"}
}