{
  "id": 1260104575,
  "type": "Feature",
  "properties": {
    "edtf:cessation":"uuuu",
    "edtf:inception":"uuuu",
    "geom:area":0.0,
    "geom:area_square_m":0.0,
    "geom:bbox":"-69.46421,44.90589,-69.46421,44.90589",
    "geom:latitude":44.90589,
    "geom:longitude":-69.46421,
    "gn:admin1_code":"ME",
    "gn:admin2_code":"25.0",
    "gn:admin3_code":"64850.0",
    "gn:asciiname":"Wildwood",
    "gn:country_code":"US",
    "gn:dem":120,
    "gn:elevation":"116.0",
    "gn:feature_class":"P",
    "gn:feature_code":"PPL",
    "gn:geonameid":4983127,
    "gn:latitude":44.90589,
    "gn:longitude":-69.46421,
    "gn:modification_date":"2017-05-23",
    "gn:name":"Wildwood",
    "gn:population":0,
    "gn:timezone":"America/New_York",
    "iso:country":"US",
    "mz:hierarchy_label":1,
    "mz:is_current":-1,
    "src:geom":"geonames",
    "wof:belongsto":[
        85688769,
        102191575,
        404474803,
        85633793,
        102087435
    ],
    "wof:breaches":[],
    "wof:concordances":{
        "gn:id":4983127
    },
    "wof:country":"US",
    "wof:geomhash":"0d6c9300fdac8a376a59e6172540d865",
    "wof:hierarchy":[
        {
            "continent_id":102191575,
            "country_id":85633793,
            "county_id":102087435,
            "localadmin_id":404474803,
            "locality_id":1260104575,
            "region_id":85688769
        }
    ],
    "wof:id":1260104575,
    "wof:lastmodified":1536957715,
    "wof:name":"Wildwood",
    "wof:parent_id":404474803,
    "wof:placetype":"locality",
    "wof:repo":"whosonfirst-data-admin-us",
    "wof:superseded_by":[],
    "wof:supersedes":[],
    "wof:tags":[]
},
  "bbox": [
    -69.46421,
    44.90589,
    -69.46421,
    44.90589
],
  "geometry": {"coordinates":[-69.46420999999999,44.90589],"type":"Point"}
}