{
  "id": 420554229,
  "type": "Feature",
  "properties": {
    "edtf:cessation":"uuuu",
    "edtf:inception":"uuuu",
    "geom:area":0.0,
    "geom:area_square_m":410927.950873,
    "geom:bbox":"-105.058193,39.916079,-105.058193,39.916079",
    "geom:latitude":39.916079,
    "geom:longitude":-105.058193,
    "iso:country":"US",
    "lbl:latitude":39.916079,
    "lbl:longitude":-105.058193,
    "mz:hierarchy_label":0,
    "mz:is_current":-1,
    "name:eng_x_preferred":[
        "Broomfield Town Centre"
    ],
    "src:geom":"mz",
    "src:geom_alt":[
        "quattroshapes_pg",
        "zetashapes"
    ],
    "src:lbl":"mapshaper",
    "src:lbl:centroid":"mapshaper",
    "src:population":"zetashapes",
    "wof:belongsto":[
        102191575,
        85633793,
        85929855,
        102086123,
        85688603
    ],
    "wof:breaches":[],
    "wof:concordances":{
        "gp:id":55858253,
        "qs_pg:id":516981
    },
    "wof:country":"US",
    "wof:geomhash":"8f7af0c06501627c8a95fc120689f0a6",
    "wof:hierarchy":[
        {
            "continent_id":102191575,
            "country_id":85633793,
            "county_id":102086123,
            "locality_id":85929855,
            "neighbourhood_id":420554229,
            "region_id":85688603
        }
    ],
    "wof:id":420554229,
    "wof:lastmodified":1533613652,
    "wof:name":"Broomfield Town Centre",
    "wof:parent_id":85929855,
    "wof:placetype":"neighbourhood",
    "wof:population":565,
    "wof:population_rank":2,
    "wof:repo":"whosonfirst-data-admin-us",
    "wof:superseded_by":[],
    "wof:supersedes":[],
    "wof:tags":[],
    "zs:area_m":410899.830773,
    "zs:blockids":[
        80140303002039,
        80140302001001,
        80140302001000,
        80140303002042,
        80140303002043,
        80140303002056,
        80140303002054,
        80140303002055,
        80140303002040,
        80140302001079,
        80140302001002,
        80140303002038,
        80140303002057,
        80140303002041,
        80140303002037,
        80140302001078,
        80140303002035
    ],
    "zs:housing10":371,
    "zs:id":55858253,
    "zs:label":"Broomfield Town Centre",
    "zs:pop10":565
},
  "bbox": [
    -105.058193,
    39.916079,
    -105.058193,
    39.916079
],
  "geometry": {"coordinates":[-105.058193,39.916079],"type":"Point"}
}