{
  "id": 420540043,
  "type": "Feature",
  "properties": {
    "edtf:cessation":"uuuu",
    "edtf:inception":"uuuu",
    "geom:area":0.0,
    "geom:area_square_m":12391874.186524,
    "geom:bbox":"-75.457599,41.966504,-75.457599,41.966504",
    "geom:latitude":41.966504,
    "geom:longitude":-75.457599,
    "iso:country":"US",
    "lbl:latitude":41.966504,
    "lbl:longitude":-75.457599,
    "mz:hierarchy_label":0,
    "mz:is_current":-1,
    "name:eng_x_preferred":[
        "Maple Grove"
    ],
    "src:geom":"mz",
    "src:geom_alt":[
        "zetashapes"
    ],
    "src:lbl":"mapshaper",
    "src:lbl:centroid":"mapshaper",
    "src:population":"zetashapes",
    "wof:belongsto":[
        102191575,
        404487345,
        85633793,
        102081379,
        85688481
    ],
    "wof:breaches":[],
    "wof:concordances":{
        "gp:id":2445189
    },
    "wof:country":"US",
    "wof:geomhash":"d3731c9cef79193ddb58a0900c590fa5",
    "wof:hierarchy":[
        {
            "continent_id":102191575,
            "country_id":85633793,
            "county_id":102081379,
            "localadmin_id":404487345,
            "locality_id":-1,
            "neighbourhood_id":420540043,
            "region_id":85688481
        }
    ],
    "wof:id":420540043,
    "wof:lastmodified":1533600331,
    "wof:name":"Maple Grove",
    "wof:parent_id":-1,
    "wof:placetype":"neighbourhood",
    "wof:population":28,
    "wof:population_rank":1,
    "wof:repo":"whosonfirst-data-admin-us",
    "wof:superseded_by":[],
    "wof:supersedes":[],
    "wof:tags":[],
    "zs:area_m":12390598.850785,
    "zs:blockids":[
        421279602001047
    ],
    "zs:housing10":16,
    "zs:id":2445189,
    "zs:label":"Maple Grove",
    "zs:pop10":28
},
  "bbox": [
    -75.457599,
    41.966504,
    -75.457599,
    41.966504
],
  "geometry": {"coordinates":[-75.457599,41.966504],"type":"Point"}
}