{
  "id": 1293308699,
  "type": "Feature",
  "properties": {
    "edtf:cessation":"2018-09-06",
    "edtf:inception":"uuuu",
    "geom:area":0.0,
    "geom:area_square_m":0.0,
    "geom:bbox":"-77.49054,38.52735,-77.49054,38.52735",
    "geom:latitude":38.52735,
    "geom:longitude":-77.49054,
    "gn:admin1_code":"VA",
    "gn:admin2_code":"179",
    "gn:asciiname":"Krukrak (historical)",
    "gn:country_code":"US",
    "gn:dem":105,
    "gn:elevation":"98.0",
    "gn:feature_class":"P",
    "gn:feature_code":"PPLQ",
    "gn:geonameid":4768081,
    "gn:latitude":38.52735,
    "gn:longitude":-77.49054,
    "gn:modification_date":"2011-12-12",
    "gn:name":"Krukrak (historical)",
    "gn:population":0,
    "gn:timezone":"America/New_York",
    "iso:country":"US",
    "mz:hierarchy_label":1,
    "mz:is_current":0,
    "src:geom":"geonames",
    "wof:belongsto":[
        102191575,
        85633793,
        85688747,
        102081931
    ],
    "wof:breaches":[],
    "wof:concordances":{
        "gn:id":4768081
    },
    "wof:country":"US",
    "wof:geomhash":"32879074933a4a8ecb14cc5e03540556",
    "wof:hierarchy":[
        {
            "continent_id":102191575,
            "country_id":85633793,
            "county_id":102081931,
            "locality_id":1293308699,
            "region_id":85688747
        }
    ],
    "wof:id":1293308699,
    "wof:lastmodified":1537042987,
    "wof:name":"Krukrak (historical)",
    "wof:parent_id":102081931,
    "wof:placetype":"locality",
    "wof:repo":"whosonfirst-data-admin-us",
    "wof:superseded_by":[],
    "wof:supersedes":[],
    "wof:tags":[]
},
  "bbox": [
    -77.49054,
    38.52735,
    -77.49054,
    38.52735
],
  "geometry": {"coordinates":[-77.49054,38.52735],"type":"Point"}
}