{
  "id": 1125309341,
  "type": "Feature",
  "properties": {
    "edtf:cessation":"uuuu",
    "edtf:deprecated":"2017-11-04",
    "edtf:inception":"uuuu",
    "geom:area":0.0,
    "geom:area_square_m":0.0,
    "geom:bbox":"-87.98983,44.52166,-87.98983,44.52166",
    "geom:latitude":44.52166,
    "geom:longitude":-87.98983,
    "gn:gn_country":"US",
    "gn:gn_fcode":"ADMD",
    "gn:gn_pop":104057,
    "gn:population":104057,
    "iso:country":"US",
    "lbl:latitude":44.52166,
    "lbl:longitude":-87.98983,
    "mz:hierarchy_label":1,
    "mz:is_current":0,
    "mz:note":"Quattroshapes Point Gazetteer import 20170519",
    "qs_pg:aaroncc":"US",
    "qs_pg:gn_country":"US",
    "qs_pg:gn_fcode":"ADMD",
    "qs_pg:gn_id":5254974,
    "qs_pg:gn_pop":104057,
    "qs_pg:name":"City of Green Bay",
    "qs_pg:photos_9r":0,
    "qs_pg:photos_sr":0,
    "qs_pg:pop_sr":9,
    "qs_pg:qs_id":609248,
    "qs_pg:qs_pg_placetype":"localadmin",
    "src:geom":"qs_pg",
    "src:lbl:centroid":"qs_pg",
    "src:population":"geonames",
    "wof:belongsto":[
        85633793
    ],
    "wof:breaches":[],
    "wof:concordances":{
        "gn:id":5254974,
        "qs_pg:id":609248
    },
    "wof:country":"US",
    "wof:created":1497043887,
    "wof:geomhash":"e91e176d46174939d54dcb4b64a2af31",
    "wof:hierarchy":[
        {
            "country_id":85633793,
            "localadmin_id":1125309341
        }
    ],
    "wof:id":1125309341,
    "wof:lastmodified":1509752522,
    "wof:name":"City of Green Bay",
    "wof:parent_id":-1,
    "wof:placetype":"localadmin",
    "wof:population":104057,
    "wof:population_rank":9,
    "wof:repo":"whosonfirst-data-admin-us",
    "wof:superseded_by":[
        101732365
    ],
    "wof:supersedes":[],
    "wof:tags":[]
},
  "bbox": [
    -87.98983,
    44.52166,
    -87.98983,
    44.52166
],
  "geometry": {"coordinates":[-87.98983,44.52166],"type":"Point"}
}