{
  "id": 1125274937,
  "type": "Feature",
  "properties": {
    "edtf:cessation":"uuuu",
    "edtf:deprecated":"2017-11-04",
    "edtf:inception":"uuuu",
    "geom:area":0.0,
    "geom:area_square_m":0.0,
    "geom:bbox":"-89.27918,31.97732,-89.27918,31.97732",
    "geom:latitude":31.97732,
    "geom:longitude":-89.27918,
    "gn:gn_country":"US",
    "gn:gn_fcode":"ADMD",
    "gn:gn_pop":1786,
    "gn:population":1786,
    "iso:country":"US",
    "lbl:latitude":31.97732,
    "lbl:longitude":-89.27918,
    "mz:hierarchy_label":1,
    "mz:is_current":0,
    "mz:note":"Quattroshapes Point Gazetteer import 20170519",
    "qs_pg:aaroncc":"US",
    "qs_pg:gn_country":"US",
    "qs_pg:gn_fcode":"ADMD",
    "qs_pg:gn_id":7169592,
    "qs_pg:gn_pop":1786,
    "qs_pg:name":"City of Bay Springs",
    "qs_pg:photos_9r":0,
    "qs_pg:photos_sr":0,
    "qs_pg:pop_sr":3,
    "qs_pg:qs_id":662273,
    "qs_pg:qs_pg_placetype":"localadmin",
    "src:geom":"qs_pg",
    "src:lbl:centroid":"qs_pg",
    "src:population":"geonames",
    "wof:belongsto":[
        85633793
    ],
    "wof:breaches":[],
    "wof:concordances":{
        "gn:id":7169592,
        "qs_pg:id":662273
    },
    "wof:country":"US",
    "wof:created":1497042273,
    "wof:geomhash":"8cf8eccfc569e10f06277c7faf15859a",
    "wof:hierarchy":[
        {
            "country_id":85633793,
            "localadmin_id":1125274937
        }
    ],
    "wof:id":1125274937,
    "wof:lastmodified":1509752416,
    "wof:name":"City of Bay Springs",
    "wof:parent_id":-1,
    "wof:placetype":"localadmin",
    "wof:population":1786,
    "wof:population_rank":3,
    "wof:repo":"whosonfirst-data-admin-us",
    "wof:superseded_by":[
        85969853
    ],
    "wof:supersedes":[],
    "wof:tags":[]
},
  "bbox": [
    -89.27918,
    31.97732,
    -89.27918,
    31.97732
],
  "geometry": {"coordinates":[-89.27918,31.97732],"type":"Point"}
}