{
  "id": 85868431,
  "type": "Feature",
  "properties": {"wof:repo":"whosonfirst-data-admin-us",
    "src:geom":"quattroshapes",
    "wof:geomhash":"bd042edaa3d6e51cc9ee79a38e417959",
    "wof:id":85868431
},
  "bbox": [
    -80.20112803337787,
    25.750424835900063,
    -80.18827625634941,
    25.760319754700035
],
  "geometry": {"coordinates":[[[-80.19470214839987,25.76031975470003],[-80.19470214839987,25.75908293307047],[-80.19363975830362,25.75908293310441],[-80.19332885739993,25.75908293500004],[-80.19332885739985,25.75873772859364],[-80.19332885739985,25.75784610230005],[-80.19195556639991,25.75784610105562],[-80.19195556639991,25.75660925486119],[-80.19058227539998,25.75660925465016],[-80.18920898440004,25.75660925475576],[-80.18895849232069,25.75660925357519],[-80.18827625634941,25.75433675824310],[-80.18920898438529,25.75330116651810],[-80.18920898438182,25.75180562056187],[-80.18920898439001,25.75042483590006],[-80.19470214839987,25.75042483590006],[-80.19470214839987,25.75166171366409],[-80.19579049942439,25.75105753448061],[-80.19744873048325,25.75289863753569],[-80.19744873048637,25.75537239087511],[-80.20019531485190,25.75537239155172],[-80.20112803337787,25.75640798545906],[-80.20069630049625,25.75784608942537],[-80.20112801880384,25.75928411490646],[-80.20019531249991,25.76031975012228],[-80.19807052419088,25.76031974684444],[-80.19744873050004,25.76031975470003],[-80.19501304644106,25.76031975470003],[-80.19470214839987,25.76031975470003]]],"type":"Polygon"}
}