{
  "id": 1125401635,
  "type": "Feature",
  "properties": {
    "edtf:cessation":"uuuu",
    "edtf:deprecated":"2017-11-04",
    "edtf:inception":"uuuu",
    "geom:area":0.0,
    "geom:area_square_m":0.0,
    "geom:bbox":"-95.17418,43.37416,-95.17418,43.37416",
    "geom:latitude":43.37416,
    "geom:longitude":-95.17418,
    "gn:gn_country":"US",
    "gn:gn_fcode":"ADMD",
    "gn:gn_pop":341,
    "gn:population":341,
    "iso:country":"US",
    "lbl:latitude":43.37416,
    "lbl:longitude":-95.17418,
    "mz:hierarchy_label":1,
    "mz:is_current":0,
    "mz:note":"Quattroshapes Point Gazetteer import 20170519",
    "qs_pg:aaroncc":"US",
    "qs_pg:gn_country":"US",
    "qs_pg:gn_fcode":"ADMD",
    "qs_pg:gn_id":7165050,
    "qs_pg:gn_pop":341,
    "qs_pg:name":"City of Wahpeton",
    "qs_pg:photos_9r":0,
    "qs_pg:photos_sr":0,
    "qs_pg:pop_sr":2,
    "qs_pg:qs_id":659974,
    "qs_pg:qs_pg_placetype":"localadmin",
    "src:geom":"qs_pg",
    "src:lbl:centroid":"qs_pg",
    "src:population":"geonames",
    "wof:belongsto":[
        85633793
    ],
    "wof:breaches":[],
    "wof:concordances":{
        "gn:id":7165050,
        "qs_pg:id":659974
    },
    "wof:country":"US",
    "wof:created":1497049361,
    "wof:geomhash":"6671bf5f7dda7c0952318ded7ddd9f20",
    "wof:hierarchy":[
        {
            "country_id":85633793,
            "localadmin_id":1125401635
        }
    ],
    "wof:id":1125401635,
    "wof:lastmodified":1509752705,
    "wof:name":"City of Wahpeton",
    "wof:parent_id":-1,
    "wof:placetype":"localadmin",
    "wof:population":341,
    "wof:population_rank":2,
    "wof:repo":"whosonfirst-data-admin-us",
    "wof:superseded_by":[
        85942907
    ],
    "wof:supersedes":[],
    "wof:tags":[]
},
  "bbox": [
    -95.17418,
    43.37416,
    -95.17418,
    43.37416
],
  "geometry": {"coordinates":[-95.17418000000001,43.37416],"type":"Point"}
}