{
  "id": 1125388623,
  "type": "Feature",
  "properties": {
    "edtf:cessation":"2017-05-19",
    "edtf:inception":"uuuu",
    "geom:area":0.0,
    "geom:area_square_m":0.0,
    "geom:bbox":"-85.70334,42.20226,-85.70334,42.20226",
    "geom:latitude":42.20226,
    "geom:longitude":-85.70334,
    "gn:gn_country":"US",
    "gn:gn_fcode":"ADMD",
    "gn:gn_pop":0,
    "iso:country":"US",
    "lbl:latitude":42.20226,
    "lbl:longitude":-85.70334,
    "mz:hierarchy_label":1,
    "mz:is_current":0,
    "mz:note":"Quattroshapes Point Gazetteer import 20170519",
    "name:eng_x_preferred":[
        "Texas Township"
    ],
    "name:eng_x_variant":[
        "Charter Township of Texas"
    ],
    "name:unk_x_variant":[
        "Township of Texas"
    ],
    "qs_pg:aaroncc":"US",
    "qs_pg:gn_country":"US",
    "qs_pg:gn_fcode":"ADMD",
    "qs_pg:gn_id":5012033,
    "qs_pg:gn_pop":0,
    "qs_pg:name":"Charter Township of Texas",
    "qs_pg:photos_9r":0,
    "qs_pg:photos_sr":0,
    "qs_pg:pop_sr":0,
    "qs_pg:qs_id":1034715,
    "qs_pg:qs_pg_placetype":"localadmin",
    "src:geom":"qs_pg",
    "src:lbl:centroid":"qs_pg",
    "wof:belongsto":[
        85633793
    ],
    "wof:breaches":[],
    "wof:concordances":{
        "gn:id":5012033,
        "qs_pg:id":1034715
    },
    "wof:country":"US",
    "wof:created":1497048562,
    "wof:geomhash":"b7c8433d4477844dd6f96be5e248734b",
    "wof:hierarchy":[
        {
            "country_id":85633793,
            "localadmin_id":1125388623
        }
    ],
    "wof:id":1125388623,
    "wof:lastmodified":1505248159,
    "wof:name":"Charter Township of Texas",
    "wof:parent_id":-1,
    "wof:placetype":"localadmin",
    "wof:repo":"whosonfirst-data-admin-us",
    "wof:superseded_by":[],
    "wof:supersedes":[],
    "wof:tags":[]
},
  "bbox": [
    -85.70334,
    42.20226,
    -85.70334,
    42.20226
],
  "geometry": {"coordinates":[-85.70334,42.20226],"type":"Point"}
}