{
  "id": 420520359,
  "type": "Feature",
  "properties": {
    "edtf:cessation":"uuuu",
    "edtf:inception":"uuuu",
    "geom:area":0.0,
    "geom:area_square_m":904023.684591,
    "geom:bbox":"-93.62365,41.555485,-93.62365,41.555485",
    "geom:latitude":41.555485,
    "geom:longitude":-93.62365,
    "iso:country":"US",
    "lbl:latitude":41.555485,
    "lbl:longitude":-93.62365,
    "mz:hierarchy_label":0,
    "mz:is_current":-1,
    "name:eng_x_preferred":[
        "Southgate"
    ],
    "src:geom":"mz",
    "src:geom_alt":[
        "zetashapes"
    ],
    "src:lbl":"mapshaper",
    "src:lbl:centroid":"mapshaper",
    "src:population":"zetashapes",
    "wof:belongsto":[
        102191575,
        85633793,
        85944061,
        102086603,
        85688713
    ],
    "wof:breaches":[],
    "wof:concordances":{
        "gp:id":56021222
    },
    "wof:country":"US",
    "wof:geomhash":"7aed25af05bfe3f4f0b03f045de84476",
    "wof:hierarchy":[
        {
            "continent_id":102191575,
            "country_id":85633793,
            "county_id":102086603,
            "locality_id":85944061,
            "neighbourhood_id":420520359,
            "region_id":85688713
        }
    ],
    "wof:id":420520359,
    "wof:lastmodified":1533594331,
    "wof:name":"Southgate",
    "wof:parent_id":85944061,
    "wof:placetype":"neighbourhood",
    "wof:population":1698,
    "wof:population_rank":3,
    "wof:repo":"whosonfirst-data-admin-us",
    "wof:superseded_by":[],
    "wof:supersedes":[],
    "wof:tags":[],
    "zs:area_m":903961.524358,
    "zs:blockids":[
        191530041001035,
        191530041002002,
        191530043007005,
        191530041002000,
        191530043004004,
        191530041002019,
        191530043007008,
        191530043004003,
        191530043004002,
        191530043004007,
        191530043007006,
        191530043004000,
        191530043007007,
        191530043007003,
        191530043007004,
        191530041002013,
        191530041002020,
        191530043004006,
        191530043005005,
        191530041001036,
        191530043004001,
        191530043004005,
        191530043007009,
        191530041002001,
        191530043007002
    ],
    "zs:housing10":700,
    "zs:id":56021222,
    "zs:label":"Southgate",
    "zs:pop10":1698
},
  "bbox": [
    -93.62365,
    41.555485,
    -93.62365,
    41.555485
],
  "geometry": {"coordinates":[-93.62365,41.555485],"type":"Point"}
}