{
  "id": 1125307491,
  "type": "Feature",
  "properties": {
    "edtf:cessation":"2017-05-19",
    "edtf:inception":"uuuu",
    "geom:area":0.0,
    "geom:area_square_m":0.0,
    "geom:bbox":"-78.7842,41.02645,-78.7842,41.02645",
    "geom:latitude":41.02645,
    "geom:longitude":-78.7842,
    "gn:gn_country":"US",
    "gn:gn_fcode":"ADMD",
    "gn:gn_pop":243,
    "gn:population":243,
    "iso:country":"US",
    "lbl:latitude":41.02645,
    "lbl:longitude":-78.7842,
    "mz:hierarchy_label":1,
    "mz:is_current":0,
    "mz:note":"Quattroshapes Point Gazetteer import 20170519",
    "qs_pg:aaroncc":"US",
    "qs_pg:gn_country":"US",
    "qs_pg:gn_fcode":"ADMD",
    "qs_pg:gn_id":5216175,
    "qs_pg:gn_pop":243,
    "qs_pg:name":"Borough of Troutville",
    "qs_pg:photos_9r":0,
    "qs_pg:photos_sr":0,
    "qs_pg:pop_sr":2,
    "qs_pg:qs_id":607171,
    "qs_pg:qs_pg_placetype":"localadmin",
    "src:geom":"qs_pg",
    "src:lbl:centroid":"qs_pg",
    "src:population":"geonames",
    "wof:belongsto":[
        85633793
    ],
    "wof:breaches":[],
    "wof:concordances":{
        "gn:id":5216175,
        "qs_pg:id":607171
    },
    "wof:country":"US",
    "wof:created":1497043783,
    "wof:geomhash":"44b14f7c6072ef3610fabb183237400e",
    "wof:hierarchy":[
        {
            "country_id":85633793,
            "localadmin_id":1125307491
        }
    ],
    "wof:id":1125307491,
    "wof:lastmodified":1505186978,
    "wof:name":"Borough of Troutville",
    "wof:parent_id":-1,
    "wof:placetype":"localadmin",
    "wof:population":243,
    "wof:population_rank":2,
    "wof:repo":"whosonfirst-data-admin-us",
    "wof:superseded_by":[],
    "wof:supersedes":[],
    "wof:tags":[]
},
  "bbox": [
    -78.7842,
    41.02645,
    -78.7842,
    41.02645
],
  "geometry": {"coordinates":[-78.7842,41.02645],"type":"Point"}
}