{
  "id": 1125352337,
  "type": "Feature",
  "properties": {
    "edtf:cessation":"uuuu",
    "edtf:deprecated":"2017-11-04",
    "edtf:inception":"uuuu",
    "geom:area":0.0,
    "geom:area_square_m":0.0,
    "geom:bbox":"-98.99055,26.40659,-98.99055,26.40659",
    "geom:latitude":26.40659,
    "geom:longitude":-98.99055,
    "gn:gn_country":"US",
    "gn:gn_fcode":"ADMD",
    "gn:gn_pop":9765,
    "gn:population":9765,
    "iso:country":"US",
    "lbl:latitude":26.40659,
    "lbl:longitude":-98.99055,
    "mz:hierarchy_label":1,
    "mz:is_current":0,
    "mz:note":"Quattroshapes Point Gazetteer import 20170519",
    "qs_pg:aaroncc":"US",
    "qs_pg:gn_country":"US",
    "qs_pg:gn_fcode":"ADMD",
    "qs_pg:gn_id":7173782,
    "qs_pg:gn_pop":9765,
    "qs_pg:name":"City of Roma",
    "qs_pg:photos_9r":0,
    "qs_pg:photos_sr":0,
    "qs_pg:pop_sr":5,
    "qs_pg:qs_id":666352,
    "qs_pg:qs_pg_placetype":"localadmin",
    "src:geom":"qs_pg",
    "src:lbl:centroid":"qs_pg",
    "src:population":"geonames",
    "wof:belongsto":[
        85633793
    ],
    "wof:breaches":[],
    "wof:concordances":{
        "gn:id":7173782,
        "qs_pg:id":666352
    },
    "wof:country":"US",
    "wof:created":1497046265,
    "wof:geomhash":"4ac98ce360d474a4cf53142530508e99",
    "wof:hierarchy":[
        {
            "country_id":85633793,
            "localadmin_id":1125352337
        }
    ],
    "wof:id":1125352337,
    "wof:lastmodified":1509752626,
    "wof:name":"City of Roma",
    "wof:parent_id":-1,
    "wof:placetype":"localadmin",
    "wof:population":9765,
    "wof:population_rank":5,
    "wof:repo":"whosonfirst-data-admin-us",
    "wof:superseded_by":[
        101725417
    ],
    "wof:supersedes":[],
    "wof:tags":[]
},
  "bbox": [
    -98.99055,
    26.40659,
    -98.99055,
    26.40659
],
  "geometry": {"coordinates":[-98.99055,26.40659],"type":"Point"}
}