{
  "id": 1193147965,
  "type": "Feature",
  "properties": {
    "edtf:cessation":"2018-09-07",
    "edtf:inception":"uuuu",
    "geom:area":0.0,
    "geom:area_square_m":0.0,
    "geom:bbox":"-79.77254,36.50208,-79.77254,36.50208",
    "geom:latitude":36.50208,
    "geom:longitude":-79.77254,
    "gn:admin1_code":"NC",
    "gn:admin2_code":"157",
    "gn:admin3_code":"91752.0",
    "gn:asciiname":"Leaksville (historical)",
    "gn:country_code":"US",
    "gn:dem":200,
    "gn:elevation":"201.0",
    "gn:feature_class":"P",
    "gn:feature_code":"PPLQ",
    "gn:geonameid":4475418,
    "gn:latitude":36.50208,
    "gn:longitude":-79.77254,
    "gn:modification_date":"2017-05-23",
    "gn:name":"Leaksville (historical)",
    "gn:population":0,
    "gn:timezone":"America/New_York",
    "iso:country":"US",
    "mz:hierarchy_label":1,
    "mz:is_current":0,
    "src:geom":"geonames",
    "wof:belongsto":[
        102191575,
        85633793,
        85688773,
        102087893
    ],
    "wof:breaches":[],
    "wof:concordances":{
        "gn:id":4475418
    },
    "wof:country":"US",
    "wof:geomhash":"27185567d93142733c23932bbbcf46f2",
    "wof:hierarchy":[
        {
            "continent_id":102191575,
            "country_id":85633793,
            "county_id":102087893,
            "locality_id":1193147965,
            "region_id":85688773
        }
    ],
    "wof:id":1193147965,
    "wof:lastmodified":1536381352,
    "wof:name":"Leaksville (historical)",
    "wof:parent_id":102087893,
    "wof:placetype":"locality",
    "wof:repo":"whosonfirst-data-admin-us",
    "wof:superseded_by":[],
    "wof:supersedes":[],
    "wof:tags":[]
},
  "bbox": [
    -79.77254,
    36.50208,
    -79.77254,
    36.50208
],
  "geometry": {"coordinates":[-79.77254000000001,36.50208],"type":"Point"}
}