{
  "id": 420524881,
  "type": "Feature",
  "properties": {
    "edtf:cessation":"uuuu",
    "edtf:inception":"uuuu",
    "geom:area":0.0,
    "geom:area_square_m":2217563.49506,
    "geom:bbox":"-83.145047,42.434992,-83.145047,42.434992",
    "geom:latitude":42.434992,
    "geom:longitude":-83.145047,
    "iso:country":"US",
    "lbl:latitude":42.434992,
    "lbl:longitude":-83.145047,
    "mz:hierarchy_label":0,
    "mz:is_current":1,
    "name:eng_x_preferred":[
        "Sherwood Forest"
    ],
    "src:geom":"mz",
    "src:geom_alt":[
        "quattroshapes_pg",
        "zetashapes"
    ],
    "src:lbl":"mapshaper",
    "src:lbl:centroid":"mapshaper",
    "src:population":"zetashapes",
    "wd:wordcount":1131,
    "wof:belongsto":[
        85688599,
        102191575,
        404506393,
        85633793,
        85951091,
        102083147
    ],
    "wof:breaches":[],
    "wof:concordances":{
        "gp:id":29229798,
        "qs_pg:id":975418
    },
    "wof:country":"US",
    "wof:geomhash":"fb889fd5a658fff146c6508ae51a4bf4",
    "wof:hierarchy":[
        {
            "continent_id":102191575,
            "country_id":85633793,
            "county_id":102083147,
            "localadmin_id":404506393,
            "locality_id":85951091,
            "neighbourhood_id":420524881,
            "region_id":85688599
        }
    ],
    "wof:id":420524881,
    "wof:lastmodified":1533595688,
    "wof:name":"Sherwood Forest",
    "wof:parent_id":85951091,
    "wof:placetype":"neighbourhood",
    "wof:population":5765,
    "wof:population_rank":5,
    "wof:repo":"whosonfirst-data-admin-us",
    "wof:superseded_by":[],
    "wof:supersedes":[],
    "wof:tags":[],
    "zs:area_m":2217419.770157,
    "zs:blockids":[
        261635386004000,
        261635386003000,
        261635382001014,
        261635382001012,
        261635382001018,
        261635382001019,
        261635382001021,
        261635384001000,
        261635384001001,
        261635384002001,
        261635390001018,
        261635390001017,
        261635389003020,
        261635382001009,
        261635389002006,
        261635386003008,
        261635382001023,
        261635386001006,
        261635386002003,
        261635386001007,
        261635390001015,
        261635389002016,
        261635390001016,
        261635386001002,
        261635382001004,
        261635381001018,
        261635389003006,
        261635389003002,
        261635389003004,
        261635382002009,
        261635386004007,
        261635382001024,
        261635382001020,
        261635384001009,
        261635384001013,
        261635382001005,
        261635386001003,
        261635389003016,
        261635382001002,
        261635390002009,
        261635389002005,
        261635389003024,
        261635389003022,
        261635382001013,
        261635384001004,
        261635386002004,
        261635389002003,
        261635389002015,
        261635389003019,
        261635386001001,
        261635389003010,
        261635389003001,
        261635389003007,
        261635386004009,
        261635382001001,
        261635382001008,
        261635382001017,
        261635386001005,
        261635384001002,
        261635384001011,
        261635384002000,
        261635389002001,
        261635389003013,
        261635389003015,
        261635386001004,
        261635389003000,
        261635389002007,
        261635389002012,
        261635386004001,
        261635386004008,
        261635384002004,
        261635384001012,
        261635384002003,
        261635386001000,
        261635382001003,
        261635389002011,
        261635389002013,
        261635386004002,
        261635389003017,
        261635389003012,
        261635386003001,
        261635384001006,
        261635382001015,
        261635389002019,
        261635389003021,
        261635389002014,
        261635389003005,
        261635389003014,
        261635389003008,
        261635382001011,
        261635384001005,
        261635382001022,
        261635384001008,
        261635384001003,
        261635384001010,
        261635384002002,
        261635389002004,
        261635389002002,
        261635389002017,
        261635389002000,
        261635389002018,
        261635389003003,
        261635389003018,
        261635390002008,
        261635390001019,
        261635389003023,
        261635389003011,
        261635381001015,
        261635382001010
    ],
    "zs:housing10":2414,
    "zs:id":29229798,
    "zs:label":"Sherwood Forest",
    "zs:pop10":5765
},
  "bbox": [
    -83.145047,
    42.434992,
    -83.145047,
    42.434992
],
  "geometry": {"coordinates":[-83.14504700000001,42.434992],"type":"Point"}
}