{
  "id": 1125389503,
  "type": "Feature",
  "properties": {
    "edtf:cessation":"2017-05-19",
    "edtf:inception":"uuuu",
    "geom:area":0.0,
    "geom:area_square_m":0.0,
    "geom:bbox":"-77.80806,41.04173,-77.80806,41.04173",
    "geom:latitude":41.04173,
    "geom:longitude":-77.80806,
    "gn:gn_country":"US",
    "gn:gn_fcode":"ADMD",
    "gn:gn_pop":0,
    "iso:country":"US",
    "lbl:latitude":41.04173,
    "lbl:longitude":-77.80806,
    "mz:hierarchy_label":1,
    "mz:is_current":0,
    "mz:note":"Quattroshapes Point Gazetteer import 20170519",
    "name:eng_x_preferred":[
        "Boggs Township"
    ],
    "qs_pg:aaroncc":"US",
    "qs_pg:gn_country":"US",
    "qs_pg:gn_fcode":"ADMD",
    "qs_pg:gn_id":5181109,
    "qs_pg:gn_pop":0,
    "qs_pg:name":"Township of Boggs",
    "qs_pg:photos_9r":0,
    "qs_pg:photos_sr":0,
    "qs_pg:pop_sr":0,
    "qs_pg:qs_id":1035629,
    "qs_pg:qs_pg_placetype":"localadmin",
    "src:geom":"qs_pg",
    "src:lbl:centroid":"qs_pg",
    "wof:belongsto":[
        85633793
    ],
    "wof:breaches":[],
    "wof:concordances":{
        "gn:id":5181109,
        "qs_pg:id":1035629
    },
    "wof:country":"US",
    "wof:created":1497048621,
    "wof:geomhash":"3457bb1292f83181420dfacb8e68ae40",
    "wof:hierarchy":[
        {
            "country_id":85633793,
            "localadmin_id":1125389503
        }
    ],
    "wof:id":1125389503,
    "wof:lastmodified":1505248162,
    "wof:name":"Township of Boggs",
    "wof:parent_id":-1,
    "wof:placetype":"localadmin",
    "wof:repo":"whosonfirst-data-admin-us",
    "wof:superseded_by":[],
    "wof:supersedes":[],
    "wof:tags":[]
},
  "bbox": [
    -77.80806,
    41.04173,
    -77.80806,
    41.04173
],
  "geometry": {"coordinates":[-77.80806,41.04173],"type":"Point"}
}