{
  "id": 1209334165,
  "type": "Feature",
  "properties": {
    "edtf:cessation":"uuuu",
    "edtf:inception":"uuuu",
    "geom:area":0.0,
    "geom:area_square_m":0.0,
    "geom:bbox":"-82.07956,33.50764,-82.07956,33.50764",
    "geom:latitude":33.50764,
    "geom:longitude":-82.07956,
    "gn:admin1_code":"GA",
    "gn:admin2_code":"245.0",
    "gn:asciiname":"Huntington",
    "gn:country_code":"US",
    "gn:dem":105,
    "gn:elevation":"102.0",
    "gn:feature_class":"P",
    "gn:feature_code":"PPL",
    "gn:geonameid":4201783,
    "gn:latitude":33.50764,
    "gn:longitude":-82.07956,
    "gn:modification_date":"2006-01-15",
    "gn:name":"Huntington",
    "gn:population":0,
    "gn:timezone":"America/New_York",
    "iso:country":"US",
    "mz:hierarchy_label":1,
    "mz:is_current":-1,
    "src:geom":"geonames",
    "wof:belongsto":[
        85633793
    ],
    "wof:breaches":[],
    "wof:concordances":{
        "gn:id":4201783
    },
    "wof:country":"US",
    "wof:geomhash":"0f45546dd0b513717bb23561bec02e29",
    "wof:hierarchy":[
        {
            "country_id":85633793,
            "locality_id":1209334165
        }
    ],
    "wof:id":1209334165,
    "wof:lastmodified":1536290278,
    "wof:name":"Huntington",
    "wof:parent_id":85633793,
    "wof:placetype":"locality",
    "wof:repo":"whosonfirst-data-admin-us",
    "wof:superseded_by":[],
    "wof:supersedes":[],
    "wof:tags":[]
},
  "bbox": [
    -82.07956,
    33.50764,
    -82.07956,
    33.50764
],
  "geometry": {"coordinates":[-82.07956,33.50764],"type":"Point"}
}