{
  "id": 420559211,
  "type": "Feature",
  "properties": {
    "edtf:cessation":"uuuu",
    "edtf:inception":"uuuu",
    "geom:area":0.0,
    "geom:area_square_m":78261.0428,
    "geom:bbox":"-75.224543,40.681401,-75.224543,40.681401",
    "geom:latitude":40.681401,
    "geom:longitude":-75.224543,
    "iso:country":"US",
    "lbl:latitude":40.681401,
    "lbl:longitude":-75.224543,
    "mz:hierarchy_label":0,
    "mz:is_current":-1,
    "src:geom":"mz",
    "src:geom_alt":[
        "zetashapes"
    ],
    "src:lbl:centroid":"mapshaper",
    "wof:belongsto":[
        85688481,
        102191575,
        404485997,
        85633793,
        101717891,
        102081395
    ],
    "wof:breaches":[],
    "wof:concordances":{
        "gp:id":56022572
    },
    "wof:country":"US",
    "wof:geomhash":"1b4dde7b47609573cfd98fc10e6ead73",
    "wof:hierarchy":[
        {
            "continent_id":102191575,
            "country_id":85633793,
            "county_id":102081395,
            "localadmin_id":404485997,
            "locality_id":101717891,
            "neighbourhood_id":420559211,
            "region_id":85688481
        }
    ],
    "wof:id":420559211,
    "wof:lastmodified":1533614291,
    "wof:name":"",
    "wof:parent_id":101717891,
    "wof:placetype":"neighbourhood",
    "wof:repo":"whosonfirst-data-admin-us",
    "wof:superseded_by":[],
    "wof:supersedes":[],
    "wof:tags":[],
    "zs:42095:area_m":78255.489661,
    "zs:42095:blockids":"420950146001050,420950146001052",
    "zs:42095:housing10":0,
    "zs:42095:id":56022572,
    "zs:42095:label":"Central Easton",
    "zs:42095:pop10":0,
    "zs:id":56022572,
    "zs:name":"Central Easton",
    "zs:placetype":"neighbourhood",
    "zs:us:counties":[
        "42095"
    ]
},
  "bbox": [
    -75.224543,
    40.681401,
    -75.224543,
    40.681401
],
  "geometry": {"coordinates":[-75.224543,40.681401],"type":"Point"}
}