{
  "id": 1209434649,
  "type": "Feature",
  "properties": {
    "edtf:cessation":"uuuu",
    "edtf:inception":"uuuu",
    "geom:area":0.0,
    "geom:area_square_m":0.0,
    "geom:bbox":"-86.05035,44.03973,-86.05035,44.03973",
    "geom:latitude":44.03973,
    "geom:longitude":-86.05035,
    "gn:admin1_code":"MI",
    "gn:admin2_code":"105.0",
    "gn:admin3_code":"73060.0",
    "gn:asciiname":"Millerton",
    "gn:country_code":"US",
    "gn:dem":220,
    "gn:elevation":"219.0",
    "gn:feature_class":"P",
    "gn:feature_code":"PPL",
    "gn:geonameid":5002091,
    "gn:latitude":44.03973,
    "gn:longitude":-86.05035,
    "gn:modification_date":"2017-05-23",
    "gn:name":"Millerton",
    "gn:population":0,
    "gn:timezone":"America/Detroit",
    "iso:country":"US",
    "mz:hierarchy_label":1,
    "mz:is_current":-1,
    "src:geom":"geonames",
    "wof:belongsto":[
        85633793
    ],
    "wof:breaches":[],
    "wof:concordances":{
        "gn:id":5002091
    },
    "wof:country":"US",
    "wof:geomhash":"473d8dd8c97177a48553843daa7798c8",
    "wof:hierarchy":[
        {
            "country_id":85633793,
            "locality_id":1209434649
        }
    ],
    "wof:id":1209434649,
    "wof:lastmodified":1536287139,
    "wof:name":"Millerton",
    "wof:parent_id":85633793,
    "wof:placetype":"locality",
    "wof:repo":"whosonfirst-data-admin-us",
    "wof:superseded_by":[],
    "wof:supersedes":[],
    "wof:tags":[]
},
  "bbox": [
    -86.05035,
    44.03973,
    -86.05035,
    44.03973
],
  "geometry": {"coordinates":[-86.05034999999999,44.03973],"type":"Point"}
}