{
  "id": 1209631101,
  "type": "Feature",
  "properties": {
    "edtf:cessation":"2018-09-06",
    "edtf:inception":"uuuu",
    "geom:area":0.0,
    "geom:area_square_m":0.0,
    "geom:bbox":"-92.20235,30.88603,-92.20235,30.88603",
    "geom:latitude":30.88603,
    "geom:longitude":-92.20235,
    "gn:admin1_code":"LA",
    "gn:admin2_code":"9.0",
    "gn:asciiname":"Kelley (historical)",
    "gn:country_code":"US",
    "gn:dem":16,
    "gn:elevation":"16.0",
    "gn:feature_class":"P",
    "gn:feature_code":"PPLQ",
    "gn:geonameid":4329694,
    "gn:latitude":30.88603,
    "gn:longitude":-92.20235,
    "gn:modification_date":"2011-12-11",
    "gn:name":"Kelley (historical)",
    "gn:population":0,
    "gn:timezone":"America/Chicago",
    "iso:country":"US",
    "mz:hierarchy_label":1,
    "mz:is_current":0,
    "name:eng_x_preferred":[
        "Kelley (historical)"
    ],
    "name:und_x_variant":[
        "Kelly"
    ],
    "src:geom":"geonames",
    "wof:belongsto":[
        85633793
    ],
    "wof:breaches":[],
    "wof:concordances":{
        "gn:id":4329694
    },
    "wof:country":"US",
    "wof:geomhash":"e9b29b5d89ec1b5ac95b24bfe27805b8",
    "wof:hierarchy":[
        {
            "country_id":85633793,
            "locality_id":1209631101
        }
    ],
    "wof:id":1209631101,
    "wof:lastmodified":1537712413,
    "wof:name":"Kelley (historical)",
    "wof:parent_id":85633793,
    "wof:placetype":"locality",
    "wof:repo":"whosonfirst-data-admin-us",
    "wof:superseded_by":[],
    "wof:supersedes":[],
    "wof:tags":[]
},
  "bbox": [
    -92.20235,
    30.88603,
    -92.20235,
    30.88603
],
  "geometry": {"coordinates":[-92.20235,30.88603],"type":"Point"}
}