{
  "id": 1125299427,
  "type": "Feature",
  "properties": {
    "edtf:cessation":"2017-05-19",
    "edtf:inception":"uuuu",
    "geom:area":0.0,
    "geom:area_square_m":0.0,
    "geom:bbox":"-79.54019,35.2276,-79.54019,35.2276",
    "geom:latitude":35.2276,
    "geom:longitude":-79.54019,
    "gn:gn_country":"US",
    "gn:gn_fcode":"ADMD",
    "gn:gn_pop":0,
    "iso:country":"US",
    "lbl:latitude":35.2276,
    "lbl:longitude":-79.54019,
    "mz:hierarchy_label":1,
    "mz:is_current":0,
    "mz:note":"Quattroshapes Point Gazetteer import 20170519",
    "name:eng_x_preferred":[
        "Township 9-Mineral Springs"
    ],
    "name:unk_x_variant":[
        "Mineral Springs Township 9"
    ],
    "qs_pg:aaroncc":"US",
    "qs_pg:gn_country":"US",
    "qs_pg:gn_fcode":"ADMD",
    "qs_pg:gn_id":4495500,
    "qs_pg:gn_pop":0,
    "qs_pg:name":"Township 9-Mineral Springs",
    "qs_pg:photos_9r":0,
    "qs_pg:photos_sr":0,
    "qs_pg:pop_sr":0,
    "qs_pg:qs_id":1152512,
    "qs_pg:qs_pg_placetype":"localadmin",
    "src:geom":"qs_pg",
    "src:lbl:centroid":"qs_pg",
    "wof:belongsto":[
        85633793
    ],
    "wof:breaches":[],
    "wof:concordances":{
        "gn:id":4495500,
        "qs_pg:id":1152512
    },
    "wof:country":"US",
    "wof:created":1497043342,
    "wof:geomhash":"27febaf919db93f1e7063e4506a50048",
    "wof:hierarchy":[
        {
            "country_id":85633793,
            "localadmin_id":1125299427
        }
    ],
    "wof:id":1125299427,
    "wof:lastmodified":1505248001,
    "wof:name":"Township 9-Mineral Springs",
    "wof:parent_id":-1,
    "wof:placetype":"localadmin",
    "wof:repo":"whosonfirst-data-admin-us",
    "wof:superseded_by":[],
    "wof:supersedes":[],
    "wof:tags":[]
},
  "bbox": [
    -79.54019,
    35.2276,
    -79.54019,
    35.2276
],
  "geometry": {"coordinates":[-79.54019,35.2276],"type":"Point"}
}