{
  "id": 1125389987,
  "type": "Feature",
  "properties": {
    "edtf:cessation":"2017-05-19",
    "edtf:inception":"uuuu",
    "geom:area":0.0,
    "geom:area_square_m":0.0,
    "geom:bbox":"-79.04423,43.24875,-79.04423,43.24875",
    "geom:latitude":43.24875,
    "geom:longitude":-79.04423,
    "gn:gn_country":"US",
    "gn:gn_fcode":"ADMD",
    "gn:gn_pop":1935,
    "gn:population":1935,
    "iso:country":"US",
    "lbl:latitude":43.24875,
    "lbl:longitude":-79.04423,
    "mz:hierarchy_label":1,
    "mz:is_current":0,
    "mz:note":"Quattroshapes Point Gazetteer import 20170519",
    "qs_pg:aaroncc":"US",
    "qs_pg:gn_country":"US",
    "qs_pg:gn_fcode":"ADMD",
    "qs_pg:gn_id":7161965,
    "qs_pg:gn_pop":1935,
    "qs_pg:name":"Village of Youngstown",
    "qs_pg:photos_9r":0,
    "qs_pg:photos_sr":0,
    "qs_pg:pop_sr":3,
    "qs_pg:qs_id":657503,
    "qs_pg:qs_pg_placetype":"localadmin",
    "src:geom":"qs_pg",
    "src:lbl:centroid":"qs_pg",
    "src:population":"geonames",
    "wof:belongsto":[
        85633793
    ],
    "wof:breaches":[],
    "wof:concordances":{
        "gn:id":7161965,
        "qs_pg:id":657503
    },
    "wof:country":"US",
    "wof:created":1497048648,
    "wof:geomhash":"630f1de2317d5d190629e709ba40161e",
    "wof:hierarchy":[
        {
            "country_id":85633793,
            "localadmin_id":1125389987
        }
    ],
    "wof:id":1125389987,
    "wof:lastmodified":1505187021,
    "wof:name":"Village of Youngstown",
    "wof:parent_id":-1,
    "wof:placetype":"localadmin",
    "wof:population":1935,
    "wof:population_rank":3,
    "wof:repo":"whosonfirst-data-admin-us",
    "wof:superseded_by":[],
    "wof:supersedes":[],
    "wof:tags":[]
},
  "bbox": [
    -79.04423,
    43.24875,
    -79.04423,
    43.24875
],
  "geometry": {"coordinates":[-79.04423,43.24875],"type":"Point"}
}