{
  "id": 420551353,
  "type": "Feature",
  "properties": {
    "edtf:cessation":"uuuu",
    "edtf:inception":"uuuu",
    "geom:area":0.0,
    "geom:area_square_m":3802275.537116,
    "geom:bbox":"-122.55484,38.023833,-122.55484,38.023833",
    "geom:latitude":38.023833,
    "geom:longitude":-122.55484,
    "iso:country":"US",
    "lbl:latitude":38.023833,
    "lbl:longitude":-122.55484,
    "mz:hierarchy_label":0,
    "mz:is_current":-1,
    "name:eng_x_preferred":[
        "Mont Marin"
    ],
    "src:geom":"mz",
    "src:geom_alt":[
        "quattroshapes_pg",
        "zetashapes"
    ],
    "src:lbl":"mapshaper",
    "src:lbl:centroid":"mapshaper",
    "src:population":"zetashapes",
    "wof:belongsto":[
        102191575,
        85633793,
        85922003,
        102084353,
        85688637
    ],
    "wof:breaches":[],
    "wof:concordances":{
        "gp:id":55971519,
        "qs_pg:id":1263529
    },
    "wof:country":"US",
    "wof:geomhash":"71341b573e121c49548abb14fcdfb8e0",
    "wof:hierarchy":[
        {
            "continent_id":102191575,
            "country_id":85633793,
            "county_id":102084353,
            "locality_id":85922003,
            "neighbourhood_id":420551353,
            "region_id":85688637
        }
    ],
    "wof:id":420551353,
    "wof:lastmodified":1533612943,
    "wof:name":"Mont Marin",
    "wof:parent_id":85922003,
    "wof:placetype":"neighbourhood",
    "wof:population":3807,
    "wof:population_rank":4,
    "wof:repo":"whosonfirst-data-admin-us",
    "wof:superseded_by":[],
    "wof:supersedes":[],
    "wof:tags":[],
    "zs:area_m":3802016.749382,
    "zs:blockids":[
        60411070003012,
        60411070005009,
        60411081001005,
        60411081001006,
        60411081001008,
        60411070003005,
        60411070001009,
        60411081003001,
        60411081001004,
        60411081003007,
        60411070005010,
        60411070005008,
        60411081001014,
        60411081001011,
        60411070001010,
        60411081001018,
        60411081001017,
        60411070003003,
        60411081001000,
        60411070005011,
        60411070003007,
        60411081001013,
        60411070003011,
        60411081001003,
        60411070003004,
        60411081001001,
        60411081001002,
        60411070001006,
        60411081001016,
        60411070003006,
        60411070003001,
        60411070003002,
        60411070003000,
        60411070001005,
        60411070005007,
        60411070003013,
        60411070001007
    ],
    "zs:housing10":1479,
    "zs:id":55971519,
    "zs:label":"Mont Marin",
    "zs:pop10":3807
},
  "bbox": [
    -122.55484,
    38.023833,
    -122.55484,
    38.023833
],
  "geometry": {"coordinates":[-122.55484,38.023833],"type":"Point"}
}