{
  "id": 1242702065,
  "type": "Feature",
  "properties": {
    "edtf:cessation":"uuuu",
    "edtf:inception":"uuuu",
    "geom:area":0.0,
    "geom:area_square_m":0.0,
    "geom:bbox":"-79.43698,40.07007,-79.43698,40.07007",
    "geom:latitude":40.07007,
    "geom:longitude":-79.43698,
    "gn:admin1_code":"PA",
    "gn:admin2_code":"51.0",
    "gn:admin3_code":"67640.0",
    "gn:asciiname":"White",
    "gn:country_code":"US",
    "gn:dem":586,
    "gn:elevation":"585.0",
    "gn:feature_class":"P",
    "gn:feature_code":"PPL",
    "gn:geonameid":5219143,
    "gn:latitude":40.07007,
    "gn:longitude":-79.43698,
    "gn:modification_date":"2017-05-23",
    "gn:name":"White",
    "gn:population":0,
    "gn:timezone":"America/New_York",
    "iso:country":"US",
    "mz:hierarchy_label":1,
    "mz:is_current":-1,
    "name:eng_x_preferred":[
        "White"
    ],
    "name:und_x_variant":[
        "Buchanan"
    ],
    "src:geom":"geonames",
    "wof:belongsto":[
        85688481,
        102191575,
        404487157,
        85633793,
        102080959
    ],
    "wof:breaches":[],
    "wof:concordances":{
        "gn:id":5219143
    },
    "wof:country":"US",
    "wof:geomhash":"7a32b058d6c95fee4a65a00056a39eaa",
    "wof:hierarchy":[
        {
            "continent_id":102191575,
            "country_id":85633793,
            "county_id":102080959,
            "localadmin_id":404487157,
            "locality_id":1242702065,
            "region_id":85688481
        }
    ],
    "wof:id":1242702065,
    "wof:lastmodified":1537712957,
    "wof:name":"White",
    "wof:parent_id":404487157,
    "wof:placetype":"locality",
    "wof:repo":"whosonfirst-data-admin-us",
    "wof:superseded_by":[],
    "wof:supersedes":[],
    "wof:tags":[]
},
  "bbox": [
    -79.43698,
    40.07007,
    -79.43698,
    40.07007
],
  "geometry": {"coordinates":[-79.43698000000001,40.07007],"type":"Point"}
}