{
  "id": 1126074691,
  "type": "Feature",
  "properties": {
    "edtf:cessation":"uuuu",
    "edtf:inception":"uuuu",
    "geom:area":0.0,
    "geom:area_square_m":0.0,
    "geom:bbox":"-82.46793,36.55566,-82.46793,36.55566",
    "geom:latitude":36.55566,
    "geom:longitude":-82.46793,
    "gn:gn_country":"US",
    "gn:gn_fcode":"PPL",
    "gn:gn_pop":0,
    "iso:country":"US",
    "lbl:latitude":36.55566,
    "lbl:longitude":-82.46793,
    "mz:hierarchy_label":1,
    "mz:is_current":-1,
    "mz:note":"Quattroshapes Point Gazetteer import 20170519",
    "name:eng_x_preferred":[
        "Orebank"
    ],
    "name:unk_x_variant":[
        "Ore Bank"
    ],
    "qs_pg:aaroncc":"US",
    "qs_pg:gn_country":"US",
    "qs_pg:gn_fcode":"PPL",
    "qs_pg:gn_id":4647386,
    "qs_pg:gn_pop":0,
    "qs_pg:name":"Orebank",
    "qs_pg:name_adm0":"United States",
    "qs_pg:name_adm1":"Tennessee",
    "qs_pg:photos":1,
    "qs_pg:photos_1k":1,
    "qs_pg:photos_9k":1,
    "qs_pg:photos_9r":1,
    "qs_pg:photos_all":1,
    "qs_pg:photos_sr":1,
    "qs_pg:pop_sr":0,
    "qs_pg:qs_id":1264518,
    "qs_pg:qs_pg_placetype":"neighbourhood",
    "qs_pg:qs_pg_placetype_gp":"Suburb",
    "qs_pg:woe_adm0":23424977,
    "qs_pg:woe_id":2466118,
    "src:geom":"qs_pg",
    "src:lbl:centroid":"qs_pg",
    "woe:adm0_id":23424977,
    "woe:name_adm0":"United States",
    "woe:name_adm1":"Tennessee",
    "woe:placetype":"Suburb",
    "wof:belongsto":[
        102191575,
        85633793,
        102086471,
        85688701
    ],
    "wof:breaches":[],
    "wof:concordances":{
        "gn:id":4647386,
        "gp:id":2466118,
        "qs_pg:id":1264518
    },
    "wof:country":"US",
    "wof:created":1497310683,
    "wof:geomhash":"93dcec87cc2852ca8aa8c6e347fde97d",
    "wof:hierarchy":[
        {
            "continent_id":102191575,
            "country_id":85633793,
            "county_id":102086471,
            "locality_id":-1,
            "neighbourhood_id":1126074691,
            "region_id":85688701
        }
    ],
    "wof:id":1126074691,
    "wof:lastmodified":1509410853,
    "wof:name":"Orebank",
    "wof:parent_id":-1,
    "wof:placetype":"neighbourhood",
    "wof:repo":"whosonfirst-data-admin-us",
    "wof:superseded_by":[],
    "wof:supersedes":[],
    "wof:tags":[]
},
  "bbox": [
    -82.46793,
    36.55566,
    -82.46793,
    36.55566
],
  "geometry": {"coordinates":[-82.46793,36.55566],"type":"Point"}
}