{
  "id": 1259999205,
  "type": "Feature",
  "properties": {
    "edtf:cessation":"2018-09-07",
    "edtf:inception":"uuuu",
    "geom:area":0.0,
    "geom:area_square_m":0.0,
    "geom:bbox":"-72.61148,41.35704,-72.61148,41.35704",
    "geom:latitude":41.35704,
    "geom:longitude":-72.61148,
    "gn:admin1_code":"CT",
    "gn:admin2_code":"7.0",
    "gn:admin3_code":"40710.0",
    "gn:asciiname":"Ninevah (historical)",
    "gn:country_code":"US",
    "gn:dem":86,
    "gn:elevation":"90.0",
    "gn:feature_class":"P",
    "gn:feature_code":"PPLQ",
    "gn:geonameid":4839554,
    "gn:latitude":41.35704,
    "gn:longitude":-72.61148,
    "gn:modification_date":"2017-05-23",
    "gn:name":"Ninevah (historical)",
    "gn:population":0,
    "gn:timezone":"America/New_York",
    "iso:country":"US",
    "mz:hierarchy_label":1,
    "mz:is_current":0,
    "name:eng_x_preferred":[
        "Ninevah (historical)"
    ],
    "name:und_x_variant":[
        "Ninevah Falls"
    ],
    "src:geom":"geonames",
    "wof:belongsto":[
        85688629,
        102191575,
        404496071,
        85633793,
        102086211
    ],
    "wof:breaches":[],
    "wof:concordances":{
        "gn:id":4839554
    },
    "wof:country":"US",
    "wof:geomhash":"a345890e1b29128f99d2fa85d57eb760",
    "wof:hierarchy":[
        {
            "continent_id":102191575,
            "country_id":85633793,
            "county_id":102086211,
            "localadmin_id":404496071,
            "locality_id":1259999205,
            "region_id":85688629
        }
    ],
    "wof:id":1259999205,
    "wof:lastmodified":1537712806,
    "wof:name":"Ninevah (historical)",
    "wof:parent_id":404496071,
    "wof:placetype":"locality",
    "wof:repo":"whosonfirst-data-admin-us",
    "wof:superseded_by":[],
    "wof:supersedes":[],
    "wof:tags":[]
},
  "bbox": [
    -72.61148,
    41.35704000000001,
    -72.61148,
    41.35704000000001
],
  "geometry": {"coordinates":[-72.61148,41.35704000000001],"type":"Point"}
}