{
  "id": 1125352919,
  "type": "Feature",
  "properties": {
    "edtf:cessation":"uuuu",
    "edtf:deprecated":"2017-11-04",
    "edtf:inception":"uuuu",
    "geom:area":0.0,
    "geom:area_square_m":0.0,
    "geom:bbox":"-83.24861,31.2052,-83.24861,31.2052",
    "geom:latitude":31.2052,
    "geom:longitude":-83.24861,
    "gn:gn_country":"US",
    "gn:gn_fcode":"ADMD",
    "gn:gn_pop":4939,
    "gn:population":4939,
    "iso:country":"US",
    "lbl:latitude":31.2052,
    "lbl:longitude":-83.24861,
    "mz:hierarchy_label":1,
    "mz:is_current":0,
    "mz:note":"Quattroshapes Point Gazetteer import 20170519",
    "qs_pg:aaroncc":"US",
    "qs_pg:gn_country":"US",
    "qs_pg:gn_fcode":"ADMD",
    "qs_pg:gn_id":7317887,
    "qs_pg:gn_pop":4939,
    "qs_pg:name":"City of Nashville",
    "qs_pg:photos_9r":0,
    "qs_pg:photos_sr":0,
    "qs_pg:pop_sr":4,
    "qs_pg:qs_id":683905,
    "qs_pg:qs_pg_placetype":"localadmin",
    "src:geom":"qs_pg",
    "src:lbl:centroid":"qs_pg",
    "src:population":"geonames",
    "wof:belongsto":[
        85633793
    ],
    "wof:breaches":[],
    "wof:concordances":{
        "gn:id":7317887,
        "qs_pg:id":683905
    },
    "wof:country":"US",
    "wof:created":1497046293,
    "wof:geomhash":"c5f2fb637df0ac5c4939fbccb3d023fe",
    "wof:hierarchy":[
        {
            "country_id":85633793,
            "localadmin_id":1125352919
        }
    ],
    "wof:id":1125352919,
    "wof:lastmodified":1509752633,
    "wof:name":"City of Nashville",
    "wof:parent_id":-1,
    "wof:placetype":"localadmin",
    "wof:population":4939,
    "wof:population_rank":4,
    "wof:repo":"whosonfirst-data-admin-us",
    "wof:superseded_by":[
        85936711
    ],
    "wof:supersedes":[],
    "wof:tags":[]
},
  "bbox": [
    -83.24861,
    31.2052,
    -83.24861,
    31.2052
],
  "geometry": {"coordinates":[-83.24861,31.2052],"type":"Point"}
}