{
  "id": 85885833,
  "type": "Feature",
  "properties": {
    "edtf:cessation":"uuuu",
    "edtf:inception":"uuuu",
    "geom:area":0.0,
    "geom:area_square_m":1161822.967588,
    "geom:bbox":"-118.386776,34.020031,-118.386776,34.020031",
    "geom:latitude":34.020031,
    "geom:longitude":-118.386776,
    "gn:id":"",
    "iso:country":"US",
    "lbl:latitude":34.020031,
    "lbl:longitude":-118.386776,
    "mps:latitude":34.019354,
    "mps:longitude":-118.387029,
    "mz:hierarchy_label":0,
    "mz:is_current":-1,
    "mz:is_funky":0,
    "mz:is_hard_boundary":0,
    "mz:is_landuse_aoi":0,
    "mz:is_official":0,
    "mz:max_zoom":18.0,
    "mz:min_zoom":15.0,
    "mz:tier_locality":3,
    "mz:tier_metro":1,
    "name:eng_x_preferred":[
        "Lucerne"
    ],
    "name:unk_x_variant":[
        "Lucerne"
    ],
    "qs:gn_adm0_cc":"US",
    "qs:gn_id":0,
    "qs:gn_local":5341114,
    "qs:gn_nam_loc":"Culver City, Los Angeles, California, US",
    "qs:gn_namadm1":"CA",
    "qs:local_max":3035,
    "qs:local_sum":15842,
    "qs:localhoods":15,
    "qs:name":"Lucerne",
    "qs:name_adm0":"United States",
    "qs:name_adm1":"California",
    "qs:name_adm2":"Los Angeles",
    "qs:name_local":"Culver City",
    "qs:photo_max":320,
    "qs:photo_sum":1396,
    "qs:placetype":"Suburb",
    "qs:quad_count":30,
    "qs:woe_adm0":23424977,
    "qs:woe_adm1":2347563,
    "qs:woe_adm2":12587688,
    "qs:woe_lau":0,
    "qs:woe_local":2388174,
    "qs:woe_ver":"7.10.0",
    "src:geom":"mz",
    "src:geom_alt":[
        "quattroshapes",
        "quattroshapes_pg"
    ],
    "src:lbl:centroid":"mz",
    "src:population":"zetashapes",
    "wof:belongsto":[
        85688637,
        102191575,
        85633793,
        85923649,
        102086957
    ],
    "wof:breaches":[],
    "wof:concordances":{
        "gp:id":55969293,
        "qs:id":899417,
        "qs_pg:id":899417
    },
    "wof:country":"US",
    "wof:geomhash":"52f1d57d97947576e963687f190b1fab",
    "wof:hierarchy":[
        {
            "continent_id":102191575,
            "country_id":85633793,
            "county_id":102086957,
            "locality_id":85923649,
            "neighbourhood_id":85885833,
            "region_id":85688637
        }
    ],
    "wof:id":85885833,
    "wof:lang":[
        "eng"
    ],
    "wof:lastmodified":1532373756,
    "wof:name":"Lucerne",
    "wof:parent_id":85923649,
    "wof:placetype":"neighbourhood",
    "wof:population":537,
    "wof:population_rank":2,
    "wof:repo":"whosonfirst-data-admin-us",
    "wof:superseded_by":[],
    "wof:supersedes":[],
    "wof:tags":[],
    "zs:blockids":[
        60377024001018,
        60377024001017,
        60377024001009,
        60377024001010,
        60377024001012,
        60377024001011
    ],
    "zs:housing10":247,
    "zs:pop10":537
},
  "bbox": [
    -118.386776,
    34.020031,
    -118.386776,
    34.020031
],
  "geometry": {"coordinates":[-118.386776,34.020031],"type":"Point"}
}