{
  "id": 1125406913,
  "type": "Feature",
  "properties": {
    "edtf:cessation":"2017-05-19",
    "edtf:inception":"uuuu",
    "geom:area":0.0,
    "geom:area_square_m":0.0,
    "geom:bbox":"-89.64581,38.39661,-89.64581,38.39661",
    "geom:latitude":38.39661,
    "geom:longitude":-89.64581,
    "gn:gn_country":"US",
    "gn:gn_fcode":"ADMD",
    "gn:gn_pop":138,
    "gn:population":138,
    "iso:country":"US",
    "lbl:latitude":38.39661,
    "lbl:longitude":-89.64581,
    "mz:hierarchy_label":1,
    "mz:is_current":0,
    "mz:note":"Quattroshapes Point Gazetteer import 20170519",
    "qs_pg:aaroncc":"US",
    "qs_pg:gn_country":"US",
    "qs_pg:gn_fcode":"ADMD",
    "qs_pg:gn_id":7167658,
    "qs_pg:gn_pop":138,
    "qs_pg:name":"Village of Venedy",
    "qs_pg:photos_9r":0,
    "qs_pg:photos_sr":0,
    "qs_pg:pop_sr":1,
    "qs_pg:qs_id":661871,
    "qs_pg:qs_pg_placetype":"localadmin",
    "src:geom":"qs_pg",
    "src:lbl:centroid":"qs_pg",
    "src:population":"geonames",
    "wof:belongsto":[
        85633793
    ],
    "wof:breaches":[],
    "wof:concordances":{
        "gn:id":7167658,
        "qs_pg:id":661871
    },
    "wof:country":"US",
    "wof:created":1497049698,
    "wof:geomhash":"b7e017877eb649648aeb4f556dd401e5",
    "wof:hierarchy":[
        {
            "country_id":85633793,
            "localadmin_id":1125406913
        }
    ],
    "wof:id":1125406913,
    "wof:lastmodified":1505187080,
    "wof:name":"Village of Venedy",
    "wof:parent_id":-1,
    "wof:placetype":"localadmin",
    "wof:population":138,
    "wof:population_rank":1,
    "wof:repo":"whosonfirst-data-admin-us",
    "wof:superseded_by":[],
    "wof:supersedes":[],
    "wof:tags":[]
},
  "bbox": [
    -89.64581,
    38.39661,
    -89.64581,
    38.39661
],
  "geometry": {"coordinates":[-89.64581,38.39661],"type":"Point"}
}