{
  "id": 1125294065,
  "type": "Feature",
  "properties": {
    "edtf:cessation":"2017-05-19",
    "edtf:inception":"uuuu",
    "geom:area":0.0,
    "geom:area_square_m":0.0,
    "geom:bbox":"-92.70015,31.5208,-92.70015,31.5208",
    "geom:latitude":31.5208,
    "geom:longitude":-92.70015,
    "gn:gn_country":"US",
    "gn:gn_fcode":"ADMD",
    "gn:gn_pop":1558,
    "gn:population":1558,
    "iso:country":"US",
    "lbl:latitude":31.5208,
    "lbl:longitude":-92.70015,
    "mz:hierarchy_label":1,
    "mz:is_current":0,
    "mz:note":"Quattroshapes Point Gazetteer import 20170519",
    "qs_pg:aaroncc":"US",
    "qs_pg:gn_country":"US",
    "qs_pg:gn_fcode":"ADMD",
    "qs_pg:gn_id":7171536,
    "qs_pg:gn_pop":1558,
    "qs_pg:name":"Town of Colfax",
    "qs_pg:photos_9r":0,
    "qs_pg:photos_sr":0,
    "qs_pg:pop_sr":3,
    "qs_pg:qs_id":664166,
    "qs_pg:qs_pg_placetype":"localadmin",
    "src:geom":"qs_pg",
    "src:lbl:centroid":"qs_pg",
    "src:population":"geonames",
    "wof:belongsto":[
        85633793
    ],
    "wof:breaches":[],
    "wof:concordances":{
        "gn:id":7171536,
        "qs_pg:id":664166
    },
    "wof:country":"US",
    "wof:created":1497043056,
    "wof:geomhash":"00a320c4971cede8eea029b97f03cfd7",
    "wof:hierarchy":[
        {
            "country_id":85633793,
            "localadmin_id":1125294065
        }
    ],
    "wof:id":1125294065,
    "wof:lastmodified":1505187107,
    "wof:name":"Town of Colfax",
    "wof:parent_id":-1,
    "wof:placetype":"localadmin",
    "wof:population":1558,
    "wof:population_rank":3,
    "wof:repo":"whosonfirst-data-admin-us",
    "wof:superseded_by":[],
    "wof:supersedes":[],
    "wof:tags":[]
},
  "bbox": [
    -92.70015,
    31.5208,
    -92.70015,
    31.5208
],
  "geometry": {"coordinates":[-92.70014999999999,31.5208],"type":"Point"}
}