{
  "id": 1125298337,
  "type": "Feature",
  "properties": {
    "edtf:cessation":"uuuu",
    "edtf:deprecated":"2017-11-04",
    "edtf:inception":"uuuu",
    "geom:area":0.0,
    "geom:area_square_m":0.0,
    "geom:bbox":"-95.35152,42.01555,-95.35152,42.01555",
    "geom:latitude":42.01555,
    "geom:longitude":-95.35152,
    "gn:gn_country":"US",
    "gn:gn_fcode":"ADMD",
    "gn:gn_pop":8298,
    "gn:population":8298,
    "iso:country":"US",
    "lbl:latitude":42.01555,
    "lbl:longitude":-95.35152,
    "mz:hierarchy_label":1,
    "mz:is_current":0,
    "mz:note":"Quattroshapes Point Gazetteer import 20170519",
    "qs_pg:aaroncc":"US",
    "qs_pg:gn_country":"US",
    "qs_pg:gn_fcode":"ADMD",
    "qs_pg:gn_id":7316891,
    "qs_pg:gn_pop":8298,
    "qs_pg:name":"City of Denison",
    "qs_pg:photos_9r":0,
    "qs_pg:photos_sr":0,
    "qs_pg:pop_sr":5,
    "qs_pg:qs_id":682905,
    "qs_pg:qs_pg_placetype":"localadmin",
    "src:geom":"qs_pg",
    "src:lbl:centroid":"qs_pg",
    "src:population":"geonames",
    "wof:belongsto":[
        85633793
    ],
    "wof:breaches":[],
    "wof:concordances":{
        "gn:id":7316891,
        "qs_pg:id":682905
    },
    "wof:country":"US",
    "wof:created":1497043278,
    "wof:geomhash":"29a9c760210194e1e83863cea226d188",
    "wof:hierarchy":[
        {
            "country_id":85633793,
            "localadmin_id":1125298337
        }
    ],
    "wof:id":1125298337,
    "wof:lastmodified":1509752484,
    "wof:name":"City of Denison",
    "wof:parent_id":-1,
    "wof:placetype":"localadmin",
    "wof:population":8298,
    "wof:population_rank":5,
    "wof:repo":"whosonfirst-data-admin-us",
    "wof:superseded_by":[
        85944461
    ],
    "wof:supersedes":[],
    "wof:tags":[]
},
  "bbox": [
    -95.35152,
    42.01555,
    -95.35152,
    42.01555
],
  "geometry": {"coordinates":[-95.35151999999999,42.01555],"type":"Point"}
}