{
  "id": 1259794877,
  "type": "Feature",
  "properties": {
    "edtf:cessation":"uuuu",
    "edtf:inception":"uuuu",
    "geom:area":0.0,
    "geom:area_square_m":0.0,
    "geom:bbox":"-83.0938,40.95783,-83.0938,40.95783",
    "geom:latitude":40.95783,
    "geom:longitude":-83.0938,
    "gn:admin1_code":"OH",
    "gn:admin2_code":"33.0",
    "gn:admin3_code":"76463.0",
    "gn:asciiname":"Plankton",
    "gn:country_code":"US",
    "gn:dem":280,
    "gn:elevation":"282.0",
    "gn:feature_class":"P",
    "gn:feature_code":"PPL",
    "gn:geonameid":5166899,
    "gn:latitude":40.95783,
    "gn:longitude":-83.0938,
    "gn:modification_date":"2017-05-23",
    "gn:name":"Plankton",
    "gn:population":0,
    "gn:timezone":"America/New_York",
    "iso:country":"US",
    "mz:hierarchy_label":1,
    "mz:is_current":-1,
    "src:geom":"geonames",
    "wof:belongsto":[
        85688485,
        102191575,
        404525161,
        85633793,
        102084729
    ],
    "wof:breaches":[],
    "wof:concordances":{
        "gn:id":5166899
    },
    "wof:country":"US",
    "wof:geomhash":"f078e397c5847dd08301ebc725028fba",
    "wof:hierarchy":[
        {
            "continent_id":102191575,
            "country_id":85633793,
            "county_id":102084729,
            "localadmin_id":404525161,
            "locality_id":1259794877,
            "region_id":85688485
        }
    ],
    "wof:id":1259794877,
    "wof:lastmodified":1536906954,
    "wof:name":"Plankton",
    "wof:parent_id":404525161,
    "wof:placetype":"locality",
    "wof:repo":"whosonfirst-data-admin-us",
    "wof:superseded_by":[],
    "wof:supersedes":[],
    "wof:tags":[]
},
  "bbox": [
    -83.0938,
    40.95783,
    -83.0938,
    40.95783
],
  "geometry": {"coordinates":[-83.0938,40.95783],"type":"Point"}
}