{
  "id": 1125334673,
  "type": "Feature",
  "properties": {
    "edtf:cessation":"2017-05-19",
    "edtf:inception":"uuuu",
    "geom:area":0.0,
    "geom:area_square_m":0.0,
    "geom:bbox":"-75.61241,40.39899,-75.61241,40.39899",
    "geom:latitude":40.39899,
    "geom:longitude":-75.61241,
    "gn:gn_country":"US",
    "gn:gn_fcode":"ADMD",
    "gn:gn_pop":478,
    "gn:population":478,
    "iso:country":"US",
    "lbl:latitude":40.39899,
    "lbl:longitude":-75.61241,
    "mz:hierarchy_label":1,
    "mz:is_current":0,
    "mz:note":"Quattroshapes Point Gazetteer import 20170519",
    "qs_pg:aaroncc":"US",
    "qs_pg:gn_country":"US",
    "qs_pg:gn_fcode":"ADMD",
    "qs_pg:gn_id":5199388,
    "qs_pg:gn_pop":478,
    "qs_pg:name":"Borough of Lyons",
    "qs_pg:photos_9r":0,
    "qs_pg:photos_sr":0,
    "qs_pg:pop_sr":2,
    "qs_pg:qs_id":606675,
    "qs_pg:qs_pg_placetype":"localadmin",
    "src:geom":"qs_pg",
    "src:lbl:centroid":"qs_pg",
    "src:population":"geonames",
    "wof:belongsto":[
        85633793
    ],
    "wof:breaches":[],
    "wof:concordances":{
        "gn:id":5199388,
        "qs_pg:id":606675
    },
    "wof:country":"US",
    "wof:created":1497045328,
    "wof:geomhash":"c70d0c41668365f9813064796fd28ab1",
    "wof:hierarchy":[
        {
            "country_id":85633793,
            "localadmin_id":1125334673
        }
    ],
    "wof:id":1125334673,
    "wof:lastmodified":1505186973,
    "wof:name":"Borough of Lyons",
    "wof:parent_id":-1,
    "wof:placetype":"localadmin",
    "wof:population":478,
    "wof:population_rank":2,
    "wof:repo":"whosonfirst-data-admin-us",
    "wof:superseded_by":[],
    "wof:supersedes":[],
    "wof:tags":[]
},
  "bbox": [
    -75.61241,
    40.39899,
    -75.61241,
    40.39899
],
  "geometry": {"coordinates":[-75.61241,40.39899],"type":"Point"}
}