{
  "id": 1344173311,
  "type": "Feature",
  "properties": {
    "edtf:cessation":"uuuu",
    "edtf:inception":"uuuu",
    "geom:area":0.0,
    "geom:area_square_m":0.0,
    "geom:bbox":"-94.07826,36.25646,-94.07826,36.25646",
    "geom:latitude":36.25646,
    "geom:longitude":-94.07826,
    "gn:admin1_code":"AR",
    "gn:admin2_code":"7.0",
    "gn:admin3_code":"93628.0",
    "gn:asciiname":"Frisco",
    "gn:country_code":"US",
    "gn:dem":413,
    "gn:elevation":"413.0",
    "gn:feature_class":"P",
    "gn:feature_code":"PPL",
    "gn:geonameid":4111795,
    "gn:latitude":36.25646,
    "gn:longitude":-94.07826,
    "gn:modification_date":"2017-05-23",
    "gn:name":"Frisco",
    "gn:population":0,
    "gn:timezone":"America/Chicago",
    "iso:country":"US",
    "mz:hierarchy_label":1,
    "mz:is_current":-1,
    "src:geom":"geonames",
    "wof:belongsto":[
        102191575,
        85633793,
        85688549,
        102083255
    ],
    "wof:breaches":[],
    "wof:concordances":{
        "gn:id":4111795
    },
    "wof:country":"US",
    "wof:geomhash":"7bfd72e2bb81edd8178aaede80a05daf",
    "wof:hierarchy":[
        {
            "continent_id":102191575,
            "country_id":85633793,
            "county_id":102083255,
            "locality_id":1344173311,
            "region_id":85688549
        }
    ],
    "wof:id":1344173311,
    "wof:lastmodified":1536713034,
    "wof:name":"Frisco",
    "wof:parent_id":102083255,
    "wof:placetype":"locality",
    "wof:repo":"whosonfirst-data-admin-us",
    "wof:superseded_by":[],
    "wof:supersedes":[],
    "wof:tags":[]
},
  "bbox": [
    -94.07826,
    36.25646,
    -94.07826,
    36.25646
],
  "geometry": {"coordinates":[-94.07826,36.25646],"type":"Point"}
}