{
  "id": 1209234277,
  "type": "Feature",
  "properties": {
    "edtf:cessation":"2018-09-06",
    "edtf:inception":"uuuu",
    "geom:area":0.0,
    "geom:area_square_m":0.0,
    "geom:bbox":"-88.69866,33.27846,-88.69866,33.27846",
    "geom:latitude":33.27846,
    "geom:longitude":-88.69866,
    "gn:admin1_code":"MS",
    "gn:admin2_code":"103.0",
    "gn:asciiname":"Fairport (historical)",
    "gn:country_code":"US",
    "gn:dem":91,
    "gn:elevation":"86.0",
    "gn:feature_class":"P",
    "gn:feature_code":"PPLQ",
    "gn:geonameid":4426042,
    "gn:latitude":33.27846,
    "gn:longitude":-88.69866,
    "gn:modification_date":"2011-12-11",
    "gn:name":"Fairport (historical)",
    "gn:population":0,
    "gn:timezone":"America/Chicago",
    "iso:country":"US",
    "mz:hierarchy_label":1,
    "mz:is_current":0,
    "src:geom":"geonames",
    "wof:belongsto":[
        85633793
    ],
    "wof:breaches":[],
    "wof:concordances":{
        "gn:id":4426042
    },
    "wof:country":"US",
    "wof:geomhash":"a5356cd884bf5b5f31223909bfeb05b5",
    "wof:hierarchy":[
        {
            "country_id":85633793,
            "locality_id":1209234277
        }
    ],
    "wof:id":1209234277,
    "wof:lastmodified":1536293538,
    "wof:name":"Fairport (historical)",
    "wof:parent_id":85633793,
    "wof:placetype":"locality",
    "wof:repo":"whosonfirst-data-admin-us",
    "wof:superseded_by":[],
    "wof:supersedes":[],
    "wof:tags":[]
},
  "bbox": [
    -88.69866,
    33.278459999999995,
    -88.69866,
    33.278459999999995
],
  "geometry": {"coordinates":[-88.69866,33.27846],"type":"Point"}
}