{
  "id": 1276248625,
  "type": "Feature",
  "properties": {
    "edtf:cessation":"uuuu",
    "edtf:inception":"uuuu",
    "geom:area":0.0,
    "geom:area_square_m":0.0,
    "geom:bbox":"-90.57486,40.84865,-90.57486,40.84865",
    "geom:latitude":40.84865,
    "geom:longitude":-90.57486,
    "gn:admin1_code":"IL",
    "gn:admin2_code":"187.0",
    "gn:admin3_code":"42847.0",
    "gn:asciiname":"Phelps",
    "gn:country_code":"US",
    "gn:dem":235,
    "gn:elevation":"236.0",
    "gn:feature_class":"P",
    "gn:feature_code":"PPL",
    "gn:geonameid":4905838,
    "gn:latitude":40.84865,
    "gn:longitude":-90.57486,
    "gn:modification_date":"2017-05-23",
    "gn:name":"Phelps",
    "gn:population":0,
    "gn:timezone":"America/Chicago",
    "iso:country":"US",
    "mz:hierarchy_label":1,
    "mz:is_current":-1,
    "src:geom":"geonames",
    "wof:belongsto":[
        85688697,
        102191575,
        404499299,
        85633793,
        102082291
    ],
    "wof:breaches":[],
    "wof:concordances":{
        "gn:id":4905838
    },
    "wof:country":"US",
    "wof:geomhash":"53ac0b7232574f533bc26088472a74f3",
    "wof:hierarchy":[
        {
            "continent_id":102191575,
            "country_id":85633793,
            "county_id":102082291,
            "localadmin_id":404499299,
            "locality_id":1276248625,
            "region_id":85688697
        }
    ],
    "wof:id":1276248625,
    "wof:lastmodified":1536891897,
    "wof:name":"Phelps",
    "wof:parent_id":404499299,
    "wof:placetype":"locality",
    "wof:repo":"whosonfirst-data-admin-us",
    "wof:superseded_by":[],
    "wof:supersedes":[],
    "wof:tags":[]
},
  "bbox": [
    -90.57486,
    40.84865,
    -90.57486,
    40.84865
],
  "geometry": {"coordinates":[-90.57486,40.84865],"type":"Point"}
}