{
  "id": 1326746427,
  "type": "Feature",
  "properties": {
    "edtf:cessation":"uuuu",
    "edtf:inception":"uuuu",
    "geom:area":0.0,
    "geom:area_square_m":0.0,
    "geom:bbox":"-80.69841,40.08729,-80.69841,40.08729",
    "geom:latitude":40.08729,
    "geom:longitude":-80.69841,
    "gn:admin1_code":"WV",
    "gn:admin2_code":"69.0",
    "gn:asciiname":"Forest Hills",
    "gn:country_code":"US",
    "gn:dem":317,
    "gn:elevation":"314.0",
    "gn:feature_class":"P",
    "gn:feature_code":"PPL",
    "gn:geonameid":5280290,
    "gn:latitude":40.08729,
    "gn:longitude":-80.69841,
    "gn:modification_date":"2006-01-15",
    "gn:name":"Forest Hills",
    "gn:population":0,
    "gn:timezone":"America/New_York",
    "iso:country":"US",
    "mz:hierarchy_label":1,
    "mz:is_current":-1,
    "src:geom":"geonames",
    "wof:belongsto":[
        102191575,
        85633793,
        85688589,
        102082621
    ],
    "wof:breaches":[],
    "wof:concordances":{
        "gn:id":5280290
    },
    "wof:country":"US",
    "wof:geomhash":"ec5d1d5d878e80fac7d1c4bdd451006d",
    "wof:hierarchy":[
        {
            "continent_id":102191575,
            "country_id":85633793,
            "county_id":102082621,
            "locality_id":1326746427,
            "region_id":85688589
        }
    ],
    "wof:id":1326746427,
    "wof:lastmodified":1536675188,
    "wof:name":"Forest Hills",
    "wof:parent_id":102082621,
    "wof:placetype":"locality",
    "wof:repo":"whosonfirst-data-admin-us",
    "wof:superseded_by":[],
    "wof:supersedes":[],
    "wof:tags":[]
},
  "bbox": [
    -80.69841,
    40.08729,
    -80.69841,
    40.08729
],
  "geometry": {"coordinates":[-80.69841,40.08729],"type":"Point"}
}