{
  "id": 1125408109,
  "type": "Feature",
  "properties": {
    "edtf:cessation":"uuuu",
    "edtf:deprecated":"2017-11-04",
    "edtf:inception":"uuuu",
    "geom:area":0.0,
    "geom:area_square_m":0.0,
    "geom:bbox":"-95.33602,41.4844,-95.33602,41.4844",
    "geom:latitude":41.4844,
    "geom:longitude":-95.33602,
    "gn:gn_country":"US",
    "gn:gn_fcode":"ADMD",
    "gn:gn_pop":1506,
    "gn:population":1506,
    "iso:country":"US",
    "lbl:latitude":41.4844,
    "lbl:longitude":-95.33602,
    "mz:hierarchy_label":1,
    "mz:is_current":0,
    "mz:note":"Quattroshapes Point Gazetteer import 20170519",
    "qs_pg:aaroncc":"US",
    "qs_pg:gn_country":"US",
    "qs_pg:gn_fcode":"ADMD",
    "qs_pg:gn_id":7163211,
    "qs_pg:gn_pop":1506,
    "qs_pg:name":"City of Avoca",
    "qs_pg:photos_9r":0,
    "qs_pg:photos_sr":0,
    "qs_pg:pop_sr":3,
    "qs_pg:qs_id":658177,
    "qs_pg:qs_pg_placetype":"localadmin",
    "src:geom":"qs_pg",
    "src:lbl:centroid":"qs_pg",
    "src:population":"geonames",
    "wof:belongsto":[
        85633793
    ],
    "wof:breaches":[],
    "wof:concordances":{
        "gn:id":7163211,
        "qs_pg:id":658177
    },
    "wof:country":"US",
    "wof:created":1497049775,
    "wof:geomhash":"e5370904da77dd9a2fac8ba92d3ab3bf",
    "wof:hierarchy":[
        {
            "country_id":85633793,
            "localadmin_id":1125408109
        }
    ],
    "wof:id":1125408109,
    "wof:lastmodified":1509752715,
    "wof:name":"City of Avoca",
    "wof:parent_id":-1,
    "wof:placetype":"localadmin",
    "wof:population":1506,
    "wof:population_rank":3,
    "wof:repo":"whosonfirst-data-admin-us",
    "wof:superseded_by":[
        85944287
    ],
    "wof:supersedes":[],
    "wof:tags":[]
},
  "bbox": [
    -95.33602,
    41.4844,
    -95.33602,
    41.4844
],
  "geometry": {"coordinates":[-95.33602,41.4844],"type":"Point"}
}