{
  "id": 420519131,
  "type": "Feature",
  "properties": {
    "edtf:cessation":"uuuu",
    "edtf:inception":"uuuu",
    "geom:area":0.0,
    "geom:area_square_m":154539.933291,
    "geom:bbox":"-88.031533,42.180616,-88.031533,42.180616",
    "geom:latitude":42.180616,
    "geom:longitude":-88.031533,
    "iso:country":"US",
    "lbl:latitude":42.180616,
    "lbl:longitude":-88.031533,
    "mz:hierarchy_label":0,
    "mz:is_current":-1,
    "name:eng_x_preferred":[
        "Beaver Creek"
    ],
    "src:geom":"mz",
    "src:geom_alt":[
        "quattroshapes_pg",
        "zetashapes"
    ],
    "src:lbl":"mapshaper",
    "src:lbl:centroid":"mapshaper",
    "src:population":"zetashapes",
    "wof:belongsto":[
        85688697,
        102191575,
        404498459,
        85633793,
        85938335,
        102086215
    ],
    "wof:breaches":[],
    "wof:concordances":{
        "gn:id":4884313,
        "gp:id":28297572,
        "qs_pg:id":281608
    },
    "wof:country":"US",
    "wof:geomhash":"15435813b407558195600f0f70ebac85",
    "wof:hierarchy":[
        {
            "continent_id":102191575,
            "country_id":85633793,
            "county_id":102086215,
            "localadmin_id":404498459,
            "locality_id":85938335,
            "neighbourhood_id":420519131,
            "region_id":85688697
        }
    ],
    "wof:id":420519131,
    "wof:lastmodified":1533593935,
    "wof:name":"Beaver Creek",
    "wof:parent_id":85938335,
    "wof:placetype":"neighbourhood",
    "wof:population":43,
    "wof:population_rank":1,
    "wof:repo":"whosonfirst-data-admin-us",
    "wof:superseded_by":[],
    "wof:supersedes":[],
    "wof:tags":[],
    "zs:area_m":154529.689675,
    "zs:blockids":[
        170978644032003
    ],
    "zs:housing10":14,
    "zs:id":28297572,
    "zs:label":"Beaver Creek",
    "zs:pop10":43
},
  "bbox": [
    -88.031533,
    42.180616,
    -88.031533,
    42.180616
],
  "geometry": {"coordinates":[-88.031533,42.180616],"type":"Point"}
}