{
  "id": 1260005575,
  "type": "Feature",
  "properties": {
    "edtf:cessation":"uuuu",
    "edtf:inception":"uuuu",
    "geom:area":0.0,
    "geom:area_square_m":0.0,
    "geom:bbox":"-94.1652,31.95795,-94.1652,31.95795",
    "geom:latitude":31.95795,
    "geom:longitude":-94.1652,
    "gn:admin1_code":"TX",
    "gn:admin2_code":"419.0",
    "gn:asciiname":"Paxton",
    "gn:country_code":"US",
    "gn:dem":106,
    "gn:elevation":"105.0",
    "gn:feature_class":"P",
    "gn:feature_code":"PPL",
    "gn:geonameid":4717973,
    "gn:latitude":31.95795,
    "gn:longitude":-94.1652,
    "gn:modification_date":"2006-01-15",
    "gn:name":"Paxton",
    "gn:population":0,
    "gn:timezone":"America/Chicago",
    "iso:country":"US",
    "mz:hierarchy_label":1,
    "mz:is_current":-1,
    "src:geom":"geonames",
    "wof:belongsto":[
        102191575,
        85633793,
        85688753,
        102081125
    ],
    "wof:breaches":[],
    "wof:concordances":{
        "gn:id":4717973
    },
    "wof:country":"US",
    "wof:geomhash":"76158b5b71849c24ac1413fd9c978aa2",
    "wof:hierarchy":[
        {
            "continent_id":102191575,
            "country_id":85633793,
            "county_id":102081125,
            "locality_id":1260005575,
            "region_id":85688753
        }
    ],
    "wof:id":1260005575,
    "wof:lastmodified":1536600144,
    "wof:name":"Paxton",
    "wof:parent_id":102081125,
    "wof:placetype":"locality",
    "wof:repo":"whosonfirst-data-admin-us",
    "wof:superseded_by":[],
    "wof:supersedes":[],
    "wof:tags":[]
},
  "bbox": [
    -94.1652,
    31.95795,
    -94.1652,
    31.95795
],
  "geometry": {"coordinates":[-94.1652,31.95795],"type":"Point"}
}