{
  "id": 85848815,
  "type": "Feature",
  "properties": {"wof:repo":"whosonfirst-data-admin-us",
    "src:geom":"quattroshapes",
    "wof:geomhash":"76edd9b3af5408ae076d2b13a478a339",
    "wof:id":85848815
},
  "bbox": [
    -118.15795898400003,
    33.97861617687015,
    -118.11919179304999,
    34.007134759125066
],
  "geometry": {"coordinates":[[[-118.12889695176978,34.00196981788993],[-118.12873291000000,34.00030427385018],[-118.12875174590022,34.00011302974499],[-118.12875473021816,34.00008272945622],[-118.12768404366977,33.99951043557310],[-118.12616867818804,33.99826680726201],[-118.12492504987688,33.99675144178039],[-118.12456359695017,33.99607521091725],[-118.12456003871131,33.99607413153730],[-118.12391974767618,33.99587990137520],[-118.12219087966983,33.99495580217315],[-118.12067551418812,33.99371217386189],[-118.11943188587693,33.99219680838026],[-118.11919209464145,33.99174819053242],[-118.11919179304999,33.99174828201906],[-118.11950683599974,33.99098840095903],[-118.12499994939893,33.98436372830005],[-118.12500000000000,33.98436366727536],[-118.13049316399980,33.98436366727536],[-118.13049316399980,33.97980872870006],[-118.13049316399980,33.97980866770033],[-118.13598632799992,33.97980866770033],[-118.13873290999999,33.97980866770033],[-118.14147949200003,33.97980866770033],[-118.14697265600006,33.97980866770033],[-118.14959130660407,33.97980866770033],[-118.15040214098974,33.98022772217517],[-118.15246581999992,33.98000147886123],[-118.15499302718823,33.97861617687015],[-118.15795898399983,33.97980842365038],[-118.15795898399983,33.98436372830005],[-118.15795898399983,33.98891842275036],[-118.15795898400003,33.98891848380002],[-118.15795893338077,33.98891848380002],[-118.15607085783120,33.99119561737531],[-118.15435394616856,33.99119561737531],[-118.15246581999992,33.99347293407524],[-118.15246581999992,33.99347299510003],[-118.15246581999992,33.99802720127541],[-118.15246582000000,33.99802726230001],[-118.14813122912355,33.99802725688434],[-118.14697265600006,34.00221980318221],[-118.14689774958583,34.00249086817009],[-118.14244495495620,34.00141663026213],[-118.14147949200003,34.00258122437509],[-118.14147949200003,34.00258128540005],[-118.14147944140956,34.00258128540015],[-118.13770455524582,34.00713475912507],[-118.13598632799992,34.00713475912507],[-118.13054139013755,34.00494531463900],[-118.12889695176978,34.00196981788993]]],"type":"Polygon"}
}