{
  "id": 1310130385,
  "type": "Feature",
  "properties": {
    "edtf:cessation":"2018-09-07",
    "edtf:inception":"uuuu",
    "geom:area":0.0,
    "geom:area_square_m":0.0,
    "geom:bbox":"-96.78809,37.13614,-96.78809,37.13614",
    "geom:latitude":37.13614,
    "geom:longitude":-96.78809,
    "gn:admin1_code":"KS",
    "gn:admin2_code":"35.0",
    "gn:admin3_code":"39950.0",
    "gn:asciiname":"Eschs (historical)",
    "gn:country_code":"US",
    "gn:dem":344,
    "gn:elevation":"345.0",
    "gn:feature_class":"P",
    "gn:feature_code":"PPLQ",
    "gn:geonameid":4271143,
    "gn:latitude":37.13614,
    "gn:longitude":-96.78809,
    "gn:modification_date":"2017-05-23",
    "gn:name":"Eschs (historical)",
    "gn:population":0,
    "gn:timezone":"America/Chicago",
    "iso:country":"US",
    "mz:hierarchy_label":1,
    "mz:is_current":0,
    "src:geom":"geonames",
    "wof:belongsto":[
        85688555,
        102191575,
        404503377,
        85633793,
        102082165
    ],
    "wof:breaches":[],
    "wof:concordances":{
        "gn:id":4271143
    },
    "wof:country":"US",
    "wof:geomhash":"71dbe5288b2c0146eaa12dbf2849fb5e",
    "wof:hierarchy":[
        {
            "continent_id":102191575,
            "country_id":85633793,
            "county_id":102082165,
            "localadmin_id":404503377,
            "locality_id":1310130385,
            "region_id":85688555
        }
    ],
    "wof:id":1310130385,
    "wof:lastmodified":1536960571,
    "wof:name":"Eschs (historical)",
    "wof:parent_id":404503377,
    "wof:placetype":"locality",
    "wof:repo":"whosonfirst-data-admin-us",
    "wof:superseded_by":[],
    "wof:supersedes":[],
    "wof:tags":[]
},
  "bbox": [
    -96.78809,
    37.13614000000001,
    -96.78809,
    37.13614000000001
],
  "geometry": {"coordinates":[-96.78809,37.13614000000001],"type":"Point"}
}