{
  "id": 85896759,
  "type": "Feature",
  "properties": {
    "edtf:cessation":"uuuu",
    "edtf:inception":"uuuu",
    "geom:area":0.0,
    "geom:area_square_m":476924.422869,
    "geom:bbox":"-82.419692,42.975005,-82.419692,42.975005",
    "geom:latitude":42.975005,
    "geom:longitude":-82.419692,
    "gn:id":"",
    "iso:country":"US",
    "lbl:latitude":42.975005,
    "lbl:longitude":-82.419692,
    "mps:latitude":42.975356,
    "mps:longitude":-82.416403,
    "mz:hierarchy_label":0,
    "mz:is_current":-1,
    "mz:is_funky":0,
    "mz:is_hard_boundary":0,
    "mz:is_landuse_aoi":0,
    "mz:is_official":0,
    "mz:max_zoom":18.0,
    "mz:min_zoom":14.0,
    "mz:tier_locality":1,
    "name:als_x_preferred":[
        "Milit\u00e4r"
    ],
    "name:ara_x_preferred":[
        "\u0639\u0633\u0643\u0631\u064a\u0629"
    ],
    "name:arg_x_preferred":[
        "Melitar"
    ],
    "name:aze_x_preferred":[
        "H\u0259rb"
    ],
    "name:bar_x_preferred":[
        "Milit\u00e4r"
    ],
    "name:bel_x_preferred":[
        "\u0412\u0430\u0435\u043d\u043d\u0430\u044f \u0441\u043f\u0440\u0430\u0432\u0430"
    ],
    "name:bel_x_variant":[
        "\u0412\u0430\u0439\u0441\u043a\u043e\u0432\u0430\u044f \u0441\u043f\u0440\u0430\u0432\u0430"
    ],
    "name:ben_x_preferred":[
        "\u09ae\u09bf\u09b2\u09bf\u099f\u09be\u09b0\u09bf"
    ],
    "name:bod_x_preferred":[
        "\u0f51\u0f58\u0f42\u0f0b\u0f51\u0f7c\u0f53\u0f0d"
    ],
    "name:bos_x_preferred":[
        "Vojska"
    ],
    "name:bre_x_preferred":[
        "Lu"
    ],
    "name:bul_x_preferred":[
        "\u0412\u043e\u0435\u043d\u043d\u043e \u0434\u0435\u043b\u043e"
    ],
    "name:bxr_x_preferred":[
        "\u0421\u044d\u0440\u044d\u0433"
    ],
    "name:cat_x_preferred":[
        "Militar"
    ],
    "name:cdo_x_preferred":[
        "G\u016dng-s\u00ea\u0324\u1e73"
    ],
    "name:ckb_x_preferred":[
        "\u06be\u06ce\u0632\u06cc \u0633\u06d5\u0631\u0628\u0627\u0632\u06cc"
    ],
    "name:cym_x_preferred":[
        "Lluoedd milwrol"
    ],
    "name:dan_x_preferred":[
        "Milit\u00e6r"
    ],
    "name:deu_x_preferred":[
        "Milit\u00e4r"
    ],
    "name:eng_x_preferred":[
        "Military"
    ],
    "name:epo_x_preferred":[
        "Militfortoj"
    ],
    "name:est_x_preferred":[
        "S\u00f5jandus"
    ],
    "name:eus_x_preferred":[
        "Gudari"
    ],
    "name:ext_x_preferred":[
        "Melital"
    ],
    "name:fao_x_preferred":[
        "Herna\u00f0arliga verjan"
    ],
    "name:fas_x_preferred":[
        "\u0646\u06cc\u0631\u0648\u06cc \u0646\u0638\u0627\u0645\u06cc"
    ],
    "name:fin_x_preferred":[
        "Armeija"
    ],
    "name:fra_x_preferred":[
        "Arm\u00e9e"
    ],
    "name:fry_x_preferred":[
        "Milit\u00ear"
    ],
    "name:glg_x_preferred":[
        "Militar"
    ],
    "name:hak_x_preferred":[
        "Ki\u00fbn-s\u1e73"
    ],
    "name:hbs_x_preferred":[
        "Vojska"
    ],
    "name:heb_x_preferred":[
        "\u05e6\u05d1\u05d0"
    ],
    "name:hif_x_preferred":[
        "Fauj"
    ],
    "name:hin_x_preferred":[
        "\u0938\u0947\u0928\u093e"
    ],
    "name:hrv_x_preferred":[
        "Vojska"
    ],
    "name:hye_x_preferred":[
        "\u054c\u0561\u0566\u0574\u0561\u056f\u0561\u0576 \u0563\u0578\u0580\u056e"
    ],
    "name:ilo_x_preferred":[
        "Militar"
    ],
    "name:ind_x_preferred":[
        "Militer"
    ],
    "name:isl_x_preferred":[
        "Her"
    ],
    "name:ita_x_preferred":[
        "Militare"
    ],
    "name:jam_x_preferred":[
        "Milichri"
    ],
    "name:jav_x_preferred":[
        "Milit\u00e8r"
    ],
    "name:jpn_x_preferred":[
        "\u8ecd\u4e8b"
    ],
    "name:kas_x_preferred":[
        "\u0641\u0648\u062c"
    ],
    "name:kat_x_preferred":[
        "\u10e8\u10d4\u10d8\u10d0\u10e0\u10d0\u10e6\u10d4\u10d1\u10e3\u10da\u10d8 \u10eb\u10d0\u10da\u10d4\u10d1\u10d8"
    ],
    "name:kaz_x_preferred":[
        "\u04d8\u0441\u043a\u0435\u0440\u0438 \u0456\u0441"
    ],
    "name:kor_x_preferred":[
        "\uad70\uc0ac"
    ],
    "name:lat_x_preferred":[
        "Res militaris"
    ],
    "name:lav_x_preferred":[
        "Karasp\u0113ks"
    ],
    "name:lit_x_preferred":[
        "Kariuomen\u0117"
    ],
    "name:ltz_x_preferred":[
        "Milit\u00e4r"
    ],
    "name:mal_x_preferred":[
        "\u0d38\u0d48\u0d28\u0d4d\u0d2f\u0d02"
    ],
    "name:mkd_x_preferred":[
        "\u0412\u043e\u0458\u0441\u043a\u0430"
    ],
    "name:mon_x_preferred":[
        "\u0417\u044d\u0432\u0441\u044d\u0433\u0442 \u0445\u04af\u0447\u0438\u043d"
    ],
    "name:msa_x_preferred":[
        "Ketenteraan"
    ],
    "name:mwl_x_preferred":[
        "Melitar"
    ],
    "name:mya_x_preferred":[
        "\u1005\u1005\u103a\u101b\u1031\u1038"
    ],
    "name:nds_x_preferred":[
        "Milit\u00e4r"
    ],
    "name:nno_x_preferred":[
        "Milit\u00e6rvesen"
    ],
    "name:nor_x_preferred":[
        "Milit\u00e6rvesen"
    ],
    "name:oci_x_preferred":[
        "Armada"
    ],
    "name:pan_x_preferred":[
        "\u0a2b\u0a3c\u0a4c\u0a1c"
    ],
    "name:pms_x_preferred":[
        "Militar"
    ],
    "name:pnb_x_preferred":[
        "\u0641\u0648\u062c"
    ],
    "name:por_x_preferred":[
        "Militar"
    ],
    "name:pus_x_preferred":[
        "\u067e\u0648\u0681"
    ],
    "name:rue_x_preferred":[
        "\u0412\u043e\u0439\u0441\u043a\u043e\u0432\u0430 \u0441\u043f\u0440\u0430\u0432\u0430"
    ],
    "name:rus_x_preferred":[
        "\u0412\u043e\u0435\u043d\u043d\u043e\u0435 \u0434\u0435\u043b\u043e"
    ],
    "name:sco_x_preferred":[
        "Militar"
    ],
    "name:sin_x_preferred":[
        "\u0db8\u0dd2\u0dbd\u0dd2\u0da7\u0dbb\u0dd2"
    ],
    "name:slk_x_preferred":[
        "Vojenstvo"
    ],
    "name:slv_x_preferred":[
        "Voja\u0161tvo"
    ],
    "name:snd_x_preferred":[
        "\u0641\u0648\u062c"
    ],
    "name:spa_x_preferred":[
        "Militar"
    ],
    "name:srp_x_preferred":[
        "\u0412\u043e\u0458\u0441\u043a\u0430"
    ],
    "name:swa_x_preferred":[
        "Jeshi"
    ],
    "name:swe_x_preferred":[
        "Milit\u00e4r"
    ],
    "name:tam_x_preferred":[
        "\u0baa\u0b9f\u0bc8\u0ba4\u0bcd\u0ba4\u0bc1\u0bb1\u0bc8"
    ],
    "name:tgk_x_preferred":[
        "\u0410\u0440\u0442\u0438\u0448"
    ],
    "name:tgl_x_preferred":[
        "Hukbo"
    ],
    "name:tha_x_preferred":[
        "\u0e01\u0e32\u0e23\u0e17\u0e2b\u0e32\u0e23"
    ],
    "name:tur_x_preferred":[
        "Askeriye"
    ],
    "name:ukr_x_preferred":[
        "\u0412\u0456\u0439\u0441\u044c\u043a\u043e\u0432\u0430 \u0441\u043f\u0440\u0430\u0432\u0430"
    ],
    "name:unk_x_variant":[
        "Military"
    ],
    "name:urd_x_preferred":[
        "\u0641\u0648\u062c"
    ],
    "name:vec_x_preferred":[
        "Mi\u0142itare"
    ],
    "name:vie_x_preferred":[
        "Qu\u00e2n \u0111\u1ed9i"
    ],
    "name:war_x_preferred":[
        "Kasundalohan"
    ],
    "name:wuu_x_preferred":[
        "\u8ecd\u4e8b"
    ],
    "name:yid_x_preferred":[
        "\u05de\u05d9\u05dc\u05d9\u05d8\u05e2\u05e8"
    ],
    "name:zho_x_preferred":[
        "\u8ecd\u4e8b"
    ],
    "name:zho_yue_x_preferred":[
        "\u8ecd\u4e8b"
    ],
    "qs:gn_id":0,
    "qs:gn_local":0,
    "qs:local_max":953,
    "qs:local_sum":1598,
    "qs:localhoods":8,
    "qs:name":"Military",
    "qs:name_adm0":"United States",
    "qs:name_adm1":"Michigan",
    "qs:name_adm2":"St. Clair",
    "qs:name_local":"Port Huron",
    "qs:photo_max":55,
    "qs:photo_sum":129,
    "qs:placetype":"Suburb",
    "qs:quad_count":7,
    "qs:woe_adm0":23424977,
    "qs:woe_adm1":2347581,
    "qs:woe_adm2":12588790,
    "qs:woe_lau":0,
    "qs:woe_local":2475403,
    "qs:woe_ver":"7.10.0",
    "src:geom":"mz",
    "src:geom_alt":[
        "quattroshapes",
        "quattroshapes_pg"
    ],
    "src:lbl:centroid":"yerbashapes",
    "src:population":"zetashapes",
    "wd:wordcount":7024,
    "wof:belongsto":[
        102191575,
        404508925,
        85633793,
        85951541,
        102083053,
        85688599
    ],
    "wof:breaches":[],
    "wof:concordances":{
        "gp:id":56022031,
        "qs:id":385034,
        "qs_pg:id":385034,
        "wd:id":"Q8473"
    },
    "wof:country":"US",
    "wof:geomhash":"89e62c6ece2d8dd45e2953bec2879c0b",
    "wof:hierarchy":[
        {
            "continent_id":102191575,
            "country_id":85633793,
            "county_id":102083053,
            "localadmin_id":404508925,
            "locality_id":85951541,
            "neighbourhood_id":85896759,
            "region_id":85688599
        }
    ],
    "wof:id":85896759,
    "wof:lang":[
        "eng"
    ],
    "wof:lastmodified":1532373836,
    "wof:name":"Military",
    "wof:parent_id":85951541,
    "wof:placetype":"neighbourhood",
    "wof:population":981,
    "wof:population_rank":2,
    "wof:repo":"whosonfirst-data-admin-us",
    "wof:superseded_by":[],
    "wof:supersedes":[],
    "wof:tags":[],
    "zs:blockids":[
        261476240003000,
        261476240001004,
        261476250001031,
        261476240003008,
        261476240003016,
        261476240002000,
        261476250001041,
        261476240001006,
        261476240003004,
        261476240003009,
        261476240003015,
        261476240001013,
        261476240003013,
        261476240001001,
        261476250001004,
        261476250001048,
        261476240003006,
        261476240001007,
        261476240001011,
        261476240001002,
        261476240003012,
        261476250001050,
        261476250001032,
        261476250001036,
        261476250001009,
        261476240003005,
        261476240003003,
        261476240003011,
        261476240003014,
        261476240003010,
        261476240003001,
        261476250001011,
        261476240001000,
        261476250001043,
        261476250001049,
        261476240001008,
        261476240003018,
        261476250001003,
        261476240001009,
        261476250001045,
        261476250001013,
        261476240001003,
        261476250001040,
        261476230003028,
        261476240003025,
        261476240003007,
        261476240001010,
        261476240003024,
        261476250001002,
        261476250001012,
        261476250001044,
        261476250001042,
        261476250001007,
        261476240001005,
        261476240003002
    ],
    "zs:housing10":731,
    "zs:pop10":981
},
  "bbox": [
    -82.419692,
    42.975005,
    -82.419692,
    42.975005
],
  "geometry": {"coordinates":[-82.419692,42.975005],"type":"Point"}
}