{
  "id": 1327353359,
  "type": "Feature",
  "properties": {
    "edtf:cessation":"uuuu",
    "edtf:inception":"uuuu",
    "geom:area":0.0,
    "geom:area_square_m":0.0,
    "geom:bbox":"-83.0663,40.68839,-83.0663,40.68839",
    "geom:latitude":40.68839,
    "geom:longitude":-83.0663,
    "gn:admin1_code":"OH",
    "gn:admin2_code":"101.0",
    "gn:admin3_code":"71073.0",
    "gn:asciiname":"Tobias",
    "gn:country_code":"US",
    "gn:dem":295,
    "gn:elevation":"297.0",
    "gn:feature_class":"P",
    "gn:feature_code":"PPL",
    "gn:geonameid":5174075,
    "gn:latitude":40.68839,
    "gn:longitude":-83.0663,
    "gn:modification_date":"2017-05-23",
    "gn:name":"Tobias",
    "gn:population":0,
    "gn:timezone":"America/New_York",
    "iso:country":"US",
    "mz:hierarchy_label":1,
    "mz:is_current":-1,
    "src:geom":"geonames",
    "wof:belongsto":[
        85688485,
        102191575,
        404526255,
        85633793,
        102084791
    ],
    "wof:breaches":[],
    "wof:concordances":{
        "gn:id":5174075
    },
    "wof:country":"US",
    "wof:geomhash":"1471b0df05b6d2040d59ab99e959324e",
    "wof:hierarchy":[
        {
            "continent_id":102191575,
            "country_id":85633793,
            "county_id":102084791,
            "localadmin_id":404526255,
            "locality_id":1327353359,
            "region_id":85688485
        }
    ],
    "wof:id":1327353359,
    "wof:lastmodified":1536795273,
    "wof:name":"Tobias",
    "wof:parent_id":404526255,
    "wof:placetype":"locality",
    "wof:repo":"whosonfirst-data-admin-us",
    "wof:superseded_by":[],
    "wof:supersedes":[],
    "wof:tags":[]
},
  "bbox": [
    -83.0663,
    40.68839000000001,
    -83.0663,
    40.68839000000001
],
  "geometry": {"coordinates":[-83.0663,40.68839000000001],"type":"Point"}
}