{
  "id": 1125347799,
  "type": "Feature",
  "properties": {
    "edtf:cessation":"2017-05-19",
    "edtf:inception":"uuuu",
    "geom:area":0.0,
    "geom:area_square_m":0.0,
    "geom:bbox":"-99.9203,41.2914,-99.9203,41.2914",
    "geom:latitude":41.2914,
    "geom:longitude":-99.9203,
    "gn:gn_country":"US",
    "gn:gn_fcode":"ADMD",
    "gn:gn_pop":539,
    "gn:population":539,
    "iso:country":"US",
    "lbl:latitude":41.2914,
    "lbl:longitude":-99.9203,
    "mz:hierarchy_label":1,
    "mz:is_current":0,
    "mz:note":"Quattroshapes Point Gazetteer import 20170519",
    "qs_pg:aaroncc":"US",
    "qs_pg:gn_country":"US",
    "qs_pg:gn_fcode":"ADMD",
    "qs_pg:gn_id":7165297,
    "qs_pg:gn_pop":539,
    "qs_pg:name":"Village of Callaway",
    "qs_pg:photos_9r":0,
    "qs_pg:photos_sr":0,
    "qs_pg:pop_sr":2,
    "qs_pg:qs_id":660219,
    "qs_pg:qs_pg_placetype":"localadmin",
    "src:geom":"qs_pg",
    "src:lbl:centroid":"qs_pg",
    "src:population":"geonames",
    "wof:belongsto":[
        85633793
    ],
    "wof:breaches":[],
    "wof:concordances":{
        "gn:id":7165297,
        "qs_pg:id":660219
    },
    "wof:country":"US",
    "wof:created":1497046021,
    "wof:geomhash":"e52d7a7e48eeaa57dc66569ecce396f6",
    "wof:hierarchy":[
        {
            "country_id":85633793,
            "localadmin_id":1125347799
        }
    ],
    "wof:id":1125347799,
    "wof:lastmodified":1505187054,
    "wof:name":"Village of Callaway",
    "wof:parent_id":-1,
    "wof:placetype":"localadmin",
    "wof:population":539,
    "wof:population_rank":2,
    "wof:repo":"whosonfirst-data-admin-us",
    "wof:superseded_by":[],
    "wof:supersedes":[],
    "wof:tags":[]
},
  "bbox": [
    -99.9203,
    41.2914,
    -99.9203,
    41.2914
],
  "geometry": {"coordinates":[-99.9203,41.2914],"type":"Point"}
}