{
  "id": 1293026755,
  "type": "Feature",
  "properties": {
    "edtf:cessation":"uuuu",
    "edtf:inception":"uuuu",
    "geom:area":0.0,
    "geom:area_square_m":0.0,
    "geom:bbox":"-87.4547,31.0249,-87.4547,31.0249",
    "geom:latitude":31.0249,
    "geom:longitude":-87.4547,
    "gn:admin1_code":"AL",
    "gn:admin2_code":"53",
    "gn:asciiname":"Malta",
    "gn:country_code":"US",
    "gn:dem":92,
    "gn:elevation":"87.0",
    "gn:feature_class":"P",
    "gn:feature_code":"PPL",
    "gn:geonameid":4074450,
    "gn:latitude":31.0249,
    "gn:longitude":-87.4547,
    "gn:modification_date":"2010-02-14",
    "gn:name":"Malta",
    "gn:population":0,
    "gn:timezone":"America/Chicago",
    "iso:country":"US",
    "mz:hierarchy_label":1,
    "mz:is_current":-1,
    "src:geom":"geonames",
    "wof:belongsto":[
        102191575,
        85633793,
        85688675,
        102085735
    ],
    "wof:breaches":[],
    "wof:concordances":{
        "gn:id":4074450
    },
    "wof:country":"US",
    "wof:geomhash":"554bbd0ab7caf0ca3969877317734953",
    "wof:hierarchy":[
        {
            "continent_id":102191575,
            "country_id":85633793,
            "county_id":102085735,
            "locality_id":1293026755,
            "region_id":85688675
        }
    ],
    "wof:id":1293026755,
    "wof:lastmodified":1536954420,
    "wof:name":"Malta",
    "wof:parent_id":102085735,
    "wof:placetype":"locality",
    "wof:repo":"whosonfirst-data-admin-us",
    "wof:superseded_by":[],
    "wof:supersedes":[],
    "wof:tags":[]
},
  "bbox": [
    -87.4547,
    31.0249,
    -87.4547,
    31.0249
],
  "geometry": {"coordinates":[-87.4547,31.0249],"type":"Point"}
}