{
  "id": 1209532169,
  "type": "Feature",
  "properties": {
    "edtf:cessation":"uuuu",
    "edtf:inception":"uuuu",
    "geom:area":0.0,
    "geom:area_square_m":0.0,
    "geom:bbox":"-86.77857,30.88019,-86.77857,30.88019",
    "geom:latitude":30.88019,
    "geom:longitude":-86.77857,
    "gn:admin1_code":"FL",
    "gn:admin2_code":"91.0",
    "gn:asciiname":"Beaver Creek",
    "gn:country_code":"US",
    "gn:dem":83,
    "gn:elevation":"75.0",
    "gn:feature_class":"P",
    "gn:feature_code":"PPL",
    "gn:geonameid":4147112,
    "gn:latitude":30.88019,
    "gn:longitude":-86.77857,
    "gn:modification_date":"2006-01-15",
    "gn:name":"Beaver Creek",
    "gn:population":0,
    "gn:timezone":"America/Chicago",
    "iso:country":"US",
    "mz:hierarchy_label":1,
    "mz:is_current":-1,
    "src:geom":"geonames",
    "wof:belongsto":[
        85633793
    ],
    "wof:breaches":[],
    "wof:concordances":{
        "gn:id":4147112
    },
    "wof:country":"US",
    "wof:geomhash":"816799acea5efa8deb2b0542f80d99eb",
    "wof:hierarchy":[
        {
            "country_id":85633793,
            "locality_id":1209532169
        }
    ],
    "wof:id":1209532169,
    "wof:lastmodified":1536284252,
    "wof:name":"Beaver Creek",
    "wof:parent_id":85633793,
    "wof:placetype":"locality",
    "wof:repo":"whosonfirst-data-admin-us",
    "wof:superseded_by":[],
    "wof:supersedes":[],
    "wof:tags":[]
},
  "bbox": [
    -86.77857,
    30.88019,
    -86.77857,
    30.88019
],
  "geometry": {"coordinates":[-86.77857,30.88019],"type":"Point"}
}