{
  "id": 1125304629,
  "type": "Feature",
  "properties": {
    "edtf:cessation":"2017-05-19",
    "edtf:inception":"uuuu",
    "geom:area":0.0,
    "geom:area_square_m":0.0,
    "geom:bbox":"-92.78711,37.5525,-92.78711,37.5525",
    "geom:latitude":37.5525,
    "geom:longitude":-92.78711,
    "gn:gn_country":"US",
    "gn:gn_fcode":"ADMD",
    "gn:gn_pop":202,
    "gn:population":202,
    "iso:country":"US",
    "lbl:latitude":37.5525,
    "lbl:longitude":-92.78711,
    "mz:hierarchy_label":1,
    "mz:is_current":0,
    "mz:note":"Quattroshapes Point Gazetteer import 20170519",
    "qs_pg:aaroncc":"US",
    "qs_pg:gn_country":"US",
    "qs_pg:gn_fcode":"ADMD",
    "qs_pg:gn_id":7167297,
    "qs_pg:gn_pop":202,
    "qs_pg:name":"Village of Phillipsburg",
    "qs_pg:photos_9r":0,
    "qs_pg:photos_sr":0,
    "qs_pg:pop_sr":2,
    "qs_pg:qs_id":536819,
    "qs_pg:qs_pg_placetype":"localadmin",
    "src:geom":"qs_pg",
    "src:lbl:centroid":"qs_pg",
    "src:population":"geonames",
    "wof:belongsto":[
        85633793
    ],
    "wof:breaches":[],
    "wof:concordances":{
        "gn:id":7167297,
        "qs_pg:id":536819
    },
    "wof:country":"US",
    "wof:created":1497043623,
    "wof:geomhash":"4657638fac0c900a49437bec239e3a1d",
    "wof:hierarchy":[
        {
            "country_id":85633793,
            "localadmin_id":1125304629
        }
    ],
    "wof:id":1125304629,
    "wof:lastmodified":1505187076,
    "wof:name":"Village of Phillipsburg",
    "wof:parent_id":-1,
    "wof:placetype":"localadmin",
    "wof:population":202,
    "wof:population_rank":2,
    "wof:repo":"whosonfirst-data-admin-us",
    "wof:superseded_by":[],
    "wof:supersedes":[],
    "wof:tags":[]
},
  "bbox": [
    -92.78711,
    37.5525,
    -92.78711,
    37.5525
],
  "geometry": {"coordinates":[-92.78711,37.5525],"type":"Point"}
}