{
  "id": 85845831,
  "type": "Feature",
  "properties": {
    "edtf:cessation":"uuuu",
    "edtf:inception":"uuuu",
    "geom:area":0.0,
    "geom:area_square_m":8778563.053636,
    "geom:bbox":"-122.461207,48.758645,-122.461207,48.758645",
    "geom:latitude":48.758645,
    "geom:longitude":-122.461207,
    "gn:elevation":20,
    "iso:country":"US",
    "lbl:latitude":48.758645,
    "lbl:longitude":-122.461207,
    "mps:latitude":48.760532,
    "mps:longitude":-122.443031,
    "mz:hierarchy_label":0,
    "mz:is_current":-1,
    "mz:is_funky":0,
    "mz:is_hard_boundary":0,
    "mz:is_landuse_aoi":0,
    "mz:is_official":0,
    "mz:max_zoom":18.0,
    "mz:min_zoom":14.0,
    "mz:tier_locality":3,
    "name:eng_x_preferred":[
        "Roosevelt"
    ],
    "name:unk_x_variant":[
        "Roosevelt"
    ],
    "qs:gn_fcode":"PPL",
    "qs:gn_local":0,
    "qs:gn_namadm1":"WA",
    "qs:gn_name":"Roosevelt",
    "qs:local_max":3381,
    "qs:local_sum":19801,
    "qs:localhoods":27,
    "qs:name":"Roosevelt",
    "qs:name_adm0":"United States",
    "qs:name_adm1":"Washington",
    "qs:name_adm2":"Whatcom",
    "qs:name_local":"Bellingham",
    "qs:photo_max":74,
    "qs:photo_sum":939,
    "qs:placetype":"Suburb",
    "qs:quad_count":76,
    "qs:woe_adm0":23424977,
    "qs:woe_adm1":2347606,
    "qs:woe_adm2":12590476,
    "qs:woe_funk":"Grouping neighborhood",
    "qs:woe_lau":0,
    "qs:woe_local":2362060,
    "qs:woe_ver":"7.10.0",
    "src:geom":"mz",
    "src:geom_alt":[
        "quattroshapes",
        "quattroshapes_pg"
    ],
    "src:lbl:centroid":"yerbashapes",
    "src:population":"zetashapes",
    "wof:belongsto":[
        85688623,
        102191575,
        85633793,
        101730153,
        102085363
    ],
    "wof:breaches":[],
    "wof:concordances":{
        "gn:id":5808764,
        "gp:id":2484367,
        "qs:id":1081623,
        "qs_pg:id":1081623
    },
    "wof:country":"US",
    "wof:geomhash":"a51042b3660702170cb2aebdcbd3115b",
    "wof:hierarchy":[
        {
            "continent_id":102191575,
            "country_id":85633793,
            "county_id":102085363,
            "locality_id":101730153,
            "neighbourhood_id":85845831,
            "region_id":85688623
        }
    ],
    "wof:id":85845831,
    "wof:lang":[
        "eng"
    ],
    "wof:lastmodified":1532373576,
    "wof:name":"Roosevelt",
    "wof:parent_id":101730153,
    "wof:placetype":"neighbourhood",
    "wof:population":3671,
    "wof:population_rank":4,
    "wof:repo":"whosonfirst-data-admin-us",
    "wof:superseded_by":[],
    "wof:supersedes":[],
    "wof:tags":[],
    "zs:blockids":[
        530730007001028,
        530730007001021,
        530730007001024,
        530730007002031,
        530730007002030,
        530730007001029,
        530730008031020,
        530730007002024,
        530730008034006,
        530730007001025,
        530730007001034,
        530730007001022,
        530730007002002,
        530730008031010,
        530730008034007,
        530730007002037,
        530730007002004,
        530730007002029,
        530730007001017,
        530730007001031,
        530730007002005,
        530730007001030,
        530730007002003,
        530730007002027,
        530730008031011,
        530730007001026,
        530730007001019,
        530730007002026,
        530730008034008,
        530730007002001,
        530730007002022,
        530730007001008,
        530730007001035,
        530730007002000,
        530730007001020,
        530730007001023,
        530730007001018,
        530730007001005,
        530730008031008,
        530730007001013,
        530730007001010,
        530730007001014,
        530730007001012,
        530730007002028,
        530730008031019,
        530730007001009,
        530730007001016,
        530730007002023,
        530730007001007,
        530730007002025,
        530730008031009,
        530730009012017
    ],
    "zs:housing10":1618,
    "zs:pop10":3671
},
  "bbox": [
    -122.461207,
    48.758645,
    -122.461207,
    48.758645
],
  "geometry": {"coordinates":[-122.461207,48.758645],"type":"Point"}
}