{
  "id": 1293017299,
  "type": "Feature",
  "properties": {
    "edtf:cessation":"uuuu",
    "edtf:inception":"uuuu",
    "geom:area":0.0,
    "geom:area_square_m":0.0,
    "geom:bbox":"-83.21016,36.11398,-83.21016,36.11398",
    "geom:latitude":36.11398,
    "geom:longitude":-83.21016,
    "gn:admin1_code":"TN",
    "gn:admin2_code":"29.0",
    "gn:asciiname":"Point Pleasant",
    "gn:country_code":"US",
    "gn:dem":358,
    "gn:elevation":"355.0",
    "gn:feature_class":"P",
    "gn:feature_code":"PPL",
    "gn:geonameid":4650425,
    "gn:latitude":36.11398,
    "gn:longitude":-83.21016,
    "gn:modification_date":"2006-01-15",
    "gn:name":"Point Pleasant",
    "gn:population":0,
    "gn:timezone":"America/New_York",
    "iso:country":"US",
    "mz:hierarchy_label":1,
    "mz:is_current":-1,
    "src:geom":"geonames",
    "wof:belongsto":[
        102191575,
        85633793,
        85688701,
        102086241
    ],
    "wof:breaches":[],
    "wof:concordances":{
        "gn:id":4650425
    },
    "wof:country":"US",
    "wof:geomhash":"cd277818bc6aa4491f697c26ded1a9e4",
    "wof:hierarchy":[
        {
            "continent_id":102191575,
            "country_id":85633793,
            "county_id":102086241,
            "locality_id":1293017299,
            "region_id":85688701
        }
    ],
    "wof:id":1293017299,
    "wof:lastmodified":1536967619,
    "wof:name":"Point Pleasant",
    "wof:parent_id":102086241,
    "wof:placetype":"locality",
    "wof:repo":"whosonfirst-data-admin-us",
    "wof:superseded_by":[],
    "wof:supersedes":[],
    "wof:tags":[]
},
  "bbox": [
    -83.21016,
    36.11398,
    -83.21016,
    36.11398
],
  "geometry": {"coordinates":[-83.21016,36.11398],"type":"Point"}
}