{
  "id": 404509089,
  "type": "Feature",
  "properties": {
    "edtf:cessation":"uuuu",
    "edtf:inception":"uuuu",
    "geom:area":0.000361,
    "geom:area_square_m":3152026.905096,
    "geom:bbox":"-95.924768,45.101501,-95.902986,45.120165",
    "geom:latitude":45.111622,
    "geom:longitude":-95.914475,
    "iso:country":"US",
    "lbl:latitude":45.11263,
    "lbl:longitude":-95.913894,
    "mz:hierarchy_label":1,
    "mz:is_current":-1,
    "name:eng_x_preferred":[
        "Milan"
    ],
    "qs:a0":"United States",
    "qs:a1":"Minnesota",
    "qs:a1_lc":"27",
    "qs:a2":"Chippewa",
    "qs:a2_lc":"27023",
    "qs:adm0":"United States",
    "qs:adm0_a3":"USA",
    "qs:la":"Milan",
    "qs:la_lc":"2702342146",
    "qs:level":"localadmin",
    "qs:pop":369,
    "qs:source":"US Census",
    "qs:type":"city",
    "src:geom":"quattroshapes",
    "src:population":"quattroshapes",
    "wof:belongsto":[
        102191575,
        85633793,
        85688727,
        102087793
    ],
    "wof:breaches":[],
    "wof:concordances":{},
    "wof:country":"US",
    "wof:geomhash":"764ceedaf9dbbe27c298b9a9d94a5073",
    "wof:hierarchy":[
        {
            "continent_id":102191575,
            "country_id":85633793,
            "county_id":102087793,
            "localadmin_id":404509089,
            "region_id":85688727
        }
    ],
    "wof:id":404509089,
    "wof:lastmodified":1505339682,
    "wof:name":"Milan",
    "wof:parent_id":102087793,
    "wof:placetype":"localadmin",
    "wof:population":369,
    "wof:population_rank":2,
    "wof:repo":"whosonfirst-data-admin-us",
    "wof:superseded_by":[],
    "wof:supersedes":[],
    "wof:tags":[]
},
  "bbox": [
    -95.924768,
    45.101501,
    -95.902986,
    45.120165
],
  "geometry": {"coordinates":[[[-95.902986,45.102913],[-95.90518299999999,45.105241],[-95.913984,45.105174],[-95.91398700000001,45.1019],[-95.92471,45.101501],[-95.924768,45.120165],[-95.90329300000001,45.120007],[-95.902986,45.102913]]],"type":"Polygon"}
}