{
  "id": 1243565417,
  "type": "Feature",
  "properties": {
    "edtf:cessation":"2018-09-06",
    "edtf:inception":"uuuu",
    "geom:area":0.0,
    "geom:area_square_m":0.0,
    "geom:bbox":"-92.39806,38.82028,-92.39806,38.82028",
    "geom:latitude":38.82028,
    "geom:longitude":-92.39806,
    "gn:admin1_code":"MO",
    "gn:admin2_code":"19.0",
    "gn:admin3_code":"62592.0",
    "gn:asciiname":"Nashville (historical)",
    "gn:country_code":"US",
    "gn:dem":169,
    "gn:elevation":"170.0",
    "gn:feature_class":"P",
    "gn:feature_code":"PPLQ",
    "gn:geonameid":4400045,
    "gn:latitude":38.82028,
    "gn:longitude":-92.39806,
    "gn:modification_date":"2017-05-23",
    "gn:name":"Nashville (historical)",
    "gn:population":0,
    "gn:timezone":"America/Chicago",
    "iso:country":"US",
    "mz:hierarchy_label":1,
    "mz:is_current":0,
    "src:geom":"geonames",
    "wof:belongsto":[
        85688661,
        102191575,
        404516291,
        85633793,
        102086187
    ],
    "wof:breaches":[],
    "wof:concordances":{
        "gn:id":4400045
    },
    "wof:country":"US",
    "wof:geomhash":"640f43a2376424159d32b3e99ea611be",
    "wof:hierarchy":[
        {
            "continent_id":102191575,
            "country_id":85633793,
            "county_id":102086187,
            "localadmin_id":404516291,
            "locality_id":1243565417,
            "region_id":85688661
        }
    ],
    "wof:id":1243565417,
    "wof:lastmodified":1536632577,
    "wof:name":"Nashville (historical)",
    "wof:parent_id":404516291,
    "wof:placetype":"locality",
    "wof:repo":"whosonfirst-data-admin-us",
    "wof:superseded_by":[],
    "wof:supersedes":[],
    "wof:tags":[]
},
  "bbox": [
    -92.39806,
    38.82028,
    -92.39806,
    38.82028
],
  "geometry": {"coordinates":[-92.39806,38.82028],"type":"Point"}
}