{
  "id": 1293526217,
  "type": "Feature",
  "properties": {
    "edtf:cessation":"2018-09-06",
    "edtf:inception":"uuuu",
    "geom:area":0.0,
    "geom:area_square_m":0.0,
    "geom:bbox":"-117.13648,39.22743,-117.13648,39.22743",
    "geom:latitude":39.22743,
    "geom:longitude":-117.13648,
    "gn:admin1_code":"NV",
    "gn:admin2_code":"15.0",
    "gn:asciiname":"Adits Mill (historical)",
    "gn:country_code":"US",
    "gn:dem":2369,
    "gn:elevation":"2349.0",
    "gn:feature_class":"P",
    "gn:feature_code":"PPLQ",
    "gn:geonameid":5499074,
    "gn:latitude":39.22743,
    "gn:longitude":-117.13648,
    "gn:modification_date":"2011-12-11",
    "gn:name":"Adits Mill (historical)",
    "gn:population":0,
    "gn:timezone":"America/Los_Angeles",
    "iso:country":"US",
    "mz:hierarchy_label":1,
    "mz:is_current":0,
    "src:geom":"geonames",
    "wof:belongsto":[
        102191575,
        85633793,
        85688531,
        102081545
    ],
    "wof:breaches":[],
    "wof:concordances":{
        "gn:id":5499074
    },
    "wof:country":"US",
    "wof:geomhash":"62dedcdb1d942d75a278678fc9602d8d",
    "wof:hierarchy":[
        {
            "continent_id":102191575,
            "country_id":85633793,
            "county_id":102081545,
            "locality_id":1293526217,
            "region_id":85688531
        }
    ],
    "wof:id":1293526217,
    "wof:lastmodified":1536731437,
    "wof:name":"Adits Mill (historical)",
    "wof:parent_id":102081545,
    "wof:placetype":"locality",
    "wof:repo":"whosonfirst-data-admin-us",
    "wof:superseded_by":[],
    "wof:supersedes":[],
    "wof:tags":[]
},
  "bbox": [
    -117.13648,
    39.22743,
    -117.13648,
    39.22743
],
  "geometry": {"coordinates":[-117.13648000000001,39.22743],"type":"Point"}
}