{
  "id": 1125399665,
  "type": "Feature",
  "properties": {
    "edtf:cessation":"uuuu",
    "edtf:deprecated":"2017-11-04",
    "edtf:inception":"uuuu",
    "geom:area":0.0,
    "geom:area_square_m":0.0,
    "geom:bbox":"-91.75668,42.39536,-91.75668,42.39536",
    "geom:latitude":42.39536,
    "geom:longitude":-91.75668,
    "gn:gn_country":"US",
    "gn:gn_fcode":"ADMD",
    "gn:gn_pop":554,
    "gn:population":554,
    "iso:country":"US",
    "lbl:latitude":42.39536,
    "lbl:longitude":-91.75668,
    "mz:hierarchy_label":1,
    "mz:is_current":0,
    "mz:note":"Quattroshapes Point Gazetteer import 20170519",
    "qs_pg:aaroncc":"US",
    "qs_pg:gn_country":"US",
    "qs_pg:gn_fcode":"ADMD",
    "qs_pg:gn_id":7164399,
    "qs_pg:gn_pop":554,
    "qs_pg:name":"City of Quasqueton",
    "qs_pg:photos_9r":0,
    "qs_pg:photos_sr":0,
    "qs_pg:pop_sr":2,
    "qs_pg:qs_id":659371,
    "qs_pg:qs_pg_placetype":"localadmin",
    "src:geom":"qs_pg",
    "src:lbl:centroid":"qs_pg",
    "src:population":"geonames",
    "wof:belongsto":[
        85633793
    ],
    "wof:breaches":[],
    "wof:concordances":{
        "gn:id":7164399,
        "qs_pg:id":659371
    },
    "wof:country":"US",
    "wof:created":1497049237,
    "wof:geomhash":"e845865a51a2fba6b5cac6dd2eacfa48",
    "wof:hierarchy":[
        {
            "country_id":85633793,
            "localadmin_id":1125399665
        }
    ],
    "wof:id":1125399665,
    "wof:lastmodified":1509752702,
    "wof:name":"City of Quasqueton",
    "wof:parent_id":-1,
    "wof:placetype":"localadmin",
    "wof:population":554,
    "wof:population_rank":2,
    "wof:repo":"whosonfirst-data-admin-us",
    "wof:superseded_by":[
        85944589
    ],
    "wof:supersedes":[],
    "wof:tags":[]
},
  "bbox": [
    -91.75668,
    42.39536,
    -91.75668,
    42.39536
],
  "geometry": {"coordinates":[-91.75668,42.39536],"type":"Point"}
}