{
  "id": 1125320773,
  "type": "Feature",
  "properties": {
    "edtf:cessation":"2017-05-19",
    "edtf:inception":"uuuu",
    "geom:area":0.0,
    "geom:area_square_m":0.0,
    "geom:bbox":"-75.87885,39.34266,-75.87885,39.34266",
    "geom:latitude":39.34266,
    "geom:longitude":-75.87885,
    "gn:gn_country":"US",
    "gn:gn_fcode":"ADMD",
    "gn:gn_pop":612,
    "gn:population":612,
    "iso:country":"US",
    "lbl:latitude":39.34266,
    "lbl:longitude":-75.87885,
    "mz:hierarchy_label":1,
    "mz:is_current":0,
    "mz:note":"Quattroshapes Point Gazetteer import 20170519",
    "qs_pg:aaroncc":"US",
    "qs_pg:gn_country":"US",
    "qs_pg:gn_fcode":"ADMD",
    "qs_pg:gn_id":7316505,
    "qs_pg:gn_pop":612,
    "qs_pg:name":"Town of Galena",
    "qs_pg:photos_9r":0,
    "qs_pg:photos_sr":0,
    "qs_pg:pop_sr":2,
    "qs_pg:qs_id":682518,
    "qs_pg:qs_pg_placetype":"localadmin",
    "src:geom":"qs_pg",
    "src:lbl:centroid":"qs_pg",
    "src:population":"geonames",
    "wof:belongsto":[
        85633793
    ],
    "wof:breaches":[],
    "wof:concordances":{
        "gn:id":7316505,
        "qs_pg:id":682518
    },
    "wof:country":"US",
    "wof:created":1497044523,
    "wof:geomhash":"fc6e58097b203625ecc0a6464a3834b0",
    "wof:hierarchy":[
        {
            "country_id":85633793,
            "localadmin_id":1125320773
        }
    ],
    "wof:id":1125320773,
    "wof:lastmodified":1505187161,
    "wof:name":"Town of Galena",
    "wof:parent_id":-1,
    "wof:placetype":"localadmin",
    "wof:population":612,
    "wof:population_rank":2,
    "wof:repo":"whosonfirst-data-admin-us",
    "wof:superseded_by":[],
    "wof:supersedes":[],
    "wof:tags":[]
},
  "bbox": [
    -75.87885,
    39.34266,
    -75.87885,
    39.34266
],
  "geometry": {"coordinates":[-75.87885,39.34266],"type":"Point"}
}