{
  "id": 1209122527,
  "type": "Feature",
  "properties": {
    "edtf:cessation":"uuuu",
    "edtf:inception":"uuuu",
    "geom:area":0.0,
    "geom:area_square_m":0.0,
    "geom:bbox":"-82.513,27.933,-82.513,27.933",
    "geom:latitude":27.933,
    "geom:longitude":-82.513,
    "gn:admin1_code":"FL",
    "gn:admin2_code":"57",
    "gn:asciiname":"Morrison Court",
    "gn:country_code":"US",
    "gn:dem":11,
    "gn:elevation":"5.0",
    "gn:feature_class":"P",
    "gn:feature_code":"PPL",
    "gn:geonameid":7218809,
    "gn:latitude":27.933,
    "gn:longitude":-82.513,
    "gn:modification_date":"2010-02-06",
    "gn:name":"Morrison Court",
    "gn:population":0,
    "gn:timezone":"America/New_York",
    "iso:country":"US",
    "mz:hierarchy_label":1,
    "mz:is_current":-1,
    "src:geom":"geonames",
    "wof:belongsto":[
        85633793
    ],
    "wof:breaches":[],
    "wof:concordances":{
        "gn:id":7218809
    },
    "wof:country":"US",
    "wof:geomhash":"8bc7bee8f0136319b2844cf67a5453bb",
    "wof:hierarchy":[
        {
            "country_id":85633793,
            "locality_id":1209122527
        }
    ],
    "wof:id":1209122527,
    "wof:lastmodified":1536297058,
    "wof:name":"Morrison Court",
    "wof:parent_id":85633793,
    "wof:placetype":"locality",
    "wof:repo":"whosonfirst-data-admin-us",
    "wof:superseded_by":[],
    "wof:supersedes":[],
    "wof:tags":[]
},
  "bbox": [
    -82.51299999999998,
    27.933000000000003,
    -82.51299999999998,
    27.933000000000003
],
  "geometry": {"coordinates":[-82.51299999999998,27.933],"type":"Point"}
}