{
  "id": 1125357285,
  "type": "Feature",
  "properties": {
    "edtf:cessation":"2017-05-19",
    "edtf:inception":"uuuu",
    "geom:area":0.0,
    "geom:area_square_m":0.0,
    "geom:bbox":"-75.11933,42.53647,-75.11933,42.53647",
    "geom:latitude":42.53647,
    "geom:longitude":-75.11933,
    "gn:gn_country":"US",
    "gn:gn_fcode":"ADMD",
    "gn:gn_pop":0,
    "gn:population":2346,
    "iso:country":"US",
    "lbl:latitude":42.53647,
    "lbl:longitude":-75.11933,
    "mz:hierarchy_label":1,
    "mz:is_current":0,
    "mz:note":"Quattroshapes Point Gazetteer import 20170519",
    "qs_pg:aaroncc":"US",
    "qs_pg:gn_country":"US",
    "qs_pg:gn_fcode":"ADMD",
    "qs_pg:gn_id":5124080,
    "qs_pg:gn_pop":0,
    "qs_pg:name":"Town of Laurens",
    "qs_pg:photos_9r":0,
    "qs_pg:photos_sr":0,
    "qs_pg:pop_sr":0,
    "qs_pg:qs_id":903808,
    "qs_pg:qs_pg_placetype":"localadmin",
    "src:geom":"qs_pg",
    "src:lbl:centroid":"qs_pg",
    "src:population":"geonames",
    "wof:belongsto":[
        85633793
    ],
    "wof:breaches":[],
    "wof:concordances":{
        "gn:id":5124080,
        "qs_pg:id":903808
    },
    "wof:country":"US",
    "wof:created":1497046552,
    "wof:geomhash":"7eefae37281e1533a2f1d76fcb550238",
    "wof:hierarchy":[
        {
            "country_id":85633793,
            "localadmin_id":1125357285
        }
    ],
    "wof:id":1125357285,
    "wof:lastmodified":1505186960,
    "wof:name":"Town of Laurens",
    "wof:parent_id":-1,
    "wof:placetype":"localadmin",
    "wof:population":2346,
    "wof:population_rank":4,
    "wof:repo":"whosonfirst-data-admin-us",
    "wof:superseded_by":[],
    "wof:supersedes":[],
    "wof:tags":[]
},
  "bbox": [
    -75.11933,
    42.53647,
    -75.11933,
    42.53647
],
  "geometry": {"coordinates":[-75.11933000000001,42.53647],"type":"Point"}
}