{
  "id": 1125355361,
  "type": "Feature",
  "properties": {
    "edtf:cessation":"uuuu",
    "edtf:deprecated":"2017-11-04",
    "edtf:inception":"uuuu",
    "geom:area":0.0,
    "geom:area_square_m":0.0,
    "geom:bbox":"-90.40667,32.8619,-90.40667,32.8619",
    "geom:latitude":32.8619,
    "geom:longitude":-90.40667,
    "gn:gn_country":"US",
    "gn:gn_fcode":"ADMD",
    "gn:gn_pop":11403,
    "gn:population":11403,
    "iso:country":"US",
    "lbl:latitude":32.8619,
    "lbl:longitude":-90.40667,
    "mz:hierarchy_label":1,
    "mz:is_current":0,
    "mz:note":"Quattroshapes Point Gazetteer import 20170519",
    "qs_pg:aaroncc":"US",
    "qs_pg:gn_country":"US",
    "qs_pg:gn_fcode":"ADMD",
    "qs_pg:gn_id":7318214,
    "qs_pg:gn_pop":11403,
    "qs_pg:name":"City of Yazoo City",
    "qs_pg:photos_9r":0,
    "qs_pg:photos_sr":0,
    "qs_pg:pop_sr":6,
    "qs_pg:qs_id":684243,
    "qs_pg:qs_pg_placetype":"localadmin",
    "src:geom":"qs_pg",
    "src:lbl:centroid":"qs_pg",
    "src:population":"geonames",
    "wof:belongsto":[
        85633793
    ],
    "wof:breaches":[],
    "wof:concordances":{
        "gn:id":7318214,
        "qs_pg:id":684243
    },
    "wof:country":"US",
    "wof:created":1497046435,
    "wof:geomhash":"a0243570cd856d8f5639d7fef574316e",
    "wof:hierarchy":[
        {
            "country_id":85633793,
            "localadmin_id":1125355361
        }
    ],
    "wof:id":1125355361,
    "wof:lastmodified":1509752653,
    "wof:name":"City of Yazoo City",
    "wof:parent_id":-1,
    "wof:placetype":"localadmin",
    "wof:population":11403,
    "wof:population_rank":6,
    "wof:repo":"whosonfirst-data-admin-us",
    "wof:superseded_by":[
        85970027
    ],
    "wof:supersedes":[],
    "wof:tags":[]
},
  "bbox": [
    -90.40667,
    32.8619,
    -90.40667,
    32.8619
],
  "geometry": {"coordinates":[-90.40667000000001,32.8619],"type":"Point"}
}