{
  "id": 1276568013,
  "type": "Feature",
  "properties": {
    "edtf:cessation":"uuuu",
    "edtf:inception":"uuuu",
    "geom:area":0.0,
    "geom:area_square_m":0.0,
    "geom:bbox":"-76.18522,38.4979,-76.18522,38.4979",
    "geom:latitude":38.4979,
    "geom:longitude":-76.18522,
    "gn:admin1_code":"MD",
    "gn:admin2_code":"19.0",
    "gn:asciiname":"Milton",
    "gn:country_code":"US",
    "gn:dem":3,
    "gn:elevation":"1.0",
    "gn:feature_class":"P",
    "gn:feature_code":"PPL",
    "gn:geonameid":4362576,
    "gn:latitude":38.4979,
    "gn:longitude":-76.18522,
    "gn:modification_date":"2006-01-15",
    "gn:name":"Milton",
    "gn:population":0,
    "gn:timezone":"America/New_York",
    "iso:country":"US",
    "mz:hierarchy_label":1,
    "mz:is_current":-1,
    "name:eng_x_preferred":[
        "Milton"
    ],
    "name:und_x_variant":[
        "Loomtown",
        "Loom Town",
        "Woolford"
    ],
    "src:geom":"geonames",
    "wof:belongsto":[
        102191575,
        85633793,
        85688501,
        102082723
    ],
    "wof:breaches":[],
    "wof:concordances":{
        "gn:id":4362576
    },
    "wof:country":"US",
    "wof:geomhash":"2c7fa5fb64cf66981e63ca547b78824c",
    "wof:hierarchy":[
        {
            "continent_id":102191575,
            "country_id":85633793,
            "county_id":102082723,
            "locality_id":1276568013,
            "region_id":85688501
        }
    ],
    "wof:id":1276568013,
    "wof:lastmodified":1537712437,
    "wof:name":"Milton",
    "wof:parent_id":102082723,
    "wof:placetype":"locality",
    "wof:repo":"whosonfirst-data-admin-us",
    "wof:superseded_by":[],
    "wof:supersedes":[],
    "wof:tags":[]
},
  "bbox": [
    -76.18522,
    38.4979,
    -76.18522,
    38.4979
],
  "geometry": {"coordinates":[-76.18522,38.4979],"type":"Point"}
}