{
  "id": 404523335,
  "type": "Feature",
  "properties": {
    "edtf:cessation":"uuuu",
    "edtf:inception":"uuuu",
    "geom:area":0.017179,
    "geom:area_square_m":155175522.747824,
    "geom:bbox":"-76.963926,43.013157,-76.796772,43.128839",
    "geom:latitude":43.070464,
    "geom:longitude":-76.884764,
    "iso:country":"US",
    "lbl:latitude":43.071736,
    "lbl:longitude":-76.884764,
    "mz:hierarchy_label":1,
    "mz:is_current":-1,
    "name:eng_x_preferred":[
        "Galen"
    ],
    "qs:a0":"United States",
    "qs:a1":"New York",
    "qs:a1_lc":"36",
    "qs:a2":"Wayne",
    "qs:a2_lc":"36117",
    "qs:adm0":"United States",
    "qs:adm0_a3":"USA",
    "qs:la":"Galen",
    "qs:la_lc":"3611728013",
    "qs:level":"localadmin",
    "qs:pop":4290,
    "qs:source":"US Census",
    "qs:type":"town",
    "src:geom":"quattroshapes",
    "src:population":"quattroshapes",
    "wof:belongsto":[
        102191575,
        85633793,
        85688543,
        102082409
    ],
    "wof:breaches":[],
    "wof:concordances":{},
    "wof:country":"US",
    "wof:geomhash":"ff76bd01f2133197f008b334f1528169",
    "wof:hierarchy":[
        {
            "continent_id":102191575,
            "country_id":85633793,
            "county_id":102082409,
            "localadmin_id":404523335,
            "region_id":85688543
        }
    ],
    "wof:id":404523335,
    "wof:lastmodified":1505339780,
    "wof:name":"Galen",
    "wof:parent_id":102082409,
    "wof:placetype":"localadmin",
    "wof:population":4290,
    "wof:population_rank":4,
    "wof:repo":"whosonfirst-data-admin-us",
    "wof:superseded_by":[],
    "wof:supersedes":[],
    "wof:tags":[]
},
  "bbox": [
    -76.963926,
    43.013157,
    -76.796772,
    43.128839
],
  "geometry": {"coordinates":[[[-76.963613,43.060522],[-76.963562,43.073727],[-76.963549,43.089485],[-76.963292,43.111503],[-76.963413,43.122669],[-76.948798,43.123358],[-76.93795,43.123871],[-76.924773,43.124469],[-76.918576,43.124752],[-76.884745,43.126153],[-76.87042,43.126735],[-76.859504,43.127145],[-76.83087999999999,43.128174],[-76.825096,43.128398],[-76.812523,43.128839],[-76.812091,43.124996],[-76.808153,43.057849],[-76.798413,43.058131],[-76.796772,43.021043],[-76.833769,43.019446],[-76.858773,43.018434],[-76.859517,43.018403],[-76.85951799999999,43.018402],[-76.878562,43.017629],[-76.89490000000001,43.016814],[-76.926053,43.01517],[-76.929767,43.014959],[-76.963926,43.013157],[-76.963613,43.060522]]],"type":"Polygon"}
}