{
  "id": 1276139447,
  "type": "Feature",
  "properties": {
    "edtf:cessation":"2018-09-07",
    "edtf:inception":"uuuu",
    "geom:area":0.0,
    "geom:area_square_m":0.0,
    "geom:bbox":"-84.34651,38.7917,-84.34651,38.7917",
    "geom:latitude":38.7917,
    "geom:longitude":-84.34651,
    "gn:admin1_code":"KY",
    "gn:admin2_code":"191",
    "gn:asciiname":"Flower Town (historical)",
    "gn:country_code":"US",
    "gn:dem":162,
    "gn:elevation":"159.0",
    "gn:feature_class":"P",
    "gn:feature_code":"PPLQ",
    "gn:geonameid":7249373,
    "gn:latitude":38.7917,
    "gn:longitude":-84.34651,
    "gn:modification_date":"2011-12-12",
    "gn:name":"Flower Town (historical)",
    "gn:population":0,
    "gn:timezone":"America/New_York",
    "iso:country":"US",
    "mz:hierarchy_label":1,
    "mz:is_current":0,
    "src:geom":"geonames",
    "wof:belongsto":[
        102191575,
        85633793,
        85688641,
        102084519
    ],
    "wof:breaches":[],
    "wof:concordances":{
        "gn:id":7249373
    },
    "wof:country":"US",
    "wof:geomhash":"abf1fccc5271a15b1c2802e0c3368ff2",
    "wof:hierarchy":[
        {
            "continent_id":102191575,
            "country_id":85633793,
            "county_id":102084519,
            "locality_id":1276139447,
            "region_id":85688641
        }
    ],
    "wof:id":1276139447,
    "wof:lastmodified":1537036926,
    "wof:name":"Flower Town (historical)",
    "wof:parent_id":102084519,
    "wof:placetype":"locality",
    "wof:repo":"whosonfirst-data-admin-us",
    "wof:superseded_by":[],
    "wof:supersedes":[],
    "wof:tags":[]
},
  "bbox": [
    -84.34651,
    38.7917,
    -84.34651,
    38.7917
],
  "geometry": {"coordinates":[-84.34650999999999,38.7917],"type":"Point"}
}