{
  "id": 1125287545,
  "type": "Feature",
  "properties": {
    "edtf:cessation":"2017-05-19",
    "edtf:inception":"uuuu",
    "geom:area":0.0,
    "geom:area_square_m":0.0,
    "geom:bbox":"-111.64327,33.23882,-111.64327,33.23882",
    "geom:latitude":33.23882,
    "geom:longitude":-111.64327,
    "gn:gn_country":"US",
    "gn:gn_fcode":"ADMD",
    "gn:gn_pop":26361,
    "gn:population":26361,
    "iso:country":"US",
    "lbl:latitude":33.23882,
    "lbl:longitude":-111.64327,
    "mz:hierarchy_label":1,
    "mz:is_current":0,
    "mz:note":"Quattroshapes Point Gazetteer import 20170519",
    "qs_pg:aaroncc":"US",
    "qs_pg:gn_country":"US",
    "qs_pg:gn_fcode":"ADMD",
    "qs_pg:gn_id":7174938,
    "qs_pg:gn_pop":26361,
    "qs_pg:name":"Town of Queen Creek",
    "qs_pg:photos_9r":0,
    "qs_pg:photos_sr":0,
    "qs_pg:pop_sr":7,
    "qs_pg:qs_id":667494,
    "qs_pg:qs_pg_placetype":"localadmin",
    "src:geom":"qs_pg",
    "src:lbl:centroid":"qs_pg",
    "src:population":"geonames",
    "wof:belongsto":[
        85633793
    ],
    "wof:breaches":[],
    "wof:concordances":{
        "gn:id":7174938,
        "qs_pg:id":667494
    },
    "wof:country":"US",
    "wof:created":1497042775,
    "wof:geomhash":"0adee8cef4e4b79545c6d33e3f647ba5",
    "wof:hierarchy":[
        {
            "country_id":85633793,
            "localadmin_id":1125287545
        }
    ],
    "wof:id":1125287545,
    "wof:lastmodified":1505187146,
    "wof:name":"Town of Queen Creek",
    "wof:parent_id":-1,
    "wof:placetype":"localadmin",
    "wof:population":26361,
    "wof:population_rank":7,
    "wof:repo":"whosonfirst-data-admin-us",
    "wof:superseded_by":[],
    "wof:supersedes":[],
    "wof:tags":[]
},
  "bbox": [
    -111.64327,
    33.23882,
    -111.64327,
    33.23882
],
  "geometry": {"coordinates":[-111.64327,33.23882],"type":"Point"}
}