{
  "id": 1108980015,
  "type": "Feature",
  "properties": {
    "edtf:cessation":"uuuu",
    "edtf:inception":"uuuu",
    "geom:area":0.0,
    "geom:area_square_m":0.0,
    "geom:bbox":"-112.028,41.12633,-112.028,41.12633",
    "geom:latitude":41.12633,
    "geom:longitude":-112.028,
    "gn:gn_country":"US",
    "gn:gn_fcode":"PPLX",
    "gn:gn_pop":0,
    "iso:country":"US",
    "lbl:latitude":41.12633,
    "lbl:longitude":-112.028,
    "mz:hierarchy_label":1,
    "mz:is_current":-1,
    "mz:note":"Quattroshapes Point Gazetteer import 20170519",
    "qs_pg:aaroncc":"US",
    "qs_pg:gn_country":"US",
    "qs_pg:gn_fcode":"PPLX",
    "qs_pg:gn_id":5778012,
    "qs_pg:gn_pop":0,
    "qs_pg:name":"Maybrook",
    "qs_pg:name_adm0":"United States",
    "qs_pg:name_adm1":"Utah",
    "qs_pg:photos_9r":0,
    "qs_pg:photos_sr":0,
    "qs_pg:pop_sr":0,
    "qs_pg:qs_id":1061173,
    "qs_pg:qs_pg_placetype":"locality_gp_neighbourhood_gn",
    "qs_pg:qs_pg_placetype_gp":"Town",
    "qs_pg:woe_adm0":23424977,
    "qs_pg:woe_id":2447152,
    "src:geom":"qs_pg",
    "src:lbl:centroid":"qs_pg",
    "woe:adm0_id":23424977,
    "woe:name_adm0":"United States",
    "woe:name_adm1":"Utah",
    "woe:placetype":"Town",
    "wof:belongsto":[
        102191575,
        85633793,
        85688567,
        102083563
    ],
    "wof:breaches":[],
    "wof:concordances":{
        "gn:id":5778012,
        "qs_pg:id":1061173,
        "woe:id":2447152
    },
    "wof:country":"US",
    "wof:created":1496793256,
    "wof:geomhash":"22d621cfe9f9e2955e39beb876554621",
    "wof:hierarchy":[
        {
            "continent_id":102191575,
            "country_id":85633793,
            "county_id":102083563,
            "locality_id":1108980015,
            "region_id":85688567
        }
    ],
    "wof:id":1108980015,
    "wof:lastmodified":1509410083,
    "wof:name":"Maybrook",
    "wof:parent_id":102083563,
    "wof:placetype":"locality",
    "wof:repo":"whosonfirst-data-admin-us",
    "wof:superseded_by":[],
    "wof:supersedes":[],
    "wof:tags":[]
},
  "bbox": [
    -112.028,
    41.12633,
    -112.028,
    41.12633
],
  "geometry": {"coordinates":[-112.02800000000001,41.12633],"type":"Point"}
}