{
  "id": 1260096089,
  "type": "Feature",
  "properties": {
    "edtf:cessation":"uuuu",
    "edtf:inception":"uuuu",
    "geom:area":0.0,
    "geom:area_square_m":0.0,
    "geom:bbox":"-110.97845,33.71477,-110.97845,33.71477",
    "geom:latitude":33.71477,
    "geom:longitude":-110.97845,
    "gn:admin1_code":"AZ",
    "gn:admin2_code":"7.0",
    "gn:asciiname":"Willow",
    "gn:country_code":"US",
    "gn:dem":902,
    "gn:elevation":"904.0",
    "gn:feature_class":"P",
    "gn:feature_code":"PPL",
    "gn:geonameid":5321153,
    "gn:latitude":33.71477,
    "gn:longitude":-110.97845,
    "gn:modification_date":"2006-01-15",
    "gn:name":"Willow",
    "gn:population":0,
    "gn:timezone":"America/Phoenix",
    "iso:country":"US",
    "mz:hierarchy_label":1,
    "mz:is_current":-1,
    "src:geom":"geonames",
    "wof:belongsto":[
        102191575,
        85633793,
        85688719,
        102081525
    ],
    "wof:breaches":[],
    "wof:concordances":{
        "gn:id":5321153
    },
    "wof:country":"US",
    "wof:geomhash":"d1bfce0dae79b500641d54519fd86224",
    "wof:hierarchy":[
        {
            "continent_id":102191575,
            "country_id":85633793,
            "county_id":102081525,
            "locality_id":1260096089,
            "region_id":85688719
        }
    ],
    "wof:id":1260096089,
    "wof:lastmodified":1536969577,
    "wof:name":"Willow",
    "wof:parent_id":102081525,
    "wof:placetype":"locality",
    "wof:repo":"whosonfirst-data-admin-us",
    "wof:superseded_by":[],
    "wof:supersedes":[],
    "wof:tags":[]
},
  "bbox": [
    -110.97845,
    33.71477,
    -110.97845,
    33.71477
],
  "geometry": {"coordinates":[-110.97845,33.71477],"type":"Point"}
}