{
  "id": 1125310121,
  "type": "Feature",
  "properties": {
    "edtf:cessation":"2017-05-19",
    "edtf:inception":"uuuu",
    "geom:area":0.0,
    "geom:area_square_m":0.0,
    "geom:bbox":"-87.12761,45.18693,-87.12761,45.18693",
    "geom:latitude":45.18693,
    "geom:longitude":-87.12761,
    "gn:gn_country":"US",
    "gn:gn_fcode":"ADMD",
    "gn:gn_pop":876,
    "gn:population":876,
    "iso:country":"US",
    "lbl:latitude":45.18693,
    "lbl:longitude":-87.12761,
    "mz:hierarchy_label":1,
    "mz:is_current":0,
    "mz:note":"Quattroshapes Point Gazetteer import 20170519",
    "qs_pg:aaroncc":"US",
    "qs_pg:gn_country":"US",
    "qs_pg:gn_fcode":"ADMD",
    "qs_pg:gn_id":5273329,
    "qs_pg:gn_pop":876,
    "qs_pg:name":"Village of Sister Bay",
    "qs_pg:photos_9r":0,
    "qs_pg:photos_sr":0,
    "qs_pg:pop_sr":2,
    "qs_pg:qs_id":609890,
    "qs_pg:qs_pg_placetype":"localadmin",
    "src:geom":"qs_pg",
    "src:lbl:centroid":"qs_pg",
    "src:population":"geonames",
    "wof:belongsto":[
        85633793
    ],
    "wof:breaches":[],
    "wof:concordances":{
        "gn:id":5273329,
        "qs_pg:id":609890
    },
    "wof:country":"US",
    "wof:created":1497043930,
    "wof:geomhash":"161e91ac39151f3533c92fbf52ca4e97",
    "wof:hierarchy":[
        {
            "country_id":85633793,
            "localadmin_id":1125310121
        }
    ],
    "wof:id":1125310121,
    "wof:lastmodified":1505186993,
    "wof:name":"Village of Sister Bay",
    "wof:parent_id":-1,
    "wof:placetype":"localadmin",
    "wof:population":876,
    "wof:population_rank":2,
    "wof:repo":"whosonfirst-data-admin-us",
    "wof:superseded_by":[],
    "wof:supersedes":[],
    "wof:tags":[]
},
  "bbox": [
    -87.12761,
    45.18693,
    -87.12761,
    45.18693
],
  "geometry": {"coordinates":[-87.12761,45.18693],"type":"Point"}
}