{
  "id": 404512673,
  "type": "Feature",
  "properties": {
    "edtf:cessation":"uuuu",
    "edtf:inception":"uuuu",
    "geom:area":0.000295,
    "geom:area_square_m":2598286.703379,
    "geom:bbox":"-96.07321,44.586991,-96.052741,44.60158",
    "geom:latitude":44.594251,
    "geom:longitude":-96.062951,
    "iso:country":"US",
    "lbl:latitude":44.594248,
    "lbl:longitude":-96.062951,
    "mz:hierarchy_label":1,
    "mz:is_current":-1,
    "name:eng_x_preferred":[
        "Taunton"
    ],
    "qs:a0":"United States",
    "qs:a1":"Minnesota",
    "qs:a1_lc":"27",
    "qs:a2":"Lyon",
    "qs:a2_lc":"27083",
    "qs:adm0":"United States",
    "qs:adm0_a3":"USA",
    "qs:la":"Taunton",
    "qs:la_lc":"2708364264",
    "qs:level":"localadmin",
    "qs:pop":139,
    "qs:source":"US Census",
    "qs:type":"city",
    "src:geom":"quattroshapes",
    "src:population":"quattroshapes",
    "wof:belongsto":[
        102191575,
        85633793,
        85688727,
        102087885
    ],
    "wof:breaches":[],
    "wof:concordances":{},
    "wof:country":"US",
    "wof:geomhash":"56c3c638a8333b5934270b1b233ee9cd",
    "wof:hierarchy":[
        {
            "continent_id":102191575,
            "country_id":85633793,
            "county_id":102087885,
            "localadmin_id":404512673,
            "region_id":85688727
        }
    ],
    "wof:id":404512673,
    "wof:lastmodified":1505339705,
    "wof:name":"Taunton",
    "wof:parent_id":102087885,
    "wof:placetype":"localadmin",
    "wof:population":139,
    "wof:population_rank":1,
    "wof:repo":"whosonfirst-data-admin-us",
    "wof:superseded_by":[],
    "wof:supersedes":[],
    "wof:tags":[]
},
  "bbox": [
    -96.07321,
    44.586991,
    -96.052741,
    44.60158
],
  "geometry": {"coordinates":[[[-96.06310999999999,44.60149],[-96.05284,44.60158],[-96.052741,44.586991],[-96.0731,44.58702],[-96.07321,44.60142],[-96.06310999999999,44.60149]]],"type":"Polygon"}
}