{
  "id": 1125419837,
  "type": "Feature",
  "properties": {
    "edtf:cessation":"2017-05-19",
    "edtf:inception":"uuuu",
    "geom:area":0.0,
    "geom:area_square_m":0.0,
    "geom:bbox":"-78.47573,43.21174,-78.47573,43.21174",
    "geom:latitude":43.21174,
    "geom:longitude":-78.47573,
    "gn:gn_country":"US",
    "gn:gn_fcode":"ADMD",
    "gn:gn_pop":1840,
    "gn:population":1840,
    "iso:country":"US",
    "lbl:latitude":43.21174,
    "lbl:longitude":-78.47573,
    "mz:hierarchy_label":1,
    "mz:is_current":0,
    "mz:note":"Quattroshapes Point Gazetteer import 20170519",
    "qs_pg:aaroncc":"US",
    "qs_pg:gn_country":"US",
    "qs_pg:gn_fcode":"ADMD",
    "qs_pg:gn_id":7161743,
    "qs_pg:gn_pop":1840,
    "qs_pg:name":"Village of Middleport",
    "qs_pg:photos_9r":0,
    "qs_pg:photos_sr":0,
    "qs_pg:pop_sr":3,
    "qs_pg:qs_id":657295,
    "qs_pg:qs_pg_placetype":"localadmin",
    "src:geom":"qs_pg",
    "src:lbl:centroid":"qs_pg",
    "src:population":"geonames",
    "wof:belongsto":[
        85633793
    ],
    "wof:breaches":[],
    "wof:concordances":{
        "gn:id":7161743,
        "qs_pg:id":657295
    },
    "wof:country":"US",
    "wof:created":1497052020,
    "wof:geomhash":"62fb9c5f3f61ed420456b11e1fe94211",
    "wof:hierarchy":[
        {
            "country_id":85633793,
            "localadmin_id":1125419837
        }
    ],
    "wof:id":1125419837,
    "wof:lastmodified":1505187019,
    "wof:name":"Village of Middleport",
    "wof:parent_id":-1,
    "wof:placetype":"localadmin",
    "wof:population":1840,
    "wof:population_rank":3,
    "wof:repo":"whosonfirst-data-admin-us",
    "wof:superseded_by":[],
    "wof:supersedes":[],
    "wof:tags":[]
},
  "bbox": [
    -78.47573,
    43.21174,
    -78.47573,
    43.21174
],
  "geometry": {"coordinates":[-78.47573,43.21174],"type":"Point"}
}