{
  "id": 1327251097,
  "type": "Feature",
  "properties": {
    "edtf:cessation":"2018-09-06",
    "edtf:inception":"uuuu",
    "geom:area":0.0,
    "geom:area_square_m":0.0,
    "geom:bbox":"-117.94522,44.69932,-117.94522,44.69932",
    "geom:latitude":44.69932,
    "geom:longitude":-117.94522,
    "gn:admin1_code":"OR",
    "gn:admin2_code":"1",
    "gn:asciiname":"Auburn (historical)",
    "gn:country_code":"US",
    "gn:dem":1285,
    "gn:elevation":"1284.0",
    "gn:feature_class":"P",
    "gn:feature_code":"PPLQ",
    "gn:geonameid":5711879,
    "gn:latitude":44.69932,
    "gn:longitude":-117.94522,
    "gn:modification_date":"2011-12-11",
    "gn:name":"Auburn (historical)",
    "gn:population":0,
    "gn:timezone":"America/Los_Angeles",
    "iso:country":"US",
    "mz:hierarchy_label":1,
    "mz:is_current":0,
    "src:geom":"geonames",
    "wof:belongsto":[
        102191575,
        85633793,
        85688513,
        102082253
    ],
    "wof:breaches":[],
    "wof:concordances":{
        "gn:id":5711879
    },
    "wof:country":"US",
    "wof:geomhash":"769adcfd3158de171f5c22f71a8827e2",
    "wof:hierarchy":[
        {
            "continent_id":102191575,
            "country_id":85633793,
            "county_id":102082253,
            "locality_id":1327251097,
            "region_id":85688513
        }
    ],
    "wof:id":1327251097,
    "wof:lastmodified":1536943125,
    "wof:name":"Auburn (historical)",
    "wof:parent_id":102082253,
    "wof:placetype":"locality",
    "wof:repo":"whosonfirst-data-admin-us",
    "wof:superseded_by":[],
    "wof:supersedes":[],
    "wof:tags":[]
},
  "bbox": [
    -117.94522,
    44.69932,
    -117.94522,
    44.69932
],
  "geometry": {"coordinates":[-117.94522000000001,44.69932],"type":"Point"}
}