{
  "id": 85835645,
  "type": "Feature",
  "properties": {
    "edtf:cessation":"uuuu",
    "edtf:inception":"uuuu",
    "geom:area":0.0,
    "geom:area_square_m":13202561.30594,
    "geom:bbox":"-82.845537,41.279582,-82.845537,41.279582",
    "geom:latitude":41.279582,
    "geom:longitude":-82.845537,
    "iso:country":"US",
    "lbl:latitude":41.279582,
    "lbl:longitude":-82.845537,
    "mps:latitude":41.276318,
    "mps:longitude":-82.845658,
    "mz:hierarchy_label":0,
    "mz:is_current":-1,
    "mz:is_funky":0,
    "mz:is_hard_boundary":0,
    "mz:is_landuse_aoi":0,
    "mz:is_official":0,
    "mz:max_zoom":18.0,
    "mz:min_zoom":15.0,
    "mz:tier_locality":1,
    "name:eng_x_preferred":[
        "Mount Pleasant"
    ],
    "name:eng_x_variant":[
        "Mt Pleasant"
    ],
    "name:unk_x_variant":[
        "Mount Pleasant"
    ],
    "qs:gn_adm0_cc":"US",
    "qs:gn_fcode":"PPL",
    "qs:gn_local":5146978,
    "qs:gn_nam_loc":"bellevue",
    "qs:gn_namadm1":"OH",
    "qs:gn_name":"Mount Pleasant",
    "qs:local_max":68,
    "qs:local_sum":68,
    "qs:localhoods":1,
    "qs:name":"Mount Pleasant",
    "qs:name_adm0":"United States",
    "qs:name_adm1":"Ohio",
    "qs:name_adm2":"Sandusky",
    "qs:name_local":"Bellevue",
    "qs:photo_max":43,
    "qs:photo_sum":68,
    "qs:placetype":"Suburb",
    "qs:quad_count":8,
    "qs:woe_adm0":23424977,
    "qs:woe_adm1":2347594,
    "qs:woe_adm2":12589598,
    "qs:woe_lau":0,
    "qs:woe_local":2362029,
    "qs:woe_ver":"7.10.0",
    "src:geom":"mz",
    "src:geom_alt":[
        "quattroshapes",
        "quattroshapes_pg"
    ],
    "src:lbl:centroid":"yerbashapes",
    "src:population":"zetashapes",
    "wof:belongsto":[
        102191575,
        404523877,
        85633793,
        85983055,
        102083735,
        85688485
    ],
    "wof:breaches":[],
    "wof:concordances":{
        "gn:id":5163724,
        "gp:id":2455331,
        "qs:id":122484,
        "qs_pg:id":122484
    },
    "wof:country":"US",
    "wof:geomhash":"0fe7b700291d43afc8d8edd994892722",
    "wof:hierarchy":[
        {
            "continent_id":102191575,
            "country_id":85633793,
            "county_id":102083735,
            "localadmin_id":404523877,
            "locality_id":85983055,
            "neighbourhood_id":85835645,
            "region_id":85688485
        }
    ],
    "wof:id":85835645,
    "wof:lang":[
        "eng"
    ],
    "wof:lastmodified":1532373526,
    "wof:name":"Mount Pleasant",
    "wof:parent_id":85983055,
    "wof:placetype":"neighbourhood",
    "wof:population":129,
    "wof:population_rank":1,
    "wof:repo":"whosonfirst-data-admin-us",
    "wof:superseded_by":[],
    "wof:supersedes":[],
    "wof:tags":[],
    "zs:blockids":[
        390779160001025,
        390779160004049,
        390779160001029,
        390779160002009,
        390779160001028
    ],
    "zs:housing10":55,
    "zs:pop10":129
},
  "bbox": [
    -82.845537,
    41.279582,
    -82.845537,
    41.279582
],
  "geometry": {"coordinates":[-82.84553699999999,41.279582],"type":"Point"}
}