{
  "id": 1243379775,
  "type": "Feature",
  "properties": {
    "edtf:cessation":"2018-09-06",
    "edtf:inception":"uuuu",
    "geom:area":0.0,
    "geom:area_square_m":0.0,
    "geom:bbox":"-90.45566,36.18007,-90.45566,36.18007",
    "geom:latitude":36.18007,
    "geom:longitude":-90.45566,
    "gn:admin1_code":"AR",
    "gn:admin2_code":"55.0",
    "gn:admin3_code":"91806.0",
    "gn:asciiname":"Paris (historical)",
    "gn:country_code":"US",
    "gn:dem":101,
    "gn:elevation":"101.0",
    "gn:feature_class":"P",
    "gn:feature_code":"PPLQ",
    "gn:geonameid":4125403,
    "gn:latitude":36.18007,
    "gn:longitude":-90.45566,
    "gn:modification_date":"2017-05-23",
    "gn:name":"Paris (historical)",
    "gn:population":0,
    "gn:timezone":"America/Chicago",
    "iso:country":"US",
    "mz:hierarchy_label":1,
    "mz:is_current":0,
    "src:geom":"geonames",
    "wof:belongsto":[
        102191575,
        85633793,
        85688549,
        102083239
    ],
    "wof:breaches":[],
    "wof:concordances":{
        "gn:id":4125403
    },
    "wof:country":"US",
    "wof:geomhash":"f283ee94f885cac0f4db2af9dc900ad3",
    "wof:hierarchy":[
        {
            "continent_id":102191575,
            "country_id":85633793,
            "county_id":102083239,
            "locality_id":1243379775,
            "region_id":85688549
        }
    ],
    "wof:id":1243379775,
    "wof:lastmodified":1536901792,
    "wof:name":"Paris (historical)",
    "wof:parent_id":102083239,
    "wof:placetype":"locality",
    "wof:repo":"whosonfirst-data-admin-us",
    "wof:superseded_by":[],
    "wof:supersedes":[],
    "wof:tags":[]
},
  "bbox": [
    -90.45566,
    36.18007,
    -90.45566,
    36.18007
],
  "geometry": {"coordinates":[-90.45565999999999,36.18007],"type":"Point"}
}