{
  "id": 1126083821,
  "type": "Feature",
  "properties": {
    "edtf:cessation":"uuuu",
    "edtf:deprecated":"2017-11-08",
    "edtf:inception":"uuuu",
    "geom:area":0.0,
    "geom:area_square_m":0.0,
    "geom:bbox":"-122.509821,37.9559615,-122.509821,37.9559615",
    "geom:latitude":37.955962,
    "geom:longitude":-122.509821,
    "gn:gn_country":null,
    "iso:country":"US",
    "lbl:latitude":37.955962,
    "lbl:longitude":-122.509821,
    "mz:hierarchy_label":1,
    "mz:is_current":0,
    "mz:note":"Quattroshapes Point Gazetteer import 20170519",
    "qs_pg:aaroncc":"US",
    "qs_pg:gn_country":null,
    "qs_pg:name":"Bret Harte",
    "qs_pg:name_adm0":"United States",
    "qs_pg:name_adm1":"California",
    "qs_pg:photos":22,
    "qs_pg:photos_1k":4,
    "qs_pg:photos_9k":1,
    "qs_pg:photos_9r":1,
    "qs_pg:photos_all":22,
    "qs_pg:photos_sr":1,
    "qs_pg:pop_sr":0,
    "qs_pg:qs_id":1024498,
    "qs_pg:qs_pg_placetype":"neighbourhood",
    "qs_pg:qs_pg_placetype_gp":"Suburb",
    "qs_pg:woe_adm0":23424977,
    "qs_pg:woe_id":55971506,
    "src:geom":"qs_pg",
    "src:lbl:centroid":"qs_pg",
    "woe:adm0_id":23424977,
    "woe:name_adm0":"United States",
    "woe:name_adm1":"California",
    "woe:placetype":"Suburb",
    "wof:belongsto":[
        85688637,
        102191575,
        85633793,
        102084353
    ],
    "wof:breaches":[],
    "wof:concordances":{
        "gp:id":55971506,
        "qs_pg:id":1024498
    },
    "wof:country":"US",
    "wof:created":1497312400,
    "wof:geomhash":"ff20b7046fc96711a0b6ccfd138a163a",
    "wof:hierarchy":[
        {
            "continent_id":102191575,
            "country_id":85633793,
            "county_id":102084353,
            "locality_id":-1,
            "neighbourhood_id":1126083821,
            "region_id":85688637
        }
    ],
    "wof:id":1126083821,
    "wof:lastmodified":1511998873,
    "wof:name":"Bret Harte",
    "wof:parent_id":-1,
    "wof:placetype":"neighbourhood",
    "wof:repo":"whosonfirst-data-admin-us",
    "wof:superseded_by":[
        85887907
    ],
    "wof:supersedes":[],
    "wof:tags":[]
},
  "bbox": [
    -122.509821,
    37.9559615,
    -122.509821,
    37.9559615
],
  "geometry": {"coordinates":[-122.509821,37.9559615],"type":"Point"}
}