{
  "id": 1193156493,
  "type": "Feature",
  "properties": {
    "edtf:cessation":"uuuu",
    "edtf:deprecated":"2019-02-08",
    "edtf:inception":"uuuu",
    "geom:area":0.0,
    "geom:area_square_m":0.0,
    "geom:bbox":"-76.0835,39.63053,-76.0835,39.63053",
    "geom:latitude":39.63053,
    "geom:longitude":-76.0835,
    "gn:admin1_code":"MD",
    "gn:admin2_code":"15",
    "gn:asciiname":"Maple Hill Mobile Home Park",
    "gn:country_code":"US",
    "gn:dem":139,
    "gn:elevation":"139.0",
    "gn:feature_class":"P",
    "gn:feature_code":"PPL",
    "gn:geonameid":7228788,
    "gn:latitude":39.63053,
    "gn:longitude":-76.0835,
    "gn:modification_date":"2010-02-06",
    "gn:name":"Maple Hill Mobile Home Park",
    "gn:population":0,
    "gn:timezone":"America/New_York",
    "iso:country":"US",
    "mz:hierarchy_label":1,
    "mz:is_current":0,
    "src:geom":"geonames",
    "wof:belongsto":[
        102191575,
        85633793,
        85688501,
        102082183
    ],
    "wof:breaches":[],
    "wof:concordances":{
        "gn:id":7228788
    },
    "wof:country":"US",
    "wof:geomhash":"249d8c397546d875c0f17f2e8b93f536",
    "wof:hierarchy":[
        {
            "continent_id":102191575,
            "country_id":85633793,
            "county_id":102082183,
            "locality_id":1193156493,
            "region_id":85688501
        }
    ],
    "wof:id":1193156493,
    "wof:lastmodified":1549653901,
    "wof:name":"Maple Hill Mobile Home Park",
    "wof:parent_id":102082183,
    "wof:placetype":"locality",
    "wof:repo":"whosonfirst-data-admin-us",
    "wof:superseded_by":[
        1376899219
    ],
    "wof:supersedes":[],
    "wof:tags":[]
},
  "bbox": [
    -76.0835,
    39.63053,
    -76.0835,
    39.63053
],
  "geometry": {"coordinates":[-76.0835,39.63053],"type":"Point"}
}