{
  "id": 1125278913,
  "type": "Feature",
  "properties": {
    "edtf:cessation":"2017-05-19",
    "edtf:inception":"uuuu",
    "geom:area":0.0,
    "geom:area_square_m":0.0,
    "geom:bbox":"-76.94066,36.11177,-76.94066,36.11177",
    "geom:latitude":36.11177,
    "geom:longitude":-76.94066,
    "gn:gn_country":"US",
    "gn:gn_fcode":"ADMD",
    "gn:gn_pop":241,
    "gn:population":241,
    "iso:country":"US",
    "lbl:latitude":36.11177,
    "lbl:longitude":-76.94066,
    "mz:hierarchy_label":1,
    "mz:is_current":0,
    "mz:note":"Quattroshapes Point Gazetteer import 20170519",
    "qs_pg:aaroncc":"US",
    "qs_pg:gn_country":"US",
    "qs_pg:gn_fcode":"ADMD",
    "qs_pg:gn_id":7170549,
    "qs_pg:gn_pop":241,
    "qs_pg:name":"Town of Askewville",
    "qs_pg:photos_9r":0,
    "qs_pg:photos_sr":0,
    "qs_pg:pop_sr":2,
    "qs_pg:qs_id":663213,
    "qs_pg:qs_pg_placetype":"localadmin",
    "src:geom":"qs_pg",
    "src:lbl:centroid":"qs_pg",
    "src:population":"geonames",
    "wof:belongsto":[
        85633793
    ],
    "wof:breaches":[],
    "wof:concordances":{
        "gn:id":7170549,
        "qs_pg:id":663213
    },
    "wof:country":"US",
    "wof:created":1497042427,
    "wof:geomhash":"e4c69d9bbae8a99f814678379e0b78e7",
    "wof:hierarchy":[
        {
            "country_id":85633793,
            "localadmin_id":1125278913
        }
    ],
    "wof:id":1125278913,
    "wof:lastmodified":1505187096,
    "wof:name":"Town of Askewville",
    "wof:parent_id":-1,
    "wof:placetype":"localadmin",
    "wof:population":241,
    "wof:population_rank":2,
    "wof:repo":"whosonfirst-data-admin-us",
    "wof:superseded_by":[],
    "wof:supersedes":[],
    "wof:tags":[]
},
  "bbox": [
    -76.94066,
    36.11177,
    -76.94066,
    36.11177
],
  "geometry": {"coordinates":[-76.94065999999999,36.11177],"type":"Point"}
}