{
  "id": 1242997201,
  "type": "Feature",
  "properties": {
    "edtf:cessation":"2018-09-06",
    "edtf:inception":"uuuu",
    "geom:area":0.0,
    "geom:area_square_m":0.0,
    "geom:bbox":"-87.57807,36.48783,-87.57807,36.48783",
    "geom:latitude":36.48783,
    "geom:longitude":-87.57807,
    "gn:admin1_code":"TN",
    "gn:admin2_code":"125.0",
    "gn:asciiname":"Bellamy (historical)",
    "gn:country_code":"US",
    "gn:dem":128,
    "gn:elevation":"125.0",
    "gn:feature_class":"P",
    "gn:feature_code":"PPLQ",
    "gn:geonameid":4605307,
    "gn:latitude":36.48783,
    "gn:longitude":-87.57807,
    "gn:modification_date":"2011-12-11",
    "gn:name":"Bellamy (historical)",
    "gn:population":0,
    "gn:timezone":"America/Chicago",
    "iso:country":"US",
    "mz:hierarchy_label":1,
    "mz:is_current":0,
    "src:geom":"geonames",
    "wof:belongsto":[
        102191575,
        85633793,
        85688701,
        102086353
    ],
    "wof:breaches":[],
    "wof:concordances":{
        "gn:id":4605307
    },
    "wof:country":"US",
    "wof:geomhash":"d2ca4bfa91711551c9b1742578913e0b",
    "wof:hierarchy":[
        {
            "continent_id":102191575,
            "country_id":85633793,
            "county_id":102086353,
            "locality_id":1242997201,
            "region_id":85688701
        }
    ],
    "wof:id":1242997201,
    "wof:lastmodified":1536956361,
    "wof:name":"Bellamy (historical)",
    "wof:parent_id":102086353,
    "wof:placetype":"locality",
    "wof:repo":"whosonfirst-data-admin-us",
    "wof:superseded_by":[],
    "wof:supersedes":[],
    "wof:tags":[]
},
  "bbox": [
    -87.57807,
    36.48783,
    -87.57807,
    36.48783
],
  "geometry": {"coordinates":[-87.57807,36.48783],"type":"Point"}
}