{
  "id": 1125284797,
  "type": "Feature",
  "properties": {
    "edtf:cessation":"2017-05-19",
    "edtf:inception":"uuuu",
    "geom:area":0.0,
    "geom:area_square_m":0.0,
    "geom:bbox":"-82.85449,40.96108,-82.85449,40.96108",
    "geom:latitude":40.96108,
    "geom:longitude":-82.85449,
    "gn:gn_country":"US",
    "gn:gn_fcode":"ADMD",
    "gn:gn_pop":967,
    "gn:population":967,
    "iso:country":"US",
    "lbl:latitude":40.96108,
    "lbl:longitude":-82.85449,
    "mz:hierarchy_label":1,
    "mz:is_current":0,
    "mz:note":"Quattroshapes Point Gazetteer import 20170519",
    "qs_pg:aaroncc":"US",
    "qs_pg:gn_country":"US",
    "qs_pg:gn_fcode":"ADMD",
    "qs_pg:gn_id":7167139,
    "qs_pg:gn_pop":967,
    "qs_pg:name":"Village of New Washington",
    "qs_pg:photos_9r":0,
    "qs_pg:photos_sr":0,
    "qs_pg:pop_sr":2,
    "qs_pg:qs_id":533233,
    "qs_pg:qs_pg_placetype":"localadmin",
    "src:geom":"qs_pg",
    "src:lbl:centroid":"qs_pg",
    "src:population":"geonames",
    "wof:belongsto":[
        85633793
    ],
    "wof:breaches":[],
    "wof:concordances":{
        "gn:id":7167139,
        "qs_pg:id":533233
    },
    "wof:country":"US",
    "wof:created":1497042654,
    "wof:geomhash":"9cb817153c21b31c639d4df7e06f2301",
    "wof:hierarchy":[
        {
            "country_id":85633793,
            "localadmin_id":1125284797
        }
    ],
    "wof:id":1125284797,
    "wof:lastmodified":1505187074,
    "wof:name":"Village of New Washington",
    "wof:parent_id":-1,
    "wof:placetype":"localadmin",
    "wof:population":967,
    "wof:population_rank":2,
    "wof:repo":"whosonfirst-data-admin-us",
    "wof:superseded_by":[],
    "wof:supersedes":[],
    "wof:tags":[]
},
  "bbox": [
    -82.85449,
    40.96108,
    -82.85449,
    40.96108
],
  "geometry": {"coordinates":[-82.85449,40.96108],"type":"Point"}
}