{
  "id": 1327049305,
  "type": "Feature",
  "properties": {
    "edtf:cessation":"uuuu",
    "edtf:inception":"uuuu",
    "geom:area":0.0,
    "geom:area_square_m":0.0,
    "geom:bbox":"-79.07921,33.55656,-79.07921,33.55656",
    "geom:latitude":33.55656,
    "geom:longitude":-79.07921,
    "gn:admin1_code":"SC",
    "gn:admin2_code":"43.0",
    "gn:asciiname":"Richmond Hill",
    "gn:country_code":"US",
    "gn:dem":1,
    "gn:elevation":"6.0",
    "gn:feature_class":"P",
    "gn:feature_code":"PPL",
    "gn:geonameid":4592871,
    "gn:latitude":33.55656,
    "gn:longitude":-79.07921,
    "gn:modification_date":"2006-01-15",
    "gn:name":"Richmond Hill",
    "gn:population":0,
    "gn:timezone":"America/New_York",
    "iso:country":"US",
    "mz:hierarchy_label":1,
    "mz:is_current":-1,
    "src:geom":"geonames",
    "wof:belongsto":[
        102191575,
        85633793,
        85688683,
        102085683
    ],
    "wof:breaches":[],
    "wof:concordances":{
        "gn:id":4592871
    },
    "wof:country":"US",
    "wof:geomhash":"f4847353f00cebba42e1dd76086fe006",
    "wof:hierarchy":[
        {
            "continent_id":102191575,
            "country_id":85633793,
            "county_id":102085683,
            "locality_id":1327049305,
            "region_id":85688683
        }
    ],
    "wof:id":1327049305,
    "wof:lastmodified":1536736104,
    "wof:name":"Richmond Hill",
    "wof:parent_id":102085683,
    "wof:placetype":"locality",
    "wof:repo":"whosonfirst-data-admin-us",
    "wof:superseded_by":[],
    "wof:supersedes":[],
    "wof:tags":[]
},
  "bbox": [
    -79.07921,
    33.55656,
    -79.07921,
    33.55656
],
  "geometry": {"coordinates":[-79.07921,33.55656],"type":"Point"}
}