{
  "id": 1343577075,
  "type": "Feature",
  "properties": {
    "edtf:cessation":"2018-09-06",
    "edtf:inception":"uuuu",
    "geom:area":0.0,
    "geom:area_square_m":0.0,
    "geom:bbox":"-123.42895,41.6704,-123.42895,41.6704",
    "geom:latitude":41.6704,
    "geom:longitude":-123.42895,
    "gn:admin1_code":"CA",
    "gn:admin2_code":"93.0",
    "gn:asciiname":"Ferry Point (historical)",
    "gn:country_code":"US",
    "gn:dem":303,
    "gn:elevation":"301.0",
    "gn:feature_class":"P",
    "gn:feature_code":"PPLQ",
    "gn:geonameid":5563593,
    "gn:latitude":41.6704,
    "gn:longitude":-123.42895,
    "gn:modification_date":"2011-12-12",
    "gn:name":"Ferry Point (historical)",
    "gn:population":0,
    "gn:timezone":"America/Los_Angeles",
    "iso:country":"US",
    "mz:hierarchy_label":1,
    "mz:is_current":0,
    "src:geom":"geonames",
    "wof:belongsto":[
        102191575,
        85633793,
        85688637,
        102081669
    ],
    "wof:breaches":[],
    "wof:concordances":{
        "gn:id":5563593
    },
    "wof:country":"US",
    "wof:geomhash":"e0e06198b03c757eec7975dfe90b6265",
    "wof:hierarchy":[
        {
            "continent_id":102191575,
            "country_id":85633793,
            "county_id":102081669,
            "locality_id":1343577075,
            "region_id":85688637
        }
    ],
    "wof:id":1343577075,
    "wof:lastmodified":1537072347,
    "wof:name":"Ferry Point (historical)",
    "wof:parent_id":102081669,
    "wof:placetype":"locality",
    "wof:repo":"whosonfirst-data-admin-us",
    "wof:superseded_by":[],
    "wof:supersedes":[],
    "wof:tags":[]
},
  "bbox": [
    -123.42895,
    41.6704,
    -123.42895,
    41.6704
],
  "geometry": {"coordinates":[-123.42895,41.6704],"type":"Point"}
}