{
  "id": 1125800845,
  "type": "Feature",
  "properties": {
    "edtf:cessation":"uuuu",
    "edtf:inception":"uuuu",
    "geom:area":0.0,
    "geom:area_square_m":0.0,
    "geom:bbox":"-77.55664,35.63322,-77.55664,35.63322",
    "geom:latitude":35.63322,
    "geom:longitude":-77.55664,
    "gn:gn_country":"US",
    "gn:gn_fcode":"PPL",
    "gn:gn_pop":0,
    "iso:country":"US",
    "lbl:latitude":35.63322,
    "lbl:longitude":-77.55664,
    "mz:hierarchy_label":1,
    "mz:is_current":-1,
    "mz:note":"Quattroshapes Point Gazetteer import 20170519",
    "qs_pg:aaroncc":"US",
    "qs_pg:gn_country":"US",
    "qs_pg:gn_fcode":"PPL",
    "qs_pg:gn_id":4458642,
    "qs_pg:gn_pop":0,
    "qs_pg:name":"California",
    "qs_pg:name_adm0":"United States",
    "qs_pg:name_adm1":"North Carolina",
    "qs_pg:photos_9r":0,
    "qs_pg:photos_sr":0,
    "qs_pg:pop_sr":0,
    "qs_pg:qs_id":195984,
    "qs_pg:qs_pg_placetype":"locality",
    "qs_pg:qs_pg_placetype_gp":"Town",
    "qs_pg:woe_adm0":23424977,
    "qs_pg:woe_id":2373284,
    "src:geom":"qs_pg",
    "src:lbl:centroid":"qs_pg",
    "woe:adm0_id":23424977,
    "woe:name_adm0":"United States",
    "woe:name_adm1":"North Carolina",
    "woe:placetype":"Town",
    "wof:belongsto":[
        102191575,
        85633793,
        85688773,
        102087595
    ],
    "wof:breaches":[],
    "wof:concordances":{
        "gn:id":4458642,
        "gp:id":2373284,
        "qs_pg:id":195984
    },
    "wof:country":"US",
    "wof:created":1497291253,
    "wof:geomhash":"0f99541f24aefe0a39dee709ea4501b9",
    "wof:hierarchy":[
        {
            "continent_id":102191575,
            "country_id":85633793,
            "county_id":102087595,
            "locality_id":1125800845,
            "region_id":85688773
        }
    ],
    "wof:id":1125800845,
    "wof:lastmodified":1509392909,
    "wof:name":"California",
    "wof:parent_id":102087595,
    "wof:placetype":"locality",
    "wof:repo":"whosonfirst-data-admin-us",
    "wof:superseded_by":[],
    "wof:supersedes":[],
    "wof:tags":[]
},
  "bbox": [
    -77.55664,
    35.63322,
    -77.55664,
    35.63322
],
  "geometry": {"coordinates":[-77.55664,35.63322],"type":"Point"}
}