{
  "id": 1126067233,
  "type": "Feature",
  "properties": {
    "edtf:cessation":"uuuu",
    "edtf:inception":"uuuu",
    "geom:area":0.0,
    "geom:area_square_m":0.0,
    "geom:bbox":"-74.65459,43.25896,-74.65459,43.25896",
    "geom:latitude":43.25896,
    "geom:longitude":-74.65459,
    "gn:gn_country":"US",
    "gn:gn_fcode":"PPL",
    "gn:gn_pop":0,
    "iso:country":"US",
    "lbl:latitude":43.25896,
    "lbl:longitude":-74.65459,
    "mz:hierarchy_label":1,
    "mz:is_current":-1,
    "mz:note":"Quattroshapes Point Gazetteer import 20170519",
    "qs_pg:aaroncc":"US",
    "qs_pg:gn_country":"US",
    "qs_pg:gn_fcode":"PPL",
    "qs_pg:gn_id":5129964,
    "qs_pg:gn_pop":0,
    "qs_pg:name":"Oregon",
    "qs_pg:name_adm0":"United States",
    "qs_pg:name_adm1":"New York",
    "qs_pg:photos":33,
    "qs_pg:photos_1k":7,
    "qs_pg:photos_9k":1,
    "qs_pg:photos_9r":2,
    "qs_pg:photos_all":33,
    "qs_pg:photos_sr":2,
    "qs_pg:pop_sr":0,
    "qs_pg:qs_id":1171817,
    "qs_pg:qs_pg_placetype":"neighbourhood",
    "qs_pg:qs_pg_placetype_gp":"Suburb",
    "qs_pg:woe_adm0":23424977,
    "qs_pg:woe_id":2466125,
    "src:geom":"qs_pg",
    "src:lbl:centroid":"qs_pg",
    "woe:adm0_id":23424977,
    "woe:name_adm0":"United States",
    "woe:name_adm1":"New York",
    "woe:placetype":"Suburb",
    "wof:belongsto":[
        102191575,
        404522447,
        85633793,
        102081813,
        85688543
    ],
    "wof:breaches":[],
    "wof:concordances":{
        "gn:id":5129964,
        "gp:id":2466125,
        "qs_pg:id":1171817
    },
    "wof:country":"US",
    "wof:created":1497309075,
    "wof:geomhash":"0909a31675379bf72bcf9e58556e65ac",
    "wof:hierarchy":[
        {
            "continent_id":102191575,
            "country_id":85633793,
            "county_id":102081813,
            "localadmin_id":404522447,
            "locality_id":-1,
            "neighbourhood_id":1126067233,
            "region_id":85688543
        }
    ],
    "wof:id":1126067233,
    "wof:lastmodified":1509410489,
    "wof:name":"Oregon",
    "wof:parent_id":-1,
    "wof:placetype":"neighbourhood",
    "wof:repo":"whosonfirst-data-admin-us",
    "wof:superseded_by":[],
    "wof:supersedes":[],
    "wof:tags":[]
},
  "bbox": [
    -74.65459,
    43.25896,
    -74.65459,
    43.25896
],
  "geometry": {"coordinates":[-74.65459,43.25896],"type":"Point"}
}