{
  "id": 1125342235,
  "type": "Feature",
  "properties": {
    "edtf:cessation":"uuuu",
    "edtf:deprecated":"2017-11-04",
    "edtf:inception":"uuuu",
    "geom:area":0.0,
    "geom:area_square_m":0.0,
    "geom:bbox":"-96.2991,43.20419,-96.2991,43.20419",
    "geom:latitude":43.20419,
    "geom:longitude":-96.2991,
    "gn:gn_country":"US",
    "gn:gn_fcode":"ADMD",
    "gn:gn_pop":3354,
    "gn:population":3354,
    "iso:country":"US",
    "lbl:latitude":43.20419,
    "lbl:longitude":-96.2991,
    "mz:hierarchy_label":1,
    "mz:is_current":0,
    "mz:note":"Quattroshapes Point Gazetteer import 20170519",
    "qs_pg:aaroncc":"US",
    "qs_pg:gn_country":"US",
    "qs_pg:gn_fcode":"ADMD",
    "qs_pg:gn_id":7164463,
    "qs_pg:gn_pop":3354,
    "qs_pg:name":"City of Rock Valley",
    "qs_pg:photos_9r":0,
    "qs_pg:photos_sr":0,
    "qs_pg:pop_sr":4,
    "qs_pg:qs_id":659435,
    "qs_pg:qs_pg_placetype":"localadmin",
    "src:geom":"qs_pg",
    "src:lbl:centroid":"qs_pg",
    "src:population":"geonames",
    "wof:belongsto":[
        85633793
    ],
    "wof:breaches":[],
    "wof:concordances":{
        "gn:id":7164463,
        "qs_pg:id":659435
    },
    "wof:country":"US",
    "wof:created":1497045729,
    "wof:geomhash":"3a55d86e1cab4fd512b1e85b34f29d31",
    "wof:hierarchy":[
        {
            "country_id":85633793,
            "localadmin_id":1125342235
        }
    ],
    "wof:id":1125342235,
    "wof:lastmodified":1509752575,
    "wof:name":"City of Rock Valley",
    "wof:parent_id":-1,
    "wof:placetype":"localadmin",
    "wof:population":3354,
    "wof:population_rank":4,
    "wof:repo":"whosonfirst-data-admin-us",
    "wof:superseded_by":[
        85944791
    ],
    "wof:supersedes":[],
    "wof:tags":[]
},
  "bbox": [
    -96.2991,
    43.20419,
    -96.2991,
    43.20419
],
  "geometry": {"coordinates":[-96.2991,43.20419],"type":"Point"}
}