{
  "id": 1125382047,
  "type": "Feature",
  "properties": {
    "edtf:cessation":"uuuu",
    "edtf:deprecated":"2017-11-04",
    "edtf:inception":"uuuu",
    "geom:area":0.0,
    "geom:area_square_m":0.0,
    "geom:bbox":"-84.87918,31.04044,-84.87918,31.04044",
    "geom:latitude":31.04044,
    "geom:longitude":-84.87918,
    "gn:gn_country":"US",
    "gn:gn_fcode":"ADMD",
    "gn:gn_pop":2650,
    "gn:population":2650,
    "iso:country":"US",
    "lbl:latitude":31.04044,
    "lbl:longitude":-84.87918,
    "mz:hierarchy_label":1,
    "mz:is_current":0,
    "mz:note":"Quattroshapes Point Gazetteer import 20170519",
    "qs_pg:aaroncc":"US",
    "qs_pg:gn_country":"US",
    "qs_pg:gn_fcode":"ADMD",
    "qs_pg:gn_id":7317850,
    "qs_pg:gn_pop":2650,
    "qs_pg:name":"City of Donalsonville",
    "qs_pg:photos_9r":0,
    "qs_pg:photos_sr":0,
    "qs_pg:pop_sr":4,
    "qs_pg:qs_id":683867,
    "qs_pg:qs_pg_placetype":"localadmin",
    "src:geom":"qs_pg",
    "src:lbl:centroid":"qs_pg",
    "src:population":"geonames",
    "wof:belongsto":[
        85633793
    ],
    "wof:breaches":[],
    "wof:concordances":{
        "gn:id":7317850,
        "qs_pg:id":683867
    },
    "wof:country":"US",
    "wof:created":1497048106,
    "wof:geomhash":"c9e3f82e410e554a6163c9ece87e55ce",
    "wof:hierarchy":[
        {
            "country_id":85633793,
            "localadmin_id":1125382047
        }
    ],
    "wof:id":1125382047,
    "wof:lastmodified":1509752682,
    "wof:name":"City of Donalsonville",
    "wof:parent_id":-1,
    "wof:placetype":"localadmin",
    "wof:population":2650,
    "wof:population_rank":4,
    "wof:repo":"whosonfirst-data-admin-us",
    "wof:superseded_by":[
        85936013
    ],
    "wof:supersedes":[],
    "wof:tags":[]
},
  "bbox": [
    -84.87918,
    31.04044,
    -84.87918,
    31.04044
],
  "geometry": {"coordinates":[-84.87918000000001,31.04044],"type":"Point"}
}