{
  "id": 1125335363,
  "type": "Feature",
  "properties": {
    "edtf:cessation":"uuuu",
    "edtf:deprecated":"2017-11-04",
    "edtf:inception":"uuuu",
    "geom:area":0.0,
    "geom:area_square_m":0.0,
    "geom:bbox":"-91.14013,43.04332,-91.14013,43.04332",
    "geom:latitude":43.04332,
    "geom:longitude":-91.14013,
    "gn:gn_country":"US",
    "gn:gn_fcode":"ADMD",
    "gn:gn_pop":5911,
    "gn:population":5911,
    "iso:country":"US",
    "lbl:latitude":43.04332,
    "lbl:longitude":-91.14013,
    "mz:hierarchy_label":1,
    "mz:is_current":0,
    "mz:note":"Quattroshapes Point Gazetteer import 20170519",
    "qs_pg:aaroncc":"US",
    "qs_pg:gn_country":"US",
    "qs_pg:gn_fcode":"ADMD",
    "qs_pg:gn_id":5268008,
    "qs_pg:gn_pop":5911,
    "qs_pg:name":"City of Prairie du Chien",
    "qs_pg:photos_9r":0,
    "qs_pg:photos_sr":0,
    "qs_pg:pop_sr":5,
    "qs_pg:qs_id":609762,
    "qs_pg:qs_pg_placetype":"localadmin",
    "src:geom":"qs_pg",
    "src:lbl:centroid":"qs_pg",
    "src:population":"geonames",
    "wof:belongsto":[
        85633793
    ],
    "wof:breaches":[],
    "wof:concordances":{
        "gn:id":5268008,
        "qs_pg:id":609762
    },
    "wof:country":"US",
    "wof:created":1497045373,
    "wof:geomhash":"2a7d66d150d303890b80b81f8185f756",
    "wof:hierarchy":[
        {
            "country_id":85633793,
            "localadmin_id":1125335363
        }
    ],
    "wof:id":1125335363,
    "wof:lastmodified":1509752567,
    "wof:name":"City of Prairie du Chien",
    "wof:parent_id":-1,
    "wof:placetype":"localadmin",
    "wof:population":5911,
    "wof:population_rank":5,
    "wof:repo":"whosonfirst-data-admin-us",
    "wof:superseded_by":[
        101732613
    ],
    "wof:supersedes":[],
    "wof:tags":[]
},
  "bbox": [
    -91.14013,
    43.04332,
    -91.14013,
    43.04332
],
  "geometry": {"coordinates":[-91.14013,43.04332],"type":"Point"}
}