{
  "id": 1125365293,
  "type": "Feature",
  "properties": {
    "edtf:cessation":"uuuu",
    "edtf:deprecated":"2017-11-04",
    "edtf:inception":"uuuu",
    "geom:area":0.0,
    "geom:area_square_m":0.0,
    "geom:bbox":"-87.67758,44.09861,-87.67758,44.09861",
    "geom:latitude":44.09861,
    "geom:longitude":-87.67758,
    "gn:gn_country":"US",
    "gn:gn_fcode":"ADMD",
    "gn:gn_pop":33736,
    "gn:population":33736,
    "iso:country":"US",
    "lbl:latitude":44.09861,
    "lbl:longitude":-87.67758,
    "mz:hierarchy_label":1,
    "mz:is_current":0,
    "mz:note":"Quattroshapes Point Gazetteer import 20170519",
    "qs_pg:aaroncc":"US",
    "qs_pg:gn_country":"US",
    "qs_pg:gn_fcode":"ADMD",
    "qs_pg:gn_id":5261602,
    "qs_pg:gn_pop":33736,
    "qs_pg:name":"City of Manitowoc",
    "qs_pg:photos_9r":0,
    "qs_pg:photos_sr":0,
    "qs_pg:pop_sr":7,
    "qs_pg:qs_id":609498,
    "qs_pg:qs_pg_placetype":"localadmin",
    "src:geom":"qs_pg",
    "src:lbl:centroid":"qs_pg",
    "src:population":"geonames",
    "wof:belongsto":[
        85633793
    ],
    "wof:breaches":[],
    "wof:concordances":{
        "gn:id":5261602,
        "qs_pg:id":609498
    },
    "wof:country":"US",
    "wof:created":1497047043,
    "wof:geomhash":"7263ffc03b1d14fd1aa503b8cbd7456d",
    "wof:hierarchy":[
        {
            "country_id":85633793,
            "localadmin_id":1125365293
        }
    ],
    "wof:id":1125365293,
    "wof:lastmodified":1509752665,
    "wof:name":"City of Manitowoc",
    "wof:parent_id":-1,
    "wof:placetype":"localadmin",
    "wof:population":33736,
    "wof:population_rank":7,
    "wof:repo":"whosonfirst-data-admin-us",
    "wof:superseded_by":[
        101732791
    ],
    "wof:supersedes":[],
    "wof:tags":[]
},
  "bbox": [
    -87.67758,
    44.09861,
    -87.67758,
    44.09861
],
  "geometry": {"coordinates":[-87.67758000000001,44.09861],"type":"Point"}
}