{
  "id": 420517769,
  "type": "Feature",
  "properties": {
    "edtf:cessation":"uuuu",
    "edtf:inception":"uuuu",
    "geom:area":0.0,
    "geom:area_square_m":58003.038394,
    "geom:bbox":"-84.186576,31.593165,-84.186576,31.593165",
    "geom:latitude":31.593165,
    "geom:longitude":-84.186576,
    "iso:country":"US",
    "lbl:latitude":31.593165,
    "lbl:longitude":-84.186576,
    "mz:hierarchy_label":0,
    "mz:is_current":-1,
    "name:eng_x_preferred":[
        "Woodland"
    ],
    "src:geom":"mz",
    "src:geom_alt":[
        "quattroshapes_pg",
        "zetashapes"
    ],
    "src:lbl":"mapshaper",
    "src:lbl:centroid":"mapshaper",
    "src:population":"zetashapes",
    "wof:belongsto":[
        102191575,
        85633793,
        85935991,
        102084427,
        85688535
    ],
    "wof:breaches":[],
    "wof:concordances":{
        "gn:id":4231770,
        "gp:id":2523189,
        "qs_pg:id":517139
    },
    "wof:country":"US",
    "wof:geomhash":"872ff6770a54784e6ececc2f83684549",
    "wof:hierarchy":[
        {
            "continent_id":102191575,
            "country_id":85633793,
            "county_id":102084427,
            "locality_id":85935991,
            "neighbourhood_id":420517769,
            "region_id":85688535
        }
    ],
    "wof:id":420517769,
    "wof:lastmodified":1533593520,
    "wof:name":"Woodland",
    "wof:parent_id":85935991,
    "wof:placetype":"neighbourhood",
    "wof:population":56,
    "wof:population_rank":1,
    "wof:repo":"whosonfirst-data-admin-us",
    "wof:superseded_by":[],
    "wof:supersedes":[],
    "wof:tags":[],
    "zs:area_m":57999.057211,
    "zs:blockids":[
        130950006001045,
        130950006002056,
        130950006002065
    ],
    "zs:housing10":28,
    "zs:id":2523189,
    "zs:label":"Woodland",
    "zs:pop10":56
},
  "bbox": [
    -84.186576,
    31.593165,
    -84.186576,
    31.593165
],
  "geometry": {"coordinates":[-84.186576,31.593165],"type":"Point"}
}