{
  "id": 85879519,
  "type": "Feature",
  "properties": {"wof:repo":"whosonfirst-data-admin-us",
    "src:geom":"quattroshapes",
    "wof:geomhash":"2b98827540375029a20d626beda67273",
    "wof:id":85879519
},
  "bbox": [
    -81.32201777208499,
    28.48800492820051,
    -81.29709451326698,
    28.50972898870016
],
  "geometry": {"coordinates":[[[-81.30706787109992,28.50561365157931],[-81.30432133758418,28.50248831610010],[-81.30432128910005,28.50248831610010],[-81.30432128910005,28.50248826092894],[-81.30007891436426,28.49766077777527],[-81.29882812499991,28.49694914492333],[-81.29709451326698,28.49497647853691],[-81.29710435181386,28.49487658609478],[-81.30981445312494,28.48867878719427],[-81.31040670086139,28.48800492820051],[-81.31530761717488,28.48800492820051],[-81.31605750167523,28.48828932536588],[-81.31652463016286,28.48935233781916],[-81.31805419919971,28.49109270978667],[-81.32060346926568,28.49283307380020],[-81.32080078119995,28.49350659547916],[-81.32201777208499,28.49766077777527],[-81.32080078121442,28.49904556853200],[-81.32080078121479,28.50248831610010],[-81.32080078122490,28.50318709128439],[-81.31926023824053,28.50610874905041],[-81.31881052064438,28.50647428489432],[-81.31785714603569,28.50972898870016],[-81.30981445312494,28.50972898870016],[-81.30756622510535,28.50844974908122],[-81.30706787109992,28.50731552320009],[-81.30706787109992,28.50561365157931]]],"type":"Polygon"}
}