{
  "id": 1125900803,
  "type": "Feature",
  "properties": {
    "edtf:cessation":"uuuu",
    "edtf:inception":"uuuu",
    "geom:area":0.0,
    "geom:area_square_m":0.0,
    "geom:bbox":"-82.49475,27.465441,-82.49475,27.465441",
    "geom:latitude":27.465441,
    "geom:longitude":-82.49475,
    "gn:gn_country":null,
    "iso:country":"US",
    "lbl:latitude":27.465441,
    "lbl:longitude":-82.49475,
    "mz:hierarchy_label":1,
    "mz:is_current":-1,
    "mz:note":"Quattroshapes Point Gazetteer import 20170519",
    "qs_pg:aaroncc":"US",
    "qs_pg:gn_country":null,
    "qs_pg:name":"Braden River",
    "qs_pg:name_adm0":"United States",
    "qs_pg:name_adm1":"Florida",
    "qs_pg:photos":897,
    "qs_pg:photos_1k":182,
    "qs_pg:photos_9k":4,
    "qs_pg:photos_9r":6,
    "qs_pg:photos_all":897,
    "qs_pg:photos_sr":10,
    "qs_pg:pop_sr":0,
    "qs_pg:qs_id":1121735,
    "qs_pg:qs_pg_placetype":"locality",
    "qs_pg:qs_pg_placetype_gp":"Town",
    "qs_pg:woe_adm0":23424977,
    "qs_pg:woe_id":23510730,
    "src:geom":"qs_pg",
    "src:lbl:centroid":"qs_pg",
    "woe:adm0_id":23424977,
    "woe:name_adm0":"United States",
    "woe:name_adm1":"Florida",
    "woe:placetype":"Town",
    "wof:belongsto":[
        102191575,
        85633793,
        85688651,
        102084763
    ],
    "wof:breaches":[],
    "wof:concordances":{
        "gp:id":23510730,
        "qs_pg:id":1121735
    },
    "wof:country":"US",
    "wof:created":1497295794,
    "wof:geomhash":"9ec08e3ba79119b99f1af440cf78db6f",
    "wof:hierarchy":[
        {
            "continent_id":102191575,
            "country_id":85633793,
            "county_id":102084763,
            "locality_id":1125900803,
            "region_id":85688651
        }
    ],
    "wof:id":1125900803,
    "wof:lastmodified":1509399390,
    "wof:name":"Braden River",
    "wof:parent_id":102084763,
    "wof:placetype":"locality",
    "wof:repo":"whosonfirst-data-admin-us",
    "wof:superseded_by":[],
    "wof:supersedes":[],
    "wof:tags":[]
},
  "bbox": [
    -82.49475,
    27.465441,
    -82.49475,
    27.465441
],
  "geometry": {"coordinates":[-82.49475,27.465441],"type":"Point"}
}