{
  "id": 1125287463,
  "type": "Feature",
  "properties": {
    "edtf:cessation":"2017-05-19",
    "edtf:inception":"uuuu",
    "geom:area":0.0,
    "geom:area_square_m":0.0,
    "geom:bbox":"-80.74765,38.91542,-80.74765,38.91542",
    "geom:latitude":38.91542,
    "geom:longitude":-80.74765,
    "gn:gn_country":"US",
    "gn:gn_fcode":"ADMD",
    "gn:gn_pop":159,
    "gn:population":159,
    "iso:country":"US",
    "lbl:latitude":38.91542,
    "lbl:longitude":-80.74765,
    "mz:hierarchy_label":1,
    "mz:is_current":0,
    "mz:note":"Quattroshapes Point Gazetteer import 20170519",
    "qs_pg:aaroncc":"US",
    "qs_pg:gn_country":"US",
    "qs_pg:gn_fcode":"ADMD",
    "qs_pg:gn_id":7162118,
    "qs_pg:gn_pop":159,
    "qs_pg:name":"Town of Sand Fork",
    "qs_pg:photos_9r":0,
    "qs_pg:photos_sr":0,
    "qs_pg:pop_sr":1,
    "qs_pg:qs_id":657644,
    "qs_pg:qs_pg_placetype":"localadmin",
    "src:geom":"qs_pg",
    "src:lbl:centroid":"qs_pg",
    "src:population":"geonames",
    "wof:belongsto":[
        85633793
    ],
    "wof:breaches":[],
    "wof:concordances":{
        "gn:id":7162118,
        "qs_pg:id":657644
    },
    "wof:country":"US",
    "wof:created":1497042772,
    "wof:geomhash":"ee42aa83636a496375c7cbb98e891eac",
    "wof:hierarchy":[
        {
            "country_id":85633793,
            "localadmin_id":1125287463
        }
    ],
    "wof:id":1125287463,
    "wof:lastmodified":1505187023,
    "wof:name":"Town of Sand Fork",
    "wof:parent_id":-1,
    "wof:placetype":"localadmin",
    "wof:population":159,
    "wof:population_rank":1,
    "wof:repo":"whosonfirst-data-admin-us",
    "wof:superseded_by":[],
    "wof:supersedes":[],
    "wof:tags":[]
},
  "bbox": [
    -80.74765,
    38.91542,
    -80.74765,
    38.91542
],
  "geometry": {"coordinates":[-80.74764999999999,38.91542],"type":"Point"}
}