{
  "id": 1327450899,
  "type": "Feature",
  "properties": {
    "edtf:cessation":"2018-09-06",
    "edtf:inception":"uuuu",
    "geom:area":0.0,
    "geom:area_square_m":0.0,
    "geom:bbox":"-83.89695,37.95651,-83.89695,37.95651",
    "geom:latitude":37.95651,
    "geom:longitude":-83.89695,
    "gn:admin1_code":"KY",
    "gn:admin2_code":"173",
    "gn:asciiname":"Trimble (historical)",
    "gn:country_code":"US",
    "gn:dem":278,
    "gn:elevation":"280.0",
    "gn:feature_class":"P",
    "gn:feature_code":"PPLQ",
    "gn:geonameid":7223307,
    "gn:latitude":37.95651,
    "gn:longitude":-83.89695,
    "gn:modification_date":"2014-10-08",
    "gn:name":"Trimble (historical)",
    "gn:population":0,
    "gn:timezone":"America/New_York",
    "iso:country":"US",
    "mz:hierarchy_label":1,
    "mz:is_current":0,
    "src:geom":"geonames",
    "wof:belongsto":[
        102191575,
        85633793,
        85688641,
        102084601
    ],
    "wof:breaches":[],
    "wof:concordances":{
        "gn:id":7223307
    },
    "wof:country":"US",
    "wof:geomhash":"40b0882ca75638a960a13e57ce76dc1b",
    "wof:hierarchy":[
        {
            "continent_id":102191575,
            "country_id":85633793,
            "county_id":102084601,
            "locality_id":1327450899,
            "region_id":85688641
        }
    ],
    "wof:id":1327450899,
    "wof:lastmodified":1536654027,
    "wof:name":"Trimble (historical)",
    "wof:parent_id":102084601,
    "wof:placetype":"locality",
    "wof:repo":"whosonfirst-data-admin-us",
    "wof:superseded_by":[],
    "wof:supersedes":[],
    "wof:tags":[]
},
  "bbox": [
    -83.89695,
    37.95651,
    -83.89695,
    37.95651
],
  "geometry": {"coordinates":[-83.89695,37.95651],"type":"Point"}
}