{
  "id": 85851691,
  "type": "Feature",
  "properties": {"wof:repo":"whosonfirst-data-admin-us",
    "src:geom":"quattroshapes",
    "wof:geomhash":"3eff0ce89f1168c94a7ef54db8add87f",
    "wof:id":85851691
},
  "bbox": [
    -80.42168212889999,
    25.733472482882718,
    -80.34301757810002,
    25.802472519250117
],
  "geometry": {"coordinates":[[[-80.38368684577853,25.79376930674255],[-80.37442520784532,25.79229980837493],[-80.37442073128994,25.79230036080344],[-80.37294096195416,25.78999951130034],[-80.37260829379608,25.78741325360478],[-80.37048344486433,25.78505344380015],[-80.37048339839990,25.78505344380007],[-80.36499023439987,25.78505344380007],[-80.36499023438745,25.78505339222532],[-80.36499023438432,25.78010711840004],[-80.36074044471695,25.78010711840004],[-80.35949707029994,25.78148793910199],[-80.35675048827491,25.78047120663595],[-80.35400390622476,25.78148793907428],[-80.35276053183296,25.78010711840004],[-80.35263061522491,25.77996284042594],[-80.35263061522491,25.77915891647133],[-80.35125732655192,25.77763387155227],[-80.34851074219995,25.77763386922240],[-80.34800969231233,25.77763386550041],[-80.34726731363477,25.77516058680007],[-80.34301757810002,25.77516058680007],[-80.34301757811662,25.77516053525028],[-80.34301757811448,25.77021384900007],[-80.34301757812079,25.77021379742514],[-80.34576416014988,25.76716388622084],[-80.34576416014988,25.76526685337537],[-80.34576416014988,25.76031970317520],[-80.34788837306257,25.75560247952946],[-80.35301955304269,25.75370342985434],[-80.35400390624989,25.75042478440011],[-80.35400390624989,25.74605218953178],[-80.35776124665705,25.74188084890945],[-80.36222667951751,25.74052883525037],[-80.36499023437491,25.74052883525037],[-80.36775405991375,25.74052883525037],[-80.37048339842477,25.73970247548417],[-80.37211541083789,25.73986718320540],[-80.37460327147477,25.74184001426001],[-80.38157336619571,25.74294544753168],[-80.38592689942953,25.74052883525037],[-80.38696289062477,25.74052883525037],[-80.38774003136569,25.74024125140279],[-80.39167934775122,25.73586806600640],[-80.39815322576374,25.73347248288272],[-80.39814126936466,25.73349485173233],[-80.39902947107356,25.73376428477488],[-80.40075833908008,25.73468838397710],[-80.40227370456182,25.73593201228819],[-80.40351733287298,25.73744737776981],[-80.40444143207486,25.73917624577643],[-80.40501048955394,25.74105217688005],[-80.40519767744092,25.74295272739178],[-80.40520192290347,25.74299583229657],[-80.40618896484989,25.74289861715006],[-80.40813986807001,25.74309076434599],[-80.40893554687489,25.74333213087267],[-80.40973122567971,25.74309076434599],[-80.41168212889991,25.74289861715006],[-80.41363303212012,25.74309076434599],[-80.41550896322366,25.74365982182501],[-80.41723783123010,25.74458392102714],[-80.41875319671180,25.74582754933814],[-80.41999682502299,25.74734291481985],[-80.42092092422513,25.74907178282639],[-80.42148998170396,25.75094771392983],[-80.42168212889999,25.75289861715004],[-80.42148998170396,25.75484952037034],[-80.42092092422513,25.75672545147378],[-80.42032199273726,25.75784597347518],[-80.42092092422513,25.75896649547641],[-80.42148998170396,25.76084242657994],[-80.42168212889999,25.76279332980008],[-80.42148998170396,25.76474423302028],[-80.42092092422513,25.76662016412372],[-80.41999682502299,25.76834903213026],[-80.41875319671180,25.76986439761197],[-80.41723783123010,25.77110802592297],[-80.41550896322366,25.77203212512538],[-80.41363303212012,25.77260118260412],[-80.41168212889991,25.77279332980014],[-80.40973122567971,25.77260118260412],[-80.40785529457617,25.77203212512538],[-80.40612642656973,25.77110802592297],[-80.40461106108802,25.76986439761197],[-80.40344238282478,25.76844035902795],[-80.40227370456182,25.76986439761197],[-80.40075833908008,25.77110802592297],[-80.39902947107356,25.77203212512538],[-80.39715353997013,25.77260118260412],[-80.39520263674990,25.77279332980014],[-80.39325173352978,25.77260118260412],[-80.39297413890330,25.77251697519497],[-80.39295116893373,25.77251000733057],[-80.39285650303248,25.77268711477527],[-80.39345510392496,25.77380701827640],[-80.39402416140399,25.77568294938001],[-80.39421630859982,25.77763385260015],[-80.39402416140399,25.77958475582018],[-80.39345510392496,25.78146068692362],[-80.39285672349160,25.78258017797521],[-80.39314213998443,25.78311415467611],[-80.39315807657692,25.78311898898862],[-80.39353630697343,25.78323372392501],[-80.39526517498007,25.78415782312715],[-80.39678054046169,25.78540145143815],[-80.39802416877296,25.78691681691978],[-80.39894826797502,25.78864568492649],[-80.39951732545401,25.79052161602984],[-80.39970947264993,25.79247251924997],[-80.39951732545401,25.79442342247017],[-80.39894826797502,25.79629935357379],[-80.39802416877296,25.79802822158015],[-80.39678054046169,25.79954358706205],[-80.39526517498007,25.80078721537305],[-80.39353630697343,25.80171131457527],[-80.39166037587000,25.80228037205401],[-80.38970947264988,25.80247251925012],[-80.38775856942965,25.80228037205401],[-80.38748035161234,25.80219597560196],[-80.38368684577853,25.79376930674255]]],"type":"Polygon"}
}