{
  "id": 1125317657,
  "type": "Feature",
  "properties": {
    "edtf:cessation":"2017-05-19",
    "edtf:inception":"uuuu",
    "geom:area":0.0,
    "geom:area_square_m":0.0,
    "geom:bbox":"-103.89088,41.23242,-103.89088,41.23242",
    "geom:latitude":41.23242,
    "geom:longitude":-103.89088,
    "gn:gn_country":"US",
    "gn:gn_fcode":"ADMD",
    "gn:gn_pop":124,
    "gn:population":124,
    "iso:country":"US",
    "lbl:latitude":41.23242,
    "lbl:longitude":-103.89088,
    "mz:hierarchy_label":1,
    "mz:is_current":0,
    "mz:note":"Quattroshapes Point Gazetteer import 20170519",
    "qs_pg:aaroncc":"US",
    "qs_pg:gn_country":"US",
    "qs_pg:gn_fcode":"ADMD",
    "qs_pg:gn_id":7165275,
    "qs_pg:gn_pop":124,
    "qs_pg:name":"Village of Bushnell",
    "qs_pg:photos_9r":0,
    "qs_pg:photos_sr":0,
    "qs_pg:pop_sr":1,
    "qs_pg:qs_id":660197,
    "qs_pg:qs_pg_placetype":"localadmin",
    "src:geom":"qs_pg",
    "src:lbl:centroid":"qs_pg",
    "src:population":"geonames",
    "wof:belongsto":[
        85633793
    ],
    "wof:breaches":[],
    "wof:concordances":{
        "gn:id":7165275,
        "qs_pg:id":660197
    },
    "wof:country":"US",
    "wof:created":1497044357,
    "wof:geomhash":"fb175775405c9bacb85f0382583d36fe",
    "wof:hierarchy":[
        {
            "country_id":85633793,
            "localadmin_id":1125317657
        }
    ],
    "wof:id":1125317657,
    "wof:lastmodified":1505187054,
    "wof:name":"Village of Bushnell",
    "wof:parent_id":-1,
    "wof:placetype":"localadmin",
    "wof:population":124,
    "wof:population_rank":1,
    "wof:repo":"whosonfirst-data-admin-us",
    "wof:superseded_by":[],
    "wof:supersedes":[],
    "wof:tags":[]
},
  "bbox": [
    -103.89088,
    41.23242,
    -103.89088,
    41.23242
],
  "geometry": {"coordinates":[-103.89088,41.23242],"type":"Point"}
}