{
  "id": 1125416819,
  "type": "Feature",
  "properties": {
    "edtf:cessation":"uuuu",
    "edtf:deprecated":"2017-11-04",
    "edtf:inception":"uuuu",
    "geom:area":0.0,
    "geom:area_square_m":0.0,
    "geom:bbox":"-98.98162,35.29728,-98.98162,35.29728",
    "geom:latitude":35.29728,
    "geom:longitude":-98.98162,
    "gn:gn_country":"US",
    "gn:gn_fcode":"ADMD",
    "gn:gn_pop":2915,
    "gn:population":2915,
    "iso:country":"US",
    "lbl:latitude":35.29728,
    "lbl:longitude":-98.98162,
    "mz:hierarchy_label":1,
    "mz:is_current":0,
    "mz:note":"Quattroshapes Point Gazetteer import 20170519",
    "qs_pg:aaroncc":"US",
    "qs_pg:gn_country":"US",
    "qs_pg:gn_fcode":"ADMD",
    "qs_pg:gn_id":7173943,
    "qs_pg:gn_pop":2915,
    "qs_pg:name":"City of New Cordell",
    "qs_pg:photos_9r":0,
    "qs_pg:photos_sr":0,
    "qs_pg:pop_sr":4,
    "qs_pg:qs_id":666517,
    "qs_pg:qs_pg_placetype":"localadmin",
    "src:geom":"qs_pg",
    "src:lbl:centroid":"qs_pg",
    "src:population":"geonames",
    "wof:belongsto":[
        85633793
    ],
    "wof:breaches":[],
    "wof:concordances":{
        "gn:id":7173943,
        "qs_pg:id":666517
    },
    "wof:country":"US",
    "wof:created":1497051493,
    "wof:geomhash":"9c2b0b6a60f459be93f71b24a03cf5cf",
    "wof:hierarchy":[
        {
            "country_id":85633793,
            "localadmin_id":1125416819
        }
    ],
    "wof:id":1125416819,
    "wof:lastmodified":1509752748,
    "wof:name":"City of New Cordell",
    "wof:parent_id":-1,
    "wof:placetype":"localadmin",
    "wof:population":2915,
    "wof:population_rank":4,
    "wof:repo":"whosonfirst-data-admin-us",
    "wof:superseded_by":[
        101714479
    ],
    "wof:supersedes":[],
    "wof:tags":[]
},
  "bbox": [
    -98.98162,
    35.29728,
    -98.98162,
    35.29728
],
  "geometry": {"coordinates":[-98.98162000000001,35.29728],"type":"Point"}
}