{
  "id": 1360104383,
  "type": "Feature",
  "properties": {
    "edtf:cessation":"uuuu",
    "edtf:inception":"uuuu",
    "geom:area":0.0,
    "geom:area_square_m":0.0,
    "geom:bbox":"-76.57358,39.53316,-76.57358,39.53316",
    "geom:latitude":39.53316,
    "geom:longitude":-76.57358,
    "gn:admin1_code":"MD",
    "gn:admin2_code":"5.0",
    "gn:asciiname":"Stockton",
    "gn:country_code":"US",
    "gn:dem":187,
    "gn:elevation":"195.0",
    "gn:feature_class":"P",
    "gn:feature_code":"PPL",
    "gn:geonameid":4370406,
    "gn:latitude":39.53316,
    "gn:longitude":-76.57358,
    "gn:modification_date":"2006-01-15",
    "gn:name":"Stockton",
    "gn:population":0,
    "gn:timezone":"America/New_York",
    "iso:country":"US",
    "mz:hierarchy_label":1,
    "mz:is_current":-1,
    "src:geom":"geonames",
    "wof:belongsto":[
        102191575,
        85633793,
        85688501,
        102082193
    ],
    "wof:breaches":[],
    "wof:concordances":{
        "gn:id":4370406
    },
    "wof:country":"US",
    "wof:geomhash":"a6b715593843d3dc0d278943e3939e79",
    "wof:hierarchy":[
        {
            "continent_id":102191575,
            "country_id":85633793,
            "county_id":102082193,
            "locality_id":1360104383,
            "region_id":85688501
        }
    ],
    "wof:id":1360104383,
    "wof:lastmodified":1536918374,
    "wof:name":"Stockton",
    "wof:parent_id":102082193,
    "wof:placetype":"locality",
    "wof:repo":"whosonfirst-data-admin-us",
    "wof:superseded_by":[],
    "wof:supersedes":[],
    "wof:tags":[]
},
  "bbox": [
    -76.57358,
    39.53316,
    -76.57358,
    39.53316
],
  "geometry": {"coordinates":[-76.57358000000001,39.53316],"type":"Point"}
}