{
  "id": 420537635,
  "type": "Feature",
  "properties": {
    "edtf:cessation":"uuuu",
    "edtf:inception":"uuuu",
    "geom:area":0.0,
    "geom:area_square_m":1247304.540584,
    "geom:bbox":"-80.089902,41.59797,-80.089902,41.59797",
    "geom:latitude":41.59797,
    "geom:longitude":-80.089902,
    "iso:country":"US",
    "lbl:latitude":41.59797,
    "lbl:longitude":-80.089902,
    "mz:hierarchy_label":0,
    "mz:is_current":-1,
    "name:eng_x_preferred":[
        "Pettis"
    ],
    "src:geom":"mz",
    "src:geom_alt":[
        "zetashapes"
    ],
    "src:lbl":"mapshaper",
    "src:population":"zetashapes",
    "wof:belongsto":[
        102191575,
        404483131,
        85633793,
        102080911,
        85688481
    ],
    "wof:breaches":[],
    "wof:concordances":{
        "gp:id":28339960
    },
    "wof:country":"US",
    "wof:geomhash":"3b5bdd5e28f7f6eed7e2eaf57fe31d6a",
    "wof:hierarchy":[
        {
            "continent_id":102191575,
            "country_id":85633793,
            "county_id":102080911,
            "localadmin_id":404483131,
            "locality_id":-1,
            "neighbourhood_id":420537635,
            "region_id":85688481
        }
    ],
    "wof:id":420537635,
    "wof:lastmodified":1533599658,
    "wof:name":"Pettis",
    "wof:parent_id":-1,
    "wof:placetype":"neighbourhood",
    "wof:population":16,
    "wof:population_rank":1,
    "wof:repo":"whosonfirst-data-admin-us",
    "wof:superseded_by":[],
    "wof:supersedes":[],
    "wof:tags":[],
    "zs:area_m":1246840.931429,
    "zs:blockids":[
        420391108005047,
        420391113002014
    ],
    "zs:housing10":4,
    "zs:id":28339960,
    "zs:label":"Pettis",
    "zs:pop10":16
},
  "bbox": [
    -80.089902,
    41.59797,
    -80.089902,
    41.59797
],
  "geometry": {"coordinates":[-80.089902,41.59797],"type":"Point"}
}