{
  "id": 1209117295,
  "type": "Feature",
  "properties": {
    "edtf:cessation":"uuuu",
    "edtf:inception":"uuuu",
    "geom:area":0.0,
    "geom:area_square_m":0.0,
    "geom:bbox":"-118.53637,46.55764,-118.53637,46.55764",
    "geom:latitude":46.55764,
    "geom:longitude":-118.53637,
    "gn:admin1_code":"WA",
    "gn:admin2_code":"71.0",
    "gn:asciiname":"Matthew",
    "gn:country_code":"US",
    "gn:dem":166,
    "gn:elevation":"166.0",
    "gn:feature_class":"P",
    "gn:feature_code":"PPL",
    "gn:geonameid":5802640,
    "gn:latitude":46.55764,
    "gn:longitude":-118.53637,
    "gn:modification_date":"2010-02-18",
    "gn:name":"Matthew",
    "gn:population":0,
    "gn:timezone":"America/Los_Angeles",
    "iso:country":"US",
    "mz:hierarchy_label":1,
    "mz:is_current":-1,
    "name:eng_x_preferred":[
        "Matthew"
    ],
    "name:und_x_variant":[
        "Matthews"
    ],
    "src:geom":"geonames",
    "wof:belongsto":[
        85633793
    ],
    "wof:breaches":[],
    "wof:concordances":{
        "gn:id":5802640
    },
    "wof:country":"US",
    "wof:geomhash":"5955133592cd21ec69f0fe7878d1ff3e",
    "wof:hierarchy":[
        {
            "country_id":85633793,
            "locality_id":1209117295
        }
    ],
    "wof:id":1209117295,
    "wof:lastmodified":1537713115,
    "wof:name":"Matthew",
    "wof:parent_id":85633793,
    "wof:placetype":"locality",
    "wof:repo":"whosonfirst-data-admin-us",
    "wof:superseded_by":[],
    "wof:supersedes":[],
    "wof:tags":[]
},
  "bbox": [
    -118.53637,
    46.55764,
    -118.53637,
    46.55764
],
  "geometry": {"coordinates":[-118.53637000000001,46.55764],"type":"Point"}
}