{
  "id": 1209340367,
  "type": "Feature",
  "properties": {
    "edtf:cessation":"2018-09-06",
    "edtf:inception":"uuuu",
    "geom:area":0.0,
    "geom:area_square_m":0.0,
    "geom:bbox":"-97.38333,30.09188,-97.38333,30.09188",
    "geom:latitude":30.09188,
    "geom:longitude":-97.38333,
    "gn:admin1_code":"TX",
    "gn:admin2_code":"21.0",
    "gn:asciiname":"Shiloh (historical)",
    "gn:country_code":"US",
    "gn:dem":141,
    "gn:elevation":"136.0",
    "gn:feature_class":"P",
    "gn:feature_code":"PPLQ",
    "gn:geonameid":4728385,
    "gn:latitude":30.09188,
    "gn:longitude":-97.38333,
    "gn:modification_date":"2011-12-12",
    "gn:name":"Shiloh (historical)",
    "gn:population":0,
    "gn:timezone":"America/Chicago",
    "iso:country":"US",
    "mz:hierarchy_label":1,
    "mz:is_current":0,
    "src:geom":"geonames",
    "wof:belongsto":[
        85633793
    ],
    "wof:breaches":[],
    "wof:concordances":{
        "gn:id":4728385
    },
    "wof:country":"US",
    "wof:geomhash":"34114f20e6ff1a4636626b4e4b4f23c6",
    "wof:hierarchy":[
        {
            "country_id":85633793,
            "locality_id":1209340367
        }
    ],
    "wof:id":1209340367,
    "wof:lastmodified":1536290082,
    "wof:name":"Shiloh (historical)",
    "wof:parent_id":85633793,
    "wof:placetype":"locality",
    "wof:repo":"whosonfirst-data-admin-us",
    "wof:superseded_by":[],
    "wof:supersedes":[],
    "wof:tags":[]
},
  "bbox": [
    -97.38333,
    30.09188,
    -97.38333,
    30.09188
],
  "geometry": {"coordinates":[-97.38333,30.09188],"type":"Point"}
}