{
  "id": 420512277,
  "type": "Feature",
  "properties": {
    "edtf:cessation":"uuuu",
    "edtf:inception":"uuuu",
    "geom:area":0.0,
    "geom:area_square_m":2801906.496048,
    "geom:bbox":"-82.571775,28.441341,-82.571775,28.441341",
    "geom:latitude":28.441341,
    "geom:longitude":-82.571775,
    "iso:country":"US",
    "lbl:latitude":28.441341,
    "lbl:longitude":-82.571775,
    "mz:hierarchy_label":0,
    "mz:is_current":-1,
    "name:cat_x_preferred":[
        "El pico"
    ],
    "name:eng_x_preferred":[
        "El Pico"
    ],
    "name:eus_x_preferred":[
        "El pico"
    ],
    "name:glg_x_preferred":[
        "El pico"
    ],
    "name:ita_x_preferred":[
        "Overdose"
    ],
    "name:spa_x_preferred":[
        "El pico"
    ],
    "src:geom":"mz",
    "src:geom_alt":[
        "zetashapes"
    ],
    "src:lbl":"mapshaper",
    "src:lbl:centroid":"mapshaper",
    "src:population":"zetashapes",
    "wd:wordcount":1015,
    "wof:belongsto":[
        102191575,
        85633793,
        85935469,
        102085827,
        85688651
    ],
    "wof:breaches":[],
    "wof:concordances":{
        "gp:id":55981739
    },
    "wof:country":"US",
    "wof:geomhash":"72e1d0e67586a03646a403ec95cd53d7",
    "wof:hierarchy":[
        {
            "continent_id":102191575,
            "country_id":85633793,
            "county_id":102085827,
            "locality_id":85935469,
            "neighbourhood_id":420512277,
            "region_id":85688651
        }
    ],
    "wof:id":420512277,
    "wof:lastmodified":1533591823,
    "wof:name":"El Pico",
    "wof:parent_id":85935469,
    "wof:placetype":"neighbourhood",
    "wof:population":587,
    "wof:population_rank":2,
    "wof:repo":"whosonfirst-data-admin-us",
    "wof:superseded_by":[],
    "wof:supersedes":[],
    "wof:tags":[],
    "zs:area_m":2801721.26315,
    "zs:blockids":[
        120530414023009,
        120530409012008,
        120530414023006,
        120530409012018,
        120530414023015,
        120530414023000,
        120530414023005,
        120530414023003
    ],
    "zs:housing10":264,
    "zs:id":55981739,
    "zs:label":"El Pico",
    "zs:pop10":587
},
  "bbox": [
    -82.571775,
    28.441341,
    -82.571775,
    28.441341
],
  "geometry": {"coordinates":[-82.571775,28.441341],"type":"Point"}
}