{
  "id": 1125329497,
  "type": "Feature",
  "properties": {
    "edtf:cessation":"2017-05-19",
    "edtf:inception":"uuuu",
    "geom:area":0.0,
    "geom:area_square_m":0.0,
    "geom:bbox":"-68.91004,45.0884,-68.91004,45.0884",
    "geom:latitude":45.0884,
    "geom:longitude":-68.91004,
    "gn:gn_country":"US",
    "gn:gn_fcode":"ADMD",
    "gn:gn_pop":0,
    "gn:population":1257,
    "iso:country":"US",
    "lbl:latitude":45.0884,
    "lbl:longitude":-68.91004,
    "mz:hierarchy_label":1,
    "mz:is_current":0,
    "mz:note":"Quattroshapes Point Gazetteer import 20170519",
    "name:eng_x_preferred":[
        "Town of Bradford"
    ],
    "name:unk_x_variant":[
        "Bradford Township"
    ],
    "qs_pg:aaroncc":"US",
    "qs_pg:gn_country":"US",
    "qs_pg:gn_fcode":"ADMD",
    "qs_pg:gn_id":4959117,
    "qs_pg:gn_pop":0,
    "qs_pg:name":"Town of Bradford",
    "qs_pg:photos_9r":0,
    "qs_pg:photos_sr":0,
    "qs_pg:pop_sr":0,
    "qs_pg:qs_id":1034392,
    "qs_pg:qs_pg_placetype":"localadmin",
    "src:geom":"qs_pg",
    "src:lbl:centroid":"qs_pg",
    "src:population":"geonames",
    "wof:belongsto":[
        85633793
    ],
    "wof:breaches":[],
    "wof:concordances":{
        "gn:id":4959117,
        "qs_pg:id":1034392
    },
    "wof:country":"US",
    "wof:created":1497045047,
    "wof:geomhash":"bf984a518abbec59d6fab7002724e7be",
    "wof:hierarchy":[
        {
            "country_id":85633793,
            "localadmin_id":1125329497
        }
    ],
    "wof:id":1125329497,
    "wof:lastmodified":1505186938,
    "wof:name":"Town of Bradford",
    "wof:parent_id":-1,
    "wof:placetype":"localadmin",
    "wof:population":1257,
    "wof:population_rank":3,
    "wof:repo":"whosonfirst-data-admin-us",
    "wof:superseded_by":[],
    "wof:supersedes":[],
    "wof:tags":[]
},
  "bbox": [
    -68.91004,
    45.0884,
    -68.91004,
    45.0884
],
  "geometry": {"coordinates":[-68.91004,45.0884],"type":"Point"}
}