{
  "id": 1209325721,
  "type": "Feature",
  "properties": {
    "edtf:cessation":"uuuu",
    "edtf:inception":"uuuu",
    "geom:area":0.0,
    "geom:area_square_m":0.0,
    "geom:bbox":"-74.5496,41.04926,-74.5496,41.04926",
    "geom:latitude":41.04926,
    "geom:longitude":-74.5496,
    "gn:admin1_code":"NJ",
    "gn:admin2_code":"37.0",
    "gn:admin3_code":"69690.0",
    "gn:asciiname":"Hopewell",
    "gn:country_code":"US",
    "gn:dem":334,
    "gn:elevation":"333.0",
    "gn:feature_class":"P",
    "gn:feature_code":"PPL",
    "gn:geonameid":5099313,
    "gn:latitude":41.04926,
    "gn:longitude":-74.5496,
    "gn:modification_date":"2017-05-23",
    "gn:name":"Hopewell",
    "gn:population":0,
    "gn:timezone":"America/New_York",
    "iso:country":"US",
    "mz:hierarchy_label":1,
    "mz:is_current":-1,
    "src:geom":"geonames",
    "wof:belongsto":[
        85633793
    ],
    "wof:breaches":[],
    "wof:concordances":{
        "gn:id":5099313
    },
    "wof:country":"US",
    "wof:geomhash":"0d91a803c5af576a0b58ad5b591069f1",
    "wof:hierarchy":[
        {
            "country_id":85633793,
            "locality_id":1209325721
        }
    ],
    "wof:id":1209325721,
    "wof:lastmodified":1536290540,
    "wof:name":"Hopewell",
    "wof:parent_id":85633793,
    "wof:placetype":"locality",
    "wof:repo":"whosonfirst-data-admin-us",
    "wof:superseded_by":[],
    "wof:supersedes":[],
    "wof:tags":[]
},
  "bbox": [
    -74.5496,
    41.04926,
    -74.5496,
    41.04926
],
  "geometry": {"coordinates":[-74.5496,41.04926],"type":"Point"}
}