{
  "id": 1209635125,
  "type": "Feature",
  "properties": {
    "edtf:cessation":"uuuu",
    "edtf:inception":"uuuu",
    "geom:area":0.0,
    "geom:area_square_m":0.0,
    "geom:bbox":"-80.09087,37.29458,-80.09087,37.29458",
    "geom:latitude":37.29458,
    "geom:longitude":-80.09087,
    "gn:admin1_code":"VA",
    "gn:admin2_code":"775",
    "gn:asciiname":"Woodlawn",
    "gn:country_code":"US",
    "gn:dem":346,
    "gn:elevation":"347.0",
    "gn:feature_class":"P",
    "gn:feature_code":"PPL",
    "gn:geonameid":4794533,
    "gn:latitude":37.29458,
    "gn:longitude":-80.09087,
    "gn:modification_date":"2006-01-15",
    "gn:name":"Woodlawn",
    "gn:population":0,
    "gn:timezone":"America/New_York",
    "iso:country":"US",
    "mz:hierarchy_label":1,
    "mz:is_current":-1,
    "src:geom":"geonames",
    "wof:belongsto":[
        85633793
    ],
    "wof:breaches":[],
    "wof:concordances":{
        "gn:id":4794533
    },
    "wof:country":"US",
    "wof:geomhash":"25dc8633240cbe31bae64b530186d6cf",
    "wof:hierarchy":[
        {
            "country_id":85633793,
            "locality_id":1209635125
        }
    ],
    "wof:id":1209635125,
    "wof:lastmodified":1536281069,
    "wof:name":"Woodlawn",
    "wof:parent_id":85633793,
    "wof:placetype":"locality",
    "wof:repo":"whosonfirst-data-admin-us",
    "wof:superseded_by":[],
    "wof:supersedes":[],
    "wof:tags":[]
},
  "bbox": [
    -80.09087,
    37.29458,
    -80.09087,
    37.29458
],
  "geometry": {"coordinates":[-80.09087,37.29458],"type":"Point"}
}