{
  "id": 85893203,
  "type": "Feature",
  "properties": {"wof:repo":"whosonfirst-data-admin-us",
    "src:geom":"quattroshapes",
    "wof:geomhash":"d737a5d7ea01c9b61dbbe26ce15dde80",
    "wof:id":85893203
},
  "bbox": [
    -122.66699894441163,
    45.520781704075446,
    -122.65372988591042,
    45.526554594300066
],
  "geometry": {"coordinates":[[[-122.66098022499989,45.52655459173776],[-122.66098022499989,45.52559248780010],[-122.65960693400004,45.52559248780010],[-122.65909510436330,45.52559248541728],[-122.65737217823852,45.52559248780018],[-122.65686035199988,45.52559248780010],[-122.65686035199988,45.52463036228401],[-122.65548706099995,45.52463036222220],[-122.65548706099995,45.52403350754408],[-122.65480041524992,45.52370681904604],[-122.65372988591042,45.52421614597860],[-122.65397019626488,45.52318714837510],[-122.65385784448065,45.52270606527527],[-122.65411377000000,45.52234078600019],[-122.65411376999992,45.52174389700009],[-122.65411376999984,45.52101333168703],[-122.65548706099995,45.52166667820482],[-122.65677541093655,45.52105374260368],[-122.65686035199980,45.52096981224254],[-122.65700578052031,45.52108157748235],[-122.65720367424981,45.52155232671690],[-122.65733789478830,45.52174389701572],[-122.65754699694284,45.52204234435233],[-122.65767496062648,45.52222498461693],[-122.65823364299990,45.52222498460593],[-122.65837721553510,45.52222498420038],[-122.65839359701545,45.52229512688457],[-122.65874862674988,45.52259916421561],[-122.65874862674988,45.52270159736425],[-122.65875175996064,45.52270606940051],[-122.65892028799988,45.52294660975427],[-122.65892028799988,45.52318714940007],[-122.65892028799988,45.52336979012678],[-122.65912937742485,45.52366822530009],[-122.65960693400004,45.52366822530009],[-122.65960693456191,45.52174389455642],[-122.65922303867285,45.52119597081823],[-122.65931979157170,45.52078170407545],[-122.65960693410705,45.52078170557478],[-122.66098022499997,45.52078170545026],[-122.66235351599991,45.52078170545026],[-122.66372680699993,45.52078170545026],[-122.66510009800007,45.52078170577427],[-122.66538724042820,45.52078170407545],[-122.66548399332689,45.52119597081823],[-122.66510009799987,45.52174389460849],[-122.66510009799987,45.52234078600019],[-122.66578674324978,45.52266746636072],[-122.66578674314897,45.52270606940006],[-122.66578674315608,45.52318714875950],[-122.66647338885406,45.52318714880225],[-122.66681671149985,45.52367717503587],[-122.66681671149985,45.52419685161426],[-122.66699894441163,45.52463036067546],[-122.66647338900000,45.52463036234299],[-122.66510009800007,45.52463036238457],[-122.66510009800007,45.52559248780010],[-122.66433233611781,45.52559248780010],[-122.66422151338620,45.52575067047123],[-122.66388904666334,45.52559248780010],[-122.66235351599991,45.52559248780010],[-122.66235351599991,45.52618930237624],[-122.66235351599991,45.52655459430007],[-122.66209760201133,45.52655459190846],[-122.66098022499989,45.52655459173776]]],"type":"Polygon"}
}