{
  "id": 1126101837,
  "type": "Feature",
  "properties": {
    "edtf:cessation":"uuuu",
    "edtf:inception":"uuuu",
    "geom:area":0.0,
    "geom:area_square_m":0.0,
    "geom:bbox":"-79.95395,39.61897,-79.95395,39.61897",
    "geom:latitude":39.61897,
    "geom:longitude":-79.95395,
    "gn:gn_country":"US",
    "gn:gn_fcode":"PPLX",
    "gn:gn_pop":0,
    "iso:country":"US",
    "lbl:latitude":39.61897,
    "lbl:longitude":-79.95395,
    "mz:hierarchy_label":1,
    "mz:is_current":-1,
    "mz:note":"Quattroshapes Point Gazetteer import 20170519",
    "qs_pg:aaroncc":"US",
    "qs_pg:gn_country":"US",
    "qs_pg:gn_fcode":"PPLX",
    "qs_pg:gn_id":4822846,
    "qs_pg:gn_pop":0,
    "qs_pg:name":"South Park",
    "qs_pg:name_adm0":"United States",
    "qs_pg:name_adm1":"West Virginia",
    "qs_pg:photos":1,
    "qs_pg:photos_1k":1,
    "qs_pg:photos_9k":1,
    "qs_pg:photos_9r":1,
    "qs_pg:photos_all":1,
    "qs_pg:photos_sr":1,
    "qs_pg:pop_sr":0,
    "qs_pg:qs_id":1187060,
    "qs_pg:qs_pg_placetype":"neighbourhood",
    "qs_pg:qs_pg_placetype_gp":"Suburb",
    "qs_pg:woe_adm0":23424977,
    "qs_pg:woe_id":2496586,
    "src:geom":"qs_pg",
    "src:lbl:centroid":"qs_pg",
    "woe:adm0_id":23424977,
    "woe:name_adm0":"United States",
    "woe:name_adm1":"West Virginia",
    "woe:placetype":"Suburb",
    "wof:belongsto":[
        102191575,
        85633793,
        101731747,
        102082587,
        85688589
    ],
    "wof:breaches":[],
    "wof:concordances":{
        "gn:id":4822846,
        "gp:id":2496586,
        "qs_pg:id":1187060
    },
    "wof:country":"US",
    "wof:created":1497316218,
    "wof:geomhash":"cdb699deb2faf615b6763c1c69f8a4bb",
    "wof:hierarchy":[
        {
            "continent_id":102191575,
            "country_id":85633793,
            "county_id":102082587,
            "locality_id":101731747,
            "neighbourhood_id":1126101837,
            "region_id":85688589
        }
    ],
    "wof:id":1126101837,
    "wof:lastmodified":1509412162,
    "wof:name":"South Park",
    "wof:parent_id":101731747,
    "wof:placetype":"neighbourhood",
    "wof:repo":"whosonfirst-data-admin-us",
    "wof:superseded_by":[],
    "wof:supersedes":[],
    "wof:tags":[]
},
  "bbox": [
    -79.95395,
    39.61897,
    -79.95395,
    39.61897
],
  "geometry": {"coordinates":[-79.95395000000001,39.61897],"type":"Point"}
}