{
  "id": 420525145,
  "type": "Feature",
  "properties": {
    "edtf:cessation":"uuuu",
    "edtf:inception":"uuuu",
    "geom:area":0.0,
    "geom:area_square_m":2493970.351525,
    "geom:bbox":"-89.159111,31.680136,-89.159111,31.680136",
    "geom:latitude":31.680136,
    "geom:longitude":-89.159111,
    "iso:country":"US",
    "lbl:latitude":31.680136,
    "lbl:longitude":-89.159111,
    "mz:hierarchy_label":0,
    "mz:is_current":-1,
    "name:eng_x_preferred":[
        "Queensburg"
    ],
    "name:unk_x_variant":[
        "Wausau"
    ],
    "src:geom":"mz",
    "src:geom_alt":[
        "quattroshapes_pg",
        "zetashapes"
    ],
    "src:lbl":"mapshaper",
    "src:population":"zetashapes",
    "wof:belongsto":[
        102191575,
        85633793,
        85969987,
        102085901,
        85688579
    ],
    "wof:breaches":[],
    "wof:concordances":{
        "gn:id":4442672,
        "gp:id":2477768,
        "qs_pg:id":1162148
    },
    "wof:country":"US",
    "wof:geomhash":"5eb89018c1fc073caaf181420213f7e7",
    "wof:hierarchy":[
        {
            "continent_id":102191575,
            "country_id":85633793,
            "county_id":102085901,
            "locality_id":85969987,
            "neighbourhood_id":420525145,
            "region_id":85688579
        }
    ],
    "wof:id":420525145,
    "wof:lastmodified":1533595767,
    "wof:name":"Queensburg",
    "wof:parent_id":85969987,
    "wof:placetype":"neighbourhood",
    "wof:population":355,
    "wof:population_rank":2,
    "wof:repo":"whosonfirst-data-admin-us",
    "wof:superseded_by":[],
    "wof:supersedes":[],
    "wof:tags":[],
    "zs:area_m":2511963.589444,
    "zs:blockids":[
        280679506001072,
        280679506001044,
        280679506001105,
        280679506001080,
        280679506001070,
        280679506005024,
        280679505002015,
        280679506001084
    ],
    "zs:housing10":173,
    "zs:id":2477768,
    "zs:label":"Queensburg",
    "zs:pop10":355
},
  "bbox": [
    -89.159111,
    31.680136,
    -89.159111,
    31.680136
],
  "geometry": {"coordinates":[-89.159111,31.680136],"type":"Point"}
}