{
  "id": 1125407625,
  "type": "Feature",
  "properties": {
    "edtf:cessation":"2017-05-19",
    "edtf:inception":"uuuu",
    "geom:area":0.0,
    "geom:area_square_m":0.0,
    "geom:bbox":"-78.37946,42.48006,-78.37946,42.48006",
    "geom:latitude":42.48006,
    "geom:longitude":-78.37946,
    "gn:gn_country":"US",
    "gn:gn_fcode":"ADMD",
    "gn:gn_pop":0,
    "gn:population":2335,
    "iso:country":"US",
    "lbl:latitude":42.48006,
    "lbl:longitude":-78.37946,
    "mz:hierarchy_label":1,
    "mz:is_current":0,
    "mz:note":"Quattroshapes Point Gazetteer import 20170519",
    "qs_pg:aaroncc":"US",
    "qs_pg:gn_country":"US",
    "qs_pg:gn_fcode":"ADMD",
    "qs_pg:gn_id":4833140,
    "qs_pg:gn_pop":0,
    "qs_pg:name":"Town of Freedom",
    "qs_pg:photos_9r":0,
    "qs_pg:photos_sr":0,
    "qs_pg:pop_sr":0,
    "qs_pg:qs_id":1152579,
    "qs_pg:qs_pg_placetype":"localadmin",
    "src:geom":"qs_pg",
    "src:lbl:centroid":"qs_pg",
    "src:population":"geonames",
    "wof:belongsto":[
        85633793
    ],
    "wof:breaches":[],
    "wof:concordances":{
        "gn:id":4833140,
        "qs_pg:id":1152579
    },
    "wof:country":"US",
    "wof:created":1497049746,
    "wof:geomhash":"ead5aa5f86d0f99252b43d0298aa3a8f",
    "wof:hierarchy":[
        {
            "country_id":85633793,
            "localadmin_id":1125407625
        }
    ],
    "wof:id":1125407625,
    "wof:lastmodified":1505186930,
    "wof:name":"Town of Freedom",
    "wof:parent_id":-1,
    "wof:placetype":"localadmin",
    "wof:population":2335,
    "wof:population_rank":4,
    "wof:repo":"whosonfirst-data-admin-us",
    "wof:superseded_by":[],
    "wof:supersedes":[],
    "wof:tags":[]
},
  "bbox": [
    -78.37946,
    42.48006,
    -78.37946,
    42.48006
],
  "geometry": {"coordinates":[-78.37945999999999,42.48006],"type":"Point"}
}