{
  "id": 1125406511,
  "type": "Feature",
  "properties": {
    "edtf:cessation":"2017-05-19",
    "edtf:inception":"uuuu",
    "geom:area":0.0,
    "geom:area_square_m":0.0,
    "geom:bbox":"-96.86557,40.90874,-96.86557,40.90874",
    "geom:latitude":40.90874,
    "geom:longitude":-96.86557,
    "gn:gn_country":"US",
    "gn:gn_fcode":"ADMD",
    "gn:gn_pop":382,
    "gn:population":382,
    "iso:country":"US",
    "lbl:latitude":40.90874,
    "lbl:longitude":-96.86557,
    "mz:hierarchy_label":1,
    "mz:is_current":0,
    "mz:note":"Quattroshapes Point Gazetteer import 20170519",
    "qs_pg:aaroncc":"US",
    "qs_pg:gn_country":"US",
    "qs_pg:gn_fcode":"ADMD",
    "qs_pg:gn_id":7166899,
    "qs_pg:gn_pop":382,
    "qs_pg:name":"Village of Malcolm",
    "qs_pg:photos_9r":0,
    "qs_pg:photos_sr":0,
    "qs_pg:pop_sr":2,
    "qs_pg:qs_id":661687,
    "qs_pg:qs_pg_placetype":"localadmin",
    "src:geom":"qs_pg",
    "src:lbl:centroid":"qs_pg",
    "src:population":"geonames",
    "wof:belongsto":[
        85633793
    ],
    "wof:breaches":[],
    "wof:concordances":{
        "gn:id":7166899,
        "qs_pg:id":661687
    },
    "wof:country":"US",
    "wof:created":1497049670,
    "wof:geomhash":"e5cee33f12176cabe308db5e5c912fdb",
    "wof:hierarchy":[
        {
            "country_id":85633793,
            "localadmin_id":1125406511
        }
    ],
    "wof:id":1125406511,
    "wof:lastmodified":1505187071,
    "wof:name":"Village of Malcolm",
    "wof:parent_id":-1,
    "wof:placetype":"localadmin",
    "wof:population":382,
    "wof:population_rank":2,
    "wof:repo":"whosonfirst-data-admin-us",
    "wof:superseded_by":[],
    "wof:supersedes":[],
    "wof:tags":[]
},
  "bbox": [
    -96.86557,
    40.90874,
    -96.86557,
    40.90874
],
  "geometry": {"coordinates":[-96.86557000000001,40.90874],"type":"Point"}
}