{
  "id": 1125310463,
  "type": "Feature",
  "properties": {
    "edtf:cessation":"2017-05-19",
    "edtf:inception":"uuuu",
    "geom:area":0.0,
    "geom:area_square_m":0.0,
    "geom:bbox":"-90.22402,43.65303,-90.22402,43.65303",
    "geom:latitude":43.65303,
    "geom:longitude":-90.22402,
    "gn:gn_country":"US",
    "gn:gn_fcode":"ADMD",
    "gn:gn_pop":816,
    "gn:population":816,
    "iso:country":"US",
    "lbl:latitude":43.65303,
    "lbl:longitude":-90.22402,
    "mz:hierarchy_label":1,
    "mz:is_current":0,
    "mz:note":"Quattroshapes Point Gazetteer import 20170519",
    "qs_pg:aaroncc":"US",
    "qs_pg:gn_country":"US",
    "qs_pg:gn_fcode":"ADMD",
    "qs_pg:gn_id":5279550,
    "qs_pg:gn_pop":816,
    "qs_pg:name":"Village of Wonewoc",
    "qs_pg:photos_9r":0,
    "qs_pg:photos_sr":0,
    "qs_pg:pop_sr":2,
    "qs_pg:qs_id":610129,
    "qs_pg:qs_pg_placetype":"localadmin",
    "src:geom":"qs_pg",
    "src:lbl:centroid":"qs_pg",
    "src:population":"geonames",
    "wof:belongsto":[
        85633793
    ],
    "wof:breaches":[],
    "wof:concordances":{
        "gn:id":5279550,
        "qs_pg:id":610129
    },
    "wof:country":"US",
    "wof:created":1497043949,
    "wof:geomhash":"ef37d1907fcdf89536b8efedd5c9317b",
    "wof:hierarchy":[
        {
            "country_id":85633793,
            "localadmin_id":1125310463
        }
    ],
    "wof:id":1125310463,
    "wof:lastmodified":1505186995,
    "wof:name":"Village of Wonewoc",
    "wof:parent_id":-1,
    "wof:placetype":"localadmin",
    "wof:population":816,
    "wof:population_rank":2,
    "wof:repo":"whosonfirst-data-admin-us",
    "wof:superseded_by":[],
    "wof:supersedes":[],
    "wof:tags":[]
},
  "bbox": [
    -90.22402,
    43.65303,
    -90.22402,
    43.65303
],
  "geometry": {"coordinates":[-90.22402,43.65303],"type":"Point"}
}