{
  "id": 1125353713,
  "type": "Feature",
  "properties": {
    "edtf:cessation":"uuuu",
    "edtf:deprecated":"2017-11-04",
    "edtf:inception":"uuuu",
    "geom:area":0.0,
    "geom:area_square_m":0.0,
    "geom:bbox":"-90.04117,40.56308,-90.04117,40.56308",
    "geom:latitude":40.56308,
    "geom:longitude":-90.04117,
    "gn:gn_country":"US",
    "gn:gn_fcode":"ADMD",
    "gn:gn_pop":14704,
    "gn:population":14704,
    "iso:country":"US",
    "lbl:latitude":40.56308,
    "lbl:longitude":-90.04117,
    "mz:hierarchy_label":1,
    "mz:is_current":0,
    "mz:note":"Quattroshapes Point Gazetteer import 20170519",
    "qs_pg:aaroncc":"US",
    "qs_pg:gn_country":"US",
    "qs_pg:gn_fcode":"ADMD",
    "qs_pg:gn_id":7316729,
    "qs_pg:gn_pop":14704,
    "qs_pg:name":"City of Canton",
    "qs_pg:photos_9r":0,
    "qs_pg:photos_sr":0,
    "qs_pg:pop_sr":6,
    "qs_pg:qs_id":682739,
    "qs_pg:qs_pg_placetype":"localadmin",
    "src:geom":"qs_pg",
    "src:lbl:centroid":"qs_pg",
    "src:population":"geonames",
    "wof:belongsto":[
        85633793
    ],
    "wof:breaches":[],
    "wof:concordances":{
        "gn:id":7316729,
        "qs_pg:id":682739
    },
    "wof:country":"US",
    "wof:created":1497046338,
    "wof:geomhash":"f5f8bb44e3f0d895072bbd8a3fe3e06d",
    "wof:hierarchy":[
        {
            "country_id":85633793,
            "localadmin_id":1125353713
        }
    ],
    "wof:id":1125353713,
    "wof:lastmodified":1509752638,
    "wof:name":"City of Canton",
    "wof:parent_id":-1,
    "wof:placetype":"localadmin",
    "wof:population":14704,
    "wof:population_rank":6,
    "wof:repo":"whosonfirst-data-admin-us",
    "wof:superseded_by":[
        85939177
    ],
    "wof:supersedes":[],
    "wof:tags":[]
},
  "bbox": [
    -90.04117,
    40.56308,
    -90.04117,
    40.56308
],
  "geometry": {"coordinates":[-90.04116999999999,40.56308],"type":"Point"}
}