{
  "id": 1310224765,
  "type": "Feature",
  "properties": {
    "edtf:cessation":"2018-09-07",
    "edtf:inception":"uuuu",
    "geom:area":0.0,
    "geom:area_square_m":0.0,
    "geom:bbox":"-92.2935,37.21672,-92.2935,37.21672",
    "geom:latitude":37.21672,
    "geom:longitude":-92.2935,
    "gn:admin1_code":"MO",
    "gn:admin2_code":"229.0",
    "gn:admin3_code":"80728.0",
    "gn:asciiname":"Antler (historical)",
    "gn:country_code":"US",
    "gn:dem":459,
    "gn:elevation":"457.0",
    "gn:feature_class":"P",
    "gn:feature_code":"PPLQ",
    "gn:geonameid":4374960,
    "gn:latitude":37.21672,
    "gn:longitude":-92.2935,
    "gn:modification_date":"2017-05-23",
    "gn:name":"Antler (historical)",
    "gn:population":0,
    "gn:timezone":"America/Chicago",
    "iso:country":"US",
    "mz:hierarchy_label":1,
    "mz:is_current":0,
    "src:geom":"geonames",
    "wof:belongsto":[
        85688661,
        102191575,
        404517975,
        85633793,
        102080801
    ],
    "wof:breaches":[],
    "wof:concordances":{
        "gn:id":4374960
    },
    "wof:country":"US",
    "wof:geomhash":"3b3f00233df1397e4457d8b769ce1a28",
    "wof:hierarchy":[
        {
            "continent_id":102191575,
            "country_id":85633793,
            "county_id":102080801,
            "localadmin_id":404517975,
            "locality_id":1310224765,
            "region_id":85688661
        }
    ],
    "wof:id":1310224765,
    "wof:lastmodified":1536823596,
    "wof:name":"Antler (historical)",
    "wof:parent_id":404517975,
    "wof:placetype":"locality",
    "wof:repo":"whosonfirst-data-admin-us",
    "wof:superseded_by":[],
    "wof:supersedes":[],
    "wof:tags":[]
},
  "bbox": [
    -92.2935,
    37.21672,
    -92.2935,
    37.21672
],
  "geometry": {"coordinates":[-92.29349999999999,37.21672],"type":"Point"}
}