{
  "id": 85825307,
  "type": "Feature",
  "properties": {"wof:repo":"whosonfirst-data-admin-us",
    "src:geom":"quattroshapes",
    "wof:geomhash":"6dfccb217a3f36d461f6edd7f0d6bd64",
    "wof:id":85825307
},
  "bbox": [
    -86.20697021484995,
    39.835959000550034,
    -86.18244587210091,
    39.85282932722522
],
  "geometry": {"coordinates":[[[-86.20034008131114,39.85281748364613],[-86.19873051850357,39.85072092500006],[-86.19873046879994,39.85072092500006],[-86.19873046880002,39.85072086025798],[-86.19711156483049,39.84861213415022],[-86.19323730469972,39.84861213415022],[-86.19049072267489,39.85040087871734],[-86.18244587210091,39.84516157310176],[-86.18281792021048,39.84338483696418],[-86.18450543765982,39.84228595595026],[-86.18774409088692,39.83806818000015],[-86.18774414060005,39.83806811525763],[-86.18936364131199,39.83595900055003],[-86.19323730469972,39.83595900055003],[-86.19873046877490,39.83595900055003],[-86.20131288457912,39.83764051999400],[-86.20287082020815,39.84169839403388],[-86.20697021484995,39.84347808339679],[-86.20697021484995,39.84714326122487],[-86.20422363280005,39.85072086025772],[-86.20422363280005,39.85072092500006],[-86.20422358309625,39.85072092500015],[-86.20260492777669,39.85282932722522],[-86.20036129675333,39.85282932722522],[-86.20034008131114,39.85281748364613]]],"type":"Polygon"}
}