{
  "id": 1209023819,
  "type": "Feature",
  "properties": {
    "edtf:cessation":"2018-09-06",
    "edtf:inception":"uuuu",
    "geom:area":0.0,
    "geom:area_square_m":0.0,
    "geom:bbox":"-164.43675,64.54556,-164.43675,64.54556",
    "geom:latitude":64.54556,
    "geom:longitude":-164.43675,
    "gn:admin1_code":"AK",
    "gn:admin2_code":"180.0",
    "gn:asciiname":"Solomon (historical)",
    "gn:country_code":"US",
    "gn:dem":1,
    "gn:feature_class":"P",
    "gn:feature_code":"PPLQ",
    "gn:geonameid":11609909,
    "gn:latitude":64.54556,
    "gn:longitude":-164.43675,
    "gn:modification_date":"2017-07-14",
    "gn:name":"Solomon (historical)",
    "gn:population":0,
    "gn:timezone":"America/Nome",
    "iso:country":"US",
    "mz:hierarchy_label":1,
    "mz:is_current":0,
    "src:geom":"geonames",
    "wof:belongsto":[
        85633793
    ],
    "wof:breaches":[],
    "wof:concordances":{
        "gn:id":11609909
    },
    "wof:country":"US",
    "wof:geomhash":"bc5cda7dab435f12f8863e63f4082d69",
    "wof:hierarchy":[
        {
            "country_id":85633793,
            "locality_id":1209023819
        }
    ],
    "wof:id":1209023819,
    "wof:lastmodified":1536300065,
    "wof:name":"Solomon (historical)",
    "wof:parent_id":85633793,
    "wof:placetype":"locality",
    "wof:repo":"whosonfirst-data-admin-us",
    "wof:superseded_by":[],
    "wof:supersedes":[],
    "wof:tags":[]
},
  "bbox": [
    -164.43675,
    64.54556,
    -164.43675,
    64.54556
],
  "geometry": {"coordinates":[-164.43674999999999,64.54555999999999],"type":"Point"}
}