{
  "id": 1125408823,
  "type": "Feature",
  "properties": {
    "edtf:cessation":"uuuu",
    "edtf:deprecated":"2017-11-04",
    "edtf:inception":"uuuu",
    "geom:area":0.0,
    "geom:area_square_m":0.0,
    "geom:bbox":"-95.11697,40.51873,-95.11697,40.51873",
    "geom:latitude":40.51873,
    "geom:longitude":-95.11697,
    "gn:gn_country":"US",
    "gn:gn_fcode":"ADMD",
    "gn:gn_pop":168,
    "gn:population":168,
    "iso:country":"US",
    "lbl:latitude":40.51873,
    "lbl:longitude":-95.11697,
    "mz:hierarchy_label":1,
    "mz:is_current":0,
    "mz:note":"Quattroshapes Point Gazetteer import 20170519",
    "qs_pg:aaroncc":"US",
    "qs_pg:gn_country":"US",
    "qs_pg:gn_fcode":"ADMD",
    "qs_pg:gn_id":7163531,
    "qs_pg:gn_pop":168,
    "qs_pg:name":"City of Elmo",
    "qs_pg:photos_9r":0,
    "qs_pg:photos_sr":0,
    "qs_pg:pop_sr":1,
    "qs_pg:qs_id":658502,
    "qs_pg:qs_pg_placetype":"localadmin",
    "src:geom":"qs_pg",
    "src:lbl:centroid":"qs_pg",
    "src:population":"geonames",
    "wof:belongsto":[
        85633793
    ],
    "wof:breaches":[],
    "wof:concordances":{
        "gn:id":7163531,
        "qs_pg:id":658502
    },
    "wof:country":"US",
    "wof:created":1497049831,
    "wof:geomhash":"159a3c5eae4f2118b1da4a2797ffb0d6",
    "wof:hierarchy":[
        {
            "country_id":85633793,
            "localadmin_id":1125408823
        }
    ],
    "wof:id":1125408823,
    "wof:lastmodified":1509752720,
    "wof:name":"City of Elmo",
    "wof:parent_id":-1,
    "wof:placetype":"localadmin",
    "wof:population":168,
    "wof:population_rank":1,
    "wof:repo":"whosonfirst-data-admin-us",
    "wof:superseded_by":[
        85971005
    ],
    "wof:supersedes":[],
    "wof:tags":[]
},
  "bbox": [
    -95.11697,
    40.51873,
    -95.11697,
    40.51873
],
  "geometry": {"coordinates":[-95.11696999999999,40.51873],"type":"Point"}
}