{
  "id": 1276466885,
  "type": "Feature",
  "properties": {
    "edtf:cessation":"uuuu",
    "edtf:inception":"uuuu",
    "geom:area":0.0,
    "geom:area_square_m":0.0,
    "geom:bbox":"-87.49391,39.76031,-87.49391,39.76031",
    "geom:latitude":39.76031,
    "geom:longitude":-87.49391,
    "gn:admin1_code":"IN",
    "gn:admin2_code":"165.0",
    "gn:admin3_code":"32962.0",
    "gn:asciiname":"Bono",
    "gn:country_code":"US",
    "gn:dem":192,
    "gn:elevation":"194.0",
    "gn:feature_class":"P",
    "gn:feature_code":"PPL",
    "gn:geonameid":4254778,
    "gn:latitude":39.76031,
    "gn:longitude":-87.49391,
    "gn:modification_date":"2017-05-23",
    "gn:name":"Bono",
    "gn:population":0,
    "gn:timezone":"America/Indiana/Indianapolis",
    "iso:country":"US",
    "mz:hierarchy_label":1,
    "mz:is_current":-1,
    "src:geom":"geonames",
    "wof:belongsto":[
        85688709,
        102191575,
        404502175,
        85633793,
        102087059
    ],
    "wof:breaches":[],
    "wof:concordances":{
        "gn:id":4254778
    },
    "wof:country":"US",
    "wof:geomhash":"212fcc0dd22061d6208c500f427e22c3",
    "wof:hierarchy":[
        {
            "continent_id":102191575,
            "country_id":85633793,
            "county_id":102087059,
            "localadmin_id":404502175,
            "locality_id":1276466885,
            "region_id":85688709
        }
    ],
    "wof:id":1276466885,
    "wof:lastmodified":1537093775,
    "wof:name":"Bono",
    "wof:parent_id":404502175,
    "wof:placetype":"locality",
    "wof:repo":"whosonfirst-data-admin-us",
    "wof:superseded_by":[],
    "wof:supersedes":[],
    "wof:tags":[]
},
  "bbox": [
    -87.49391,
    39.76031,
    -87.49391,
    39.76031
],
  "geometry": {"coordinates":[-87.49391,39.76031],"type":"Point"}
}