{
  "id": 1125945659,
  "type": "Feature",
  "properties": {
    "edtf:cessation":"uuuu",
    "edtf:deprecated":"2018-08-15",
    "edtf:inception":"uuuu",
    "edtf:superseded":"2018-08-15",
    "geom:area":0.0,
    "geom:area_square_m":0.0,
    "geom:bbox":"-81.41399,37.13484,-81.41399,37.13484",
    "geom:latitude":37.13484,
    "geom:longitude":-81.41399,
    "gn:gn_country":"US",
    "gn:gn_fcode":"PPL",
    "gn:gn_pop":937,
    "gn:population":937,
    "iso:country":"US",
    "lbl:latitude":37.13484,
    "lbl:longitude":-81.41399,
    "mz:hierarchy_label":1,
    "mz:is_current":0,
    "mz:note":"Quattroshapes Point Gazetteer import 20170519",
    "name:eng_x_preferred":[
        "Gratton"
    ],
    "name:unk_x_variant":[
        "Grattan"
    ],
    "qs_pg:aaroncc":"US",
    "qs_pg:gn_country":"US",
    "qs_pg:gn_fcode":"PPL",
    "qs_pg:gn_id":4761813,
    "qs_pg:gn_pop":937,
    "qs_pg:name":"Gratton",
    "qs_pg:name_adm0":"United States",
    "qs_pg:name_adm1":"Virginia",
    "qs_pg:photos_9r":0,
    "qs_pg:photos_sr":0,
    "qs_pg:pop_sr":2,
    "qs_pg:qs_id":1335529,
    "qs_pg:qs_pg_placetype":"locality",
    "qs_pg:qs_pg_placetype_gp":"Town",
    "qs_pg:woe_adm0":23424977,
    "qs_pg:woe_id":2413323,
    "src:geom":"qs_pg",
    "src:lbl:centroid":"qs_pg",
    "src:population":"geonames",
    "woe:adm0_id":23424977,
    "woe:name_adm0":"United States",
    "woe:name_adm1":"Virginia",
    "woe:placetype":"Town",
    "wof:belongsto":[
        102191575,
        85633793,
        85688747,
        102081049
    ],
    "wof:breaches":[],
    "wof:concordances":{
        "gn:id":4761813,
        "gp:id":2413323,
        "qs_pg:id":1335529
    },
    "wof:country":"US",
    "wof:created":1497297271,
    "wof:geomhash":"39f7ed014e781f3c2d25136f4c65ea8f",
    "wof:hierarchy":[
        {
            "continent_id":102191575,
            "country_id":85633793,
            "county_id":102081049,
            "locality_id":1125945659,
            "region_id":85688747
        }
    ],
    "wof:id":1125945659,
    "wof:lastmodified":1534379539,
    "wof:name":"Gratton",
    "wof:parent_id":102081049,
    "wof:placetype":"locality",
    "wof:population":937,
    "wof:population_rank":2,
    "wof:repo":"whosonfirst-data-admin-us",
    "wof:superseded_by":[
        101729093
    ],
    "wof:supersedes":[],
    "wof:tags":[]
},
  "bbox": [
    -81.41399,
    37.13484,
    -81.41399,
    37.13484
],
  "geometry": {"coordinates":[-81.41399,37.13484],"type":"Point"}
}