{
  "id": 1276564453,
  "type": "Feature",
  "properties": {
    "edtf:cessation":"uuuu",
    "edtf:inception":"uuuu",
    "geom:area":0.0,
    "geom:area_square_m":0.0,
    "geom:bbox":"-86.01774,32.68124,-86.01774,32.68124",
    "geom:latitude":32.68124,
    "geom:longitude":-86.01774,
    "gn:admin1_code":"AL",
    "gn:admin2_code":"51",
    "gn:asciiname":"Cotton",
    "gn:country_code":"US",
    "gn:dem":192,
    "gn:elevation":"195.0",
    "gn:feature_class":"P",
    "gn:feature_code":"PPL",
    "gn:geonameid":4057107,
    "gn:latitude":32.68124,
    "gn:longitude":-86.01774,
    "gn:modification_date":"2010-02-14",
    "gn:name":"Cotton",
    "gn:population":0,
    "gn:timezone":"America/Chicago",
    "iso:country":"US",
    "mz:hierarchy_label":1,
    "mz:is_current":-1,
    "name:eng_x_preferred":[
        "Cotton"
    ],
    "name:und_x_variant":[
        "Watson Chapel",
        "Cottons Store"
    ],
    "src:geom":"geonames",
    "wof:belongsto":[
        102191575,
        85633793,
        85688675,
        102085631
    ],
    "wof:breaches":[],
    "wof:concordances":{
        "gn:id":4057107
    },
    "wof:country":"US",
    "wof:geomhash":"6988a4ca7da7ef448fdc68ff8563886f",
    "wof:hierarchy":[
        {
            "continent_id":102191575,
            "country_id":85633793,
            "county_id":102085631,
            "locality_id":1276564453,
            "region_id":85688675
        }
    ],
    "wof:id":1276564453,
    "wof:lastmodified":1537712198,
    "wof:name":"Cotton",
    "wof:parent_id":102085631,
    "wof:placetype":"locality",
    "wof:repo":"whosonfirst-data-admin-us",
    "wof:superseded_by":[],
    "wof:supersedes":[],
    "wof:tags":[]
},
  "bbox": [
    -86.01774,
    32.68124,
    -86.01774,
    32.68124
],
  "geometry": {"coordinates":[-86.01774,32.68124],"type":"Point"}
}