{
  "id": 1242885297,
  "type": "Feature",
  "properties": {
    "edtf:cessation":"2018-09-06",
    "edtf:inception":"uuuu",
    "geom:area":0.0,
    "geom:area_square_m":0.0,
    "geom:bbox":"-92.02512,30.8688,-92.02512,30.8688",
    "geom:latitude":30.8688,
    "geom:longitude":-92.02512,
    "gn:admin1_code":"LA",
    "gn:admin2_code":"9.0",
    "gn:asciiname":"Gum Ridge (historical)",
    "gn:country_code":"US",
    "gn:dem":23,
    "gn:elevation":"22.0",
    "gn:feature_class":"P",
    "gn:feature_code":"PPLQ",
    "gn:geonameid":4326702,
    "gn:latitude":30.8688,
    "gn:longitude":-92.02512,
    "gn:modification_date":"2011-12-11",
    "gn:name":"Gum Ridge (historical)",
    "gn:population":0,
    "gn:timezone":"America/Chicago",
    "iso:country":"US",
    "mz:hierarchy_label":1,
    "mz:is_current":0,
    "src:geom":"geonames",
    "wof:belongsto":[
        102191575,
        85633793,
        85688735,
        102083799
    ],
    "wof:breaches":[],
    "wof:concordances":{
        "gn:id":4326702
    },
    "wof:country":"US",
    "wof:geomhash":"89c81c0dc24d4068fde3a0d4625a4296",
    "wof:hierarchy":[
        {
            "continent_id":102191575,
            "country_id":85633793,
            "county_id":102083799,
            "locality_id":1242885297,
            "region_id":85688735
        }
    ],
    "wof:id":1242885297,
    "wof:lastmodified":1536618256,
    "wof:name":"Gum Ridge (historical)",
    "wof:parent_id":102083799,
    "wof:placetype":"locality",
    "wof:repo":"whosonfirst-data-admin-us",
    "wof:superseded_by":[],
    "wof:supersedes":[],
    "wof:tags":[]
},
  "bbox": [
    -92.02512,
    30.8688,
    -92.02512,
    30.8688
],
  "geometry": {"coordinates":[-92.02512,30.8688],"type":"Point"}
}