{
  "id": 1125276691,
  "type": "Feature",
  "properties": {
    "edtf:cessation":"uuuu",
    "edtf:deprecated":"2017-11-04",
    "edtf:inception":"uuuu",
    "geom:area":0.0,
    "geom:area_square_m":0.0,
    "geom:bbox":"-83.68427,31.26921,-83.68427,31.26921",
    "geom:latitude":31.26921,
    "geom:longitude":-83.68427,
    "gn:gn_country":"US",
    "gn:gn_fcode":"ADMD",
    "gn:gn_pop":972,
    "gn:population":972,
    "iso:country":"US",
    "lbl:latitude":31.26921,
    "lbl:longitude":-83.68427,
    "mz:hierarchy_label":1,
    "mz:is_current":0,
    "mz:note":"Quattroshapes Point Gazetteer import 20170519",
    "qs_pg:aaroncc":"US",
    "qs_pg:gn_country":"US",
    "qs_pg:gn_fcode":"ADMD",
    "qs_pg:gn_id":7169971,
    "qs_pg:gn_pop":972,
    "qs_pg:name":"City of Norman Park",
    "qs_pg:photos_9r":0,
    "qs_pg:photos_sr":0,
    "qs_pg:pop_sr":2,
    "qs_pg:qs_id":662645,
    "qs_pg:qs_pg_placetype":"localadmin",
    "src:geom":"qs_pg",
    "src:lbl:centroid":"qs_pg",
    "src:population":"geonames",
    "wof:belongsto":[
        85633793
    ],
    "wof:breaches":[],
    "wof:concordances":{
        "gn:id":7169971,
        "qs_pg:id":662645
    },
    "wof:country":"US",
    "wof:created":1497042347,
    "wof:geomhash":"3006bf27d5cf42dd7c38a99bde20aabd",
    "wof:hierarchy":[
        {
            "country_id":85633793,
            "localadmin_id":1125276691
        }
    ],
    "wof:id":1125276691,
    "wof:lastmodified":1509752425,
    "wof:name":"City of Norman Park",
    "wof:parent_id":-1,
    "wof:placetype":"localadmin",
    "wof:population":972,
    "wof:population_rank":2,
    "wof:repo":"whosonfirst-data-admin-us",
    "wof:superseded_by":[
        85936781
    ],
    "wof:supersedes":[],
    "wof:tags":[]
},
  "bbox": [
    -83.68427,
    31.26921,
    -83.68427,
    31.26921
],
  "geometry": {"coordinates":[-83.68427,31.26921],"type":"Point"}
}