{
  "id": 85877311,
  "type": "Feature",
  "properties": {
    "edtf:cessation":"uuuu",
    "edtf:inception":"uuuu",
    "geom:area":0.0,
    "geom:area_square_m":3595458.650606,
    "geom:bbox":"-87.566447,37.962002,-87.566447,37.962002",
    "geom:latitude":37.962002,
    "geom:longitude":-87.566447,
    "gn:id":"",
    "iso:country":"US",
    "lbl:latitude":37.962002,
    "lbl:longitude":-87.566447,
    "mps:latitude":37.956094,
    "mps:longitude":-87.563119,
    "mz:hierarchy_label":0,
    "mz:is_current":-1,
    "mz:is_funky":0,
    "mz:is_hard_boundary":0,
    "mz:is_landuse_aoi":0,
    "mz:is_official":0,
    "mz:max_zoom":18.0,
    "mz:min_zoom":15.0,
    "mz:tier_locality":3,
    "name:eng_x_preferred":[
        "Riverside"
    ],
    "name:eng_x_variant":[
        "Riverside Historic District"
    ],
    "name:unk_x_variant":[
        "Riverside"
    ],
    "qs:gn_adm0_cc":"US",
    "qs:gn_id":0,
    "qs:gn_local":4257227,
    "qs:gn_nam_loc":"Evansville, Vanderburgh, Indiana, US",
    "qs:gn_namadm1":"IN",
    "qs:local_max":7165,
    "qs:local_sum":16261,
    "qs:localhoods":34,
    "qs:name":"Riverside",
    "qs:name_adm0":"United States",
    "qs:name_adm1":"Indiana",
    "qs:name_adm2":"Vanderburgh",
    "qs:name_local":"Evansville",
    "qs:photo_max":160,
    "qs:photo_sum":286,
    "qs:placetype":"Suburb",
    "qs:quad_count":15,
    "qs:woe_adm0":23424977,
    "qs:woe_adm1":2347573,
    "qs:woe_adm2":12588261,
    "qs:woe_lau":0,
    "qs:woe_local":2400767,
    "qs:woe_ver":"7.10.0",
    "src:geom":"mz",
    "src:geom_alt":[
        "quattroshapes",
        "quattroshapes_pg"
    ],
    "src:lbl:centroid":"yerbashapes",
    "wof:belongsto":[
        102191575,
        404502161,
        85633793,
        85942147,
        102087105,
        85688709
    ],
    "wof:breaches":[],
    "wof:concordances":{
        "gp:id":55858900,
        "qs:id":893785,
        "qs_pg:id":893785
    },
    "wof:country":"US",
    "wof:geomhash":"bdd06be5b1735e366975a6bf3bdfd29d",
    "wof:hierarchy":[
        {
            "continent_id":102191575,
            "country_id":85633793,
            "county_id":102087105,
            "localadmin_id":404502161,
            "locality_id":85942147,
            "neighbourhood_id":85877311,
            "region_id":85688709
        }
    ],
    "wof:id":85877311,
    "wof:lang":[
        "eng"
    ],
    "wof:lastmodified":1532373699,
    "wof:name":"Riverside",
    "wof:parent_id":85942147,
    "wof:placetype":"neighbourhood",
    "wof:repo":"whosonfirst-data-admin-us",
    "wof:superseded_by":[],
    "wof:supersedes":[],
    "wof:tags":[],
    "zs:blockids":[
        211010207012002
    ],
    "zs:housing10":0,
    "zs:pop10":0
},
  "bbox": [
    -87.566447,
    37.962002,
    -87.566447,
    37.962002
],
  "geometry": {"coordinates":[-87.566447,37.962002],"type":"Point"}
}