{
  "id": 1125347405,
  "type": "Feature",
  "properties": {
    "edtf:cessation":"uuuu",
    "edtf:deprecated":"2017-11-04",
    "edtf:inception":"uuuu",
    "geom:area":0.0,
    "geom:area_square_m":0.0,
    "geom:bbox":"-98.29593,34.77886,-98.29593,34.77886",
    "geom:latitude":34.77886,
    "geom:longitude":-98.29593,
    "gn:gn_country":"US",
    "gn:gn_fcode":"ADMD",
    "gn:gn_pop":2156,
    "gn:population":2156,
    "iso:country":"US",
    "lbl:latitude":34.77886,
    "lbl:longitude":-98.29593,
    "mz:hierarchy_label":1,
    "mz:is_current":0,
    "mz:note":"Quattroshapes Point Gazetteer import 20170519",
    "qs_pg:aaroncc":"US",
    "qs_pg:gn_country":"US",
    "qs_pg:gn_fcode":"ADMD",
    "qs_pg:gn_id":7173370,
    "qs_pg:gn_pop":2156,
    "qs_pg:name":"City of Elgin",
    "qs_pg:photos_9r":0,
    "qs_pg:photos_sr":0,
    "qs_pg:pop_sr":4,
    "qs_pg:qs_id":665935,
    "qs_pg:qs_pg_placetype":"localadmin",
    "src:geom":"qs_pg",
    "src:lbl:centroid":"qs_pg",
    "src:population":"geonames",
    "wof:belongsto":[
        85633793
    ],
    "wof:breaches":[],
    "wof:concordances":{
        "gn:id":7173370,
        "qs_pg:id":665935
    },
    "wof:country":"US",
    "wof:created":1497046000,
    "wof:geomhash":"a81e128f8129b40654c66e55c9e31255",
    "wof:hierarchy":[
        {
            "country_id":85633793,
            "localadmin_id":1125347405
        }
    ],
    "wof:id":1125347405,
    "wof:lastmodified":1509752599,
    "wof:name":"City of Elgin",
    "wof:parent_id":-1,
    "wof:placetype":"localadmin",
    "wof:population":2156,
    "wof:population_rank":4,
    "wof:repo":"whosonfirst-data-admin-us",
    "wof:superseded_by":[
        101714833
    ],
    "wof:supersedes":[],
    "wof:tags":[]
},
  "bbox": [
    -98.29593,
    34.77886,
    -98.29593,
    34.77886
],
  "geometry": {"coordinates":[-98.29593,34.77886],"type":"Point"}
}