{
  "id": 1277006361,
  "type": "Feature",
  "properties": {
    "edtf:cessation":"uuuu",
    "edtf:inception":"uuuu",
    "geom:area":0.0,
    "geom:area_square_m":0.0,
    "geom:bbox":"-82.0457,39.28507,-82.0457,39.28507",
    "geom:latitude":39.28507,
    "geom:longitude":-82.0457,
    "gn:admin1_code":"OH",
    "gn:admin2_code":"9",
    "gn:admin3_code":"11220.0",
    "gn:asciiname":"Lysander",
    "gn:country_code":"US",
    "gn:dem":243,
    "gn:elevation":"242.0",
    "gn:feature_class":"P",
    "gn:feature_code":"PPL",
    "gn:geonameid":4517283,
    "gn:latitude":39.28507,
    "gn:longitude":-82.0457,
    "gn:modification_date":"2017-05-23",
    "gn:name":"Lysander",
    "gn:population":0,
    "gn:timezone":"America/New_York",
    "iso:country":"US",
    "mz:hierarchy_label":1,
    "mz:is_current":-1,
    "src:geom":"geonames",
    "wof:belongsto":[
        85688485,
        102191575,
        404524823,
        85633793,
        102084755
    ],
    "wof:breaches":[],
    "wof:concordances":{
        "gn:id":4517283
    },
    "wof:country":"US",
    "wof:geomhash":"f2299bb6b18678b95245d05f991d6ade",
    "wof:hierarchy":[
        {
            "continent_id":102191575,
            "country_id":85633793,
            "county_id":102084755,
            "localadmin_id":404524823,
            "locality_id":1277006361,
            "region_id":85688485
        }
    ],
    "wof:id":1277006361,
    "wof:lastmodified":1536870554,
    "wof:name":"Lysander",
    "wof:parent_id":404524823,
    "wof:placetype":"locality",
    "wof:repo":"whosonfirst-data-admin-us",
    "wof:superseded_by":[],
    "wof:supersedes":[],
    "wof:tags":[]
},
  "bbox": [
    -82.0457,
    39.28507000000001,
    -82.0457,
    39.28507000000001
],
  "geometry": {"coordinates":[-82.0457,39.28507000000001],"type":"Point"}
}