{
  "id": 1343973757,
  "type": "Feature",
  "properties": {
    "edtf:cessation":"uuuu",
    "edtf:inception":"uuuu",
    "geom:area":0.0,
    "geom:area_square_m":0.0,
    "geom:bbox":"-120.51548,38.77796,-120.51548,38.77796",
    "geom:latitude":38.77796,
    "geom:longitude":-120.51548,
    "gn:admin1_code":"CA",
    "gn:admin2_code":"17.0",
    "gn:asciiname":"Van Vleck",
    "gn:country_code":"US",
    "gn:dem":1212,
    "gn:elevation":"1184.0",
    "gn:feature_class":"P",
    "gn:feature_code":"PPL",
    "gn:geonameid":5405709,
    "gn:latitude":38.77796,
    "gn:longitude":-120.51548,
    "gn:modification_date":"2010-02-19",
    "gn:name":"Van Vleck",
    "gn:population":0,
    "gn:timezone":"America/Los_Angeles",
    "iso:country":"US",
    "mz:hierarchy_label":1,
    "mz:is_current":-1,
    "src:geom":"geonames",
    "wof:belongsto":[
        102191575,
        85633793,
        85688637,
        102086953
    ],
    "wof:breaches":[],
    "wof:concordances":{
        "gn:id":5405709,
        "wk:page":"Van_Vleck%2C_California"
    },
    "wof:country":"US",
    "wof:geomhash":"8fecff103f3324df6b7d97a0679d1e37",
    "wof:hierarchy":[
        {
            "continent_id":102191575,
            "country_id":85633793,
            "county_id":102086953,
            "locality_id":1343973757,
            "region_id":85688637
        }
    ],
    "wof:id":1343973757,
    "wof:lastmodified":1537575641,
    "wof:name":"Van Vleck",
    "wof:parent_id":102086953,
    "wof:placetype":"locality",
    "wof:repo":"whosonfirst-data-admin-us",
    "wof:superseded_by":[],
    "wof:supersedes":[],
    "wof:tags":[]
},
  "bbox": [
    -120.51548,
    38.77796,
    -120.51548,
    38.77796
],
  "geometry": {"coordinates":[-120.51548,38.77796],"type":"Point"}
}