{
  "id": 1125286505,
  "type": "Feature",
  "properties": {
    "edtf:cessation":"uuuu",
    "edtf:deprecated":"2017-11-04",
    "edtf:inception":"uuuu",
    "geom:area":0.0,
    "geom:area_square_m":0.0,
    "geom:bbox":"-162.88298,61.94085,-162.88298,61.94085",
    "geom:latitude":61.94085,
    "geom:longitude":-162.88298,
    "gn:gn_country":"US",
    "gn:gn_fcode":"ADMD",
    "gn:gn_pop":568,
    "gn:population":568,
    "iso:country":"US",
    "lbl:latitude":61.94085,
    "lbl:longitude":-162.88298,
    "mz:hierarchy_label":1,
    "mz:is_current":0,
    "mz:note":"Quattroshapes Point Gazetteer import 20170519",
    "qs_pg:aaroncc":"US",
    "qs_pg:gn_country":"US",
    "qs_pg:gn_fcode":"ADMD",
    "qs_pg:gn_id":7117700,
    "qs_pg:gn_pop":568,
    "qs_pg:name":"City of Pilot Station",
    "qs_pg:photos_9r":0,
    "qs_pg:photos_sr":0,
    "qs_pg:pop_sr":2,
    "qs_pg:qs_id":656819,
    "qs_pg:qs_pg_placetype":"localadmin",
    "src:geom":"qs_pg",
    "src:lbl:centroid":"qs_pg",
    "src:population":"geonames",
    "wof:belongsto":[
        85633793
    ],
    "wof:breaches":[],
    "wof:concordances":{
        "gn:id":7117700,
        "qs_pg:id":656819
    },
    "wof:country":"US",
    "wof:created":1497042724,
    "wof:geomhash":"f086236948833e35c05f82e81fe6ba92",
    "wof:hierarchy":[
        {
            "country_id":85633793,
            "localadmin_id":1125286505
        }
    ],
    "wof:id":1125286505,
    "wof:lastmodified":1509752444,
    "wof:name":"City of Pilot Station",
    "wof:parent_id":-1,
    "wof:placetype":"localadmin",
    "wof:population":568,
    "wof:population_rank":2,
    "wof:repo":"whosonfirst-data-admin-us",
    "wof:superseded_by":[
        85915981
    ],
    "wof:supersedes":[],
    "wof:tags":[]
},
  "bbox": [
    -162.88298,
    61.94085,
    -162.88298,
    61.94085
],
  "geometry": {"coordinates":[-162.88298,61.94085],"type":"Point"}
}