{
  "id": 404521995,
  "type": "Feature",
  "properties": {
    "edtf:cessation":"uuuu",
    "edtf:inception":"uuuu",
    "geom:area":0.011266,
    "geom:area_square_m":102673251.037751,
    "geom:bbox":"-77.84085,42.471216,-77.719946,42.5686",
    "geom:latitude":42.520169,
    "geom:longitude":-77.780947,
    "iso:country":"US",
    "lbl:latitude":42.51987,
    "lbl:longitude":-77.780951,
    "mz:hierarchy_label":1,
    "mz:is_current":-1,
    "name:eng_x_preferred":[
        "Ossian"
    ],
    "qs:a0":"United States",
    "qs:a1":"New York",
    "qs:a1_lc":"36",
    "qs:a2":"Livingston",
    "qs:a2_lc":"36051",
    "qs:adm0":"United States",
    "qs:adm0_a3":"USA",
    "qs:la":"Ossian",
    "qs:la_lc":"3605155508",
    "qs:level":"localadmin",
    "qs:pop":789,
    "qs:source":"US Census",
    "qs:type":"town",
    "src:geom":"quattroshapes",
    "src:population":"quattroshapes",
    "wof:belongsto":[
        102191575,
        85633793,
        85688543,
        102082381
    ],
    "wof:breaches":[],
    "wof:concordances":{},
    "wof:country":"US",
    "wof:geomhash":"d0a28081969e7a6a5b19fd8f6d4dc756",
    "wof:hierarchy":[
        {
            "continent_id":102191575,
            "country_id":85633793,
            "county_id":102082381,
            "localadmin_id":404521995,
            "region_id":85688543
        }
    ],
    "wof:id":404521995,
    "wof:lastmodified":1505339770,
    "wof:name":"Ossian",
    "wof:parent_id":102082381,
    "wof:placetype":"localadmin",
    "wof:population":789,
    "wof:population_rank":2,
    "wof:repo":"whosonfirst-data-admin-us",
    "wof:superseded_by":[],
    "wof:supersedes":[],
    "wof:tags":[]
},
  "bbox": [
    -77.84085,
    42.471216,
    -77.719946,
    42.5686
],
  "geometry": {"coordinates":[[[-77.730276,42.471355],[-77.777281,42.472522],[-77.840231,42.474576],[-77.84067,42.499893],[-77.840694,42.517771],[-77.84085,42.52622],[-77.84084799999999,42.557438],[-77.84084799999999,42.5686],[-77.835852,42.568467],[-77.720557,42.565594],[-77.71996799999999,42.565604],[-77.71994599999999,42.56306],[-77.720617,42.535066],[-77.722673,42.47971],[-77.722964,42.471216],[-77.730276,42.471355]]],"type":"Polygon"}
}