{
  "id": 1125377015,
  "type": "Feature",
  "properties": {
    "edtf:cessation":"2017-05-19",
    "edtf:inception":"uuuu",
    "geom:area":0.0,
    "geom:area_square_m":0.0,
    "geom:bbox":"-78.05166,35.74127,-78.05166,35.74127",
    "geom:latitude":35.74127,
    "geom:longitude":-78.05166,
    "gn:gn_country":"US",
    "gn:gn_fcode":"ADMD",
    "gn:gn_pop":0,
    "iso:country":"US",
    "lbl:latitude":35.74127,
    "lbl:longitude":-78.05166,
    "mz:hierarchy_label":1,
    "mz:is_current":0,
    "mz:note":"Quattroshapes Point Gazetteer import 20170519",
    "name:eng_x_preferred":[
        "Old Fields Township"
    ],
    "qs_pg:aaroncc":"US",
    "qs_pg:gn_country":"US",
    "qs_pg:gn_fcode":"ADMD",
    "qs_pg:gn_id":4483267,
    "qs_pg:gn_pop":0,
    "qs_pg:name":"Township of Old Fields",
    "qs_pg:photos_9r":0,
    "qs_pg:photos_sr":0,
    "qs_pg:pop_sr":0,
    "qs_pg:qs_id":278305,
    "qs_pg:qs_pg_placetype":"localadmin",
    "src:geom":"qs_pg",
    "src:lbl:centroid":"qs_pg",
    "wof:belongsto":[
        85633793
    ],
    "wof:breaches":[],
    "wof:concordances":{
        "gn:id":4483267,
        "qs_pg:id":278305
    },
    "wof:country":"US",
    "wof:created":1497047808,
    "wof:geomhash":"cc460a6613497945d8082656baee918e",
    "wof:hierarchy":[
        {
            "country_id":85633793,
            "localadmin_id":1125377015
        }
    ],
    "wof:id":1125377015,
    "wof:lastmodified":1505248133,
    "wof:name":"Township of Old Fields",
    "wof:parent_id":-1,
    "wof:placetype":"localadmin",
    "wof:repo":"whosonfirst-data-admin-us",
    "wof:superseded_by":[],
    "wof:supersedes":[],
    "wof:tags":[]
},
  "bbox": [
    -78.05166,
    35.74127,
    -78.05166,
    35.74127
],
  "geometry": {"coordinates":[-78.05166,35.74127],"type":"Point"}
}