{
  "id": 1125305427,
  "type": "Feature",
  "properties": {
    "edtf:cessation":"2017-05-19",
    "edtf:inception":"uuuu",
    "geom:area":0.0,
    "geom:area_square_m":0.0,
    "geom:bbox":"-87.73538,41.12569,-87.73538,41.12569",
    "geom:latitude":41.12569,
    "geom:longitude":-87.73538,
    "gn:gn_country":"US",
    "gn:gn_fcode":"ADMD",
    "gn:gn_pop":528,
    "gn:population":528,
    "iso:country":"US",
    "lbl:latitude":41.12569,
    "lbl:longitude":-87.73538,
    "mz:hierarchy_label":1,
    "mz:is_current":0,
    "mz:note":"Quattroshapes Point Gazetteer import 20170519",
    "qs_pg:aaroncc":"US",
    "qs_pg:gn_country":"US",
    "qs_pg:gn_fcode":"ADMD",
    "qs_pg:gn_id":7167546,
    "qs_pg:gn_pop":528,
    "qs_pg:name":"Village of Sun River Terrace",
    "qs_pg:photos_9r":0,
    "qs_pg:photos_sr":0,
    "qs_pg:pop_sr":2,
    "qs_pg:qs_id":543673,
    "qs_pg:qs_pg_placetype":"localadmin",
    "src:geom":"qs_pg",
    "src:lbl:centroid":"qs_pg",
    "src:population":"geonames",
    "wof:belongsto":[
        85633793
    ],
    "wof:breaches":[],
    "wof:concordances":{
        "gn:id":7167546,
        "qs_pg:id":543673
    },
    "wof:country":"US",
    "wof:created":1497043659,
    "wof:geomhash":"b7c7162d500e611b8285d76fdcd92a02",
    "wof:hierarchy":[
        {
            "country_id":85633793,
            "localadmin_id":1125305427
        }
    ],
    "wof:id":1125305427,
    "wof:lastmodified":1505187079,
    "wof:name":"Village of Sun River Terrace",
    "wof:parent_id":-1,
    "wof:placetype":"localadmin",
    "wof:population":528,
    "wof:population_rank":2,
    "wof:repo":"whosonfirst-data-admin-us",
    "wof:superseded_by":[],
    "wof:supersedes":[],
    "wof:tags":[]
},
  "bbox": [
    -87.73538,
    41.12569,
    -87.73538,
    41.12569
],
  "geometry": {"coordinates":[-87.73538000000001,41.12569],"type":"Point"}
}