{
  "id": 1125269909,
  "type": "Feature",
  "properties": {
    "edtf:cessation":"2017-05-19",
    "edtf:inception":"uuuu",
    "geom:area":0.0,
    "geom:area_square_m":0.0,
    "geom:bbox":"-85.66953,32.55693,-85.66953,32.55693",
    "geom:latitude":32.55693,
    "geom:longitude":-85.66953,
    "gn:gn_country":"US",
    "gn:gn_fcode":"ADMD",
    "gn:gn_pop":965,
    "gn:population":965,
    "iso:country":"US",
    "lbl:latitude":32.55693,
    "lbl:longitude":-85.66953,
    "mz:hierarchy_label":1,
    "mz:is_current":0,
    "mz:note":"Quattroshapes Point Gazetteer import 20170519",
    "qs_pg:aaroncc":"US",
    "qs_pg:gn_country":"US",
    "qs_pg:gn_fcode":"ADMD",
    "qs_pg:gn_id":7172231,
    "qs_pg:gn_pop":965,
    "qs_pg:name":"Town of Notasulga",
    "qs_pg:photos_9r":0,
    "qs_pg:photos_sr":0,
    "qs_pg:pop_sr":2,
    "qs_pg:qs_id":664834,
    "qs_pg:qs_pg_placetype":"localadmin",
    "src:geom":"qs_pg",
    "src:lbl:centroid":"qs_pg",
    "src:population":"geonames",
    "wof:belongsto":[
        85633793
    ],
    "wof:breaches":[],
    "wof:concordances":{
        "gn:id":7172231,
        "qs_pg:id":664834
    },
    "wof:country":"US",
    "wof:created":1497042082,
    "wof:geomhash":"7a9df886d052723ddf42b2edb4a08335",
    "wof:hierarchy":[
        {
            "country_id":85633793,
            "localadmin_id":1125269909
        }
    ],
    "wof:id":1125269909,
    "wof:lastmodified":1505187115,
    "wof:name":"Town of Notasulga",
    "wof:parent_id":-1,
    "wof:placetype":"localadmin",
    "wof:population":965,
    "wof:population_rank":2,
    "wof:repo":"whosonfirst-data-admin-us",
    "wof:superseded_by":[],
    "wof:supersedes":[],
    "wof:tags":[]
},
  "bbox": [
    -85.66953,
    32.55693,
    -85.66953,
    32.55693
],
  "geometry": {"coordinates":[-85.66952999999999,32.55693],"type":"Point"}
}