{
  "id": 1293216267,
  "type": "Feature",
  "properties": {
    "edtf:cessation":"uuuu",
    "edtf:inception":"uuuu",
    "geom:area":0.0,
    "geom:area_square_m":0.0,
    "geom:bbox":"-88.49663,36.98586,-88.49663,36.98586",
    "geom:latitude":36.98586,
    "geom:longitude":-88.49663,
    "gn:admin1_code":"KY",
    "gn:admin2_code":"145.0",
    "gn:asciiname":"Rudolph",
    "gn:country_code":"US",
    "gn:dem":119,
    "gn:elevation":"116.0",
    "gn:feature_class":"P",
    "gn:feature_code":"PPL",
    "gn:geonameid":8503658,
    "gn:latitude":36.98586,
    "gn:longitude":-88.49663,
    "gn:modification_date":"2013-03-09",
    "gn:name":"Rudolph",
    "gn:population":0,
    "gn:timezone":"America/Chicago",
    "iso:country":"US",
    "mz:hierarchy_label":1,
    "mz:is_current":-1,
    "src:geom":"geonames",
    "wof:belongsto":[
        102191575,
        85633793,
        85688641,
        102084607
    ],
    "wof:breaches":[],
    "wof:concordances":{
        "gn:id":8503658
    },
    "wof:country":"US",
    "wof:geomhash":"b4b3609e0058590ea4d638ca52731eec",
    "wof:hierarchy":[
        {
            "continent_id":102191575,
            "country_id":85633793,
            "county_id":102084607,
            "locality_id":1293216267,
            "region_id":85688641
        }
    ],
    "wof:id":1293216267,
    "wof:lastmodified":1536680944,
    "wof:name":"Rudolph",
    "wof:parent_id":102084607,
    "wof:placetype":"locality",
    "wof:repo":"whosonfirst-data-admin-us",
    "wof:superseded_by":[],
    "wof:supersedes":[],
    "wof:tags":[]
},
  "bbox": [
    -88.49663000000002,
    36.98586,
    -88.49663000000002,
    36.98586
],
  "geometry": {"coordinates":[-88.49663000000002,36.98586],"type":"Point"}
}