{
  "id": 1125416719,
  "type": "Feature",
  "properties": {
    "edtf:cessation":"2017-05-19",
    "edtf:inception":"uuuu",
    "geom:area":0.0,
    "geom:area_square_m":0.0,
    "geom:bbox":"-81.08023,32.85203,-81.08023,32.85203",
    "geom:latitude":32.85203,
    "geom:longitude":-81.08023,
    "gn:gn_country":"US",
    "gn:gn_fcode":"ADMD",
    "gn:gn_pop":2162,
    "gn:population":2162,
    "iso:country":"US",
    "lbl:latitude":32.85203,
    "lbl:longitude":-81.08023,
    "mz:hierarchy_label":1,
    "mz:is_current":0,
    "mz:note":"Quattroshapes Point Gazetteer import 20170519",
    "qs_pg:aaroncc":"US",
    "qs_pg:gn_country":"US",
    "qs_pg:gn_fcode":"ADMD",
    "qs_pg:gn_id":7172020,
    "qs_pg:gn_pop":2162,
    "qs_pg:name":"Town of Varnville",
    "qs_pg:photos_9r":0,
    "qs_pg:photos_sr":0,
    "qs_pg:pop_sr":4,
    "qs_pg:qs_id":664625,
    "qs_pg:qs_pg_placetype":"localadmin",
    "src:geom":"qs_pg",
    "src:lbl:centroid":"qs_pg",
    "src:population":"geonames",
    "wof:belongsto":[
        85633793
    ],
    "wof:breaches":[],
    "wof:concordances":{
        "gn:id":7172020,
        "qs_pg:id":664625
    },
    "wof:country":"US",
    "wof:created":1497051475,
    "wof:geomhash":"21613ddc26dc9bf4de2fb360bab98ff2",
    "wof:hierarchy":[
        {
            "country_id":85633793,
            "localadmin_id":1125416719
        }
    ],
    "wof:id":1125416719,
    "wof:lastmodified":1505187113,
    "wof:name":"Town of Varnville",
    "wof:parent_id":-1,
    "wof:placetype":"localadmin",
    "wof:population":2162,
    "wof:population_rank":4,
    "wof:repo":"whosonfirst-data-admin-us",
    "wof:superseded_by":[],
    "wof:supersedes":[],
    "wof:tags":[]
},
  "bbox": [
    -81.08023,
    32.85203,
    -81.08023,
    32.85203
],
  "geometry": {"coordinates":[-81.08023,32.85203],"type":"Point"}
}