{
  "id": 1126074061,
  "type": "Feature",
  "properties": {
    "edtf:cessation":"uuuu",
    "edtf:deprecated":"2018-08-15",
    "edtf:inception":"uuuu",
    "edtf:superseded":"2018-08-15",
    "geom:area":0.0,
    "geom:area_square_m":0.0,
    "geom:bbox":"-70.112,44.59451,-70.112,44.59451",
    "geom:latitude":44.59451,
    "geom:longitude":-70.112,
    "gn:gn_country":"US",
    "gn:gn_fcode":"PPL",
    "gn:gn_pop":0,
    "iso:country":"US",
    "lbl:latitude":44.59451,
    "lbl:longitude":-70.112,
    "mz:hierarchy_label":1,
    "mz:is_current":0,
    "mz:note":"Quattroshapes Point Gazetteer import 20170519",
    "name:eng_x_preferred":[
        "North Chesterville"
    ],
    "name:unk_x_variant":[
        "Keith's Mills"
    ],
    "qs_pg:aaroncc":"US",
    "qs_pg:gn_country":"US",
    "qs_pg:gn_fcode":"PPL",
    "qs_pg:gn_id":4973540,
    "qs_pg:gn_pop":0,
    "qs_pg:name":"North Chesterville",
    "qs_pg:name_adm0":"United States",
    "qs_pg:name_adm1":"Maine",
    "qs_pg:photos":1,
    "qs_pg:photos_1k":1,
    "qs_pg:photos_9k":1,
    "qs_pg:photos_9r":1,
    "qs_pg:photos_all":1,
    "qs_pg:photos_sr":1,
    "qs_pg:pop_sr":0,
    "qs_pg:qs_id":908533,
    "qs_pg:qs_pg_placetype":"neighbourhood",
    "qs_pg:qs_pg_placetype_gp":"Suburb",
    "qs_pg:woe_adm0":23424977,
    "qs_pg:woe_id":2460793,
    "src:geom":"qs_pg",
    "src:lbl:centroid":"qs_pg",
    "woe:adm0_id":23424977,
    "woe:name_adm0":"United States",
    "woe:name_adm1":"Maine",
    "woe:placetype":"Suburb",
    "wof:belongsto":[
        102191575,
        404475449,
        85633793,
        102087433,
        85688769
    ],
    "wof:breaches":[],
    "wof:concordances":{
        "gn:id":4973540,
        "gp:id":2460793,
        "qs_pg:id":908533
    },
    "wof:country":"US",
    "wof:created":1497310577,
    "wof:geomhash":"09e65508cda3986c987f44da6d06e4b0",
    "wof:hierarchy":[
        {
            "continent_id":102191575,
            "country_id":85633793,
            "county_id":102087433,
            "localadmin_id":404475449,
            "locality_id":-1,
            "neighbourhood_id":1126074061,
            "region_id":85688769
        }
    ],
    "wof:id":1126074061,
    "wof:lastmodified":1534379781,
    "wof:name":"North Chesterville",
    "wof:parent_id":-1,
    "wof:placetype":"neighbourhood",
    "wof:repo":"whosonfirst-data-admin-us",
    "wof:superseded_by":[
        420522085
    ],
    "wof:supersedes":[],
    "wof:tags":[]
},
  "bbox": [
    -70.112,
    44.59451,
    -70.112,
    44.59451
],
  "geometry": {"coordinates":[-70.11199999999999,44.59451],"type":"Point"}
}