{
  "id": 1125408939,
  "type": "Feature",
  "properties": {
    "edtf:cessation":"uuuu",
    "edtf:deprecated":"2017-11-04",
    "edtf:inception":"uuuu",
    "geom:area":0.0,
    "geom:area_square_m":0.0,
    "geom:bbox":"-95.3451,37.92293,-95.3451,37.92293",
    "geom:latitude":37.92293,
    "geom:longitude":-95.3451,
    "gn:gn_country":"US",
    "gn:gn_fcode":"ADMD",
    "gn:gn_pop":564,
    "gn:population":564,
    "iso:country":"US",
    "lbl:latitude":37.92293,
    "lbl:longitude":-95.3451,
    "mz:hierarchy_label":1,
    "mz:is_current":0,
    "mz:note":"Quattroshapes Point Gazetteer import 20170519",
    "qs_pg:aaroncc":"US",
    "qs_pg:gn_country":"US",
    "qs_pg:gn_fcode":"ADMD",
    "qs_pg:gn_id":7163626,
    "qs_pg:gn_pop":564,
    "qs_pg:name":"City of Gas",
    "qs_pg:photos_9r":0,
    "qs_pg:photos_sr":0,
    "qs_pg:pop_sr":2,
    "qs_pg:qs_id":658597,
    "qs_pg:qs_pg_placetype":"localadmin",
    "src:geom":"qs_pg",
    "src:lbl:centroid":"qs_pg",
    "src:population":"geonames",
    "wof:belongsto":[
        85633793
    ],
    "wof:breaches":[],
    "wof:concordances":{
        "gn:id":7163626,
        "qs_pg:id":658597
    },
    "wof:country":"US",
    "wof:created":1497049838,
    "wof:geomhash":"06214f9bc0b4e3e5b9e836b532fb0b91",
    "wof:hierarchy":[
        {
            "country_id":85633793,
            "localadmin_id":1125408939
        }
    ],
    "wof:id":1125408939,
    "wof:lastmodified":1509752720,
    "wof:name":"City of Gas",
    "wof:parent_id":-1,
    "wof:placetype":"localadmin",
    "wof:population":564,
    "wof:population_rank":2,
    "wof:repo":"whosonfirst-data-admin-us",
    "wof:superseded_by":[
        85946081
    ],
    "wof:supersedes":[],
    "wof:tags":[]
},
  "bbox": [
    -95.3451,
    37.92293,
    -95.3451,
    37.92293
],
  "geometry": {"coordinates":[-95.3451,37.92293],"type":"Point"}
}