{
  "id": 1209131265,
  "type": "Feature",
  "properties": {
    "edtf:cessation":"2018-09-06",
    "edtf:inception":"uuuu",
    "geom:area":0.0,
    "geom:area_square_m":0.0,
    "geom:bbox":"-83.92769,36.20702,-83.92769,36.20702",
    "geom:latitude":36.20702,
    "geom:longitude":-83.92769,
    "gn:admin1_code":"TN",
    "gn:admin2_code":"173",
    "gn:asciiname":"Gabe (historical)",
    "gn:country_code":"US",
    "gn:dem":305,
    "gn:elevation":"304.0",
    "gn:feature_class":"P",
    "gn:feature_code":"PPLQ",
    "gn:geonameid":4624077,
    "gn:latitude":36.20702,
    "gn:longitude":-83.92769,
    "gn:modification_date":"2011-12-11",
    "gn:name":"Gabe (historical)",
    "gn:population":0,
    "gn:timezone":"America/New_York",
    "iso:country":"US",
    "mz:hierarchy_label":1,
    "mz:is_current":0,
    "src:geom":"geonames",
    "wof:belongsto":[
        85633793
    ],
    "wof:breaches":[],
    "wof:concordances":{
        "gn:id":4624077
    },
    "wof:country":"US",
    "wof:geomhash":"0dad692968a1ec29559db140cd00daac",
    "wof:hierarchy":[
        {
            "country_id":85633793,
            "locality_id":1209131265
        }
    ],
    "wof:id":1209131265,
    "wof:lastmodified":1536296796,
    "wof:name":"Gabe (historical)",
    "wof:parent_id":85633793,
    "wof:placetype":"locality",
    "wof:repo":"whosonfirst-data-admin-us",
    "wof:superseded_by":[],
    "wof:supersedes":[],
    "wof:tags":[]
},
  "bbox": [
    -83.92769,
    36.20702,
    -83.92769,
    36.20702
],
  "geometry": {"coordinates":[-83.92769,36.20702],"type":"Point"}
}