{
  "id": 1209234323,
  "type": "Feature",
  "properties": {
    "edtf:cessation":"uuuu",
    "edtf:inception":"uuuu",
    "geom:area":0.0,
    "geom:area_square_m":0.0,
    "geom:bbox":"-80.54398,38.85426,-80.54398,38.85426",
    "geom:latitude":38.85426,
    "geom:longitude":-80.54398,
    "gn:admin1_code":"WV",
    "gn:admin2_code":"7",
    "gn:asciiname":"Chapman",
    "gn:country_code":"US",
    "gn:dem":266,
    "gn:elevation":"263.0",
    "gn:feature_class":"P",
    "gn:feature_code":"PPL",
    "gn:geonameid":4801816,
    "gn:latitude":38.85426,
    "gn:longitude":-80.54398,
    "gn:modification_date":"2006-01-15",
    "gn:name":"Chapman",
    "gn:population":0,
    "gn:timezone":"America/New_York",
    "iso:country":"US",
    "mz:hierarchy_label":1,
    "mz:is_current":-1,
    "src:geom":"geonames",
    "wof:belongsto":[
        85633793
    ],
    "wof:breaches":[],
    "wof:concordances":{
        "gn:id":4801816
    },
    "wof:country":"US",
    "wof:geomhash":"b031820b6b56f07b1fc3a6afddd73a98",
    "wof:hierarchy":[
        {
            "country_id":85633793,
            "locality_id":1209234323
        }
    ],
    "wof:id":1209234323,
    "wof:lastmodified":1536293537,
    "wof:name":"Chapman",
    "wof:parent_id":85633793,
    "wof:placetype":"locality",
    "wof:repo":"whosonfirst-data-admin-us",
    "wof:superseded_by":[],
    "wof:supersedes":[],
    "wof:tags":[]
},
  "bbox": [
    -80.54398,
    38.85426,
    -80.54398,
    38.85426
],
  "geometry": {"coordinates":[-80.54398,38.85426],"type":"Point"}
}