{
  "id": 1125415655,
  "type": "Feature",
  "properties": {
    "edtf:cessation":"uuuu",
    "edtf:deprecated":"2017-11-04",
    "edtf:inception":"uuuu",
    "geom:area":0.0,
    "geom:area_square_m":0.0,
    "geom:bbox":"-98.03424,43.73248,-98.03424,43.73248",
    "geom:latitude":43.73248,
    "geom:longitude":-98.03424,
    "gn:gn_country":"US",
    "gn:gn_fcode":"ADMD",
    "gn:gn_pop":15254,
    "gn:population":15254,
    "iso:country":"US",
    "lbl:latitude":43.73248,
    "lbl:longitude":-98.03424,
    "mz:hierarchy_label":1,
    "mz:is_current":0,
    "mz:note":"Quattroshapes Point Gazetteer import 20170519",
    "qs_pg:aaroncc":"US",
    "qs_pg:gn_country":"US",
    "qs_pg:gn_fcode":"ADMD",
    "qs_pg:gn_id":5229799,
    "qs_pg:gn_pop":15254,
    "qs_pg:name":"City of Mitchell",
    "qs_pg:photos_9r":0,
    "qs_pg:photos_sr":0,
    "qs_pg:pop_sr":6,
    "qs_pg:qs_id":608099,
    "qs_pg:qs_pg_placetype":"localadmin",
    "src:geom":"qs_pg",
    "src:lbl:centroid":"qs_pg",
    "src:population":"geonames",
    "wof:belongsto":[
        85633793
    ],
    "wof:breaches":[],
    "wof:concordances":{
        "gn:id":5229799,
        "qs_pg:id":608099
    },
    "wof:country":"US",
    "wof:created":1497051278,
    "wof:geomhash":"2b9426e42f45aed3510c1407c13d139a",
    "wof:hierarchy":[
        {
            "country_id":85633793,
            "localadmin_id":1125415655
        }
    ],
    "wof:id":1125415655,
    "wof:lastmodified":1509752743,
    "wof:name":"City of Mitchell",
    "wof:parent_id":-1,
    "wof:placetype":"localadmin",
    "wof:population":15254,
    "wof:population_rank":6,
    "wof:repo":"whosonfirst-data-admin-us",
    "wof:superseded_by":[
        101721597
    ],
    "wof:supersedes":[],
    "wof:tags":[]
},
  "bbox": [
    -98.03424,
    43.73248,
    -98.03424,
    43.73248
],
  "geometry": {"coordinates":[-98.03424,43.73248],"type":"Point"}
}