{
  "id": 1125316851,
  "type": "Feature",
  "properties": {
    "edtf:cessation":"uuuu",
    "edtf:deprecated":"2017-11-04",
    "edtf:inception":"uuuu",
    "geom:area":0.0,
    "geom:area_square_m":0.0,
    "geom:bbox":"-93.64989,41.41219,-93.64989,41.41219",
    "geom:latitude":41.41219,
    "geom:longitude":-93.64989,
    "gn:gn_country":"US",
    "gn:gn_fcode":"ADMD",
    "gn:gn_pop":63,
    "gn:population":63,
    "iso:country":"US",
    "lbl:latitude":41.41219,
    "lbl:longitude":-93.64989,
    "mz:hierarchy_label":1,
    "mz:is_current":0,
    "mz:note":"Quattroshapes Point Gazetteer import 20170519",
    "qs_pg:aaroncc":"US",
    "qs_pg:gn_country":"US",
    "qs_pg:gn_fcode":"ADMD",
    "qs_pg:gn_id":7164194,
    "qs_pg:gn_pop":63,
    "qs_pg:name":"City of Spring Hill",
    "qs_pg:photos_9r":0,
    "qs_pg:photos_sr":0,
    "qs_pg:pop_sr":1,
    "qs_pg:qs_id":659166,
    "qs_pg:qs_pg_placetype":"localadmin",
    "src:geom":"qs_pg",
    "src:lbl:centroid":"qs_pg",
    "src:population":"geonames",
    "wof:belongsto":[
        85633793
    ],
    "wof:breaches":[],
    "wof:concordances":{
        "gn:id":7164194,
        "qs_pg:id":659166
    },
    "wof:country":"US",
    "wof:created":1497044319,
    "wof:geomhash":"0d39be06ba039fec7c20e31d0459b637",
    "wof:hierarchy":[
        {
            "country_id":85633793,
            "localadmin_id":1125316851
        }
    ],
    "wof:id":1125316851,
    "wof:lastmodified":1509752532,
    "wof:name":"City of Spring Hill",
    "wof:parent_id":-1,
    "wof:placetype":"localadmin",
    "wof:population":63,
    "wof:population_rank":1,
    "wof:repo":"whosonfirst-data-admin-us",
    "wof:superseded_by":[
        85944083
    ],
    "wof:supersedes":[],
    "wof:tags":[]
},
  "bbox": [
    -93.64989,
    41.41219,
    -93.64989,
    41.41219
],
  "geometry": {"coordinates":[-93.64989,41.41219],"type":"Point"}
}