{
  "id": 1276683047,
  "type": "Feature",
  "properties": {
    "edtf:cessation":"2018-09-07",
    "edtf:inception":"uuuu",
    "geom:area":0.0,
    "geom:area_square_m":0.0,
    "geom:bbox":"-84.13688,39.54589,-84.13688,39.54589",
    "geom:latitude":39.54589,
    "geom:longitude":-84.13688,
    "gn:admin1_code":"OH",
    "gn:admin2_code":"165",
    "gn:admin3_code":"15700.0",
    "gn:asciiname":"Edgewood (historical)",
    "gn:country_code":"US",
    "gn:dem":301,
    "gn:elevation":"303.0",
    "gn:feature_class":"P",
    "gn:feature_code":"PPLQ",
    "gn:geonameid":4510812,
    "gn:latitude":39.54589,
    "gn:longitude":-84.13688,
    "gn:modification_date":"2017-05-23",
    "gn:name":"Edgewood (historical)",
    "gn:population":0,
    "gn:timezone":"America/New_York",
    "iso:country":"US",
    "mz:hierarchy_label":1,
    "mz:is_current":0,
    "src:geom":"geonames",
    "wof:belongsto":[
        85688485,
        102191575,
        404526137,
        85633793,
        102082423
    ],
    "wof:breaches":[],
    "wof:concordances":{
        "gn:id":4510812
    },
    "wof:country":"US",
    "wof:geomhash":"9a5cb6dea633c14ccd8cecf23725c6c0",
    "wof:hierarchy":[
        {
            "continent_id":102191575,
            "country_id":85633793,
            "county_id":102082423,
            "localadmin_id":404526137,
            "locality_id":1276683047,
            "region_id":85688485
        }
    ],
    "wof:id":1276683047,
    "wof:lastmodified":1536806863,
    "wof:name":"Edgewood (historical)",
    "wof:parent_id":404526137,
    "wof:placetype":"locality",
    "wof:repo":"whosonfirst-data-admin-us",
    "wof:superseded_by":[],
    "wof:supersedes":[],
    "wof:tags":[]
},
  "bbox": [
    -84.13688,
    39.54589,
    -84.13688,
    39.54589
],
  "geometry": {"coordinates":[-84.13688,39.54589],"type":"Point"}
}