{
  "id": 1125293155,
  "type": "Feature",
  "properties": {
    "edtf:cessation":"uuuu",
    "edtf:deprecated":"2017-11-15",
    "edtf:inception":"uuuu",
    "geom:area":0.0,
    "geom:area_square_m":0.0,
    "geom:bbox":"-80.24413,27.19672,-80.24413,27.19672",
    "geom:latitude":27.19672,
    "geom:longitude":-80.24413,
    "gn:gn_country":"US",
    "gn:gn_fcode":"ADMD",
    "gn:gn_pop":15593,
    "gn:population":15593,
    "iso:country":"US",
    "lbl:latitude":27.19672,
    "lbl:longitude":-80.24413,
    "mz:hierarchy_label":1,
    "mz:is_current":0,
    "mz:note":"Quattroshapes Point Gazetteer import 20170519",
    "qs_pg:aaroncc":"US",
    "qs_pg:gn_country":"US",
    "qs_pg:gn_fcode":"ADMD",
    "qs_pg:gn_id":7170868,
    "qs_pg:gn_pop":15593,
    "qs_pg:name":"City of Stuart",
    "qs_pg:photos_9r":0,
    "qs_pg:photos_sr":0,
    "qs_pg:pop_sr":6,
    "qs_pg:qs_id":663527,
    "qs_pg:qs_pg_placetype":"localadmin",
    "src:geom":"qs_pg",
    "src:lbl:centroid":"qs_pg",
    "src:population":"geonames",
    "wof:belongsto":[
        85633793
    ],
    "wof:breaches":[],
    "wof:concordances":{
        "gn:id":7170868,
        "qs_pg:id":663527
    },
    "wof:country":"US",
    "wof:created":1497043020,
    "wof:geomhash":"8b357281eaa1afc3b003b816eb08ef98",
    "wof:hierarchy":[
        {
            "country_id":85633793,
            "localadmin_id":1125293155
        }
    ],
    "wof:id":1125293155,
    "wof:lastmodified":1510790348,
    "wof:name":"City of Stuart",
    "wof:parent_id":-1,
    "wof:placetype":"localadmin",
    "wof:population":15593,
    "wof:population_rank":6,
    "wof:repo":"whosonfirst-data-admin-us",
    "wof:superseded_by":[
        85933153
    ],
    "wof:supersedes":[],
    "wof:tags":[]
},
  "bbox": [
    -80.24413,
    27.19672,
    -80.24413,
    27.19672
],
  "geometry": {"coordinates":[-80.24413,27.19672],"type":"Point"}
}