{
  "id": 1210051483,
  "type": "Feature",
  "properties": {
    "edtf:cessation":"2018-09-07",
    "edtf:inception":"uuuu",
    "geom:area":0.0,
    "geom:area_square_m":0.0,
    "geom:bbox":"-120.88994,38.7999,-120.88994,38.7999",
    "geom:latitude":38.7999,
    "geom:longitude":-120.88994,
    "gn:admin1_code":"CA",
    "gn:admin2_code":"17",
    "gn:asciiname":"Koloma (historical)",
    "gn:country_code":"US",
    "gn:dem":235,
    "gn:elevation":"233.0",
    "gn:feature_class":"P",
    "gn:feature_code":"PPLQ",
    "gn:geonameid":5363710,
    "gn:latitude":38.7999,
    "gn:longitude":-120.88994,
    "gn:modification_date":"2011-12-12",
    "gn:name":"Koloma (historical)",
    "gn:population":0,
    "gn:timezone":"America/Los_Angeles",
    "iso:country":"US",
    "mz:hierarchy_label":1,
    "mz:is_current":0,
    "name:eng_x_preferred":[
        "Koloma (historical)"
    ],
    "name:und_x_variant":[
        "Ko-lo-ma *",
        "Colomas"
    ],
    "src:geom":"geonames",
    "wof:belongsto":[
        102191575,
        85633793,
        85688637,
        102086953
    ],
    "wof:breaches":[],
    "wof:concordances":{
        "gn:id":5363710,
        "wk:page":"Koloma%2C_California"
    },
    "wof:country":"US",
    "wof:geomhash":"23aef451a90a045985c91f901a039a13",
    "wof:hierarchy":[
        {
            "continent_id":102191575,
            "country_id":85633793,
            "county_id":102086953,
            "locality_id":1210051483,
            "region_id":85688637
        }
    ],
    "wof:id":1210051483,
    "wof:lastmodified":1537713009,
    "wof:name":"Koloma (historical)",
    "wof:parent_id":102086953,
    "wof:placetype":"locality",
    "wof:repo":"whosonfirst-data-admin-us",
    "wof:superseded_by":[],
    "wof:supersedes":[],
    "wof:tags":[]
},
  "bbox": [
    -120.88994,
    38.7999,
    -120.88994,
    38.7999
],
  "geometry": {"coordinates":[-120.88994,38.7999],"type":"Point"}
}