{
  "id": 1343478111,
  "type": "Feature",
  "properties": {
    "edtf:cessation":"uuuu",
    "edtf:inception":"uuuu",
    "geom:area":0.0,
    "geom:area_square_m":0.0,
    "geom:bbox":"-84.10908,35.99675,-84.10908,35.99675",
    "geom:latitude":35.99675,
    "geom:longitude":-84.10908,
    "gn:admin1_code":"TN",
    "gn:admin2_code":"93.0",
    "gn:asciiname":"Camelot",
    "gn:country_code":"US",
    "gn:dem":332,
    "gn:elevation":"332.0",
    "gn:feature_class":"P",
    "gn:feature_code":"PPL",
    "gn:geonameid":4610659,
    "gn:latitude":35.99675,
    "gn:longitude":-84.10908,
    "gn:modification_date":"2006-01-15",
    "gn:name":"Camelot",
    "gn:population":0,
    "gn:timezone":"America/New_York",
    "iso:country":"US",
    "mz:hierarchy_label":1,
    "mz:is_current":-1,
    "src:geom":"geonames",
    "wof:belongsto":[
        102191575,
        85633793,
        85688701,
        102086455
    ],
    "wof:breaches":[],
    "wof:concordances":{
        "gn:id":4610659
    },
    "wof:country":"US",
    "wof:geomhash":"9c6247680788e6f27ca1e8ba145028cb",
    "wof:hierarchy":[
        {
            "continent_id":102191575,
            "country_id":85633793,
            "county_id":102086455,
            "locality_id":1343478111,
            "region_id":85688701
        }
    ],
    "wof:id":1343478111,
    "wof:lastmodified":1536721027,
    "wof:name":"Camelot",
    "wof:parent_id":102086455,
    "wof:placetype":"locality",
    "wof:repo":"whosonfirst-data-admin-us",
    "wof:superseded_by":[],
    "wof:supersedes":[],
    "wof:tags":[]
},
  "bbox": [
    -84.10908,
    35.99675,
    -84.10908,
    35.99675
],
  "geometry": {"coordinates":[-84.10908000000001,35.99675],"type":"Point"}
}