{
  "id": 1125352749,
  "type": "Feature",
  "properties": {
    "edtf:cessation":"uuuu",
    "edtf:deprecated":"2017-11-04",
    "edtf:inception":"uuuu",
    "geom:area":0.0,
    "geom:area_square_m":0.0,
    "geom:bbox":"-122.26971,48.99565,-122.26971,48.99565",
    "geom:latitude":48.99565,
    "geom:longitude":-122.26971,
    "gn:gn_country":"US",
    "gn:gn_fcode":"ADMD",
    "gn:gn_pop":1307,
    "gn:population":1307,
    "iso:country":"US",
    "lbl:latitude":48.99565,
    "lbl:longitude":-122.26971,
    "mz:hierarchy_label":1,
    "mz:is_current":0,
    "mz:note":"Quattroshapes Point Gazetteer import 20170519",
    "qs_pg:aaroncc":"US",
    "qs_pg:gn_country":"US",
    "qs_pg:gn_fcode":"ADMD",
    "qs_pg:gn_id":7174517,
    "qs_pg:gn_pop":1307,
    "qs_pg:name":"City of Sumas",
    "qs_pg:photos_9r":0,
    "qs_pg:photos_sr":0,
    "qs_pg:pop_sr":3,
    "qs_pg:qs_id":667086,
    "qs_pg:qs_pg_placetype":"localadmin",
    "src:geom":"qs_pg",
    "src:lbl:centroid":"qs_pg",
    "src:population":"geonames",
    "wof:belongsto":[
        85633793
    ],
    "wof:breaches":[],
    "wof:concordances":{
        "gn:id":7174517,
        "qs_pg:id":667086
    },
    "wof:country":"US",
    "wof:created":1497046285,
    "wof:geomhash":"81ae372acf8dd3ea96c36d4e9ac5821f",
    "wof:hierarchy":[
        {
            "country_id":85633793,
            "localadmin_id":1125352749
        }
    ],
    "wof:id":1125352749,
    "wof:lastmodified":1509752630,
    "wof:name":"City of Sumas",
    "wof:parent_id":-1,
    "wof:placetype":"localadmin",
    "wof:population":1307,
    "wof:population_rank":3,
    "wof:repo":"whosonfirst-data-admin-us",
    "wof:superseded_by":[
        101740961
    ],
    "wof:supersedes":[],
    "wof:tags":[]
},
  "bbox": [
    -122.26971,
    48.99565,
    -122.26971,
    48.99565
],
  "geometry": {"coordinates":[-122.26971,48.99565],"type":"Point"}
}