{
  "id": 1310718265,
  "type": "Feature",
  "properties": {
    "edtf:cessation":"uuuu",
    "edtf:inception":"uuuu",
    "geom:area":0.0,
    "geom:area_square_m":0.0,
    "geom:bbox":"-80.94093,33.32877,-80.94093,33.32877",
    "geom:latitude":33.32877,
    "geom:longitude":-80.94093,
    "gn:admin1_code":"SC",
    "gn:admin2_code":"75.0",
    "gn:asciiname":"Canaan",
    "gn:country_code":"US",
    "gn:dem":50,
    "gn:elevation":"48.0",
    "gn:feature_class":"P",
    "gn:feature_code":"PPL",
    "gn:geonameid":4573401,
    "gn:latitude":33.32877,
    "gn:longitude":-80.94093,
    "gn:modification_date":"2010-09-05",
    "gn:name":"Canaan",
    "gn:population":0,
    "gn:timezone":"America/New_York",
    "iso:country":"US",
    "mz:hierarchy_label":1,
    "mz:is_current":-1,
    "src:geom":"geonames",
    "wof:belongsto":[
        102191575,
        85633793,
        85688683,
        102085413
    ],
    "wof:breaches":[],
    "wof:concordances":{
        "gn:id":4573401
    },
    "wof:country":"US",
    "wof:geomhash":"32a2d47c701b60b27fad1b84a636eefb",
    "wof:hierarchy":[
        {
            "continent_id":102191575,
            "country_id":85633793,
            "county_id":102085413,
            "locality_id":1310718265,
            "region_id":85688683
        }
    ],
    "wof:id":1310718265,
    "wof:lastmodified":1536607180,
    "wof:name":"Canaan",
    "wof:parent_id":102085413,
    "wof:placetype":"locality",
    "wof:repo":"whosonfirst-data-admin-us",
    "wof:superseded_by":[],
    "wof:supersedes":[],
    "wof:tags":[]
},
  "bbox": [
    -80.94093000000002,
    33.32877,
    -80.94093000000002,
    33.32877
],
  "geometry": {"coordinates":[-80.94093000000002,33.32877],"type":"Point"}
}