{
  "id": 1260199249,
  "type": "Feature",
  "properties": {
    "edtf:cessation":"2018-09-07",
    "edtf:inception":"uuuu",
    "geom:area":0.0,
    "geom:area_square_m":0.0,
    "geom:bbox":"-90.52509,33.84456,-90.52509,33.84456",
    "geom:latitude":33.84456,
    "geom:longitude":-90.52509,
    "gn:admin1_code":"MS",
    "gn:admin2_code":"133.0",
    "gn:asciiname":"Promised Land (historical)",
    "gn:country_code":"US",
    "gn:dem":40,
    "gn:elevation":"41.0",
    "gn:feature_class":"P",
    "gn:feature_code":"PPLQ",
    "gn:geonameid":4442482,
    "gn:latitude":33.84456,
    "gn:longitude":-90.52509,
    "gn:modification_date":"2011-12-11",
    "gn:name":"Promised Land (historical)",
    "gn:population":0,
    "gn:timezone":"America/Chicago",
    "iso:country":"US",
    "mz:hierarchy_label":1,
    "mz:is_current":0,
    "name:eng_x_preferred":[
        "Promised Land (historical)"
    ],
    "name:und_x_variant":[
        "Promised Land Plantation"
    ],
    "src:geom":"geonames",
    "wof:belongsto":[
        102191575,
        85633793,
        85688579,
        102083795
    ],
    "wof:breaches":[],
    "wof:concordances":{
        "gn:id":4442482
    },
    "wof:country":"US",
    "wof:geomhash":"40b15fb1493e90cd022518a701be85e4",
    "wof:hierarchy":[
        {
            "continent_id":102191575,
            "country_id":85633793,
            "county_id":102083795,
            "locality_id":1260199249,
            "region_id":85688579
        }
    ],
    "wof:id":1260199249,
    "wof:lastmodified":1537712496,
    "wof:name":"Promised Land (historical)",
    "wof:parent_id":102083795,
    "wof:placetype":"locality",
    "wof:repo":"whosonfirst-data-admin-us",
    "wof:superseded_by":[],
    "wof:supersedes":[],
    "wof:tags":[]
},
  "bbox": [
    -90.52509,
    33.84455999999999,
    -90.52509,
    33.84455999999999
],
  "geometry": {"coordinates":[-90.52509000000001,33.84455999999999],"type":"Point"}
}