{
  "id": 1125299161,
  "type": "Feature",
  "properties": {
    "edtf:cessation":"uuuu",
    "edtf:deprecated":"2017-11-04",
    "edtf:inception":"uuuu",
    "geom:area":0.0,
    "geom:area_square_m":0.0,
    "geom:bbox":"-111.75851,43.95834,-111.75851,43.95834",
    "geom:latitude":43.95834,
    "geom:longitude":-111.75851,
    "gn:gn_country":"US",
    "gn:gn_fcode":"ADMD",
    "gn:gn_pop":305,
    "gn:population":305,
    "iso:country":"US",
    "lbl:latitude":43.95834,
    "lbl:longitude":-111.75851,
    "mz:hierarchy_label":1,
    "mz:is_current":0,
    "mz:note":"Quattroshapes Point Gazetteer import 20170519",
    "qs_pg:aaroncc":"US",
    "qs_pg:gn_country":"US",
    "qs_pg:gn_fcode":"ADMD",
    "qs_pg:gn_id":7174051,
    "qs_pg:gn_pop":305,
    "qs_pg:name":"City of Parker",
    "qs_pg:photos_9r":0,
    "qs_pg:photos_sr":0,
    "qs_pg:pop_sr":2,
    "qs_pg:qs_id":666625,
    "qs_pg:qs_pg_placetype":"localadmin",
    "src:geom":"qs_pg",
    "src:lbl:centroid":"qs_pg",
    "src:population":"geonames",
    "wof:belongsto":[
        85633793
    ],
    "wof:breaches":[],
    "wof:concordances":{
        "gn:id":7174051,
        "qs_pg:id":666625
    },
    "wof:country":"US",
    "wof:created":1497043323,
    "wof:geomhash":"6d9bfd9e0440ba66e1be866be404b1dd",
    "wof:hierarchy":[
        {
            "country_id":85633793,
            "localadmin_id":1125299161
        }
    ],
    "wof:id":1125299161,
    "wof:lastmodified":1509752492,
    "wof:name":"City of Parker",
    "wof:parent_id":-1,
    "wof:placetype":"localadmin",
    "wof:population":305,
    "wof:population_rank":2,
    "wof:repo":"whosonfirst-data-admin-us",
    "wof:superseded_by":[
        85937759
    ],
    "wof:supersedes":[],
    "wof:tags":[]
},
  "bbox": [
    -111.75851,
    43.95834,
    -111.75851,
    43.95834
],
  "geometry": {"coordinates":[-111.75851,43.95834],"type":"Point"}
}