{
  "id": 1293011769,
  "type": "Feature",
  "properties": {
    "edtf:cessation":"2018-09-06",
    "edtf:inception":"uuuu",
    "geom:area":0.0,
    "geom:area_square_m":0.0,
    "geom:bbox":"-92.00265,35.31814,-92.00265,35.31814",
    "geom:latitude":35.31814,
    "geom:longitude":-92.00265,
    "gn:admin1_code":"AR",
    "gn:admin2_code":"145.0",
    "gn:admin3_code":"90606.0",
    "gn:asciiname":"Turnip (historical)",
    "gn:country_code":"US",
    "gn:dem":238,
    "gn:elevation":"239.0",
    "gn:feature_class":"P",
    "gn:feature_code":"PPLQ",
    "gn:geonameid":4134120,
    "gn:latitude":35.31814,
    "gn:longitude":-92.00265,
    "gn:modification_date":"2017-05-23",
    "gn:name":"Turnip (historical)",
    "gn:population":0,
    "gn:timezone":"America/Chicago",
    "iso:country":"US",
    "mz:hierarchy_label":1,
    "mz:is_current":0,
    "src:geom":"geonames",
    "wof:belongsto":[
        102191575,
        85633793,
        85688549,
        102082521
    ],
    "wof:breaches":[],
    "wof:concordances":{
        "gn:id":4134120
    },
    "wof:country":"US",
    "wof:geomhash":"c5ec45ff2c91087d27984ae244ae1f4d",
    "wof:hierarchy":[
        {
            "continent_id":102191575,
            "country_id":85633793,
            "county_id":102082521,
            "locality_id":1293011769,
            "region_id":85688549
        }
    ],
    "wof:id":1293011769,
    "wof:lastmodified":1536975269,
    "wof:name":"Turnip (historical)",
    "wof:parent_id":102082521,
    "wof:placetype":"locality",
    "wof:repo":"whosonfirst-data-admin-us",
    "wof:superseded_by":[],
    "wof:supersedes":[],
    "wof:tags":[]
},
  "bbox": [
    -92.00265,
    35.31814,
    -92.00265,
    35.31814
],
  "geometry": {"coordinates":[-92.00265,35.31814],"type":"Point"}
}