{
  "id": 1360301025,
  "type": "Feature",
  "properties": {
    "edtf:cessation":"uuuu",
    "edtf:inception":"uuuu",
    "geom:area":0.0,
    "geom:area_square_m":0.0,
    "geom:bbox":"-82.33543,39.68257,-82.33543,39.68257",
    "geom:latitude":39.68257,
    "geom:longitude":-82.33543,
    "gn:admin1_code":"OH",
    "gn:admin2_code":"127",
    "gn:admin3_code":"37968.0",
    "gn:asciiname":"Salem",
    "gn:country_code":"US",
    "gn:dem":267,
    "gn:elevation":"269.0",
    "gn:feature_class":"P",
    "gn:feature_code":"PPL",
    "gn:geonameid":4523731,
    "gn:latitude":39.68257,
    "gn:longitude":-82.33543,
    "gn:modification_date":"2017-05-23",
    "gn:name":"Salem",
    "gn:population":0,
    "gn:timezone":"America/New_York",
    "iso:country":"US",
    "mz:hierarchy_label":1,
    "mz:is_current":-1,
    "src:geom":"geonames",
    "wof:belongsto":[
        85688485,
        102191575,
        404525963,
        85633793,
        102084801
    ],
    "wof:breaches":[],
    "wof:concordances":{
        "gn:id":4523731
    },
    "wof:country":"US",
    "wof:geomhash":"cc93ff71e24b57a188688156b0ab2959",
    "wof:hierarchy":[
        {
            "continent_id":102191575,
            "country_id":85633793,
            "county_id":102084801,
            "localadmin_id":404525963,
            "locality_id":1360301025,
            "region_id":85688485
        }
    ],
    "wof:id":1360301025,
    "wof:lastmodified":1536632609,
    "wof:name":"Salem",
    "wof:parent_id":404525963,
    "wof:placetype":"locality",
    "wof:repo":"whosonfirst-data-admin-us",
    "wof:superseded_by":[],
    "wof:supersedes":[],
    "wof:tags":[]
},
  "bbox": [
    -82.33543,
    39.68257,
    -82.33543,
    39.68257
],
  "geometry": {"coordinates":[-82.33543,39.68257],"type":"Point"}
}