{
  "id": 1125321267,
  "type": "Feature",
  "properties": {
    "edtf:cessation":"uuuu",
    "edtf:deprecated":"2017-11-04",
    "edtf:inception":"uuuu",
    "geom:area":0.0,
    "geom:area_square_m":0.0,
    "geom:bbox":"-87.84375,42.0125,-87.84375,42.0125",
    "geom:latitude":42.0125,
    "geom:longitude":-87.84375,
    "gn:gn_country":"US",
    "gn:gn_fcode":"ADMD",
    "gn:gn_pop":37480,
    "gn:population":37480,
    "iso:country":"US",
    "lbl:latitude":42.0125,
    "lbl:longitude":-87.84375,
    "mz:hierarchy_label":1,
    "mz:is_current":0,
    "mz:note":"Quattroshapes Point Gazetteer import 20170519",
    "qs_pg:aaroncc":"US",
    "qs_pg:gn_country":"US",
    "qs_pg:gn_fcode":"ADMD",
    "qs_pg:gn_id":7317266,
    "qs_pg:gn_pop":37480,
    "qs_pg:name":"City of Park Ridge",
    "qs_pg:photos_9r":0,
    "qs_pg:photos_sr":0,
    "qs_pg:pop_sr":7,
    "qs_pg:qs_id":683282,
    "qs_pg:qs_pg_placetype":"localadmin",
    "src:geom":"qs_pg",
    "src:lbl:centroid":"qs_pg",
    "src:population":"geonames",
    "wof:belongsto":[
        85633793
    ],
    "wof:breaches":[],
    "wof:concordances":{
        "gn:id":7317266,
        "qs_pg:id":683282
    },
    "wof:country":"US",
    "wof:created":1497044547,
    "wof:geomhash":"402945bcddd08ca85796760f90311a76",
    "wof:hierarchy":[
        {
            "country_id":85633793,
            "localadmin_id":1125321267
        }
    ],
    "wof:id":1125321267,
    "wof:lastmodified":1509752549,
    "wof:name":"City of Park Ridge",
    "wof:parent_id":-1,
    "wof:placetype":"localadmin",
    "wof:population":37480,
    "wof:population_rank":7,
    "wof:repo":"whosonfirst-data-admin-us",
    "wof:superseded_by":[
        85940743
    ],
    "wof:supersedes":[],
    "wof:tags":[]
},
  "bbox": [
    -87.84375,
    42.0125,
    -87.84375,
    42.0125
],
  "geometry": {"coordinates":[-87.84375,42.0125],"type":"Point"}
}