{
  "id": 1125341165,
  "type": "Feature",
  "properties": {
    "edtf:cessation":"uuuu",
    "edtf:deprecated":"2017-11-04",
    "edtf:inception":"uuuu",
    "geom:area":0.0,
    "geom:area_square_m":0.0,
    "geom:bbox":"-92.09416,42.25768,-92.09416,42.25768",
    "geom:latitude":42.25768,
    "geom:longitude":-92.09416,
    "gn:gn_country":"US",
    "gn:gn_fcode":"ADMD",
    "gn:gn_pop":150,
    "gn:population":150,
    "iso:country":"US",
    "lbl:latitude":42.25768,
    "lbl:longitude":-92.09416,
    "mz:hierarchy_label":1,
    "mz:is_current":0,
    "mz:note":"Quattroshapes Point Gazetteer import 20170519",
    "qs_pg:aaroncc":"US",
    "qs_pg:gn_country":"US",
    "qs_pg:gn_fcode":"ADMD",
    "qs_pg:gn_id":7317042,
    "qs_pg:gn_pop":150,
    "qs_pg:name":"City of Mount Auburn",
    "qs_pg:photos_9r":0,
    "qs_pg:photos_sr":0,
    "qs_pg:pop_sr":1,
    "qs_pg:qs_id":683056,
    "qs_pg:qs_pg_placetype":"localadmin",
    "src:geom":"qs_pg",
    "src:lbl:centroid":"qs_pg",
    "src:population":"geonames",
    "wof:belongsto":[
        85633793
    ],
    "wof:breaches":[],
    "wof:concordances":{
        "gn:id":7317042,
        "qs_pg:id":683056
    },
    "wof:country":"US",
    "wof:created":1497045663,
    "wof:geomhash":"4b7b893e1d5f8c3ecfd40114eeb86bc0",
    "wof:hierarchy":[
        {
            "country_id":85633793,
            "localadmin_id":1125341165
        }
    ],
    "wof:id":1125341165,
    "wof:lastmodified":1509752570,
    "wof:name":"City of Mount Auburn",
    "wof:parent_id":-1,
    "wof:placetype":"localadmin",
    "wof:population":150,
    "wof:population_rank":1,
    "wof:repo":"whosonfirst-data-admin-us",
    "wof:superseded_by":[
        85944941
    ],
    "wof:supersedes":[],
    "wof:tags":[]
},
  "bbox": [
    -92.09416,
    42.25768,
    -92.09416,
    42.25768
],
  "geometry": {"coordinates":[-92.09416,42.25768],"type":"Point"}
}