{
  "id": 1209131243,
  "type": "Feature",
  "properties": {
    "edtf:cessation":"uuuu",
    "edtf:deprecated":"2019-02-08",
    "edtf:inception":"uuuu",
    "geom:area":0.0,
    "geom:area_square_m":0.0,
    "geom:bbox":"-81.54324,28.68747,-81.54324,28.68747",
    "geom:latitude":28.68747,
    "geom:longitude":-81.54324,
    "gn:admin1_code":"FL",
    "gn:admin2_code":"95.0",
    "gn:asciiname":"Valencia Estates Mobile Home Park",
    "gn:country_code":"US",
    "gn:dem":36,
    "gn:elevation":"31.0",
    "gn:feature_class":"P",
    "gn:feature_code":"PPL",
    "gn:geonameid":7189356,
    "gn:latitude":28.68747,
    "gn:longitude":-81.54324,
    "gn:modification_date":"2010-02-05",
    "gn:name":"Valencia Estates Mobile Home Park",
    "gn:population":0,
    "gn:timezone":"America/New_York",
    "iso:country":"US",
    "mz:hierarchy_label":1,
    "mz:is_current":0,
    "src:geom":"geonames",
    "wof:belongsto":[
        85633793
    ],
    "wof:breaches":[],
    "wof:concordances":{
        "gn:id":7189356
    },
    "wof:country":"US",
    "wof:geomhash":"3775506f52e1de95107ffcec8fe63d4e",
    "wof:hierarchy":[
        {
            "country_id":85633793,
            "locality_id":1209131243
        }
    ],
    "wof:id":1209131243,
    "wof:lastmodified":1549653911,
    "wof:name":"Valencia Estates Mobile Home Park",
    "wof:parent_id":85633793,
    "wof:placetype":"locality",
    "wof:repo":"whosonfirst-data-admin-us",
    "wof:superseded_by":[
        1376899541
    ],
    "wof:supersedes":[],
    "wof:tags":[]
},
  "bbox": [
    -81.54324,
    28.68747,
    -81.54324,
    28.68747
],
  "geometry": {"coordinates":[-81.54324,28.68747],"type":"Point"}
}