{
  "id": 1226358669,
  "type": "Feature",
  "properties": {
    "edtf:cessation":"uuuu",
    "edtf:inception":"uuuu",
    "geom:area":0.0,
    "geom:area_square_m":0.0,
    "geom:bbox":"-83.98297,33.41512,-83.98297,33.41512",
    "geom:latitude":33.41512,
    "geom:longitude":-83.98297,
    "gn:admin1_code":"GA",
    "gn:admin2_code":"151",
    "gn:asciiname":"Union",
    "gn:country_code":"US",
    "gn:dem":236,
    "gn:elevation":"231.0",
    "gn:feature_class":"P",
    "gn:feature_code":"PPL",
    "gn:geonameid":4227665,
    "gn:latitude":33.41512,
    "gn:longitude":-83.98297,
    "gn:modification_date":"2006-01-15",
    "gn:name":"Union",
    "gn:population":0,
    "gn:timezone":"America/New_York",
    "iso:country":"US",
    "mz:hierarchy_label":1,
    "mz:is_current":-1,
    "src:geom":"geonames",
    "wof:belongsto":[
        102191575,
        85633793,
        85688535,
        102082899
    ],
    "wof:breaches":[],
    "wof:concordances":{
        "gn:id":4227665
    },
    "wof:country":"US",
    "wof:geomhash":"b8db7c230e5566fd16d10247149a9c8a",
    "wof:hierarchy":[
        {
            "continent_id":102191575,
            "country_id":85633793,
            "county_id":102082899,
            "locality_id":1226358669,
            "region_id":85688535
        }
    ],
    "wof:id":1226358669,
    "wof:lastmodified":1536771437,
    "wof:name":"Union",
    "wof:parent_id":102082899,
    "wof:placetype":"locality",
    "wof:repo":"whosonfirst-data-admin-us",
    "wof:superseded_by":[],
    "wof:supersedes":[],
    "wof:tags":[]
},
  "bbox": [
    -83.98297,
    33.41512,
    -83.98297,
    33.41512
],
  "geometry": {"coordinates":[-83.98296999999999,33.41512],"type":"Point"}
}