{
  "id": 1326846389,
  "type": "Feature",
  "properties": {
    "edtf:cessation":"uuuu",
    "edtf:inception":"uuuu",
    "geom:area":0.0,
    "geom:area_square_m":0.0,
    "geom:bbox":"-79.17337,41.45423,-79.17337,41.45423",
    "geom:latitude":41.45423,
    "geom:longitude":-79.17337,
    "gn:admin1_code":"PA",
    "gn:admin2_code":"53.0",
    "gn:admin3_code":"38016.0",
    "gn:asciiname":"Williams",
    "gn:country_code":"US",
    "gn:dem":521,
    "gn:elevation":"507.0",
    "gn:feature_class":"P",
    "gn:feature_code":"PPL",
    "gn:geonameid":5219527,
    "gn:latitude":41.45423,
    "gn:longitude":-79.17337,
    "gn:modification_date":"2017-05-23",
    "gn:name":"Williams",
    "gn:population":0,
    "gn:timezone":"America/New_York",
    "iso:country":"US",
    "mz:hierarchy_label":1,
    "mz:is_current":-1,
    "src:geom":"geonames",
    "wof:belongsto":[
        85688481,
        102191575,
        404485303,
        85633793,
        102080977
    ],
    "wof:breaches":[],
    "wof:concordances":{
        "gn:id":5219527
    },
    "wof:country":"US",
    "wof:geomhash":"9ce536bc04c16fd56e83e5b4c9c4ad88",
    "wof:hierarchy":[
        {
            "continent_id":102191575,
            "country_id":85633793,
            "county_id":102080977,
            "localadmin_id":404485303,
            "locality_id":1326846389,
            "region_id":85688481
        }
    ],
    "wof:id":1326846389,
    "wof:lastmodified":1537027136,
    "wof:name":"Williams",
    "wof:parent_id":404485303,
    "wof:placetype":"locality",
    "wof:repo":"whosonfirst-data-admin-us",
    "wof:superseded_by":[],
    "wof:supersedes":[],
    "wof:tags":[]
},
  "bbox": [
    -79.17336999999998,
    41.45423,
    -79.17336999999998,
    41.45423
],
  "geometry": {"coordinates":[-79.17336999999998,41.45423],"type":"Point"}
}