{
  "id": 1125345239,
  "type": "Feature",
  "properties": {
    "edtf:cessation":"uuuu",
    "edtf:deprecated":"2017-11-04",
    "edtf:inception":"uuuu",
    "geom:area":0.0,
    "geom:area_square_m":0.0,
    "geom:bbox":"-83.41577,30.46834,-83.41577,30.46834",
    "geom:latitude":30.46834,
    "geom:longitude":-83.41577,
    "gn:gn_country":"US",
    "gn:gn_fcode":"ADMD",
    "gn:gn_pop":2843,
    "gn:population":2843,
    "iso:country":"US",
    "lbl:latitude":30.46834,
    "lbl:longitude":-83.41577,
    "mz:hierarchy_label":1,
    "mz:is_current":0,
    "mz:note":"Quattroshapes Point Gazetteer import 20170519",
    "qs_pg:aaroncc":"US",
    "qs_pg:gn_country":"US",
    "qs_pg:gn_fcode":"ADMD",
    "qs_pg:gn_id":7170392,
    "qs_pg:gn_pop":2843,
    "qs_pg:name":"City of Madison",
    "qs_pg:photos_9r":0,
    "qs_pg:photos_sr":0,
    "qs_pg:pop_sr":4,
    "qs_pg:qs_id":663063,
    "qs_pg:qs_pg_placetype":"localadmin",
    "src:geom":"qs_pg",
    "src:lbl:centroid":"qs_pg",
    "src:population":"geonames",
    "wof:belongsto":[
        85633793
    ],
    "wof:breaches":[],
    "wof:concordances":{
        "gn:id":7170392,
        "qs_pg:id":663063
    },
    "wof:country":"US",
    "wof:created":1497045882,
    "wof:geomhash":"f884372cd7b8e25e1fce42bbd4b56b9c",
    "wof:hierarchy":[
        {
            "country_id":85633793,
            "localadmin_id":1125345239
        }
    ],
    "wof:id":1125345239,
    "wof:lastmodified":1509752586,
    "wof:name":"City of Madison",
    "wof:parent_id":-1,
    "wof:placetype":"localadmin",
    "wof:population":2843,
    "wof:population_rank":4,
    "wof:repo":"whosonfirst-data-admin-us",
    "wof:superseded_by":[
        85932535
    ],
    "wof:supersedes":[],
    "wof:tags":[]
},
  "bbox": [
    -83.41577,
    30.46834,
    -83.41577,
    30.46834
],
  "geometry": {"coordinates":[-83.41576999999999,30.46834],"type":"Point"}
}