{
  "id": 1293608779,
  "type": "Feature",
  "properties": {
    "edtf:cessation":"uuuu",
    "edtf:inception":"uuuu",
    "geom:area":0.0,
    "geom:area_square_m":0.0,
    "geom:bbox":"-101.55626,33.28704,-101.55626,33.28704",
    "geom:latitude":33.28704,
    "geom:longitude":-101.55626,
    "gn:admin1_code":"TX",
    "gn:admin2_code":"169.0",
    "gn:asciiname":"Hackberry",
    "gn:country_code":"US",
    "gn:dem":912,
    "gn:elevation":"910.0",
    "gn:feature_class":"P",
    "gn:feature_code":"PPL",
    "gn:geonameid":5522630,
    "gn:latitude":33.28704,
    "gn:longitude":-101.55626,
    "gn:modification_date":"2006-01-15",
    "gn:name":"Hackberry",
    "gn:population":0,
    "gn:timezone":"America/Chicago",
    "iso:country":"US",
    "mz:hierarchy_label":1,
    "mz:is_current":-1,
    "src:geom":"geonames",
    "wof:belongsto":[
        102191575,
        85633793,
        85688753,
        102082475
    ],
    "wof:breaches":[],
    "wof:concordances":{
        "gn:id":5522630
    },
    "wof:country":"US",
    "wof:geomhash":"b89bd1d1659c08a8e5c5627ea9a2d550",
    "wof:hierarchy":[
        {
            "continent_id":102191575,
            "country_id":85633793,
            "county_id":102082475,
            "locality_id":1293608779,
            "region_id":85688753
        }
    ],
    "wof:id":1293608779,
    "wof:lastmodified":1536609631,
    "wof:name":"Hackberry",
    "wof:parent_id":102082475,
    "wof:placetype":"locality",
    "wof:repo":"whosonfirst-data-admin-us",
    "wof:superseded_by":[],
    "wof:supersedes":[],
    "wof:tags":[]
},
  "bbox": [
    -101.55626,
    33.28704,
    -101.55626,
    33.28704
],
  "geometry": {"coordinates":[-101.55625999999999,33.28704],"type":"Point"}
}