{
  "id": 1276673757,
  "type": "Feature",
  "properties": {
    "edtf:cessation":"uuuu",
    "edtf:inception":"uuuu",
    "geom:area":0.0,
    "geom:area_square_m":0.0,
    "geom:bbox":"-103.56551,34.62868,-103.56551,34.62868",
    "geom:latitude":34.62868,
    "geom:longitude":-103.56551,
    "gn:admin1_code":"NM",
    "gn:admin2_code":"9",
    "gn:asciiname":"Field",
    "gn:country_code":"US",
    "gn:dem":1413,
    "gn:elevation":"1414.0",
    "gn:feature_class":"P",
    "gn:feature_code":"PPL",
    "gn:geonameid":5467484,
    "gn:latitude":34.62868,
    "gn:longitude":-103.56551,
    "gn:modification_date":"2006-01-15",
    "gn:name":"Field",
    "gn:population":0,
    "gn:timezone":"America/Denver",
    "iso:country":"US",
    "mz:hierarchy_label":1,
    "mz:is_current":-1,
    "src:geom":"geonames",
    "wof:belongsto":[
        102191575,
        85633793,
        85688493,
        102081179
    ],
    "wof:breaches":[],
    "wof:concordances":{
        "gn:id":5467484
    },
    "wof:country":"US",
    "wof:geomhash":"b0cc68e4d2b2a9bc567cce19be8c9622",
    "wof:hierarchy":[
        {
            "continent_id":102191575,
            "country_id":85633793,
            "county_id":102081179,
            "locality_id":1276673757,
            "region_id":85688493
        }
    ],
    "wof:id":1276673757,
    "wof:lastmodified":1536818628,
    "wof:name":"Field",
    "wof:parent_id":102081179,
    "wof:placetype":"locality",
    "wof:repo":"whosonfirst-data-admin-us",
    "wof:superseded_by":[],
    "wof:supersedes":[],
    "wof:tags":[]
},
  "bbox": [
    -103.56551,
    34.62868,
    -103.56551,
    34.62868
],
  "geometry": {"coordinates":[-103.56551,34.62868],"type":"Point"}
}