{
  "id": 1225864501,
  "type": "Feature",
  "properties": {
    "edtf:cessation":"uuuu",
    "edtf:inception":"uuuu",
    "geom:area":0.0,
    "geom:area_square_m":0.0,
    "geom:bbox":"-78.39556,38.01292,-78.39556,38.01292",
    "geom:latitude":38.01292,
    "geom:longitude":-78.39556,
    "gn:admin1_code":"VA",
    "gn:admin2_code":"3",
    "gn:asciiname":"Shadwell",
    "gn:country_code":"US",
    "gn:dem":115,
    "gn:elevation":"110.0",
    "gn:feature_class":"P",
    "gn:feature_code":"PPL",
    "gn:geonameid":4784996,
    "gn:latitude":38.01292,
    "gn:longitude":-78.39556,
    "gn:modification_date":"2006-01-15",
    "gn:name":"Shadwell",
    "gn:population":0,
    "gn:timezone":"America/New_York",
    "iso:country":"US",
    "mz:hierarchy_label":1,
    "mz:is_current":-1,
    "name:eng_x_preferred":[
        "Shadwell"
    ],
    "name:und_x_variant":[
        "Shadwell Station",
        "North Milton"
    ],
    "src:geom":"geonames",
    "wof:belongsto":[
        102191575,
        85633793,
        85688747,
        102084933
    ],
    "wof:breaches":[],
    "wof:concordances":{
        "gn:id":4784996,
        "wk:page":"Shadwell_%28Virginia%29"
    },
    "wof:country":"US",
    "wof:geomhash":"00528d0eed9f1e523ce4c10fe1549c35",
    "wof:hierarchy":[
        {
            "continent_id":102191575,
            "country_id":85633793,
            "county_id":102084933,
            "locality_id":1225864501,
            "region_id":85688747
        }
    ],
    "wof:id":1225864501,
    "wof:lastmodified":1537712732,
    "wof:name":"Shadwell",
    "wof:parent_id":102084933,
    "wof:placetype":"locality",
    "wof:repo":"whosonfirst-data-admin-us",
    "wof:superseded_by":[],
    "wof:supersedes":[],
    "wof:tags":[]
},
  "bbox": [
    -78.39556,
    38.01292,
    -78.39556,
    38.01292
],
  "geometry": {"coordinates":[-78.39556,38.01292],"type":"Point"}
}