{
  "id": 1209634421,
  "type": "Feature",
  "properties": {
    "edtf:cessation":"uuuu",
    "edtf:inception":"uuuu",
    "geom:area":0.0,
    "geom:area_square_m":0.0,
    "geom:bbox":"-79.63947,36.86347,-79.63947,36.86347",
    "geom:latitude":36.86347,
    "geom:longitude":-79.63947,
    "gn:admin1_code":"VA",
    "gn:admin2_code":"67",
    "gn:asciiname":"Vashti",
    "gn:country_code":"US",
    "gn:dem":259,
    "gn:elevation":"258.0",
    "gn:feature_class":"P",
    "gn:feature_code":"PPL",
    "gn:geonameid":4791034,
    "gn:latitude":36.86347,
    "gn:longitude":-79.63947,
    "gn:modification_date":"2010-02-18",
    "gn:name":"Vashti",
    "gn:population":0,
    "gn:timezone":"America/New_York",
    "iso:country":"US",
    "mz:hierarchy_label":1,
    "mz:is_current":-1,
    "src:geom":"geonames",
    "wof:belongsto":[
        85633793
    ],
    "wof:breaches":[],
    "wof:concordances":{
        "gn:id":4791034
    },
    "wof:country":"US",
    "wof:geomhash":"55199ad321f58f434f120e78bb7318af",
    "wof:hierarchy":[
        {
            "country_id":85633793,
            "locality_id":1209634421
        }
    ],
    "wof:id":1209634421,
    "wof:lastmodified":1536281088,
    "wof:name":"Vashti",
    "wof:parent_id":85633793,
    "wof:placetype":"locality",
    "wof:repo":"whosonfirst-data-admin-us",
    "wof:superseded_by":[],
    "wof:supersedes":[],
    "wof:tags":[]
},
  "bbox": [
    -79.63946999999997,
    36.86347,
    -79.63946999999997,
    36.86347
],
  "geometry": {"coordinates":[-79.63946999999997,36.86347],"type":"Point"}
}