{
  "id": 420525623,
  "type": "Feature",
  "properties": {
    "edtf:cessation":"uuuu",
    "edtf:inception":"uuuu",
    "geom:area":0.0,
    "geom:area_square_m":331117.855151,
    "geom:bbox":"-111.018056,45.703607,-111.018056,45.703607",
    "geom:latitude":45.703607,
    "geom:longitude":-111.018056,
    "iso:country":"US",
    "lbl:latitude":45.703607,
    "lbl:longitude":-111.018056,
    "mz:hierarchy_label":0,
    "mz:is_current":-1,
    "name:eng_x_preferred":[
        "Osborne"
    ],
    "src:geom":"mz",
    "src:geom_alt":[
        "zetashapes"
    ],
    "src:lbl":"mapshaper",
    "src:lbl:centroid":"mapshaper",
    "src:population":"zetashapes",
    "wof:belongsto":[
        102191575,
        85633793,
        102085133,
        85688617
    ],
    "wof:breaches":[],
    "wof:concordances":{
        "gp:id":55987375
    },
    "wof:country":"US",
    "wof:geomhash":"037380a2c6ae142825b8a2bf07db693b",
    "wof:hierarchy":[
        {
            "continent_id":102191575,
            "country_id":85633793,
            "county_id":102085133,
            "locality_id":-1,
            "neighbourhood_id":420525623,
            "region_id":85688617
        }
    ],
    "wof:id":420525623,
    "wof:lastmodified":1533595922,
    "wof:name":"Osborne",
    "wof:parent_id":-1,
    "wof:placetype":"neighbourhood",
    "wof:population":79,
    "wof:population_rank":1,
    "wof:repo":"whosonfirst-data-admin-us",
    "wof:superseded_by":[],
    "wof:supersedes":[],
    "wof:tags":[],
    "zs:area_m":331095.085672,
    "zs:blockids":[
        300310005042019,
        300310005042018,
        300310005042008,
        300310005042021,
        300310005041051,
        300310005042022,
        300310005042020,
        300310005042038
    ],
    "zs:housing10":29,
    "zs:id":55987375,
    "zs:label":"Osborne",
    "zs:pop10":79
},
  "bbox": [
    -111.018056,
    45.703607,
    -111.018056,
    45.703607
],
  "geometry": {"coordinates":[-111.018056,45.703607],"type":"Point"}
}