{
  "id": 1343475293,
  "type": "Feature",
  "properties": {
    "edtf:cessation":"uuuu",
    "edtf:inception":"uuuu",
    "geom:area":0.0,
    "geom:area_square_m":0.0,
    "geom:bbox":"-104.71165,34.44702,-104.71165,34.44702",
    "geom:latitude":34.44702,
    "geom:longitude":-104.71165,
    "gn:admin1_code":"NM",
    "gn:admin2_code":"11.0",
    "gn:asciiname":"Largo",
    "gn:country_code":"US",
    "gn:dem":1507,
    "gn:elevation":"1509.0",
    "gn:feature_class":"P",
    "gn:feature_code":"PPL",
    "gn:geonameid":5475285,
    "gn:latitude":34.44702,
    "gn:longitude":-104.71165,
    "gn:modification_date":"2006-01-15",
    "gn:name":"Largo",
    "gn:population":0,
    "gn:timezone":"America/Denver",
    "iso:country":"US",
    "mz:hierarchy_label":1,
    "mz:is_current":-1,
    "src:geom":"geonames",
    "wof:belongsto":[
        102191575,
        85633793,
        85688493,
        102081187
    ],
    "wof:breaches":[],
    "wof:concordances":{
        "gn:id":5475285
    },
    "wof:country":"US",
    "wof:geomhash":"0783c817166e899159a1f50ffe89d828",
    "wof:hierarchy":[
        {
            "continent_id":102191575,
            "country_id":85633793,
            "county_id":102081187,
            "locality_id":1343475293,
            "region_id":85688493
        }
    ],
    "wof:id":1343475293,
    "wof:lastmodified":1536725076,
    "wof:name":"Largo",
    "wof:parent_id":102081187,
    "wof:placetype":"locality",
    "wof:repo":"whosonfirst-data-admin-us",
    "wof:superseded_by":[],
    "wof:supersedes":[],
    "wof:tags":[]
},
  "bbox": [
    -104.71165,
    34.44702,
    -104.71165,
    34.44702
],
  "geometry": {"coordinates":[-104.71165000000001,34.44702],"type":"Point"}
}