{
  "id": 1125270595,
  "type": "Feature",
  "properties": {
    "edtf:cessation":"2017-05-19",
    "edtf:inception":"uuuu",
    "geom:area":0.0,
    "geom:area_square_m":0.0,
    "geom:bbox":"-76.82358,40.85064,-76.82358,40.85064",
    "geom:latitude":40.85064,
    "geom:longitude":-76.82358,
    "gn:gn_country":"US",
    "gn:gn_fcode":"ADMD",
    "gn:gn_pop":1686,
    "gn:population":1686,
    "iso:country":"US",
    "lbl:latitude":40.85064,
    "lbl:longitude":-76.82358,
    "mz:hierarchy_label":1,
    "mz:is_current":0,
    "mz:note":"Quattroshapes Point Gazetteer import 20170519",
    "qs_pg:aaroncc":"US",
    "qs_pg:gn_country":"US",
    "qs_pg:gn_fcode":"ADMD",
    "qs_pg:gn_id":5211625,
    "qs_pg:gn_pop":1686,
    "qs_pg:name":"Borough of Shamokin Dam",
    "qs_pg:photos_9r":0,
    "qs_pg:photos_sr":0,
    "qs_pg:pop_sr":3,
    "qs_pg:qs_id":607036,
    "qs_pg:qs_pg_placetype":"localadmin",
    "src:geom":"qs_pg",
    "src:lbl:centroid":"qs_pg",
    "src:population":"geonames",
    "wof:belongsto":[
        85633793
    ],
    "wof:breaches":[],
    "wof:concordances":{
        "gn:id":5211625,
        "qs_pg:id":607036
    },
    "wof:country":"US",
    "wof:created":1497042109,
    "wof:geomhash":"f358f44c6c479cb36da0d239c04d63ec",
    "wof:hierarchy":[
        {
            "country_id":85633793,
            "localadmin_id":1125270595
        }
    ],
    "wof:id":1125270595,
    "wof:lastmodified":1505186977,
    "wof:name":"Borough of Shamokin Dam",
    "wof:parent_id":-1,
    "wof:placetype":"localadmin",
    "wof:population":1686,
    "wof:population_rank":3,
    "wof:repo":"whosonfirst-data-admin-us",
    "wof:superseded_by":[],
    "wof:supersedes":[],
    "wof:tags":[]
},
  "bbox": [
    -76.82358,
    40.85064,
    -76.82358,
    40.85064
],
  "geometry": {"coordinates":[-76.82358000000001,40.85064],"type":"Point"}
}