{
  "id": 1327054361,
  "type": "Feature",
  "properties": {
    "edtf:cessation":"2018-09-06",
    "edtf:inception":"uuuu",
    "geom:area":0.0,
    "geom:area_square_m":0.0,
    "geom:bbox":"-81.98319,40.00729,-81.98319,40.00729",
    "geom:latitude":40.00729,
    "geom:longitude":-81.98319,
    "gn:admin1_code":"OH",
    "gn:admin2_code":"119.0",
    "gn:admin3_code":"26502.0",
    "gn:asciiname":"Maddens (historical)",
    "gn:country_code":"US",
    "gn:dem":223,
    "gn:elevation":"224.0",
    "gn:feature_class":"P",
    "gn:feature_code":"PPLQ",
    "gn:geonameid":5161560,
    "gn:latitude":40.00729,
    "gn:longitude":-81.98319,
    "gn:modification_date":"2017-05-23",
    "gn:name":"Maddens (historical)",
    "gn:population":0,
    "gn:timezone":"America/New_York",
    "iso:country":"US",
    "mz:hierarchy_label":1,
    "mz:is_current":0,
    "src:geom":"geonames",
    "wof:belongsto":[
        85688485,
        102191575,
        404525679,
        85633793,
        102084785
    ],
    "wof:breaches":[],
    "wof:concordances":{
        "gn:id":5161560
    },
    "wof:country":"US",
    "wof:geomhash":"3c2c2919b99e10fa0ab88350ffb073e0",
    "wof:hierarchy":[
        {
            "continent_id":102191575,
            "country_id":85633793,
            "county_id":102084785,
            "localadmin_id":404525679,
            "locality_id":1327054361,
            "region_id":85688485
        }
    ],
    "wof:id":1327054361,
    "wof:lastmodified":1536729103,
    "wof:name":"Maddens (historical)",
    "wof:parent_id":404525679,
    "wof:placetype":"locality",
    "wof:repo":"whosonfirst-data-admin-us",
    "wof:superseded_by":[],
    "wof:supersedes":[],
    "wof:tags":[]
},
  "bbox": [
    -81.98319000000002,
    40.00729000000001,
    -81.98319000000002,
    40.00729000000001
],
  "geometry": {"coordinates":[-81.98319000000002,40.00729000000001],"type":"Point"}
}