{
  "id": 1343884057,
  "type": "Feature",
  "properties": {
    "edtf:cessation":"uuuu",
    "edtf:inception":"uuuu",
    "geom:area":0.0,
    "geom:area_square_m":0.0,
    "geom:bbox":"-87.22168,35.30286,-87.22168,35.30286",
    "geom:latitude":35.30286,
    "geom:longitude":-87.22168,
    "gn:admin1_code":"TN",
    "gn:admin2_code":"99.0",
    "gn:asciiname":"Pleasant Valley",
    "gn:country_code":"US",
    "gn:dem":272,
    "gn:elevation":"238.0",
    "gn:feature_class":"P",
    "gn:feature_code":"PPL",
    "gn:geonameid":4650260,
    "gn:latitude":35.30286,
    "gn:longitude":-87.22168,
    "gn:modification_date":"2006-01-15",
    "gn:name":"Pleasant Valley",
    "gn:population":0,
    "gn:timezone":"America/Chicago",
    "iso:country":"US",
    "mz:hierarchy_label":1,
    "mz:is_current":-1,
    "src:geom":"geonames",
    "wof:belongsto":[
        102191575,
        85633793,
        85688701,
        102086349
    ],
    "wof:breaches":[],
    "wof:concordances":{
        "gn:id":4650260
    },
    "wof:country":"US",
    "wof:geomhash":"274ba931892614e3ec04f5621648f764",
    "wof:hierarchy":[
        {
            "continent_id":102191575,
            "country_id":85633793,
            "county_id":102086349,
            "locality_id":1343884057,
            "region_id":85688701
        }
    ],
    "wof:id":1343884057,
    "wof:lastmodified":1536631067,
    "wof:name":"Pleasant Valley",
    "wof:parent_id":102086349,
    "wof:placetype":"locality",
    "wof:repo":"whosonfirst-data-admin-us",
    "wof:superseded_by":[],
    "wof:supersedes":[],
    "wof:tags":[]
},
  "bbox": [
    -87.22168,
    35.30285999999999,
    -87.22168,
    35.30285999999999
],
  "geometry": {"coordinates":[-87.22168000000001,35.30285999999999],"type":"Point"}
}