{
  "id": 1326941567,
  "type": "Feature",
  "properties": {
    "edtf:cessation":"uuuu",
    "edtf:inception":"uuuu",
    "geom:area":0.0,
    "geom:area_square_m":0.0,
    "geom:bbox":"-157.93389,62.4525,-157.93389,62.4525",
    "geom:latitude":62.4525,
    "geom:longitude":-157.93389,
    "gn:admin1_code":"AK",
    "gn:admin2_code":"290.0",
    "gn:asciiname":"Discovery",
    "gn:country_code":"US",
    "gn:dem":113,
    "gn:elevation":"116.0",
    "gn:feature_class":"P",
    "gn:feature_code":"PPL",
    "gn:geonameid":5860729,
    "gn:latitude":62.4525,
    "gn:longitude":-157.93389,
    "gn:modification_date":"2006-01-15",
    "gn:name":"Discovery",
    "gn:population":0,
    "gn:timezone":"America/Anchorage",
    "iso:country":"US",
    "mz:hierarchy_label":1,
    "mz:is_current":-1,
    "src:geom":"geonames",
    "wof:belongsto":[
        102191575,
        85633793,
        85688573,
        102081905
    ],
    "wof:breaches":[],
    "wof:concordances":{
        "gn:id":5860729
    },
    "wof:country":"US",
    "wof:geomhash":"42a6ac0e583c7a3b94a9c754d398b3e7",
    "wof:hierarchy":[
        {
            "continent_id":102191575,
            "country_id":85633793,
            "county_id":102081905,
            "locality_id":1326941567,
            "region_id":85688573
        }
    ],
    "wof:id":1326941567,
    "wof:lastmodified":1536890944,
    "wof:name":"Discovery",
    "wof:parent_id":102081905,
    "wof:placetype":"locality",
    "wof:repo":"whosonfirst-data-admin-us",
    "wof:superseded_by":[],
    "wof:supersedes":[],
    "wof:tags":[]
},
  "bbox": [
    -157.93389,
    62.4525,
    -157.93389,
    62.4525
],
  "geometry": {"coordinates":[-157.93388999999999,62.4525],"type":"Point"}
}