{
  "id": 1260194177,
  "type": "Feature",
  "properties": {
    "edtf:cessation":"uuuu",
    "edtf:inception":"uuuu",
    "geom:area":0.0,
    "geom:area_square_m":0.0,
    "geom:bbox":"-74.22431,41.81426,-74.22431,41.81426",
    "geom:latitude":41.81426,
    "geom:longitude":-74.22431,
    "gn:admin1_code":"NY",
    "gn:admin2_code":"111.0",
    "gn:admin3_code":"63011.0",
    "gn:asciiname":"Whitfield",
    "gn:country_code":"US",
    "gn:dem":119,
    "gn:elevation":"116.0",
    "gn:feature_class":"P",
    "gn:feature_code":"PPL",
    "gn:geonameid":5144406,
    "gn:latitude":41.81426,
    "gn:longitude":-74.22431,
    "gn:modification_date":"2017-05-23",
    "gn:name":"Whitfield",
    "gn:population":0,
    "gn:timezone":"America/New_York",
    "iso:country":"US",
    "mz:hierarchy_label":1,
    "mz:is_current":-1,
    "src:geom":"geonames",
    "wof:belongsto":[
        85688543,
        102191575,
        404523265,
        85633793,
        102081775
    ],
    "wof:breaches":[],
    "wof:concordances":{
        "gn:id":5144406
    },
    "wof:country":"US",
    "wof:geomhash":"63f09cc6c67cf4ce5f9ef182c2822328",
    "wof:hierarchy":[
        {
            "continent_id":102191575,
            "country_id":85633793,
            "county_id":102081775,
            "localadmin_id":404523265,
            "locality_id":1260194177,
            "region_id":85688543
        }
    ],
    "wof:id":1260194177,
    "wof:lastmodified":1536832204,
    "wof:name":"Whitfield",
    "wof:parent_id":404523265,
    "wof:placetype":"locality",
    "wof:repo":"whosonfirst-data-admin-us",
    "wof:superseded_by":[],
    "wof:supersedes":[],
    "wof:tags":[]
},
  "bbox": [
    -74.22431,
    41.81426,
    -74.22431,
    41.81426
],
  "geometry": {"coordinates":[-74.22431,41.81426],"type":"Point"}
}