{
  "id": 1360096411,
  "type": "Feature",
  "properties": {
    "edtf:cessation":"uuuu",
    "edtf:inception":"uuuu",
    "geom:area":0.0,
    "geom:area_square_m":0.0,
    "geom:bbox":"-80.04676,32.7924,-80.04676,32.7924",
    "geom:latitude":32.7924,
    "geom:longitude":-80.04676,
    "gn:admin1_code":"SC",
    "gn:admin2_code":"19.0",
    "gn:asciiname":"Melrose",
    "gn:country_code":"US",
    "gn:dem":5,
    "gn:elevation":"8.0",
    "gn:feature_class":"P",
    "gn:feature_code":"PPL",
    "gn:geonameid":4586945,
    "gn:latitude":32.7924,
    "gn:longitude":-80.04676,
    "gn:modification_date":"2006-01-15",
    "gn:name":"Melrose",
    "gn:population":0,
    "gn:timezone":"America/New_York",
    "iso:country":"US",
    "mz:hierarchy_label":1,
    "mz:is_current":-1,
    "src:geom":"geonames",
    "wof:belongsto":[
        102191575,
        85633793,
        85688683,
        102085591
    ],
    "wof:breaches":[],
    "wof:concordances":{
        "gn:id":4586945
    },
    "wof:country":"US",
    "wof:geomhash":"a86fa9d754e86dd632125a66efdd4e2c",
    "wof:hierarchy":[
        {
            "continent_id":102191575,
            "country_id":85633793,
            "county_id":102085591,
            "locality_id":1360096411,
            "region_id":85688683
        }
    ],
    "wof:id":1360096411,
    "wof:lastmodified":1536930014,
    "wof:name":"Melrose",
    "wof:parent_id":102085591,
    "wof:placetype":"locality",
    "wof:repo":"whosonfirst-data-admin-us",
    "wof:superseded_by":[],
    "wof:supersedes":[],
    "wof:tags":[]
},
  "bbox": [
    -80.04675999999998,
    32.7924,
    -80.04675999999998,
    32.7924
],
  "geometry": {"coordinates":[-80.04675999999998,32.7924],"type":"Point"}
}