{
  "id": 1125334861,
  "type": "Feature",
  "properties": {
    "edtf:cessation":"2017-05-19",
    "edtf:inception":"uuuu",
    "geom:area":0.0,
    "geom:area_square_m":0.0,
    "geom:bbox":"-75.96743,40.30481,-75.96743,40.30481",
    "geom:latitude":40.30481,
    "geom:longitude":-75.96743,
    "gn:gn_country":"US",
    "gn:gn_fcode":"ADMD",
    "gn:gn_pop":5273,
    "gn:population":5273,
    "iso:country":"US",
    "lbl:latitude":40.30481,
    "lbl:longitude":-75.96743,
    "mz:hierarchy_label":1,
    "mz:is_current":0,
    "mz:note":"Quattroshapes Point Gazetteer import 20170519",
    "qs_pg:aaroncc":"US",
    "qs_pg:gn_country":"US",
    "qs_pg:gn_fcode":"ADMD",
    "qs_pg:gn_id":5211956,
    "qs_pg:gn_pop":5273,
    "qs_pg:name":"Borough of Shillington",
    "qs_pg:photos_9r":0,
    "qs_pg:photos_sr":0,
    "qs_pg:pop_sr":5,
    "qs_pg:qs_id":607044,
    "qs_pg:qs_pg_placetype":"localadmin",
    "src:geom":"qs_pg",
    "src:lbl:centroid":"qs_pg",
    "src:population":"geonames",
    "wof:belongsto":[
        85633793
    ],
    "wof:breaches":[],
    "wof:concordances":{
        "gn:id":5211956,
        "qs_pg:id":607044
    },
    "wof:country":"US",
    "wof:created":1497045344,
    "wof:geomhash":"bd2d33d109d2e69c48bbc11339c0c05a",
    "wof:hierarchy":[
        {
            "country_id":85633793,
            "localadmin_id":1125334861
        }
    ],
    "wof:id":1125334861,
    "wof:lastmodified":1505186977,
    "wof:name":"Borough of Shillington",
    "wof:parent_id":-1,
    "wof:placetype":"localadmin",
    "wof:population":5273,
    "wof:population_rank":5,
    "wof:repo":"whosonfirst-data-admin-us",
    "wof:superseded_by":[],
    "wof:supersedes":[],
    "wof:tags":[]
},
  "bbox": [
    -75.96743,
    40.30481,
    -75.96743,
    40.30481
],
  "geometry": {"coordinates":[-75.96742999999999,40.30481],"type":"Point"}
}