{
  "id": 1226168733,
  "type": "Feature",
  "properties": {
    "edtf:cessation":"uuuu",
    "edtf:inception":"uuuu",
    "geom:area":0.0,
    "geom:area_square_m":0.0,
    "geom:bbox":"-86.0508,32.45653,-86.0508,32.45653",
    "geom:latitude":32.45653,
    "geom:longitude":-86.0508,
    "gn:admin1_code":"AL",
    "gn:admin2_code":"51.0",
    "gn:asciiname":"Ware",
    "gn:country_code":"US",
    "gn:dem":136,
    "gn:elevation":"134.0",
    "gn:feature_class":"P",
    "gn:feature_code":"PPL",
    "gn:geonameid":4096347,
    "gn:latitude":32.45653,
    "gn:longitude":-86.0508,
    "gn:modification_date":"2006-01-15",
    "gn:name":"Ware",
    "gn:population":0,
    "gn:timezone":"America/Chicago",
    "iso:country":"US",
    "mz:hierarchy_label":1,
    "mz:is_current":-1,
    "name:eng_x_preferred":[
        "Ware"
    ],
    "name:und_x_variant":[
        "Mitchells Mill"
    ],
    "src:geom":"geonames",
    "wof:belongsto":[
        102191575,
        85633793,
        85688675,
        102085631
    ],
    "wof:breaches":[],
    "wof:concordances":{
        "gn:id":4096347
    },
    "wof:country":"US",
    "wof:geomhash":"7238827abb4ab90ddeef9e53dd3bfc32",
    "wof:hierarchy":[
        {
            "continent_id":102191575,
            "country_id":85633793,
            "county_id":102085631,
            "locality_id":1226168733,
            "region_id":85688675
        }
    ],
    "wof:id":1226168733,
    "wof:lastmodified":1537712243,
    "wof:name":"Ware",
    "wof:parent_id":102085631,
    "wof:placetype":"locality",
    "wof:repo":"whosonfirst-data-admin-us",
    "wof:superseded_by":[],
    "wof:supersedes":[],
    "wof:tags":[]
},
  "bbox": [
    -86.0508,
    32.45653,
    -86.0508,
    32.45653
],
  "geometry": {"coordinates":[-86.0508,32.45653],"type":"Point"}
}