{
  "id": 1226067581,
  "type": "Feature",
  "properties": {
    "edtf:cessation":"2018-09-07",
    "edtf:inception":"uuuu",
    "geom:area":0.0,
    "geom:area_square_m":0.0,
    "geom:bbox":"-84.77072,39.12605,-84.77072,39.12605",
    "geom:latitude":39.12605,
    "geom:longitude":-84.77072,
    "gn:admin1_code":"KY",
    "gn:admin2_code":"15",
    "gn:asciiname":"Bullittsburg (historical)",
    "gn:country_code":"US",
    "gn:dem":149,
    "gn:elevation":"147.0",
    "gn:feature_class":"P",
    "gn:feature_code":"PPLQ",
    "gn:geonameid":7253899,
    "gn:latitude":39.12605,
    "gn:longitude":-84.77072,
    "gn:modification_date":"2011-12-12",
    "gn:name":"Bullittsburg (historical)",
    "gn:population":0,
    "gn:timezone":"America/New_York",
    "iso:country":"US",
    "mz:hierarchy_label":1,
    "mz:is_current":0,
    "name:und_x_variant":[
        "Bullettsburg",
        "Bullittsburg (historical)"
    ],
    "src:geom":"geonames",
    "wof:belongsto":[
        102191575,
        85633793,
        85688641,
        102084481
    ],
    "wof:breaches":[],
    "wof:concordances":{
        "gn:id":7253899
    },
    "wof:country":"US",
    "wof:geomhash":"b76cc6bc763a99a08a61dd3cb09110a2",
    "wof:hierarchy":[
        {
            "continent_id":102191575,
            "country_id":85633793,
            "county_id":102084481,
            "locality_id":1226067581,
            "region_id":85688641
        }
    ],
    "wof:id":1226067581,
    "wof:lastmodified":1537713174,
    "wof:name":"Bullittsburg (historical)",
    "wof:parent_id":102084481,
    "wof:placetype":"locality",
    "wof:repo":"whosonfirst-data-admin-us",
    "wof:superseded_by":[],
    "wof:supersedes":[],
    "wof:tags":[]
},
  "bbox": [
    -84.77072,
    39.12605,
    -84.77072,
    39.12605
],
  "geometry": {"coordinates":[-84.77072,39.12605],"type":"Point"}
}