{
  "id": 1360100559,
  "type": "Feature",
  "properties": {
    "edtf:cessation":"2018-09-06",
    "edtf:inception":"uuuu",
    "geom:area":0.0,
    "geom:area_square_m":0.0,
    "geom:bbox":"-119.07372,36.22773,-119.07372,36.22773",
    "geom:latitude":36.22773,
    "geom:longitude":-119.07372,
    "gn:admin1_code":"CA",
    "gn:admin2_code":"107.0",
    "gn:asciiname":"Reynolds (historical)",
    "gn:country_code":"US",
    "gn:dem":125,
    "gn:elevation":"120.0",
    "gn:feature_class":"P",
    "gn:feature_code":"PPLQ",
    "gn:geonameid":5387250,
    "gn:latitude":36.22773,
    "gn:longitude":-119.07372,
    "gn:modification_date":"2011-12-12",
    "gn:name":"Reynolds (historical)",
    "gn:population":0,
    "gn:timezone":"America/Los_Angeles",
    "iso:country":"US",
    "mz:hierarchy_label":1,
    "mz:is_current":0,
    "src:geom":"geonames",
    "wof:belongsto":[
        102191575,
        85633793,
        85688637,
        102082895
    ],
    "wof:breaches":[],
    "wof:concordances":{
        "gn:id":5387250
    },
    "wof:country":"US",
    "wof:geomhash":"4f6602db6a13e1d698d0201841c63257",
    "wof:hierarchy":[
        {
            "continent_id":102191575,
            "country_id":85633793,
            "county_id":102082895,
            "locality_id":1360100559,
            "region_id":85688637
        }
    ],
    "wof:id":1360100559,
    "wof:lastmodified":1536923957,
    "wof:name":"Reynolds (historical)",
    "wof:parent_id":102082895,
    "wof:placetype":"locality",
    "wof:repo":"whosonfirst-data-admin-us",
    "wof:superseded_by":[],
    "wof:supersedes":[],
    "wof:tags":[]
},
  "bbox": [
    -119.07372,
    36.22773,
    -119.07372,
    36.22773
],
  "geometry": {"coordinates":[-119.07371999999999,36.22773],"type":"Point"}
}