{
  "id": 1343497931,
  "type": "Feature",
  "properties": {
    "edtf:cessation":"uuuu",
    "edtf:inception":"uuuu",
    "geom:area":0.0,
    "geom:area_square_m":0.0,
    "geom:bbox":"-112.68059,46.76271,-112.68059,46.76271",
    "geom:latitude":46.76271,
    "geom:longitude":-112.68059,
    "gn:admin1_code":"MT",
    "gn:admin2_code":"77.0",
    "gn:asciiname":"Keiley",
    "gn:country_code":"US",
    "gn:dem":1486,
    "gn:elevation":"1490.0",
    "gn:feature_class":"P",
    "gn:feature_code":"PPL",
    "gn:geonameid":5660447,
    "gn:latitude":46.76271,
    "gn:longitude":-112.68059,
    "gn:modification_date":"2006-01-15",
    "gn:name":"Keiley",
    "gn:population":0,
    "gn:timezone":"America/Denver",
    "iso:country":"US",
    "mz:hierarchy_label":1,
    "mz:is_current":-1,
    "src:geom":"geonames",
    "wof:belongsto":[
        102191575,
        85633793,
        85688617,
        102085093
    ],
    "wof:breaches":[],
    "wof:concordances":{
        "gn:id":5660447
    },
    "wof:country":"US",
    "wof:geomhash":"47339f3c7ab6250106f2a384016d9ac1",
    "wof:hierarchy":[
        {
            "continent_id":102191575,
            "country_id":85633793,
            "county_id":102085093,
            "locality_id":1343497931,
            "region_id":85688617
        }
    ],
    "wof:id":1343497931,
    "wof:lastmodified":1536692170,
    "wof:name":"Keiley",
    "wof:parent_id":102085093,
    "wof:placetype":"locality",
    "wof:repo":"whosonfirst-data-admin-us",
    "wof:superseded_by":[],
    "wof:supersedes":[],
    "wof:tags":[]
},
  "bbox": [
    -112.68059,
    46.76271,
    -112.68059,
    46.76271
],
  "geometry": {"coordinates":[-112.68059,46.76271],"type":"Point"}
}