{
  "id": 420551453,
  "type": "Feature",
  "properties": {
    "edtf:cessation":"uuuu",
    "edtf:inception":"uuuu",
    "geom:area":0.0,
    "geom:area_square_m":1240970.803012,
    "geom:bbox":"-117.735947,33.521028,-117.735947,33.521028",
    "geom:latitude":33.521028,
    "geom:longitude":-117.735947,
    "iso:country":"US",
    "lbl:latitude":33.521028,
    "lbl:longitude":-117.735947,
    "mz:hierarchy_label":0,
    "mz:is_current":-1,
    "name:eng_x_preferred":[
        "Laguna Sur"
    ],
    "src:geom":"mz",
    "src:geom_alt":[
        "zetashapes"
    ],
    "src:lbl":"mapshaper",
    "src:lbl:centroid":"mapshaper",
    "src:population":"zetashapes",
    "wof:belongsto":[
        102191575,
        85633793,
        102080847,
        85688637
    ],
    "wof:breaches":[],
    "wof:concordances":{
        "gp:id":55969820
    },
    "wof:country":"US",
    "wof:geomhash":"82cf94af3bc18ed3c66340977008893a",
    "wof:hierarchy":[
        {
            "continent_id":102191575,
            "country_id":85633793,
            "county_id":102080847,
            "locality_id":-1,
            "neighbourhood_id":420551453,
            "region_id":85688637
        }
    ],
    "wof:id":420551453,
    "wof:lastmodified":1533612971,
    "wof:name":"Laguna Sur",
    "wof:parent_id":-1,
    "wof:placetype":"neighbourhood",
    "wof:population":272,
    "wof:population_rank":2,
    "wof:repo":"whosonfirst-data-admin-us",
    "wof:superseded_by":[],
    "wof:supersedes":[],
    "wof:tags":[],
    "zs:area_m":1240938.86777,
    "zs:blockids":[
        60590423251004,
        60590423243002
    ],
    "zs:housing10":157,
    "zs:id":55969820,
    "zs:label":"Laguna Sur",
    "zs:pop10":272
},
  "bbox": [
    -117.735947,
    33.521028,
    -117.735947,
    33.521028
],
  "geometry": {"coordinates":[-117.735947,33.521028],"type":"Point"}
}