{
  "id": 1108937279,
  "type": "Feature",
  "properties": {
    "edtf:cessation":"uuuu",
    "edtf:inception":"uuuu",
    "geom:area":0.0,
    "geom:area_square_m":0.0,
    "geom:bbox":"-122.441369204,47.2565203178,-122.441369204,47.2565203178",
    "geom:latitude":47.25652,
    "geom:longitude":-122.441369,
    "iso:country":"US",
    "lbl:latitude":47.25652,
    "lbl:longitude":-122.441369,
    "mz:hierarchy_label":1,
    "mz:is_funky":0,
    "mz:is_hard_boundary":0,
    "mz:is_landuse_aoi":0,
    "mz:is_official":0,
    "mz:max_zoom":18.0,
    "mz:min_zoom":16.0,
    "mz:tier_metro":15,
    "src:lbl:centroid":"mz",
    "wof:belongsto":[
        102191575,
        85633793,
        101730275,
        102087547,
        85688623
    ],
    "wof:breaches":[],
    "wof:concordances":{},
    "wof:country":"US",
    "wof:created":1491359572,
    "wof:geomhash":"cd81fd0b5b25d4497e6fbde130ef8568",
    "wof:hierarchy":[
        {
            "continent_id":102191575,
            "country_id":85633793,
            "county_id":102087547,
            "locality_id":101730275,
            "neighbourhood_id":1108937279,
            "region_id":85688623
        }
    ],
    "wof:id":1108937279,
    "wof:lastmodified":1492123424,
    "wof:name":"Antque Row",
    "wof:parent_id":101730275,
    "wof:placetype":"neighbourhood",
    "wof:repo":"whosonfirst-data-admin-us",
    "wof:superseded_by":[],
    "wof:supersedes":[],
    "wof:tags":[]
},
  "bbox": [
    -122.44136920438231,
    47.25652031778982,
    -122.44136920438231,
    47.25652031778982
],
  "geometry": {"coordinates":[-122.44136920438231,47.25652031778982],"type":"Point"}
}