{
  "id": 1259995697,
  "type": "Feature",
  "properties": {
    "edtf:cessation":"uuuu",
    "edtf:inception":"uuuu",
    "geom:area":0.0,
    "geom:area_square_m":0.0,
    "geom:bbox":"-92.67433,34.97148,-92.67433,34.97148",
    "geom:latitude":34.97148,
    "geom:longitude":-92.67433,
    "gn:admin1_code":"AR",
    "gn:admin2_code":"105.0",
    "gn:admin3_code":"92022.0",
    "gn:asciiname":"Pleasant Valley",
    "gn:country_code":"US",
    "gn:dem":92,
    "gn:elevation":"90.0",
    "gn:feature_class":"P",
    "gn:feature_code":"PPL",
    "gn:geonameid":4126824,
    "gn:latitude":34.97148,
    "gn:longitude":-92.67433,
    "gn:modification_date":"2017-05-23",
    "gn:name":"Pleasant Valley",
    "gn:population":0,
    "gn:timezone":"America/Chicago",
    "iso:country":"US",
    "mz:hierarchy_label":1,
    "mz:is_current":-1,
    "src:geom":"geonames",
    "wof:belongsto":[
        102191575,
        85633793,
        85688549,
        102082017
    ],
    "wof:breaches":[],
    "wof:concordances":{
        "gn:id":4126824
    },
    "wof:country":"US",
    "wof:geomhash":"4e71a3c4e1e09e30ff79d7ed0134688b",
    "wof:hierarchy":[
        {
            "continent_id":102191575,
            "country_id":85633793,
            "county_id":102082017,
            "locality_id":1259995697,
            "region_id":85688549
        }
    ],
    "wof:id":1259995697,
    "wof:lastmodified":1536615151,
    "wof:name":"Pleasant Valley",
    "wof:parent_id":102082017,
    "wof:placetype":"locality",
    "wof:repo":"whosonfirst-data-admin-us",
    "wof:superseded_by":[],
    "wof:supersedes":[],
    "wof:tags":[]
},
  "bbox": [
    -92.67433,
    34.97148,
    -92.67433,
    34.97148
],
  "geometry": {"coordinates":[-92.67433,34.97148],"type":"Point"}
}