{
  "id": 1210032069,
  "type": "Feature",
  "properties": {
    "edtf:cessation":"uuuu",
    "edtf:inception":"uuuu",
    "geom:area":0.0,
    "geom:area_square_m":0.0,
    "geom:bbox":"-117.34227,34.36722,-117.34227,34.36722",
    "geom:latitude":34.36722,
    "geom:longitude":-117.34227,
    "gn:admin1_code":"CA",
    "gn:admin2_code":"71",
    "gn:asciiname":"Lugo",
    "gn:country_code":"US",
    "gn:dem":1047,
    "gn:elevation":"1043.0",
    "gn:feature_class":"P",
    "gn:feature_code":"PPL",
    "gn:geonameid":5369221,
    "gn:latitude":34.36722,
    "gn:longitude":-117.34227,
    "gn:modification_date":"2006-01-15",
    "gn:name":"Lugo",
    "gn:population":0,
    "gn:timezone":"America/Los_Angeles",
    "iso:country":"US",
    "mz:hierarchy_label":1,
    "mz:is_current":-1,
    "src:geom":"geonames",
    "wof:belongsto":[
        102191575,
        85633793,
        85688637,
        102085395
    ],
    "wof:breaches":[],
    "wof:concordances":{
        "gn:id":5369221
    },
    "wof:country":"US",
    "wof:geomhash":"4a1612c5dea5633ff9cf72337717c436",
    "wof:hierarchy":[
        {
            "continent_id":102191575,
            "country_id":85633793,
            "county_id":102085395,
            "locality_id":1210032069,
            "region_id":85688637
        }
    ],
    "wof:id":1210032069,
    "wof:lastmodified":1536388127,
    "wof:name":"Lugo",
    "wof:parent_id":102085395,
    "wof:placetype":"locality",
    "wof:repo":"whosonfirst-data-admin-us",
    "wof:superseded_by":[],
    "wof:supersedes":[],
    "wof:tags":[]
},
  "bbox": [
    -117.34227,
    34.36722,
    -117.34227,
    34.36722
],
  "geometry": {"coordinates":[-117.34227,34.36722],"type":"Point"}
}