{
  "id": 420510613,
  "type": "Feature",
  "properties": {
    "edtf:cessation":"uuuu",
    "edtf:inception":"uuuu",
    "geom:area":0.0,
    "geom:area_square_m":2485195.430867,
    "geom:bbox":"-86.654402,34.763887,-86.654402,34.763887",
    "geom:latitude":34.763887,
    "geom:longitude":-86.654402,
    "iso:country":"US",
    "lbl:latitude":34.763887,
    "lbl:longitude":-86.654402,
    "mz:hierarchy_label":0,
    "mz:is_current":-1,
    "name:eng_x_preferred":[
        "Gentily Forest"
    ],
    "src:geom":"mz",
    "src:geom_alt":[
        "zetashapes"
    ],
    "src:lbl":"mapshaper",
    "src:lbl:centroid":"mapshaper",
    "src:population":"zetashapes",
    "wof:belongsto":[
        102191575,
        85633793,
        85913601,
        102085487,
        85688675
    ],
    "wof:breaches":[],
    "wof:concordances":{
        "gp:id":2409552
    },
    "wof:country":"US",
    "wof:geomhash":"7012fed602b9c30deb512abd9c8fe058",
    "wof:hierarchy":[
        {
            "continent_id":102191575,
            "country_id":85633793,
            "county_id":102085487,
            "locality_id":85913601,
            "neighbourhood_id":420510613,
            "region_id":85688675
        }
    ],
    "wof:id":420510613,
    "wof:lastmodified":1533591273,
    "wof:name":"Gentily Forest",
    "wof:parent_id":85913601,
    "wof:placetype":"neighbourhood",
    "wof:population":265,
    "wof:population_rank":2,
    "wof:repo":"whosonfirst-data-admin-us",
    "wof:superseded_by":[],
    "wof:supersedes":[],
    "wof:tags":[],
    "zs:area_m":2485027.145195,
    "zs:blockids":[
        10890106221133,
        10890005021021,
        10890005011019,
        10890106221142,
        10890106222010,
        10890106222089,
        10890106221132,
        10890106221136,
        10890106221135
    ],
    "zs:housing10":4,
    "zs:id":2409552,
    "zs:label":"Gentily Forest",
    "zs:pop10":265
},
  "bbox": [
    -86.654402,
    34.763887,
    -86.654402,
    34.763887
],
  "geometry": {"coordinates":[-86.654402,34.763887],"type":"Point"}
}