{
  "id": 1193042005,
  "type": "Feature",
  "properties": {
    "edtf:cessation":"uuuu",
    "edtf:inception":"uuuu",
    "geom:area":0.0,
    "geom:area_square_m":0.0,
    "geom:bbox":"-90.12176,36.27229,-90.12176,36.27229",
    "geom:latitude":36.27229,
    "geom:longitude":-90.12176,
    "gn:admin1_code":"AR",
    "gn:admin2_code":"21.0",
    "gn:admin3_code":"92836.0",
    "gn:asciiname":"Patterson",
    "gn:country_code":"US",
    "gn:dem":79,
    "gn:elevation":"81.0",
    "gn:feature_class":"P",
    "gn:feature_code":"PPL",
    "gn:geonameid":4125598,
    "gn:latitude":36.27229,
    "gn:longitude":-90.12176,
    "gn:modification_date":"2017-05-23",
    "gn:name":"Patterson",
    "gn:population":0,
    "gn:timezone":"America/Chicago",
    "iso:country":"US",
    "mz:hierarchy_label":1,
    "mz:is_current":-1,
    "src:geom":"geonames",
    "wof:belongsto":[
        102191575,
        85633793,
        85688549,
        102082049
    ],
    "wof:breaches":[],
    "wof:concordances":{
        "gn:id":4125598
    },
    "wof:country":"US",
    "wof:geomhash":"00a741fab87957dc0b4f201581388602",
    "wof:hierarchy":[
        {
            "continent_id":102191575,
            "country_id":85633793,
            "county_id":102082049,
            "locality_id":1193042005,
            "region_id":85688549
        }
    ],
    "wof:id":1193042005,
    "wof:lastmodified":1536374901,
    "wof:name":"Patterson",
    "wof:parent_id":102082049,
    "wof:placetype":"locality",
    "wof:repo":"whosonfirst-data-admin-us",
    "wof:superseded_by":[],
    "wof:supersedes":[],
    "wof:tags":[]
},
  "bbox": [
    -90.12176,
    36.27229000000001,
    -90.12176,
    36.27229000000001
],
  "geometry": {"coordinates":[-90.12175999999999,36.27229000000001],"type":"Point"}
}