{
  "id": 420535681,
  "type": "Feature",
  "properties": {
    "edtf:cessation":"uuuu",
    "edtf:inception":"uuuu",
    "geom:area":0.0,
    "geom:area_square_m":159873.582654,
    "geom:bbox":"-111.921852,33.343473,-111.921852,33.343473",
    "geom:latitude":33.343473,
    "geom:longitude":-111.921852,
    "iso:country":"US",
    "lbl:latitude":33.343473,
    "lbl:longitude":-111.921852,
    "mz:hierarchy_label":0,
    "mz:is_current":1,
    "name:eng_x_preferred":[
        "Sandahl"
    ],
    "name:rus_x_preferred":[
        "\u0421\u0430\u043d\u0434\u0430\u043b\u044c"
    ],
    "name:swe_x_preferred":[
        "Sandahl"
    ],
    "src:geom":"mz",
    "src:geom_alt":[
        "zetashapes"
    ],
    "src:lbl":"mapshaper",
    "src:lbl:centroid":"mapshaper",
    "src:population":"zetashapes",
    "wd:wordcount":41,
    "wof:belongsto":[
        102191575,
        85633793,
        85917469,
        102087421,
        85688719
    ],
    "wof:breaches":[],
    "wof:concordances":{
        "gp:id":55862145
    },
    "wof:country":"US",
    "wof:geomhash":"ff82dd067e0e8cc980c432735b995bf8",
    "wof:hierarchy":[
        {
            "continent_id":102191575,
            "country_id":85633793,
            "county_id":102087421,
            "locality_id":85917469,
            "neighbourhood_id":420535681,
            "region_id":85688719
        }
    ],
    "wof:id":420535681,
    "wof:lastmodified":1533599097,
    "wof:name":"Sandahl",
    "wof:parent_id":85917469,
    "wof:placetype":"neighbourhood",
    "wof:population":52,
    "wof:population_rank":1,
    "wof:repo":"whosonfirst-data-admin-us",
    "wof:superseded_by":[],
    "wof:supersedes":[],
    "wof:tags":[],
    "zs:area_m":159862.847553,
    "zs:blockids":[
        40133199071015
    ],
    "zs:housing10":20,
    "zs:id":55862145,
    "zs:label":"Sandahl",
    "zs:pop10":52
},
  "bbox": [
    -111.921852,
    33.343473,
    -111.921852,
    33.343473
],
  "geometry": {"coordinates":[-111.921852,33.343473],"type":"Point"}
}