{
  "id": 1125322357,
  "type": "Feature",
  "properties": {
    "edtf:cessation":"2017-05-19",
    "edtf:inception":"uuuu",
    "geom:area":0.0,
    "geom:area_square_m":0.0,
    "geom:bbox":"-81.53733,33.91014,-81.53733,33.91014",
    "geom:latitude":33.91014,
    "geom:longitude":-81.53733,
    "gn:gn_country":"US",
    "gn:gn_fcode":"ADMD",
    "gn:gn_pop":5362,
    "gn:population":5362,
    "iso:country":"US",
    "lbl:latitude":33.91014,
    "lbl:longitude":-81.53733,
    "mz:hierarchy_label":1,
    "mz:is_current":0,
    "mz:note":"Quattroshapes Point Gazetteer import 20170519",
    "name:eng_x_preferred":[
        "Town of Batesburg-Leesville"
    ],
    "name:unk_x_variant":[
        "Batesburg-Leesville"
    ],
    "qs_pg:aaroncc":"US",
    "qs_pg:gn_country":"US",
    "qs_pg:gn_fcode":"ADMD",
    "qs_pg:gn_id":4570116,
    "qs_pg:gn_pop":5362,
    "qs_pg:name":"Town of Batesburg-Leesville",
    "qs_pg:photos_9r":0,
    "qs_pg:photos_sr":0,
    "qs_pg:pop_sr":5,
    "qs_pg:qs_id":98643,
    "qs_pg:qs_pg_placetype":"localadmin",
    "src:geom":"qs_pg",
    "src:lbl:centroid":"qs_pg",
    "src:population":"geonames",
    "wof:belongsto":[
        85633793
    ],
    "wof:breaches":[],
    "wof:concordances":{
        "gn:id":4570116,
        "qs_pg:id":98643
    },
    "wof:country":"US",
    "wof:created":1497044603,
    "wof:geomhash":"5049fc7c5b1710d898fbcda3519eb88d",
    "wof:hierarchy":[
        {
            "country_id":85633793,
            "localadmin_id":1125322357
        }
    ],
    "wof:id":1125322357,
    "wof:lastmodified":1505186918,
    "wof:name":"Town of Batesburg-Leesville",
    "wof:parent_id":-1,
    "wof:placetype":"localadmin",
    "wof:population":5362,
    "wof:population_rank":5,
    "wof:repo":"whosonfirst-data-admin-us",
    "wof:superseded_by":[],
    "wof:supersedes":[],
    "wof:tags":[]
},
  "bbox": [
    -81.53733,
    33.91014,
    -81.53733,
    33.91014
],
  "geometry": {"coordinates":[-81.53733,33.91014],"type":"Point"}
}