{
  "id": 420513729,
  "type": "Feature",
  "properties": {
    "edtf:cessation":"uuuu",
    "edtf:inception":"uuuu",
    "geom:area":0.0,
    "geom:area_square_m":243645.994282,
    "geom:bbox":"-82.279002,27.980719,-82.279002,27.980719",
    "geom:latitude":27.980719,
    "geom:longitude":-82.279002,
    "iso:country":"US",
    "lbl:latitude":27.980719,
    "lbl:longitude":-82.279002,
    "mz:hierarchy_label":0,
    "mz:is_current":-1,
    "name:eng_x_preferred":[
        "Sleepy Hollow"
    ],
    "src:geom":"mz",
    "src:geom_alt":[
        "zetashapes"
    ],
    "src:lbl":"mapshaper",
    "src:lbl:centroid":"mapshaper",
    "src:population":"zetashapes",
    "wof:belongsto":[
        102191575,
        85633793,
        85933691,
        102085773,
        85688651
    ],
    "wof:breaches":[],
    "wof:concordances":{
        "gp:id":55981632
    },
    "wof:country":"US",
    "wof:geomhash":"eb83bdbb45d1d2e1588a7d81d3f54c30",
    "wof:hierarchy":[
        {
            "continent_id":102191575,
            "country_id":85633793,
            "county_id":102085773,
            "locality_id":85933691,
            "neighbourhood_id":420513729,
            "region_id":85688651
        }
    ],
    "wof:id":420513729,
    "wof:lastmodified":1533592269,
    "wof:name":"Sleepy Hollow",
    "wof:parent_id":85933691,
    "wof:placetype":"neighbourhood",
    "wof:population":180,
    "wof:population_rank":1,
    "wof:repo":"whosonfirst-data-admin-us",
    "wof:superseded_by":[],
    "wof:supersedes":[],
    "wof:tags":[],
    "zs:area_m":243629.111754,
    "zs:blockids":[
        120570122072012,
        120570121063042,
        120570122071000,
        120570122072011,
        120570121081017
    ],
    "zs:housing10":74,
    "zs:id":55981632,
    "zs:label":"Sleepy Hollow",
    "zs:pop10":180
},
  "bbox": [
    -82.279002,
    27.980719,
    -82.279002,
    27.980719
],
  "geometry": {"coordinates":[-82.27900200000001,27.980719],"type":"Point"}
}