{
  "id": 1277017383,
  "type": "Feature",
  "properties": {
    "edtf:cessation":"2018-09-06",
    "edtf:inception":"uuuu",
    "geom:area":0.0,
    "geom:area_square_m":0.0,
    "geom:bbox":"-111.54247,45.89993,-111.54247,45.89993",
    "geom:latitude":45.89993,
    "geom:longitude":-111.54247,
    "gn:admin1_code":"MT",
    "gn:admin2_code":"31.0",
    "gn:asciiname":"Jefferson (historical)",
    "gn:country_code":"US",
    "gn:dem":1239,
    "gn:elevation":"1243.0",
    "gn:feature_class":"P",
    "gn:feature_code":"PPLQ",
    "gn:geonameid":5659528,
    "gn:latitude":45.89993,
    "gn:longitude":-111.54247,
    "gn:modification_date":"2011-12-12",
    "gn:name":"Jefferson (historical)",
    "gn:population":0,
    "gn:timezone":"America/Denver",
    "iso:country":"US",
    "mz:hierarchy_label":1,
    "mz:is_current":0,
    "src:geom":"geonames",
    "wof:belongsto":[
        102191575,
        85633793,
        85688617,
        102085133
    ],
    "wof:breaches":[],
    "wof:concordances":{
        "gn:id":5659528
    },
    "wof:country":"US",
    "wof:geomhash":"5581dd6e4a0e4e1235057315a43c6a77",
    "wof:hierarchy":[
        {
            "continent_id":102191575,
            "country_id":85633793,
            "county_id":102085133,
            "locality_id":1277017383,
            "region_id":85688617
        }
    ],
    "wof:id":1277017383,
    "wof:lastmodified":1536855592,
    "wof:name":"Jefferson (historical)",
    "wof:parent_id":102085133,
    "wof:placetype":"locality",
    "wof:repo":"whosonfirst-data-admin-us",
    "wof:superseded_by":[],
    "wof:supersedes":[],
    "wof:tags":[]
},
  "bbox": [
    -111.54247,
    45.89993,
    -111.54247,
    45.89993
],
  "geometry": {"coordinates":[-111.54246999999999,45.89993],"type":"Point"}
}