{
  "id": 1125385895,
  "type": "Feature",
  "properties": {
    "edtf:cessation":"2017-05-19",
    "edtf:inception":"uuuu",
    "geom:area":0.0,
    "geom:area_square_m":0.0,
    "geom:bbox":"-79.03998,43.172,-79.03998,43.172",
    "geom:latitude":43.172,
    "geom:longitude":-79.03998,
    "gn:gn_country":"US",
    "gn:gn_fcode":"ADMD",
    "gn:gn_pop":2701,
    "gn:population":2701,
    "iso:country":"US",
    "lbl:latitude":43.172,
    "lbl:longitude":-79.03998,
    "mz:hierarchy_label":1,
    "mz:is_current":0,
    "mz:note":"Quattroshapes Point Gazetteer import 20170519",
    "qs_pg:aaroncc":"US",
    "qs_pg:gn_country":"US",
    "qs_pg:gn_fcode":"ADMD",
    "qs_pg:gn_id":7161707,
    "qs_pg:gn_pop":2701,
    "qs_pg:name":"Village of Lewiston",
    "qs_pg:photos_9r":0,
    "qs_pg:photos_sr":0,
    "qs_pg:pop_sr":4,
    "qs_pg:qs_id":657261,
    "qs_pg:qs_pg_placetype":"localadmin",
    "src:geom":"qs_pg",
    "src:lbl:centroid":"qs_pg",
    "src:population":"geonames",
    "wof:belongsto":[
        85633793
    ],
    "wof:breaches":[],
    "wof:concordances":{
        "gn:id":7161707,
        "qs_pg:id":657261
    },
    "wof:country":"US",
    "wof:created":1497048373,
    "wof:geomhash":"b7edcb753a5ce9139257dcddedb6e721",
    "wof:hierarchy":[
        {
            "country_id":85633793,
            "localadmin_id":1125385895
        }
    ],
    "wof:id":1125385895,
    "wof:lastmodified":1505187018,
    "wof:name":"Village of Lewiston",
    "wof:parent_id":-1,
    "wof:placetype":"localadmin",
    "wof:population":2701,
    "wof:population_rank":4,
    "wof:repo":"whosonfirst-data-admin-us",
    "wof:superseded_by":[],
    "wof:supersedes":[],
    "wof:tags":[]
},
  "bbox": [
    -79.03998,
    43.172,
    -79.03998,
    43.172
],
  "geometry": {"coordinates":[-79.03998,43.172],"type":"Point"}
}