{
  "id": 1126107845,
  "type": "Feature",
  "properties": {
    "edtf:cessation":"uuuu",
    "edtf:deprecated":"2018-08-15",
    "edtf:inception":"uuuu",
    "edtf:superseded":"2018-08-15",
    "geom:area":0.0,
    "geom:area_square_m":0.0,
    "geom:bbox":"-76.26022,36.83376,-76.26022,36.83376",
    "geom:latitude":36.83376,
    "geom:longitude":-76.26022,
    "gn:gn_country":"US",
    "gn:gn_fcode":"PPL",
    "gn:gn_pop":0,
    "iso:country":"US",
    "lbl:latitude":36.83376,
    "lbl:longitude":-76.26022,
    "mz:hierarchy_label":1,
    "mz:is_current":0,
    "mz:note":"Quattroshapes Point Gazetteer import 20170519",
    "name:eng_x_preferred":[
        "Campostella Heights"
    ],
    "name:unk_x_variant":[
        "Campostella"
    ],
    "qs_pg:aaroncc":"US",
    "qs_pg:gn_country":"US",
    "qs_pg:gn_fcode":"PPL",
    "qs_pg:gn_id":4750777,
    "qs_pg:gn_pop":0,
    "qs_pg:name":"Campostella Heights",
    "qs_pg:name_adm0":"United States",
    "qs_pg:name_adm1":"Virginia",
    "qs_pg:photos":3,
    "qs_pg:photos_1k":1,
    "qs_pg:photos_9k":1,
    "qs_pg:photos_9r":1,
    "qs_pg:photos_all":3,
    "qs_pg:photos_sr":1,
    "qs_pg:pop_sr":0,
    "qs_pg:qs_id":490626,
    "qs_pg:qs_pg_placetype":"neighbourhood",
    "qs_pg:qs_pg_placetype_gp":"Suburb",
    "qs_pg:woe_adm0":23424977,
    "qs_pg:woe_id":2374095,
    "src:geom":"qs_pg",
    "src:lbl:centroid":"qs_pg",
    "woe:adm0_id":23424977,
    "woe:name_adm0":"United States",
    "woe:name_adm1":"Virginia",
    "woe:placetype":"Suburb",
    "wof:belongsto":[
        85688747,
        102191575,
        85633793,
        101728769,
        102085935
    ],
    "wof:breaches":[],
    "wof:concordances":{
        "gn:id":4750777,
        "gp:id":2374095,
        "qs_pg:id":490626
    },
    "wof:country":"US",
    "wof:created":1497317517,
    "wof:geomhash":"cd55f038dfd1a6c89ae4cac06fdf069f",
    "wof:hierarchy":[
        {
            "continent_id":102191575,
            "country_id":85633793,
            "county_id":102085935,
            "locality_id":101728769,
            "neighbourhood_id":1126107845,
            "region_id":85688747
        }
    ],
    "wof:id":1126107845,
    "wof:lastmodified":1534379743,
    "wof:name":"Campostella Heights",
    "wof:parent_id":101728769,
    "wof:placetype":"neighbourhood",
    "wof:repo":"whosonfirst-data-admin-us",
    "wof:superseded_by":[
        420548219
    ],
    "wof:supersedes":[],
    "wof:tags":[]
},
  "bbox": [
    -76.26022,
    36.83376,
    -76.26022,
    36.83376
],
  "geometry": {"coordinates":[-76.26022,36.83376],"type":"Point"}
}