{
  "id": 404491595,
  "type": "Feature",
  "properties": {
    "edtf:cessation":"uuuu",
    "edtf:inception":"uuuu",
    "geom:area":0.010634,
    "geom:area_square_m":93277611.588596,
    "geom:bbox":"-90.55764,44.76999,-90.434483,44.857225",
    "geom:latitude":44.813628,
    "geom:longitude":-90.496256,
    "iso:country":"US",
    "lbl:latitude":44.81355,
    "lbl:longitude":-90.496256,
    "mz:hierarchy_label":1,
    "mz:is_current":-1,
    "name:eng_x_preferred":[
        "Beaver"
    ],
    "qs:a0":"United States",
    "qs:a1":"Wisconsin",
    "qs:a1_lc":"55",
    "qs:a2":"Clark",
    "qs:a2_lc":"55019",
    "qs:adm0":"United States",
    "qs:adm0_a3":"USA",
    "qs:la":"Beaver",
    "qs:la_lc":"5501905750",
    "qs:level":"localadmin",
    "qs:pop":885,
    "qs:source":"US Census",
    "qs:type":"town",
    "src:geom":"quattroshapes",
    "src:population":"quattroshapes",
    "wof:belongsto":[
        102191575,
        85633793,
        85688517,
        102081269
    ],
    "wof:breaches":[],
    "wof:concordances":{},
    "wof:country":"US",
    "wof:geomhash":"3c199f18f976c334f3e634774fd49272",
    "wof:hierarchy":[
        {
            "continent_id":102191575,
            "country_id":85633793,
            "county_id":102081269,
            "localadmin_id":404491595,
            "region_id":85688517
        }
    ],
    "wof:id":404491595,
    "wof:lastmodified":1505339559,
    "wof:name":"Beaver",
    "wof:parent_id":102081269,
    "wof:placetype":"localadmin",
    "wof:population":885,
    "wof:population_rank":2,
    "wof:repo":"whosonfirst-data-admin-us",
    "wof:superseded_by":[],
    "wof:supersedes":[],
    "wof:tags":[]
},
  "bbox": [
    -90.55764,
    44.76999,
    -90.434483,
    44.857225
],
  "geometry": {"coordinates":[[[-90.55746600000001,44.770484],[-90.557573,44.781112],[-90.557446,44.813758],[-90.557445,44.819458],[-90.55744,44.825336],[-90.557439,44.827331],[-90.55746000000001,44.834904],[-90.55753199999999,44.842835],[-90.557592,44.846454],[-90.55764000000001,44.856982],[-90.546223,44.85696],[-90.524497,44.856902],[-90.49594,44.85692],[-90.444777,44.857135],[-90.434483,44.857225],[-90.43464899999999,44.852559],[-90.43523,44.799306],[-90.435292,44.777892],[-90.434909,44.770301],[-90.445089,44.770263],[-90.53279999999999,44.770122],[-90.53895199999999,44.770094],[-90.544614,44.76999],[-90.557131,44.770258],[-90.55752699999999,44.770252],[-90.55746600000001,44.770484]]],"type":"Polygon"}
}