{
  "id": 1259507697,
  "type": "Feature",
  "properties": {
    "edtf:cessation":"2018-09-06",
    "edtf:inception":"uuuu",
    "geom:area":0.0,
    "geom:area_square_m":0.0,
    "geom:bbox":"-124.22841,41.75678,-124.22841,41.75678",
    "geom:latitude":41.75678,
    "geom:longitude":-124.22841,
    "gn:admin1_code":"CA",
    "gn:admin2_code":"15.0",
    "gn:asciiname":"Tatlatunne (historical)",
    "gn:country_code":"US",
    "gn:dem":-9999,
    "gn:elevation":"0.0",
    "gn:feature_class":"P",
    "gn:feature_code":"PPLQ",
    "gn:geonameid":5572541,
    "gn:latitude":41.75678,
    "gn:longitude":-124.22841,
    "gn:modification_date":"2011-12-12",
    "gn:name":"Tatlatunne (historical)",
    "gn:population":0,
    "gn:timezone":"America/Los_Angeles",
    "iso:country":"US",
    "mz:hierarchy_label":1,
    "mz:is_current":0,
    "name:eng_x_preferred":[
        "Tatlatunne (historical)"
    ],
    "name:und_x_variant":[
        "Ta-a-te-ne *",
        "Ta-tla tun-ne *",
        "Tahahteens",
        "Ta-ta-ten *",
        "Kal-wa-natc-kuc-te-ne",
        "Ta-t'ea-tun *",
        "Ta-t'qla-tun *",
        "Ta-ah-tens *",
        "Tahaten",
        "Tatqlaq-tun-tun-ne"
    ],
    "src:geom":"geonames",
    "wof:belongsto":[
        102191575,
        85633793,
        85688637,
        102084361
    ],
    "wof:breaches":[],
    "wof:concordances":{
        "gn:id":5572541
    },
    "wof:country":"US",
    "wof:geomhash":"d924777e5738de363825849a304c39bb",
    "wof:hierarchy":[
        {
            "continent_id":102191575,
            "country_id":85633793,
            "county_id":102084361,
            "locality_id":1259507697,
            "region_id":85688637
        }
    ],
    "wof:id":1259507697,
    "wof:lastmodified":1537713071,
    "wof:name":"Tatlatunne (historical)",
    "wof:parent_id":102084361,
    "wof:placetype":"locality",
    "wof:repo":"whosonfirst-data-admin-us",
    "wof:superseded_by":[],
    "wof:supersedes":[],
    "wof:tags":[]
},
  "bbox": [
    -124.22841,
    41.75678,
    -124.22841,
    41.75678
],
  "geometry": {"coordinates":[-124.22841,41.75678],"type":"Point"}
}