{
  "id": 1343375151,
  "type": "Feature",
  "properties": {
    "edtf:cessation":"2018-09-06",
    "edtf:inception":"uuuu",
    "geom:area":0.0,
    "geom:area_square_m":0.0,
    "geom:bbox":"-81.3387,36.10291,-81.3387,36.10291",
    "geom:latitude":36.10291,
    "geom:longitude":-81.3387,
    "gn:admin1_code":"NC",
    "gn:admin2_code":"193",
    "gn:admin3_code":"91788.0",
    "gn:asciiname":"Goulds (historical)",
    "gn:country_code":"US",
    "gn:dem":326,
    "gn:elevation":"337.0",
    "gn:feature_class":"P",
    "gn:feature_code":"PPLQ",
    "gn:geonameid":4468439,
    "gn:latitude":36.10291,
    "gn:longitude":-81.3387,
    "gn:modification_date":"2017-05-23",
    "gn:name":"Goulds (historical)",
    "gn:population":0,
    "gn:timezone":"America/New_York",
    "iso:country":"US",
    "mz:hierarchy_label":1,
    "mz:is_current":0,
    "src:geom":"geonames",
    "wof:belongsto":[
        102191575,
        85633793,
        85688773,
        102087899
    ],
    "wof:breaches":[],
    "wof:concordances":{
        "gn:id":4468439
    },
    "wof:country":"US",
    "wof:geomhash":"069f6e339df4f6405673020688295d13",
    "wof:hierarchy":[
        {
            "continent_id":102191575,
            "country_id":85633793,
            "county_id":102087899,
            "locality_id":1343375151,
            "region_id":85688773
        }
    ],
    "wof:id":1343375151,
    "wof:lastmodified":1536868099,
    "wof:name":"Goulds (historical)",
    "wof:parent_id":102087899,
    "wof:placetype":"locality",
    "wof:repo":"whosonfirst-data-admin-us",
    "wof:superseded_by":[],
    "wof:supersedes":[],
    "wof:tags":[]
},
  "bbox": [
    -81.3387,
    36.10291,
    -81.3387,
    36.10291
],
  "geometry": {"coordinates":[-81.3387,36.10291],"type":"Point"}
}