{
  "id": 1259419765,
  "type": "Feature",
  "properties": {
    "edtf:cessation":"uuuu",
    "edtf:inception":"uuuu",
    "geom:area":0.0,
    "geom:area_square_m":0.0,
    "geom:bbox":"-86.35877,46.44496,-86.35877,46.44496",
    "geom:latitude":46.44496,
    "geom:longitude":-86.35877,
    "gn:admin1_code":"MI",
    "gn:admin2_code":"153.0",
    "gn:admin3_code":"37940.0",
    "gn:asciiname":"Cusino",
    "gn:country_code":"US",
    "gn:dem":266,
    "gn:elevation":"268.0",
    "gn:feature_class":"P",
    "gn:feature_code":"PPL",
    "gn:geonameid":4990220,
    "gn:latitude":46.44496,
    "gn:longitude":-86.35877,
    "gn:modification_date":"2017-05-23",
    "gn:name":"Cusino",
    "gn:population":0,
    "gn:timezone":"America/Detroit",
    "iso:country":"US",
    "mz:hierarchy_label":1,
    "mz:is_current":-1,
    "src:geom":"geonames",
    "wof:belongsto":[
        85688599,
        102191575,
        404507917,
        85633793,
        102083021
    ],
    "wof:breaches":[],
    "wof:concordances":{
        "gn:id":4990220
    },
    "wof:country":"US",
    "wof:geomhash":"506c715fb345c64e04b02ff9488a024b",
    "wof:hierarchy":[
        {
            "continent_id":102191575,
            "country_id":85633793,
            "county_id":102083021,
            "localadmin_id":404507917,
            "locality_id":1259419765,
            "region_id":85688599
        }
    ],
    "wof:id":1259419765,
    "wof:lastmodified":1536950445,
    "wof:name":"Cusino",
    "wof:parent_id":404507917,
    "wof:placetype":"locality",
    "wof:repo":"whosonfirst-data-admin-us",
    "wof:superseded_by":[],
    "wof:supersedes":[],
    "wof:tags":[]
},
  "bbox": [
    -86.35876999999998,
    46.44496,
    -86.35876999999998,
    46.44496
],
  "geometry": {"coordinates":[-86.35876999999998,46.44496],"type":"Point"}
}