{
  "id": 1226467905,
  "type": "Feature",
  "properties": {
    "edtf:cessation":"uuuu",
    "edtf:inception":"uuuu",
    "geom:area":0.0,
    "geom:area_square_m":0.0,
    "geom:bbox":"-84.85939,35.27174,-84.85939,35.27174",
    "geom:latitude":35.27174,
    "geom:longitude":-84.85939,
    "gn:admin1_code":"TN",
    "gn:admin2_code":"11",
    "gn:asciiname":"Eureka",
    "gn:country_code":"US",
    "gn:dem":223,
    "gn:elevation":"224.0",
    "gn:feature_class":"P",
    "gn:feature_code":"PPL",
    "gn:geonameid":4621220,
    "gn:latitude":35.27174,
    "gn:longitude":-84.85939,
    "gn:modification_date":"2006-01-15",
    "gn:name":"Eureka",
    "gn:population":0,
    "gn:timezone":"America/New_York",
    "iso:country":"US",
    "mz:hierarchy_label":1,
    "mz:is_current":-1,
    "src:geom":"geonames",
    "wof:belongsto":[
        102191575,
        85633793,
        85688701,
        102087043
    ],
    "wof:breaches":[],
    "wof:concordances":{
        "gn:id":4621220
    },
    "wof:country":"US",
    "wof:geomhash":"1a5d85628e2c2f975bdc09d4ce5b9a0a",
    "wof:hierarchy":[
        {
            "continent_id":102191575,
            "country_id":85633793,
            "county_id":102087043,
            "locality_id":1226467905,
            "region_id":85688701
        }
    ],
    "wof:id":1226467905,
    "wof:lastmodified":1536611024,
    "wof:name":"Eureka",
    "wof:parent_id":102087043,
    "wof:placetype":"locality",
    "wof:repo":"whosonfirst-data-admin-us",
    "wof:superseded_by":[],
    "wof:supersedes":[],
    "wof:tags":[]
},
  "bbox": [
    -84.85939,
    35.27174,
    -84.85939,
    35.27174
],
  "geometry": {"coordinates":[-84.85939,35.27174],"type":"Point"}
}