{
  "id": 1125406959,
  "type": "Feature",
  "properties": {
    "edtf:cessation":"2017-05-19",
    "edtf:inception":"uuuu",
    "geom:area":0.0,
    "geom:area_square_m":0.0,
    "geom:bbox":"-87.92403,42.13066,-87.92403,42.13066",
    "geom:latitude":42.13066,
    "geom:longitude":-87.92403,
    "gn:gn_country":"US",
    "gn:gn_fcode":"ADMD",
    "gn:gn_pop":37648,
    "gn:population":37648,
    "iso:country":"US",
    "lbl:latitude":42.13066,
    "lbl:longitude":-87.92403,
    "mz:hierarchy_label":1,
    "mz:is_current":0,
    "mz:note":"Quattroshapes Point Gazetteer import 20170519",
    "qs_pg:aaroncc":"US",
    "qs_pg:gn_country":"US",
    "qs_pg:gn_fcode":"ADMD",
    "qs_pg:gn_id":7167759,
    "qs_pg:gn_pop":37648,
    "qs_pg:name":"Village of Wheeling",
    "qs_pg:photos_9r":0,
    "qs_pg:photos_sr":0,
    "qs_pg:pop_sr":7,
    "qs_pg:qs_id":661961,
    "qs_pg:qs_pg_placetype":"localadmin",
    "src:geom":"qs_pg",
    "src:lbl:centroid":"qs_pg",
    "src:population":"geonames",
    "wof:belongsto":[
        85633793
    ],
    "wof:breaches":[],
    "wof:concordances":{
        "gn:id":7167759,
        "qs_pg:id":661961
    },
    "wof:country":"US",
    "wof:created":1497049702,
    "wof:geomhash":"1d5484c0f7a3932ec707c01f191d2a91",
    "wof:hierarchy":[
        {
            "country_id":85633793,
            "localadmin_id":1125406959
        }
    ],
    "wof:id":1125406959,
    "wof:lastmodified":1505187081,
    "wof:name":"Village of Wheeling",
    "wof:parent_id":-1,
    "wof:placetype":"localadmin",
    "wof:population":37648,
    "wof:population_rank":7,
    "wof:repo":"whosonfirst-data-admin-us",
    "wof:superseded_by":[],
    "wof:supersedes":[],
    "wof:tags":[]
},
  "bbox": [
    -87.92403,
    42.13066,
    -87.92403,
    42.13066
],
  "geometry": {"coordinates":[-87.92403,42.13066],"type":"Point"}
}