{
  "id": 1242788851,
  "type": "Feature",
  "properties": {
    "edtf:cessation":"uuuu",
    "edtf:inception":"uuuu",
    "geom:area":0.0,
    "geom:area_square_m":0.0,
    "geom:bbox":"-122.16167,41.26793,-122.16167,41.26793",
    "geom:latitude":41.26793,
    "geom:longitude":-122.16167,
    "gn:admin1_code":"CA",
    "gn:admin2_code":"93.0",
    "gn:asciiname":"Hooper",
    "gn:country_code":"US",
    "gn:dem":1149,
    "gn:elevation":"1140.0",
    "gn:feature_class":"P",
    "gn:feature_code":"PPL",
    "gn:geonameid":5565276,
    "gn:latitude":41.26793,
    "gn:longitude":-122.16167,
    "gn:modification_date":"2006-01-15",
    "gn:name":"Hooper",
    "gn:population":0,
    "gn:timezone":"America/Los_Angeles",
    "iso:country":"US",
    "mz:hierarchy_label":1,
    "mz:is_current":-1,
    "src:geom":"geonames",
    "wof:belongsto":[
        102191575,
        85633793,
        85688637,
        102081669
    ],
    "wof:breaches":[],
    "wof:concordances":{
        "gn:id":5565276
    },
    "wof:country":"US",
    "wof:geomhash":"8c57dca3204a353ec398a3ce8a6094ac",
    "wof:hierarchy":[
        {
            "continent_id":102191575,
            "country_id":85633793,
            "county_id":102081669,
            "locality_id":1242788851,
            "region_id":85688637
        }
    ],
    "wof:id":1242788851,
    "wof:lastmodified":1536759495,
    "wof:name":"Hooper",
    "wof:parent_id":102081669,
    "wof:placetype":"locality",
    "wof:repo":"whosonfirst-data-admin-us",
    "wof:superseded_by":[],
    "wof:supersedes":[],
    "wof:tags":[]
},
  "bbox": [
    -122.16167,
    41.26793,
    -122.16167,
    41.26793
],
  "geometry": {"coordinates":[-122.16167,41.26793],"type":"Point"}
}