{
  "id": 420533079,
  "type": "Feature",
  "properties": {
    "edtf:cessation":"uuuu",
    "edtf:inception":"uuuu",
    "geom:area":0.0,
    "geom:area_square_m":712680.672765,
    "geom:bbox":"-78.553285,35.837481,-78.553285,35.837481",
    "geom:latitude":35.837481,
    "geom:longitude":-78.553285,
    "iso:country":"US",
    "lbl:latitude":35.837481,
    "lbl:longitude":-78.553285,
    "mz:hierarchy_label":0,
    "mz:is_current":-1,
    "name:eng_x_preferred":[
        "Stowecroft"
    ],
    "src:geom":"mz",
    "src:geom_alt":[
        "zetashapes"
    ],
    "src:lbl":"mapshaper",
    "src:lbl:centroid":"mapshaper",
    "src:population":"zetashapes",
    "wof:belongsto":[
        102191575,
        85633793,
        85980569,
        102087821,
        85688773
    ],
    "wof:breaches":[],
    "wof:concordances":{
        "gp:id":55990668
    },
    "wof:country":"US",
    "wof:geomhash":"8f0f8aea2e63fba8d86843103877ba00",
    "wof:hierarchy":[
        {
            "continent_id":102191575,
            "country_id":85633793,
            "county_id":102087821,
            "locality_id":85980569,
            "neighbourhood_id":420533079,
            "region_id":85688773
        }
    ],
    "wof:id":420533079,
    "wof:lastmodified":1533598201,
    "wof:name":"Stowecroft",
    "wof:parent_id":85980569,
    "wof:placetype":"neighbourhood",
    "wof:population":729,
    "wof:population_rank":2,
    "wof:repo":"whosonfirst-data-admin-us",
    "wof:superseded_by":[],
    "wof:supersedes":[],
    "wof:tags":[],
    "zs:area_m":712631.819204,
    "zs:blockids":[
        371830541042016,
        371830541043020
    ],
    "zs:housing10":205,
    "zs:id":55990668,
    "zs:label":"Stowecroft",
    "zs:pop10":729
},
  "bbox": [
    -78.553285,
    35.837481,
    -78.553285,
    35.837481
],
  "geometry": {"coordinates":[-78.553285,35.837481],"type":"Point"}
}