{
  "id": 1125300965,
  "type": "Feature",
  "properties": {
    "edtf:cessation":"uuuu",
    "edtf:deprecated":"2017-11-04",
    "edtf:inception":"uuuu",
    "geom:area":0.0,
    "geom:area_square_m":0.0,
    "geom:bbox":"-114.37383,43.68852,-114.37383,43.68852",
    "geom:latitude":43.68852,
    "geom:longitude":-114.37383,
    "gn:gn_country":"US",
    "gn:gn_fcode":"ADMD",
    "gn:gn_pop":2689,
    "gn:population":2689,
    "iso:country":"US",
    "lbl:latitude":43.68852,
    "lbl:longitude":-114.37383,
    "mz:hierarchy_label":1,
    "mz:is_current":0,
    "mz:note":"Quattroshapes Point Gazetteer import 20170519",
    "qs_pg:aaroncc":"US",
    "qs_pg:gn_country":"US",
    "qs_pg:gn_fcode":"ADMD",
    "qs_pg:gn_id":7174172,
    "qs_pg:gn_pop":2689,
    "qs_pg:name":"City of Ketchum",
    "qs_pg:photos_9r":0,
    "qs_pg:photos_sr":0,
    "qs_pg:pop_sr":4,
    "qs_pg:qs_id":666745,
    "qs_pg:qs_pg_placetype":"localadmin",
    "src:geom":"qs_pg",
    "src:lbl:centroid":"qs_pg",
    "src:population":"geonames",
    "wof:belongsto":[
        85633793
    ],
    "wof:breaches":[],
    "wof:concordances":{
        "gn:id":7174172,
        "qs_pg:id":666745
    },
    "wof:country":"US",
    "wof:created":1497043418,
    "wof:geomhash":"1bbccf154ce4deaf2bd52b66a247ecee",
    "wof:hierarchy":[
        {
            "country_id":85633793,
            "localadmin_id":1125300965
        }
    ],
    "wof:id":1125300965,
    "wof:lastmodified":1509752499,
    "wof:name":"City of Ketchum",
    "wof:parent_id":-1,
    "wof:placetype":"localadmin",
    "wof:population":2689,
    "wof:population_rank":4,
    "wof:repo":"whosonfirst-data-admin-us",
    "wof:superseded_by":[
        85937951
    ],
    "wof:supersedes":[],
    "wof:tags":[]
},
  "bbox": [
    -114.37383,
    43.68852,
    -114.37383,
    43.68852
],
  "geometry": {"coordinates":[-114.37383,43.68852],"type":"Point"}
}