{
  "id": 1243078863,
  "type": "Feature",
  "properties": {
    "edtf:cessation":"uuuu",
    "edtf:inception":"uuuu",
    "geom:area":0.0,
    "geom:area_square_m":0.0,
    "geom:bbox":"-89.14144,30.72075,-89.14144,30.72075",
    "geom:latitude":30.72075,
    "geom:longitude":-89.14144,
    "gn:admin1_code":"MS",
    "gn:admin2_code":"131.0",
    "gn:asciiname":"Perry",
    "gn:country_code":"US",
    "gn:dem":88,
    "gn:elevation":"83.0",
    "gn:feature_class":"P",
    "gn:feature_code":"PPL",
    "gn:geonameid":4440784,
    "gn:latitude":30.72075,
    "gn:longitude":-89.14144,
    "gn:modification_date":"2006-01-15",
    "gn:name":"Perry",
    "gn:population":0,
    "gn:timezone":"America/Chicago",
    "iso:country":"US",
    "mz:hierarchy_label":1,
    "mz:is_current":-1,
    "src:geom":"geonames",
    "wof:belongsto":[
        102191575,
        85633793,
        85688579,
        102085899
    ],
    "wof:breaches":[],
    "wof:concordances":{
        "gn:id":4440784
    },
    "wof:country":"US",
    "wof:geomhash":"27af240027a390e8c9b155f7d89aba03",
    "wof:hierarchy":[
        {
            "continent_id":102191575,
            "country_id":85633793,
            "county_id":102085899,
            "locality_id":1243078863,
            "region_id":85688579
        }
    ],
    "wof:id":1243078863,
    "wof:lastmodified":1536837305,
    "wof:name":"Perry",
    "wof:parent_id":102085899,
    "wof:placetype":"locality",
    "wof:repo":"whosonfirst-data-admin-us",
    "wof:superseded_by":[],
    "wof:supersedes":[],
    "wof:tags":[]
},
  "bbox": [
    -89.14144,
    30.72075,
    -89.14144,
    30.72075
],
  "geometry": {"coordinates":[-89.14144,30.72075],"type":"Point"}
}