{
  "id": 1276245159,
  "type": "Feature",
  "properties": {
    "edtf:cessation":"uuuu",
    "edtf:inception":"uuuu",
    "geom:area":0.0,
    "geom:area_square_m":0.0,
    "geom:bbox":"-80.407,25.70816,-80.407,25.70816",
    "geom:latitude":25.70816,
    "geom:longitude":-80.407,
    "gn:admin1_code":"FL",
    "gn:admin2_code":"86.0",
    "gn:asciiname":"Kendale Lakes",
    "gn:country_code":"US",
    "gn:dem":9,
    "gn:elevation":"1.0",
    "gn:feature_class":"P",
    "gn:feature_code":"PPL",
    "gn:geonameid":4160705,
    "gn:latitude":25.70816,
    "gn:longitude":-80.407,
    "gn:modification_date":"2011-05-14",
    "gn:name":"Kendale Lakes",
    "gn:population":56148,
    "gn:timezone":"America/New_York",
    "iso:country":"US",
    "mz:hierarchy_label":1,
    "mz:is_current":-1,
    "name:eng_x_preferred":[
        "Kendale Lakes"
    ],
    "src:geom":"geonames",
    "src:population":"geonames",
    "wof:belongsto":[
        102191575,
        85633793,
        85688651,
        102085771
    ],
    "wof:breaches":[],
    "wof:concordances":{
        "gn:id":4160705,
        "wk:page":"Kendale_Lakes%2C_Florida"
    },
    "wof:country":"US",
    "wof:geomhash":"c0653776550499b176a1d6500ed6114b",
    "wof:hierarchy":[
        {
            "continent_id":102191575,
            "country_id":85633793,
            "county_id":102085771,
            "locality_id":1276245159,
            "region_id":85688651
        }
    ],
    "wof:id":1276245159,
    "wof:lastmodified":1537712291,
    "wof:name":"Kendale Lakes",
    "wof:parent_id":102085771,
    "wof:placetype":"locality",
    "wof:population":56148,
    "wof:population_rank":8,
    "wof:repo":"whosonfirst-data-admin-us",
    "wof:superseded_by":[],
    "wof:supersedes":[],
    "wof:tags":[]
},
  "bbox": [
    -80.407,
    25.70816,
    -80.407,
    25.70816
],
  "geometry": {"coordinates":[-80.407,25.70816],"type":"Point"}
}