{
  "id": 1125384159,
  "type": "Feature",
  "properties": {
    "edtf:cessation":"2017-05-19",
    "edtf:inception":"uuuu",
    "geom:area":0.0,
    "geom:area_square_m":0.0,
    "geom:bbox":"-74.83294,40.01678,-74.83294,40.01678",
    "geom:latitude":40.01678,
    "geom:longitude":-74.83294,
    "gn:gn_country":"US",
    "gn:gn_fcode":"ADMD",
    "gn:gn_pop":0,
    "gn:population":8813,
    "iso:country":"US",
    "lbl:latitude":40.01678,
    "lbl:longitude":-74.83294,
    "mz:hierarchy_label":1,
    "mz:is_current":0,
    "mz:note":"Quattroshapes Point Gazetteer import 20170519",
    "name:eng_x_preferred":[
        "Westampton Township"
    ],
    "qs_pg:aaroncc":"US",
    "qs_pg:gn_country":"US",
    "qs_pg:gn_fcode":"ADMD",
    "qs_pg:gn_id":5106325,
    "qs_pg:gn_pop":0,
    "qs_pg:name":"Township of Westampton",
    "qs_pg:photos_9r":0,
    "qs_pg:photos_sr":0,
    "qs_pg:pop_sr":0,
    "qs_pg:qs_id":1038031,
    "qs_pg:qs_pg_placetype":"localadmin",
    "src:geom":"qs_pg",
    "src:lbl:centroid":"qs_pg",
    "src:population":"geonames",
    "wof:belongsto":[
        85633793
    ],
    "wof:breaches":[],
    "wof:concordances":{
        "gn:id":5106325,
        "qs_pg:id":1038031
    },
    "wof:country":"US",
    "wof:created":1497048254,
    "wof:geomhash":"1b387adc1c9e608b5a107a89556aac3a",
    "wof:hierarchy":[
        {
            "country_id":85633793,
            "localadmin_id":1125384159
        }
    ],
    "wof:id":1125384159,
    "wof:lastmodified":1505186957,
    "wof:name":"Township of Westampton",
    "wof:parent_id":-1,
    "wof:placetype":"localadmin",
    "wof:population":8813,
    "wof:population_rank":5,
    "wof:repo":"whosonfirst-data-admin-us",
    "wof:superseded_by":[],
    "wof:supersedes":[],
    "wof:tags":[]
},
  "bbox": [
    -74.83294,
    40.01678,
    -74.83294,
    40.01678
],
  "geometry": {"coordinates":[-74.83293999999999,40.01678],"type":"Point"}
}