{
  "id": 85859493,
  "type": "Feature",
  "properties": {
    "edtf:cessation":"uuuu",
    "edtf:inception":"uuuu",
    "geom:area":0.0,
    "geom:area_square_m":2776515.059294,
    "geom:bbox":"-88.678894,43.998741,-88.678894,43.998741",
    "geom:latitude":43.998741,
    "geom:longitude":-88.678894,
    "iso:country":"US",
    "lbl:latitude":43.998741,
    "lbl:longitude":-88.678894,
    "mps:latitude":43.998742,
    "mps:longitude":-88.678894,
    "mz:hierarchy_label":0,
    "mz:is_current":1,
    "mz:is_funky":0,
    "mz:is_hard_boundary":0,
    "mz:is_landuse_aoi":0,
    "mz:is_official":0,
    "mz:max_zoom":18.0,
    "mz:min_zoom":15.0,
    "mz:tier_locality":1,
    "name:eng_x_preferred":[
        "Zion"
    ],
    "name:unk_x_variant":[
        "Zion"
    ],
    "qs:gn_id":0,
    "qs:gn_local":0,
    "qs:id":0,
    "qs:local_max":1,
    "qs:local_sum":1,
    "qs:localhoods":1,
    "qs:name":"Zion",
    "qs:name_adm0":"United States",
    "qs:name_adm1":"Wisconsin",
    "qs:name_adm2":"Winnebago",
    "qs:name_local":"Omro",
    "qs:photo_max":1,
    "qs:photo_sum":1,
    "qs:placetype":"Suburb",
    "qs:quad_count":1,
    "qs:woe_adm0":23424977,
    "qs:woe_adm1":2347608,
    "qs:woe_adm2":12590604,
    "qs:woe_lau":0,
    "qs:woe_local":2465593,
    "qs:woe_ver":"7.10.0",
    "src:geom":"mz",
    "src:geom_alt":[
        "zetashapes",
        "quattroshapes"
    ],
    "src:lbl:centroid":"yerbashapes",
    "src:population":"zetashapes",
    "wd:wordcount":2173,
    "wof:belongsto":[
        102191575,
        404495539,
        85633793,
        102081801,
        85688517
    ],
    "wof:breaches":[],
    "wof:concordances":{
        "gp:id":2525349
    },
    "wof:country":"US",
    "wof:geomhash":"32ac7d83d213a6bc61ea0638864ab4c1",
    "wof:hierarchy":[
        {
            "continent_id":102191575,
            "country_id":85633793,
            "county_id":102081801,
            "localadmin_id":404495539,
            "locality_id":-1,
            "neighbourhood_id":85859493,
            "region_id":85688517
        }
    ],
    "wof:id":85859493,
    "wof:lang":[
        "eng"
    ],
    "wof:lastmodified":1531870371,
    "wof:name":"Zion",
    "wof:parent_id":-1,
    "wof:placetype":"neighbourhood",
    "wof:population":16,
    "wof:population_rank":1,
    "wof:repo":"whosonfirst-data-admin-us",
    "wof:superseded_by":[],
    "wof:supersedes":[],
    "wof:tags":[],
    "zs:blockids":[
        551390020003048
    ],
    "zs:housing10":8,
    "zs:pop10":16
},
  "bbox": [
    -88.678894,
    43.998741,
    -88.678894,
    43.998741
],
  "geometry": {"coordinates":[-88.678894,43.998741],"type":"Point"}
}