{
  "id": 1209131571,
  "type": "Feature",
  "properties": {
    "edtf:cessation":"uuuu",
    "edtf:inception":"uuuu",
    "geom:area":0.0,
    "geom:area_square_m":0.0,
    "geom:bbox":"-93.90773,41.81082,-93.90773,41.81082",
    "geom:latitude":41.81082,
    "geom:longitude":-93.90773,
    "gn:admin1_code":"IA",
    "gn:admin2_code":"49.0",
    "gn:admin3_code":"90972.0",
    "gn:asciiname":"Moran",
    "gn:country_code":"US",
    "gn:dem":282,
    "gn:elevation":"285.0",
    "gn:feature_class":"P",
    "gn:feature_code":"PPL",
    "gn:geonameid":4867913,
    "gn:latitude":41.81082,
    "gn:longitude":-93.90773,
    "gn:modification_date":"2017-05-23",
    "gn:name":"Moran",
    "gn:population":0,
    "gn:timezone":"America/Chicago",
    "iso:country":"US",
    "mz:hierarchy_label":1,
    "mz:is_current":-1,
    "src:geom":"geonames",
    "wof:belongsto":[
        85633793
    ],
    "wof:breaches":[],
    "wof:concordances":{
        "gn:id":4867913
    },
    "wof:country":"US",
    "wof:geomhash":"ddf47783fbe951e7a6c4cfa7fd72ca0f",
    "wof:hierarchy":[
        {
            "country_id":85633793,
            "locality_id":1209131571
        }
    ],
    "wof:id":1209131571,
    "wof:lastmodified":1536296787,
    "wof:name":"Moran",
    "wof:parent_id":85633793,
    "wof:placetype":"locality",
    "wof:repo":"whosonfirst-data-admin-us",
    "wof:superseded_by":[],
    "wof:supersedes":[],
    "wof:tags":[]
},
  "bbox": [
    -93.90773,
    41.81082,
    -93.90773,
    41.81082
],
  "geometry": {"coordinates":[-93.90773,41.81082],"type":"Point"}
}