{
  "id": 1293011555,
  "type": "Feature",
  "properties": {
    "edtf:cessation":"uuuu",
    "edtf:inception":"uuuu",
    "geom:area":0.0,
    "geom:area_square_m":0.0,
    "geom:bbox":"-95.30606,33.34928,-95.30606,33.34928",
    "geom:latitude":33.34928,
    "geom:longitude":-95.30606,
    "gn:admin1_code":"TX",
    "gn:admin2_code":"159",
    "gn:asciiname":"Eureka",
    "gn:country_code":"US",
    "gn:dem":118,
    "gn:elevation":"113.0",
    "gn:feature_class":"P",
    "gn:feature_code":"PPL",
    "gn:geonameid":4689555,
    "gn:latitude":33.34928,
    "gn:longitude":-95.30606,
    "gn:modification_date":"2006-01-15",
    "gn:name":"Eureka",
    "gn:population":0,
    "gn:timezone":"America/Chicago",
    "iso:country":"US",
    "mz:hierarchy_label":1,
    "mz:is_current":-1,
    "src:geom":"geonames",
    "wof:belongsto":[
        102191575,
        85633793,
        85688753,
        102080659
    ],
    "wof:breaches":[],
    "wof:concordances":{
        "gn:id":4689555
    },
    "wof:country":"US",
    "wof:geomhash":"28bb71f10c3751d967fa9b676d1df286",
    "wof:hierarchy":[
        {
            "continent_id":102191575,
            "country_id":85633793,
            "county_id":102080659,
            "locality_id":1293011555,
            "region_id":85688753
        }
    ],
    "wof:id":1293011555,
    "wof:lastmodified":1536975547,
    "wof:name":"Eureka",
    "wof:parent_id":102080659,
    "wof:placetype":"locality",
    "wof:repo":"whosonfirst-data-admin-us",
    "wof:superseded_by":[],
    "wof:supersedes":[],
    "wof:tags":[]
},
  "bbox": [
    -95.30606,
    33.34928,
    -95.30606,
    33.34928
],
  "geometry": {"coordinates":[-95.30606,33.34928],"type":"Point"}
}