{
  "id": 1343678477,
  "type": "Feature",
  "properties": {
    "edtf:cessation":"2018-09-06",
    "edtf:inception":"uuuu",
    "geom:area":0.0,
    "geom:area_square_m":0.0,
    "geom:bbox":"-85.86607,32.82152,-85.86607,32.82152",
    "geom:latitude":32.82152,
    "geom:longitude":-85.86607,
    "gn:admin1_code":"AL",
    "gn:admin2_code":"123",
    "gn:asciiname":"Ozella (historical)",
    "gn:country_code":"US",
    "gn:dem":149,
    "gn:elevation":"149.0",
    "gn:feature_class":"P",
    "gn:feature_code":"PPLQ",
    "gn:geonameid":4081938,
    "gn:latitude":32.82152,
    "gn:longitude":-85.86607,
    "gn:modification_date":"2011-12-11",
    "gn:name":"Ozella (historical)",
    "gn:population":0,
    "gn:timezone":"America/Chicago",
    "iso:country":"US",
    "mz:hierarchy_label":1,
    "mz:is_current":0,
    "src:geom":"geonames",
    "wof:belongsto":[
        102191575,
        85633793,
        85688675,
        102085567
    ],
    "wof:breaches":[],
    "wof:concordances":{
        "gn:id":4081938
    },
    "wof:country":"US",
    "wof:geomhash":"2346337681145d6fc852bf632ad7a20f",
    "wof:hierarchy":[
        {
            "continent_id":102191575,
            "country_id":85633793,
            "county_id":102085567,
            "locality_id":1343678477,
            "region_id":85688675
        }
    ],
    "wof:id":1343678477,
    "wof:lastmodified":1536929818,
    "wof:name":"Ozella (historical)",
    "wof:parent_id":102085567,
    "wof:placetype":"locality",
    "wof:repo":"whosonfirst-data-admin-us",
    "wof:superseded_by":[],
    "wof:supersedes":[],
    "wof:tags":[]
},
  "bbox": [
    -85.86607,
    32.82152,
    -85.86607,
    32.82152
],
  "geometry": {"coordinates":[-85.86606999999999,32.82152],"type":"Point"}
}