{
  "id": 1210036171,
  "type": "Feature",
  "properties": {
    "edtf:cessation":"2018-09-07",
    "edtf:inception":"uuuu",
    "geom:area":0.0,
    "geom:area_square_m":0.0,
    "geom:bbox":"-86.15831,34.04732,-86.15831,34.04732",
    "geom:latitude":34.04732,
    "geom:longitude":-86.15831,
    "gn:admin1_code":"AL",
    "gn:admin2_code":"055",
    "gn:asciiname":"Benson (historical)",
    "gn:country_code":"US",
    "gn:dem":177,
    "gn:elevation":"182.0",
    "gn:feature_class":"P",
    "gn:feature_code":"PPLQ",
    "gn:geonameid":4047685,
    "gn:latitude":34.04732,
    "gn:longitude":-86.15831,
    "gn:modification_date":"2011-12-11",
    "gn:name":"Benson (historical)",
    "gn:population":0,
    "gn:timezone":"America/Chicago",
    "iso:country":"US",
    "mz:hierarchy_label":1,
    "mz:is_current":0,
    "src:geom":"geonames",
    "wof:belongsto":[
        102191575,
        85633793,
        85688675,
        102085545
    ],
    "wof:breaches":[],
    "wof:concordances":{
        "gn:id":4047685
    },
    "wof:country":"US",
    "wof:geomhash":"153056ec587b655e7fa36477b4a314d5",
    "wof:hierarchy":[
        {
            "continent_id":102191575,
            "country_id":85633793,
            "county_id":102085545,
            "locality_id":1210036171,
            "region_id":85688675
        }
    ],
    "wof:id":1210036171,
    "wof:lastmodified":1536386400,
    "wof:name":"Benson (historical)",
    "wof:parent_id":102085545,
    "wof:placetype":"locality",
    "wof:repo":"whosonfirst-data-admin-us",
    "wof:superseded_by":[],
    "wof:supersedes":[],
    "wof:tags":[]
},
  "bbox": [
    -86.15831,
    34.04732,
    -86.15831,
    34.04732
],
  "geometry": {"coordinates":[-86.15831,34.04732],"type":"Point"}
}