{
  "id": 1125344551,
  "type": "Feature",
  "properties": {
    "edtf:cessation":"uuuu",
    "edtf:deprecated":"2017-11-04",
    "edtf:inception":"uuuu",
    "geom:area":0.0,
    "geom:area_square_m":0.0,
    "geom:bbox":"-86.6355,33.32608,-86.6355,33.32608",
    "geom:latitude":33.32608,
    "geom:longitude":-86.6355,
    "gn:gn_country":"US",
    "gn:gn_fcode":"ADMD",
    "gn:gn_pop":10183,
    "gn:population":10183,
    "iso:country":"US",
    "lbl:latitude":33.32608,
    "lbl:longitude":-86.6355,
    "mz:hierarchy_label":1,
    "mz:is_current":0,
    "mz:note":"Quattroshapes Point Gazetteer import 20170519",
    "qs_pg:aaroncc":"US",
    "qs_pg:gn_country":"US",
    "qs_pg:gn_fcode":"ADMD",
    "qs_pg:gn_id":7169745,
    "qs_pg:gn_pop":10183,
    "qs_pg:name":"City of Chelsea",
    "qs_pg:photos_9r":0,
    "qs_pg:photos_sr":0,
    "qs_pg:pop_sr":6,
    "qs_pg:qs_id":662425,
    "qs_pg:qs_pg_placetype":"localadmin",
    "src:geom":"qs_pg",
    "src:lbl:centroid":"qs_pg",
    "src:population":"geonames",
    "wof:belongsto":[
        85633793
    ],
    "wof:breaches":[],
    "wof:concordances":{
        "gn:id":7169745,
        "qs_pg:id":662425
    },
    "wof:country":"US",
    "wof:created":1497045849,
    "wof:geomhash":"46b27807569f67eaa001b6e3cef29a1d",
    "wof:hierarchy":[
        {
            "country_id":85633793,
            "localadmin_id":1125344551
        }
    ],
    "wof:id":1125344551,
    "wof:lastmodified":1509752581,
    "wof:name":"City of Chelsea",
    "wof:parent_id":-1,
    "wof:placetype":"localadmin",
    "wof:population":10183,
    "wof:population_rank":6,
    "wof:repo":"whosonfirst-data-admin-us",
    "wof:superseded_by":[
        85914491
    ],
    "wof:supersedes":[],
    "wof:tags":[]
},
  "bbox": [
    -86.6355,
    33.32608,
    -86.6355,
    33.32608
],
  "geometry": {"coordinates":[-86.63549999999999,33.32608],"type":"Point"}
}