{
  "id": 1344082757,
  "type": "Feature",
  "properties": {
    "edtf:cessation":"2018-09-06",
    "edtf:inception":"uuuu",
    "geom:area":0.0,
    "geom:area_square_m":0.0,
    "geom:bbox":"-85.81802,33.59761,-85.81802,33.59761",
    "geom:latitude":33.59761,
    "geom:longitude":-85.81802,
    "gn:admin1_code":"AL",
    "gn:admin2_code":"15",
    "gn:asciiname":"Chinnabee (historical)",
    "gn:country_code":"US",
    "gn:dem":190,
    "gn:elevation":"186.0",
    "gn:feature_class":"P",
    "gn:feature_code":"PPLQ",
    "gn:geonameid":4055096,
    "gn:latitude":33.59761,
    "gn:longitude":-85.81802,
    "gn:modification_date":"2011-12-11",
    "gn:name":"Chinnabee (historical)",
    "gn:population":0,
    "gn:timezone":"America/Chicago",
    "iso:country":"US",
    "mz:hierarchy_label":1,
    "mz:is_current":0,
    "name:eng_x_preferred":[
        "Chinnabee (historical)"
    ],
    "name:und_x_variant":[
        "Chinnabys Fort",
        "Chinnahee"
    ],
    "src:geom":"geonames",
    "wof:belongsto":[
        102191575,
        85633793,
        85688675,
        102085603
    ],
    "wof:breaches":[],
    "wof:concordances":{
        "gn:id":4055096
    },
    "wof:country":"US",
    "wof:geomhash":"65659a8ff20782058fce6b4c8c4f713d",
    "wof:hierarchy":[
        {
            "continent_id":102191575,
            "country_id":85633793,
            "county_id":102085603,
            "locality_id":1344082757,
            "region_id":85688675
        }
    ],
    "wof:id":1344082757,
    "wof:lastmodified":1537712195,
    "wof:name":"Chinnabee (historical)",
    "wof:parent_id":102085603,
    "wof:placetype":"locality",
    "wof:repo":"whosonfirst-data-admin-us",
    "wof:superseded_by":[],
    "wof:supersedes":[],
    "wof:tags":[]
},
  "bbox": [
    -85.81801999999998,
    33.59761,
    -85.81801999999998,
    33.59761
],
  "geometry": {"coordinates":[-85.81801999999998,33.59761],"type":"Point"}
}