{
  "id": 1226362153,
  "type": "Feature",
  "properties": {
    "edtf:cessation":"2018-09-07",
    "edtf:inception":"uuuu",
    "geom:area":0.0,
    "geom:area_square_m":0.0,
    "geom:bbox":"-155.1409,19.5333,-155.1409,19.5333",
    "geom:latitude":19.5333,
    "geom:longitude":-155.1409,
    "gn:admin1_code":"HI",
    "gn:admin2_code":"1.0",
    "gn:asciiname":"Lehua (historical)",
    "gn:country_code":"US",
    "gn:dem":631,
    "gn:elevation":"625.0",
    "gn:feature_class":"P",
    "gn:feature_code":"PPLQ",
    "gn:geonameid":5850200,
    "gn:latitude":19.5333,
    "gn:longitude":-155.1409,
    "gn:modification_date":"2013-03-08",
    "gn:name":"Lehua (historical)",
    "gn:population":0,
    "gn:timezone":"Pacific/Honolulu",
    "iso:country":"US",
    "mz:hierarchy_label":1,
    "mz:is_current":0,
    "src:geom":"geonames",
    "wof:belongsto":[
        102191575,
        85633793,
        85688671,
        102085433
    ],
    "wof:breaches":[],
    "wof:concordances":{
        "gn:id":5850200
    },
    "wof:country":"US",
    "wof:geomhash":"ba2ad878bb0ee89165e207fa737cba36",
    "wof:hierarchy":[
        {
            "continent_id":102191575,
            "country_id":85633793,
            "county_id":102085433,
            "locality_id":1226362153,
            "region_id":85688671
        }
    ],
    "wof:id":1226362153,
    "wof:lastmodified":1536766335,
    "wof:name":"Lehua (historical)",
    "wof:parent_id":102085433,
    "wof:placetype":"locality",
    "wof:repo":"whosonfirst-data-admin-us",
    "wof:superseded_by":[],
    "wof:supersedes":[],
    "wof:tags":[]
},
  "bbox": [
    -155.1409,
    19.5333,
    -155.1409,
    19.5333
],
  "geometry": {"coordinates":[-155.14089999999999,19.5333],"type":"Point"}
}