{
  "id": 404495547,
  "type": "Feature",
  "properties": {
    "edtf:cessation":"uuuu",
    "edtf:inception":"uuuu",
    "geom:area":0.010551,
    "geom:area_square_m":93652618.825486,
    "geom:bbox":"-88.644436,44.096948,-88.404209,44.15627",
    "geom:latitude":44.12202,
    "geom:longitude":-88.543655,
    "iso:country":"US",
    "lbl:latitude":44.126702,
    "lbl:longitude":-88.553373,
    "mz:hierarchy_label":1,
    "mz:is_current":-1,
    "name:eng_x_preferred":[
        "Vinland"
    ],
    "qs:a0":"United States",
    "qs:a1":"Wisconsin",
    "qs:a1_lc":"55",
    "qs:a2":"Winnebago",
    "qs:a2_lc":"55139",
    "qs:adm0":"United States",
    "qs:adm0_a3":"USA",
    "qs:la":"Vinland",
    "qs:la_lc":"5513982875",
    "qs:level":"localadmin",
    "qs:pop":1765,
    "qs:source":"US Census",
    "qs:type":"town",
    "src:geom":"quattroshapes",
    "src:population":"quattroshapes",
    "wof:belongsto":[
        102191575,
        85633793,
        85688517,
        102081801
    ],
    "wof:breaches":[],
    "wof:concordances":{},
    "wof:country":"US",
    "wof:geomhash":"3d4041f8cdd42c4c8b63a5037f86b101",
    "wof:hierarchy":[
        {
            "continent_id":102191575,
            "country_id":85633793,
            "county_id":102081801,
            "localadmin_id":404495547,
            "region_id":85688517
        }
    ],
    "wof:id":404495547,
    "wof:lastmodified":1505339588,
    "wof:name":"Vinland",
    "wof:parent_id":102081801,
    "wof:placetype":"localadmin",
    "wof:population":1765,
    "wof:population_rank":3,
    "wof:repo":"whosonfirst-data-admin-us",
    "wof:superseded_by":[],
    "wof:supersedes":[],
    "wof:tags":[]
},
  "bbox": [
    -88.644436,
    44.096948,
    -88.404209,
    44.15627
],
  "geometry": {"coordinates":[[[-88.513802,44.097757],[-88.519155,44.097691],[-88.542654,44.097489],[-88.543335,44.097473],[-88.583476,44.097165],[-88.592164,44.097098],[-88.603116,44.096948],[-88.63378400000001,44.097117],[-88.63830400000001,44.097269],[-88.639499,44.097412],[-88.642685,44.097235],[-88.64321,44.097389],[-88.643539,44.097442],[-88.643548,44.098673],[-88.64366200000001,44.111915],[-88.64395,44.126399],[-88.644436,44.155263],[-88.604455,44.155394],[-88.584046,44.155666],[-88.581734,44.155692],[-88.579612,44.155715],[-88.543976,44.156103],[-88.523737,44.15627],[-88.523616,44.141158],[-88.52355900000001,44.137512],[-88.523414,44.126386],[-88.504633,44.127006],[-88.49908000000001,44.126811],[-88.498761,44.1268],[-88.494798,44.127125],[-88.474495,44.127472],[-88.467793,44.127686],[-88.40441,44.129186],[-88.40449599999999,44.123015],[-88.40420899999999,44.110286],[-88.404419,44.105471],[-88.40460899999999,44.099186],[-88.48594,44.097806],[-88.488831,44.098057],[-88.513802,44.097757]]],"type":"Polygon"}
}