{
  "id": 1293115027,
  "type": "Feature",
  "properties": {
    "edtf:cessation":"2018-09-06",
    "edtf:inception":"uuuu",
    "geom:area":0.0,
    "geom:area_square_m":0.0,
    "geom:bbox":"-85.17559,38.59467,-85.17559,38.59467",
    "geom:latitude":38.59467,
    "geom:longitude":-85.17559,
    "gn:admin1_code":"KY",
    "gn:admin2_code":"41",
    "gn:asciiname":"Tomtown (historical)",
    "gn:country_code":"US",
    "gn:dem":176,
    "gn:elevation":"162.0",
    "gn:feature_class":"P",
    "gn:feature_code":"PPLQ",
    "gn:geonameid":7251530,
    "gn:latitude":38.59467,
    "gn:longitude":-85.17559,
    "gn:modification_date":"2011-12-12",
    "gn:name":"Tomtown (historical)",
    "gn:population":0,
    "gn:timezone":"America/New_York",
    "iso:country":"US",
    "mz:hierarchy_label":1,
    "mz:is_current":0,
    "src:geom":"geonames",
    "wof:belongsto":[
        102191575,
        85633793,
        85688641,
        102085593
    ],
    "wof:breaches":[],
    "wof:concordances":{
        "gn:id":7251530
    },
    "wof:country":"US",
    "wof:geomhash":"78426981630f6555b27baf5a64da7c9e",
    "wof:hierarchy":[
        {
            "continent_id":102191575,
            "country_id":85633793,
            "county_id":102085593,
            "locality_id":1293115027,
            "region_id":85688641
        }
    ],
    "wof:id":1293115027,
    "wof:lastmodified":1536826142,
    "wof:name":"Tomtown (historical)",
    "wof:parent_id":102085593,
    "wof:placetype":"locality",
    "wof:repo":"whosonfirst-data-admin-us",
    "wof:superseded_by":[],
    "wof:supersedes":[],
    "wof:tags":[]
},
  "bbox": [
    -85.17559,
    38.59467,
    -85.17559,
    38.59467
],
  "geometry": {"coordinates":[-85.17559,38.59467],"type":"Point"}
}