{
  "id": 85887685,
  "type": "Feature",
  "properties": {"wof:repo":"whosonfirst-data-admin-us",
    "src:geom":"quattroshapes",
    "wof:geomhash":"6a9cebeb8e37c3fbe2ef13c78230d762",
    "wof:id":85887685
},
  "bbox": [
    -121.937255859,
    37.249302809511136,
    -121.92514787693193,
    37.262347355557935
],
  "geometry": {"coordinates":[[[-121.92626953099986,37.26234735555794],[-121.92514792741980,37.26093808432525],[-121.92572787573602,37.25875213282526],[-121.92514791479792,37.25656607025039],[-121.92514787693193,37.25656602267529],[-121.92626953099995,37.25233850944079],[-121.92630795026187,37.25219370727515],[-121.92691296548253,37.25173765219860],[-121.92784076850450,37.24979499256331],[-121.93058324752047,37.24930280951114],[-121.93176269499989,37.25078454536870],[-121.93288442479846,37.25219377070006],[-121.93450927699985,37.25423506699526],[-121.93450927699985,37.25437994425008],[-121.93450927699985,37.25452445356481],[-121.93613425541292,37.25656608610002],[-121.93725585900000,37.25656608610002],[-121.93725585900000,37.25765908567540],[-121.93725585900000,37.26093814780008],[-121.93450927699985,37.26093814662484],[-121.93176269035888,37.26093814410640],[-121.93092151157396,37.26199504581602],[-121.92901611299985,37.26119701478135],[-121.92626953099986,37.26234735555794]]],"type":"Polygon"}
}