{
  "id": 1125334543,
  "type": "Feature",
  "properties": {
    "edtf:cessation":"2017-05-19",
    "edtf:inception":"uuuu",
    "geom:area":0.0,
    "geom:area_square_m":0.0,
    "geom:bbox":"-79.97506,41.19645,-79.97506,41.19645",
    "geom:latitude":41.19645,
    "geom:longitude":-79.97506,
    "gn:gn_country":"US",
    "gn:gn_fcode":"ADMD",
    "gn:gn_pop":207,
    "gn:population":207,
    "iso:country":"US",
    "lbl:latitude":41.19645,
    "lbl:longitude":-79.97506,
    "mz:hierarchy_label":1,
    "mz:is_current":0,
    "mz:note":"Quattroshapes Point Gazetteer import 20170519",
    "qs_pg:aaroncc":"US",
    "qs_pg:gn_country":"US",
    "qs_pg:gn_fcode":"ADMD",
    "qs_pg:gn_id":5179052,
    "qs_pg:gn_pop":207,
    "qs_pg:name":"Borough of Barkeyville",
    "qs_pg:photos_9r":0,
    "qs_pg:photos_sr":0,
    "qs_pg:pop_sr":2,
    "qs_pg:qs_id":606071,
    "qs_pg:qs_pg_placetype":"localadmin",
    "src:geom":"qs_pg",
    "src:lbl:centroid":"qs_pg",
    "src:population":"geonames",
    "wof:belongsto":[
        85633793
    ],
    "wof:breaches":[],
    "wof:concordances":{
        "gn:id":5179052,
        "qs_pg:id":606071
    },
    "wof:country":"US",
    "wof:created":1497045320,
    "wof:geomhash":"32ca426ea14e9307df9ef51abdd4a5c6",
    "wof:hierarchy":[
        {
            "country_id":85633793,
            "localadmin_id":1125334543
        }
    ],
    "wof:id":1125334543,
    "wof:lastmodified":1505186967,
    "wof:name":"Borough of Barkeyville",
    "wof:parent_id":-1,
    "wof:placetype":"localadmin",
    "wof:population":207,
    "wof:population_rank":2,
    "wof:repo":"whosonfirst-data-admin-us",
    "wof:superseded_by":[],
    "wof:supersedes":[],
    "wof:tags":[]
},
  "bbox": [
    -79.97506,
    41.19645,
    -79.97506,
    41.19645
],
  "geometry": {"coordinates":[-79.97506,41.19645],"type":"Point"}
}