{
  "id": 1209630885,
  "type": "Feature",
  "properties": {
    "edtf:cessation":"uuuu",
    "edtf:inception":"uuuu",
    "geom:area":0.0,
    "geom:area_square_m":0.0,
    "geom:bbox":"-75.79271,38.34984,-75.79271,38.34984",
    "geom:latitude":38.34984,
    "geom:longitude":-75.79271,
    "gn:admin1_code":"MD",
    "gn:admin2_code":"45.0",
    "gn:asciiname":"Royal Oak",
    "gn:country_code":"US",
    "gn:dem":5,
    "gn:elevation":"3.0",
    "gn:feature_class":"P",
    "gn:feature_code":"PPL",
    "gn:geonameid":4367482,
    "gn:latitude":38.34984,
    "gn:longitude":-75.79271,
    "gn:modification_date":"2006-01-15",
    "gn:name":"Royal Oak",
    "gn:population":0,
    "gn:timezone":"America/New_York",
    "iso:country":"US",
    "mz:hierarchy_label":1,
    "mz:is_current":-1,
    "name:eng_x_preferred":[
        "Royal Oak"
    ],
    "name:und_x_variant":[
        "Roxbury"
    ],
    "src:geom":"geonames",
    "wof:belongsto":[
        85633793
    ],
    "wof:breaches":[],
    "wof:concordances":{
        "gn:id":4367482
    },
    "wof:country":"US",
    "wof:geomhash":"6d3163a62e86daab2a76c20284b6101f",
    "wof:hierarchy":[
        {
            "country_id":85633793,
            "locality_id":1209630885
        }
    ],
    "wof:id":1209630885,
    "wof:lastmodified":1537712440,
    "wof:name":"Royal Oak",
    "wof:parent_id":85633793,
    "wof:placetype":"locality",
    "wof:repo":"whosonfirst-data-admin-us",
    "wof:superseded_by":[],
    "wof:supersedes":[],
    "wof:tags":[]
},
  "bbox": [
    -75.79271,
    38.34984,
    -75.79271,
    38.34984
],
  "geometry": {"coordinates":[-75.79271,38.34984],"type":"Point"}
}