{
  "id": 1309930329,
  "type": "Feature",
  "properties": {
    "edtf:cessation":"2018-09-07",
    "edtf:inception":"uuuu",
    "geom:area":0.0,
    "geom:area_square_m":0.0,
    "geom:bbox":"-122.88611,38.46464,-122.88611,38.46464",
    "geom:latitude":38.46464,
    "geom:longitude":-122.88611,
    "gn:admin1_code":"CA",
    "gn:admin2_code":"97",
    "gn:asciiname":"Harbine (historical)",
    "gn:country_code":"US",
    "gn:dem":38,
    "gn:elevation":"39.0",
    "gn:feature_class":"P",
    "gn:feature_code":"PPLQ",
    "gn:geonameid":5355317,
    "gn:latitude":38.46464,
    "gn:longitude":-122.88611,
    "gn:modification_date":"2011-12-12",
    "gn:name":"Harbine (historical)",
    "gn:population":0,
    "gn:timezone":"America/Los_Angeles",
    "iso:country":"US",
    "mz:hierarchy_label":1,
    "mz:is_current":0,
    "src:geom":"geonames",
    "wof:belongsto":[
        102191575,
        85633793,
        85688637,
        102081671
    ],
    "wof:breaches":[],
    "wof:concordances":{
        "gn:id":5355317
    },
    "wof:country":"US",
    "wof:geomhash":"09508c028b25c5eb2989f18e86b661c1",
    "wof:hierarchy":[
        {
            "continent_id":102191575,
            "country_id":85633793,
            "county_id":102081671,
            "locality_id":1309930329,
            "region_id":85688637
        }
    ],
    "wof:id":1309930329,
    "wof:lastmodified":1536751577,
    "wof:name":"Harbine (historical)",
    "wof:parent_id":102081671,
    "wof:placetype":"locality",
    "wof:repo":"whosonfirst-data-admin-us",
    "wof:superseded_by":[],
    "wof:supersedes":[],
    "wof:tags":[]
},
  "bbox": [
    -122.88611000000002,
    38.46464,
    -122.88611000000002,
    38.46464
],
  "geometry": {"coordinates":[-122.88611000000002,38.46464],"type":"Point"}
}