{
  "id": 1260312037,
  "type": "Feature",
  "properties": {
    "edtf:cessation":"uuuu",
    "edtf:inception":"uuuu",
    "geom:area":0.0,
    "geom:area_square_m":0.0,
    "geom:bbox":"-87.3,33.16095,-87.3,33.16095",
    "geom:latitude":33.16095,
    "geom:longitude":-87.3,
    "gn:admin1_code":"AL",
    "gn:admin2_code":"125",
    "gn:asciiname":"Dudley",
    "gn:country_code":"US",
    "gn:dem":128,
    "gn:elevation":"125.0",
    "gn:feature_class":"P",
    "gn:feature_code":"PPL",
    "gn:geonameid":4059523,
    "gn:latitude":33.16095,
    "gn:longitude":-87.3,
    "gn:modification_date":"2006-01-15",
    "gn:name":"Dudley",
    "gn:population":0,
    "gn:timezone":"America/Chicago",
    "iso:country":"US",
    "mz:hierarchy_label":1,
    "mz:is_current":-1,
    "src:geom":"geonames",
    "wof:belongsto":[
        102191575,
        85633793,
        85688675,
        102085553
    ],
    "wof:breaches":[],
    "wof:concordances":{
        "gn:id":4059523
    },
    "wof:country":"US",
    "wof:geomhash":"bb5209443bf8be3ab0d6ec03fa76b854",
    "wof:hierarchy":[
        {
            "continent_id":102191575,
            "country_id":85633793,
            "county_id":102085553,
            "locality_id":1260312037,
            "region_id":85688675
        }
    ],
    "wof:id":1260312037,
    "wof:lastmodified":1536673689,
    "wof:name":"Dudley",
    "wof:parent_id":102085553,
    "wof:placetype":"locality",
    "wof:repo":"whosonfirst-data-admin-us",
    "wof:superseded_by":[],
    "wof:supersedes":[],
    "wof:tags":[]
},
  "bbox": [
    -87.3,
    33.16095,
    -87.3,
    33.16095
],
  "geometry": {"coordinates":[-87.3,33.16095],"type":"Point"}
}