{
  "id": 1293327723,
  "type": "Feature",
  "properties": {
    "edtf:cessation":"uuuu",
    "edtf:inception":"uuuu",
    "geom:area":0.0,
    "geom:area_square_m":0.0,
    "geom:bbox":"-84.38971,43.36503,-84.38971,43.36503",
    "geom:latitude":43.36503,
    "geom:longitude":-84.38971,
    "gn:admin1_code":"MI",
    "gn:admin2_code":"57.0",
    "gn:admin3_code":"44080.0",
    "gn:asciiname":"Langport",
    "gn:country_code":"US",
    "gn:dem":212,
    "gn:elevation":"212.0",
    "gn:feature_class":"P",
    "gn:feature_code":"PPL",
    "gn:geonameid":4998824,
    "gn:latitude":43.36503,
    "gn:longitude":-84.38971,
    "gn:modification_date":"2017-05-23",
    "gn:name":"Langport",
    "gn:population":0,
    "gn:timezone":"America/Detroit",
    "iso:country":"US",
    "mz:hierarchy_label":1,
    "mz:is_current":-1,
    "src:geom":"geonames",
    "wof:belongsto":[
        85688599,
        102191575,
        404505681,
        85633793,
        102083717
    ],
    "wof:breaches":[],
    "wof:concordances":{
        "gn:id":4998824
    },
    "wof:country":"US",
    "wof:geomhash":"c83b56a58eeac63d0123ebc34f33ef23",
    "wof:hierarchy":[
        {
            "continent_id":102191575,
            "country_id":85633793,
            "county_id":102083717,
            "localadmin_id":404505681,
            "locality_id":1293327723,
            "region_id":85688599
        }
    ],
    "wof:id":1293327723,
    "wof:lastmodified":1537016681,
    "wof:name":"Langport",
    "wof:parent_id":404505681,
    "wof:placetype":"locality",
    "wof:repo":"whosonfirst-data-admin-us",
    "wof:superseded_by":[],
    "wof:supersedes":[],
    "wof:tags":[]
},
  "bbox": [
    -84.38971,
    43.36503,
    -84.38971,
    43.36503
],
  "geometry": {"coordinates":[-84.38970999999999,43.36503],"type":"Point"}
}