{
  "id": 420548997,
  "type": "Feature",
  "properties": {
    "edtf:cessation":"uuuu",
    "edtf:inception":"uuuu",
    "geom:area":0.0,
    "geom:area_square_m":771458.715837,
    "geom:bbox":"-122.621596,45.624898,-122.621596,45.624898",
    "geom:latitude":45.624898,
    "geom:longitude":-122.621596,
    "iso:country":"US",
    "lbl:latitude":45.624898,
    "lbl:longitude":-122.621596,
    "mz:hierarchy_label":0,
    "mz:is_current":-1,
    "name:eng_x_preferred":[
        "South Cliff"
    ],
    "src:geom":"mz",
    "src:geom_alt":[
        "zetashapes"
    ],
    "src:lbl":"mapshaper",
    "src:lbl:centroid":"mapshaper",
    "src:population":"zetashapes",
    "wof:belongsto":[
        102191575,
        85633793,
        101730071,
        102084251,
        85688623
    ],
    "wof:breaches":[],
    "wof:concordances":{
        "gp:id":55862384
    },
    "wof:country":"US",
    "wof:geomhash":"7303c50c91652b47075395084b675f5b",
    "wof:hierarchy":[
        {
            "continent_id":102191575,
            "country_id":85633793,
            "county_id":102084251,
            "locality_id":101730071,
            "neighbourhood_id":420548997,
            "region_id":85688623
        }
    ],
    "wof:id":420548997,
    "wof:lastmodified":1533603944,
    "wof:name":"South Cliff",
    "wof:parent_id":101730071,
    "wof:placetype":"neighbourhood",
    "wof:population":588,
    "wof:population_rank":2,
    "wof:repo":"whosonfirst-data-admin-us",
    "wof:superseded_by":[],
    "wof:supersedes":[],
    "wof:tags":[],
    "zs:area_m":771403.172281,
    "zs:blockids":[
        530110428001005,
        530110428001007,
        530110428001009,
        530110416003015,
        530110428001010,
        530110428001008,
        530110428001017,
        530110428001018,
        530110428001016,
        530110428001024,
        530110428001003,
        530110416003012,
        530110428001004,
        530110428001020
    ],
    "zs:housing10":256,
    "zs:id":55862384,
    "zs:label":"South Cliff",
    "zs:pop10":588
},
  "bbox": [
    -122.621596,
    45.624898,
    -122.621596,
    45.624898
],
  "geometry": {"coordinates":[-122.621596,45.624898],"type":"Point"}
}