{
  "id": 1276372399,
  "type": "Feature",
  "properties": {
    "edtf:cessation":"uuuu",
    "edtf:inception":"uuuu",
    "geom:area":0.0,
    "geom:area_square_m":0.0,
    "geom:bbox":"-104.39802,33.54287,-104.39802,33.54287",
    "geom:latitude":33.54287,
    "geom:longitude":-104.39802,
    "gn:admin1_code":"NM",
    "gn:admin2_code":"5.0",
    "gn:asciiname":"Melena",
    "gn:country_code":"US",
    "gn:dem":1090,
    "gn:elevation":"1086.0",
    "gn:feature_class":"P",
    "gn:feature_code":"PPL",
    "gn:geonameid":5478764,
    "gn:latitude":33.54287,
    "gn:longitude":-104.39802,
    "gn:modification_date":"2006-01-15",
    "gn:name":"Melena",
    "gn:population":0,
    "gn:timezone":"America/Denver",
    "iso:country":"US",
    "mz:hierarchy_label":1,
    "mz:is_current":-1,
    "src:geom":"geonames",
    "wof:belongsto":[
        102191575,
        85633793,
        85688493,
        102081559
    ],
    "wof:breaches":[],
    "wof:concordances":{
        "gn:id":5478764
    },
    "wof:country":"US",
    "wof:geomhash":"fa4613eee6240aa87a67eed80c0df932",
    "wof:hierarchy":[
        {
            "continent_id":102191575,
            "country_id":85633793,
            "county_id":102081559,
            "locality_id":1276372399,
            "region_id":85688493
        }
    ],
    "wof:id":1276372399,
    "wof:lastmodified":1536726582,
    "wof:name":"Melena",
    "wof:parent_id":102081559,
    "wof:placetype":"locality",
    "wof:repo":"whosonfirst-data-admin-us",
    "wof:superseded_by":[],
    "wof:supersedes":[],
    "wof:tags":[]
},
  "bbox": [
    -104.39802,
    33.54287,
    -104.39802,
    33.54287
],
  "geometry": {"coordinates":[-104.39802,33.54287],"type":"Point"}
}