{
  "id": 1125408077,
  "type": "Feature",
  "properties": {
    "edtf:cessation":"uuuu",
    "edtf:deprecated":"2017-11-15",
    "edtf:inception":"uuuu",
    "geom:area":0.0,
    "geom:area_square_m":0.0,
    "geom:bbox":"-92.2402,47.53114,-92.2402,47.53114",
    "geom:latitude":47.53114,
    "geom:longitude":-92.2402,
    "gn:gn_country":"US",
    "gn:gn_fcode":"ADMD",
    "gn:gn_pop":1682,
    "gn:population":1682,
    "iso:country":"US",
    "lbl:latitude":47.53114,
    "lbl:longitude":-92.2402,
    "mz:hierarchy_label":1,
    "mz:is_current":0,
    "mz:note":"Quattroshapes Point Gazetteer import 20170519",
    "qs_pg:aaroncc":"US",
    "qs_pg:gn_country":"US",
    "qs_pg:gn_fcode":"ADMD",
    "qs_pg:gn_id":7163203,
    "qs_pg:gn_pop":1682,
    "qs_pg:name":"City of Aurora",
    "qs_pg:photos_9r":0,
    "qs_pg:photos_sr":0,
    "qs_pg:pop_sr":3,
    "qs_pg:qs_id":658169,
    "qs_pg:qs_pg_placetype":"localadmin",
    "src:geom":"qs_pg",
    "src:lbl:centroid":"qs_pg",
    "src:population":"geonames",
    "wof:belongsto":[
        85633793
    ],
    "wof:breaches":[],
    "wof:concordances":{
        "gn:id":7163203,
        "qs_pg:id":658169
    },
    "wof:country":"US",
    "wof:created":1497049773,
    "wof:geomhash":"b4c6e676d59858698e9f1b510122a525",
    "wof:hierarchy":[
        {
            "country_id":85633793,
            "localadmin_id":1125408077
        }
    ],
    "wof:id":1125408077,
    "wof:lastmodified":1510790366,
    "wof:name":"City of Aurora",
    "wof:parent_id":-1,
    "wof:placetype":"localadmin",
    "wof:population":1682,
    "wof:population_rank":3,
    "wof:repo":"whosonfirst-data-admin-us",
    "wof:superseded_by":[
        85968545
    ],
    "wof:supersedes":[],
    "wof:tags":[]
},
  "bbox": [
    -92.2402,
    47.53114,
    -92.2402,
    47.53114
],
  "geometry": {"coordinates":[-92.2402,47.53114],"type":"Point"}
}