{
  "id": 1125836275,
  "type": "Feature",
  "properties": {
    "edtf:cessation":"uuuu",
    "edtf:inception":"uuuu",
    "geom:area":0.0,
    "geom:area_square_m":0.0,
    "geom:bbox":"-84.09741,33.97816,-84.09741,33.97816",
    "geom:latitude":33.97816,
    "geom:longitude":-84.09741,
    "gn:gn_country":"US",
    "gn:gn_fcode":"PPL",
    "gn:gn_pop":0,
    "iso:country":"US",
    "lbl:latitude":33.97816,
    "lbl:longitude":-84.09741,
    "mz:hierarchy_label":1,
    "mz:is_current":-1,
    "mz:note":"Quattroshapes Point Gazetteer import 20170519",
    "qs_pg:aaroncc":"US",
    "qs_pg:gn_country":"US",
    "qs_pg:gn_fcode":"PPL",
    "qs_pg:gn_id":4208729,
    "qs_pg:gn_pop":0,
    "qs_pg:name":"Meadow",
    "qs_pg:name_adm0":"United States",
    "qs_pg:name_adm1":"Georgia",
    "qs_pg:photos":2694,
    "qs_pg:photos_1k":546,
    "qs_pg:photos_9k":12,
    "qs_pg:photos_9r":10,
    "qs_pg:photos_all":2694,
    "qs_pg:photos_sr":18,
    "qs_pg:pop_sr":0,
    "qs_pg:qs_id":1171320,
    "qs_pg:qs_pg_placetype":"locality",
    "qs_pg:qs_pg_placetype_gp":"Town",
    "qs_pg:woe_adm0":23424977,
    "qs_pg:woe_id":2448492,
    "src:geom":"qs_pg",
    "src:lbl:centroid":"qs_pg",
    "woe:adm0_id":23424977,
    "woe:name_adm0":"United States",
    "woe:name_adm1":"Georgia",
    "woe:placetype":"Town",
    "wof:belongsto":[
        102191575,
        85633793,
        85688535,
        102082967
    ],
    "wof:breaches":[],
    "wof:concordances":{
        "gn:id":4208729,
        "gp:id":2448492,
        "qs_pg:id":1171320
    },
    "wof:country":"US",
    "wof:created":1497292728,
    "wof:geomhash":"6f4711b4550b5d15b193f6bb875f6b7e",
    "wof:hierarchy":[
        {
            "continent_id":102191575,
            "country_id":85633793,
            "county_id":102082967,
            "locality_id":1125836275,
            "region_id":85688535
        }
    ],
    "wof:id":1125836275,
    "wof:lastmodified":1509394999,
    "wof:name":"Meadow",
    "wof:parent_id":102082967,
    "wof:placetype":"locality",
    "wof:repo":"whosonfirst-data-admin-us",
    "wof:superseded_by":[],
    "wof:supersedes":[],
    "wof:tags":[]
},
  "bbox": [
    -84.09741,
    33.97816,
    -84.09741,
    33.97816
],
  "geometry": {"coordinates":[-84.09741,33.97816],"type":"Point"}
}