{
  "id": 1125422051,
  "type": "Feature",
  "properties": {
    "edtf:cessation":"2017-05-19",
    "edtf:inception":"uuuu",
    "geom:area":0.0,
    "geom:area_square_m":0.0,
    "geom:bbox":"-74.58183,40.89954,-74.58183,40.89954",
    "geom:latitude":40.89954,
    "geom:longitude":-74.58183,
    "gn:gn_country":"US",
    "gn:gn_fcode":"ADMD",
    "gn:gn_pop":6522,
    "gn:population":6522,
    "iso:country":"US",
    "lbl:latitude":40.89954,
    "lbl:longitude":-74.58183,
    "mz:hierarchy_label":1,
    "mz:is_current":0,
    "mz:note":"Quattroshapes Point Gazetteer import 20170519",
    "name:eng_x_preferred":[
        "Borough of Wharton"
    ],
    "name:unk_x_variant":[
        "Borough of Port Oram"
    ],
    "qs_pg:aaroncc":"US",
    "qs_pg:gn_country":"US",
    "qs_pg:gn_fcode":"ADMD",
    "qs_pg:gn_id":5106362,
    "qs_pg:gn_pop":6522,
    "qs_pg:name":"Borough of Wharton",
    "qs_pg:photos_9r":0,
    "qs_pg:photos_sr":0,
    "qs_pg:pop_sr":5,
    "qs_pg:qs_id":100867,
    "qs_pg:qs_pg_placetype":"localadmin",
    "src:geom":"qs_pg",
    "src:lbl:centroid":"qs_pg",
    "src:population":"geonames",
    "wof:belongsto":[
        85633793
    ],
    "wof:breaches":[],
    "wof:concordances":{
        "gn:id":5106362,
        "qs_pg:id":100867
    },
    "wof:country":"US",
    "wof:created":1497052447,
    "wof:geomhash":"947cafe8405bc9189536277e150b87a9",
    "wof:hierarchy":[
        {
            "country_id":85633793,
            "localadmin_id":1125422051
        }
    ],
    "wof:id":1125422051,
    "wof:lastmodified":1505186957,
    "wof:name":"Borough of Wharton",
    "wof:parent_id":-1,
    "wof:placetype":"localadmin",
    "wof:population":6522,
    "wof:population_rank":5,
    "wof:repo":"whosonfirst-data-admin-us",
    "wof:superseded_by":[],
    "wof:supersedes":[],
    "wof:tags":[]
},
  "bbox": [
    -74.58183,
    40.89954,
    -74.58183,
    40.89954
],
  "geometry": {"coordinates":[-74.58183,40.89954],"type":"Point"}
}