{
  "id": 1125344969,
  "type": "Feature",
  "properties": {
    "edtf:cessation":"uuuu",
    "edtf:deprecated":"2017-11-04",
    "edtf:inception":"uuuu",
    "geom:area":0.0,
    "geom:area_square_m":0.0,
    "geom:bbox":"-82.09951,33.2908,-82.09951,33.2908",
    "geom:latitude":33.2908,
    "geom:longitude":-82.09951,
    "gn:gn_country":"US",
    "gn:gn_fcode":"ADMD",
    "gn:gn_pop":4011,
    "gn:population":4011,
    "iso:country":"US",
    "lbl:latitude":33.2908,
    "lbl:longitude":-82.09951,
    "mz:hierarchy_label":1,
    "mz:is_current":0,
    "mz:note":"Quattroshapes Point Gazetteer import 20170519",
    "qs_pg:aaroncc":"US",
    "qs_pg:gn_country":"US",
    "qs_pg:gn_fcode":"ADMD",
    "qs_pg:gn_id":7170181,
    "qs_pg:gn_pop":4011,
    "qs_pg:name":"City of Hephzibah",
    "qs_pg:photos_9r":0,
    "qs_pg:photos_sr":0,
    "qs_pg:pop_sr":4,
    "qs_pg:qs_id":662853,
    "qs_pg:qs_pg_placetype":"localadmin",
    "src:geom":"qs_pg",
    "src:lbl:centroid":"qs_pg",
    "src:population":"geonames",
    "wof:belongsto":[
        85633793
    ],
    "wof:breaches":[],
    "wof:concordances":{
        "gn:id":7170181,
        "qs_pg:id":662853
    },
    "wof:country":"US",
    "wof:created":1497045869,
    "wof:geomhash":"b8fee9e1f3c8ddeedbbd8e8a61aefe78",
    "wof:hierarchy":[
        {
            "country_id":85633793,
            "localadmin_id":1125344969
        }
    ],
    "wof:id":1125344969,
    "wof:lastmodified":1509752584,
    "wof:name":"City of Hephzibah",
    "wof:parent_id":-1,
    "wof:placetype":"localadmin",
    "wof:population":4011,
    "wof:population_rank":4,
    "wof:repo":"whosonfirst-data-admin-us",
    "wof:superseded_by":[
        85936987
    ],
    "wof:supersedes":[],
    "wof:tags":[]
},
  "bbox": [
    -82.09951,
    33.2908,
    -82.09951,
    33.2908
],
  "geometry": {"coordinates":[-82.09951,33.2908],"type":"Point"}
}