{
  "id": 1343277489,
  "type": "Feature",
  "properties": {
    "edtf:cessation":"2018-09-06",
    "edtf:inception":"uuuu",
    "geom:area":0.0,
    "geom:area_square_m":0.0,
    "geom:bbox":"-117.21091,37.91438,-117.21091,37.91438",
    "geom:latitude":37.91438,
    "geom:longitude":-117.21091,
    "gn:admin1_code":"NV",
    "gn:admin2_code":"9.0",
    "gn:asciiname":"Southern Klondike (historical)",
    "gn:country_code":"US",
    "gn:dem":1698,
    "gn:elevation":"1695.0",
    "gn:feature_class":"P",
    "gn:feature_code":"PPLQ",
    "gn:geonameid":5512797,
    "gn:latitude":37.91438,
    "gn:longitude":-117.21091,
    "gn:modification_date":"2011-12-11",
    "gn:name":"Southern Klondike (historical)",
    "gn:population":0,
    "gn:timezone":"America/Los_Angeles",
    "iso:country":"US",
    "mz:hierarchy_label":1,
    "mz:is_current":0,
    "src:geom":"geonames",
    "wof:belongsto":[
        102191575,
        85633793,
        85688531,
        102081529
    ],
    "wof:breaches":[],
    "wof:concordances":{
        "gn:id":5512797
    },
    "wof:country":"US",
    "wof:geomhash":"3ec954254cf15856373657e54c89a703",
    "wof:hierarchy":[
        {
            "continent_id":102191575,
            "country_id":85633793,
            "county_id":102081529,
            "locality_id":1343277489,
            "region_id":85688531
        }
    ],
    "wof:id":1343277489,
    "wof:lastmodified":1537009578,
    "wof:name":"Southern Klondike (historical)",
    "wof:parent_id":102081529,
    "wof:placetype":"locality",
    "wof:repo":"whosonfirst-data-admin-us",
    "wof:superseded_by":[],
    "wof:supersedes":[],
    "wof:tags":[]
},
  "bbox": [
    -117.21091,
    37.91438,
    -117.21091,
    37.91438
],
  "geometry": {"coordinates":[-117.21091,37.91438],"type":"Point"}
}