{
  "id": 1125301219,
  "type": "Feature",
  "properties": {
    "edtf:cessation":"uuuu",
    "edtf:deprecated":"2017-11-04",
    "edtf:inception":"uuuu",
    "geom:area":0.0,
    "geom:area_square_m":0.0,
    "geom:bbox":"-98.64843,26.27213,-98.64843,26.27213",
    "geom:latitude":26.27213,
    "geom:longitude":-98.64843,
    "gn:gn_country":"US",
    "gn:gn_fcode":"ADMD",
    "gn:gn_pop":1622,
    "gn:population":1622,
    "iso:country":"US",
    "lbl:latitude":26.27213,
    "lbl:longitude":-98.64843,
    "mz:hierarchy_label":1,
    "mz:is_current":0,
    "mz:note":"Quattroshapes Point Gazetteer import 20170519",
    "qs_pg:aaroncc":"US",
    "qs_pg:gn_country":"US",
    "qs_pg:gn_fcode":"ADMD",
    "qs_pg:gn_id":7174196,
    "qs_pg:gn_pop":1622,
    "qs_pg:name":"City of La Grulla",
    "qs_pg:photos_9r":0,
    "qs_pg:photos_sr":0,
    "qs_pg:pop_sr":3,
    "qs_pg:qs_id":666769,
    "qs_pg:qs_pg_placetype":"localadmin",
    "src:geom":"qs_pg",
    "src:lbl:centroid":"qs_pg",
    "src:population":"geonames",
    "wof:belongsto":[
        85633793
    ],
    "wof:breaches":[],
    "wof:concordances":{
        "gn:id":7174196,
        "qs_pg:id":666769
    },
    "wof:country":"US",
    "wof:created":1497043434,
    "wof:geomhash":"cdbd71b97f7ce6435b3cb43d97cd7db4",
    "wof:hierarchy":[
        {
            "country_id":85633793,
            "localadmin_id":1125301219
        }
    ],
    "wof:id":1125301219,
    "wof:lastmodified":1509752500,
    "wof:name":"City of La Grulla",
    "wof:parent_id":-1,
    "wof:placetype":"localadmin",
    "wof:population":1622,
    "wof:population_rank":3,
    "wof:repo":"whosonfirst-data-admin-us",
    "wof:superseded_by":[
        101725413
    ],
    "wof:supersedes":[],
    "wof:tags":[]
},
  "bbox": [
    -98.64843,
    26.27213,
    -98.64843,
    26.27213
],
  "geometry": {"coordinates":[-98.64843,26.27213],"type":"Point"}
}