{
  "id": 1260305003,
  "type": "Feature",
  "properties": {
    "edtf:cessation":"uuuu",
    "edtf:inception":"uuuu",
    "geom:area":0.0,
    "geom:area_square_m":0.0,
    "geom:bbox":"-76.45746,40.35787,-76.45746,40.35787",
    "geom:latitude":40.35787,
    "geom:longitude":-76.45746,
    "gn:admin1_code":"PA",
    "gn:admin2_code":"75.0",
    "gn:admin3_code":"55160.0",
    "gn:asciiname":"Ebenezer",
    "gn:country_code":"US",
    "gn:dem":172,
    "gn:elevation":"171.0",
    "gn:feature_class":"P",
    "gn:feature_code":"PPL",
    "gn:geonameid":5188177,
    "gn:latitude":40.35787,
    "gn:longitude":-76.45746,
    "gn:modification_date":"2017-05-23",
    "gn:name":"Ebenezer",
    "gn:population":0,
    "gn:timezone":"America/New_York",
    "iso:country":"US",
    "mz:hierarchy_label":1,
    "mz:is_current":-1,
    "src:geom":"geonames",
    "wof:belongsto":[
        85688481,
        102191575,
        404485809,
        85633793,
        102081341
    ],
    "wof:breaches":[],
    "wof:concordances":{
        "gn:id":5188177
    },
    "wof:country":"US",
    "wof:geomhash":"726d9371e36ffca45dbc02a4eaeec179",
    "wof:hierarchy":[
        {
            "continent_id":102191575,
            "country_id":85633793,
            "county_id":102081341,
            "localadmin_id":404485809,
            "locality_id":1260305003,
            "region_id":85688481
        }
    ],
    "wof:id":1260305003,
    "wof:lastmodified":1536683024,
    "wof:name":"Ebenezer",
    "wof:parent_id":404485809,
    "wof:placetype":"locality",
    "wof:repo":"whosonfirst-data-admin-us",
    "wof:superseded_by":[],
    "wof:supersedes":[],
    "wof:tags":[]
},
  "bbox": [
    -76.45746,
    40.35787,
    -76.45746,
    40.35787
],
  "geometry": {"coordinates":[-76.45746,40.35787],"type":"Point"}
}