{
  "id": 404477461,
  "type": "Feature",
  "properties": {
    "edtf:cessation":"uuuu",
    "edtf:inception":"uuuu",
    "geom:area":0.000164,
    "geom:area_square_m":1542171.494353,
    "geom:bbox":"-74.986302,40.3980093892,-74.965444,40.413599",
    "geom:latitude":40.406111,
    "geom:longitude":-74.975901,
    "iso:country":"US",
    "lbl:latitude":40.405891,
    "lbl:longitude":-74.975743,
    "mz:hierarchy_label":1,
    "mz:is_current":-1,
    "name:eng_x_preferred":[
        "Stockton"
    ],
    "qs:a0":"United States",
    "qs:a1":"New Jersey",
    "qs:a1_lc":"34",
    "qs:a2":"Hunterdon",
    "qs:a2_lc":"34019",
    "qs:adm0":"United States",
    "qs:adm0_a3":"USA",
    "qs:la":"Stockton",
    "qs:la_lc":"3401970980",
    "qs:level":"localadmin",
    "qs:pop":538,
    "qs:source":"US Census",
    "qs:type":"boro",
    "src:geom":"quattroshapes",
    "src:population":"quattroshapes",
    "wof:belongsto":[
        102191575,
        85633793,
        85688607,
        102085997
    ],
    "wof:breaches":[],
    "wof:concordances":{},
    "wof:country":"US",
    "wof:geomhash":"17399674511512fc4af62e89523dd207",
    "wof:hierarchy":[
        {
            "continent_id":102191575,
            "country_id":85633793,
            "county_id":102085997,
            "localadmin_id":404477461,
            "region_id":85688607
        }
    ],
    "wof:id":404477461,
    "wof:lastmodified":1505339464,
    "wof:name":"Stockton",
    "wof:parent_id":102085997,
    "wof:placetype":"localadmin",
    "wof:population":538,
    "wof:population_rank":2,
    "wof:repo":"whosonfirst-data-admin-us",
    "wof:superseded_by":[],
    "wof:supersedes":[],
    "wof:tags":[]
},
  "bbox": [
    -74.986302,
    40.398009389216,
    -74.965444,
    40.413599
],
  "geometry": {"coordinates":[[[-74.97650899999999,40.409879],[-74.972109,40.409608],[-74.969159,40.407478],[-74.96544400000001,40.406292],[-74.9666380450079,40.398009389216],[-74.96959699999999,40.39977],[-74.98273500000001,40.404432],[-74.985467,40.405935],[-74.98619980687251,40.4065406219872],[-74.98630199999999,40.41131],[-74.983918,40.413599],[-74.97650899999999,40.409879]]],"type":"Polygon"}
}