{
  "id": 85867247,
  "type": "Feature",
  "properties": {"wof:repo":"whosonfirst-data-admin-us",
    "src:geom":"quattroshapes",
    "wof:geomhash":"9610d831b58afc1f6d385ca843ee4e37",
    "wof:id":85867247
},
  "bbox": [
    -95.37780761719992,
    29.745301605500416,
    -95.34484863279991,
    29.778681776900015
],
  "geometry": {"coordinates":[[[-95.36132812499991,29.77868177690002],[-95.36132812499991,29.77868172015003],[-95.35858154297500,29.77868172015003],[-95.35858154297500,29.77846525358616],[-95.35583496089998,29.77530092033713],[-95.35463102715048,29.77391387000006],[-95.35034179690004,29.77391387000006],[-95.35034179690004,29.77152983140010],[-95.34759521481411,29.77152982384020],[-95.34598987580091,29.76968037447018],[-95.34612037743733,29.76937969086994],[-95.34605268153814,29.76914573610007],[-95.34484863279991,29.76914573610007],[-95.34484863279991,29.76437737520008],[-95.34484863279991,29.75960878730007],[-95.34759521481482,29.75960878730007],[-95.34759521481658,29.75722440120030],[-95.34759521481482,29.75483997250004],[-95.34484863279991,29.75483997250004],[-95.34484863279991,29.75345290712548],[-95.34484863279991,29.75145793484370],[-95.34484863279991,29.75007093080009],[-95.34605281288347,29.75007093080009],[-95.34605286213127,29.75007087407523],[-95.34913759219626,29.75007087407523],[-95.35034179688529,29.74868387470219],[-95.35034179688424,29.74530166220003],[-95.35034179687500,29.74530160550042],[-95.35463068239727,29.74530160550042],[-95.35463073162555,29.74530166220003],[-95.35583496089998,29.74530166220003],[-95.35858154298671,29.74530166220003],[-95.36132812499991,29.74530166220003],[-95.36132812499991,29.74768631468956],[-95.36407470701897,29.74768631949061],[-95.36407470701349,29.75007092253159],[-95.36682128908086,29.75007092540022],[-95.36682128908637,29.75245547173155],[-95.36896578059768,29.75245547480279],[-95.36956787109992,29.75245548000005],[-95.36956787109992,29.75483996740722],[-95.37064012144612,29.75483997147197],[-95.37094116209994,29.75483997250004],[-95.37094116209994,29.75603219750009],[-95.37231445309999,29.75603219750009],[-95.37231445309999,29.75637895628427],[-95.37271654942776,29.75653334554484],[-95.37291652406489,29.75722440193651],[-95.37506103518325,29.75722440198909],[-95.37506103518530,29.75891525648009],[-95.37506103520005,29.75960878730007],[-95.37506103520005,29.76199310960001],[-95.37506103518530,29.76268662969399],[-95.37506103518513,29.76437737520008],[-95.37780761719992,29.76437737520008],[-95.37780761719992,29.76914573610007],[-95.37660363414241,29.76914573610017],[-95.37351843615733,29.76914573610007],[-95.37231445311446,29.77053277717967],[-95.37231445311446,29.77391381325016],[-95.37231445309999,29.77391387000006],[-95.37231440386407,29.77391386999801],[-95.37024525074997,29.77629770995038],[-95.36889049144969,29.77629770995038],[-95.36682128908120,29.77868172015003],[-95.36682128910005,29.77868177690002],[-95.36132812499991,29.77868177690002]]],"type":"Polygon"}
}