{
  "id": 85809343,
  "type": "Feature",
  "properties": {"wof:repo":"whosonfirst-data-admin-us",
    "src:geom":"quattroshapes",
    "wof:geomhash":"ab978f0debe596c46a5e4353908f78f6",
    "wof:id":85809343
},
  "bbox": [
    -111.80511474599993,
    40.629204183499,
    -111.80236816399997,
    40.63622471542361
],
  "geometry": {"coordinates":[[[-111.80236816399997,40.63063008400006],[-111.80236816399997,40.62920418349900],[-111.80511474599993,40.63041051493401],[-111.80511474599993,40.63063008400006],[-111.80511474599993,40.63271448961447],[-111.80511474599993,40.63479884400010],[-111.80511474599993,40.63501827099250],[-111.80236816399997,40.63622471542361],[-111.80236816399997,40.63479884400010],[-111.80236816399997,40.63271448845025],[-111.80236816399997,40.63063008400006]]],"type":"Polygon"}
}