{
  "id": 1125318531,
  "type": "Feature",
  "properties": {
    "edtf:cessation":"uuuu",
    "edtf:deprecated":"2017-11-04",
    "edtf:inception":"uuuu",
    "geom:area":0.0,
    "geom:area_square_m":0.0,
    "geom:bbox":"-87.88906,30.62967,-87.88906,30.62967",
    "geom:latitude":30.62967,
    "geom:longitude":-87.88906,
    "gn:gn_country":"US",
    "gn:gn_fcode":"ADMD",
    "gn:gn_pop":21570,
    "gn:population":21570,
    "iso:country":"US",
    "lbl:latitude":30.62967,
    "lbl:longitude":-87.88906,
    "mz:hierarchy_label":1,
    "mz:is_current":0,
    "mz:note":"Quattroshapes Point Gazetteer import 20170519",
    "qs_pg:aaroncc":"US",
    "qs_pg:gn_country":"US",
    "qs_pg:gn_fcode":"ADMD",
    "qs_pg:gn_id":7169840,
    "qs_pg:gn_pop":21570,
    "qs_pg:name":"City of Daphne",
    "qs_pg:photos_9r":0,
    "qs_pg:photos_sr":0,
    "qs_pg:pop_sr":7,
    "qs_pg:qs_id":662517,
    "qs_pg:qs_pg_placetype":"localadmin",
    "src:geom":"qs_pg",
    "src:lbl:centroid":"qs_pg",
    "src:population":"geonames",
    "wof:belongsto":[
        85633793
    ],
    "wof:breaches":[],
    "wof:concordances":{
        "gn:id":7169840,
        "qs_pg:id":662517
    },
    "wof:country":"US",
    "wof:created":1497044394,
    "wof:geomhash":"b63b9bb2eb264068065c3ba7e6ae4f21",
    "wof:hierarchy":[
        {
            "country_id":85633793,
            "localadmin_id":1125318531
        }
    ],
    "wof:id":1125318531,
    "wof:lastmodified":1509752535,
    "wof:name":"City of Daphne",
    "wof:parent_id":-1,
    "wof:placetype":"localadmin",
    "wof:population":21570,
    "wof:population_rank":7,
    "wof:repo":"whosonfirst-data-admin-us",
    "wof:superseded_by":[
        85914695
    ],
    "wof:supersedes":[],
    "wof:tags":[]
},
  "bbox": [
    -87.88906,
    30.62967,
    -87.88906,
    30.62967
],
  "geometry": {"coordinates":[-87.88906,30.62967],"type":"Point"}
}