{
  "id": 404494053,
  "type": "Feature",
  "properties": {
    "edtf:cessation":"uuuu",
    "edtf:inception":"uuuu",
    "geom:area":0.009709,
    "geom:area_square_m":86687936.475551,
    "geom:bbox":"-89.599041,43.730382,-89.482665,43.817903",
    "geom:latitude":43.774008,
    "geom:longitude":-89.540548,
    "iso:country":"US",
    "lbl:latitude":43.758245,
    "lbl:longitude":-89.516948,
    "mz:hierarchy_label":1,
    "mz:is_current":-1,
    "name:eng_x_preferred":[
        "Oxford"
    ],
    "qs:a0":"United States",
    "qs:a1":"Wisconsin",
    "qs:a1_lc":"55",
    "qs:a2":"Marquette",
    "qs:a2_lc":"55077",
    "qs:adm0":"United States",
    "qs:adm0_a3":"USA",
    "qs:la":"Oxford",
    "qs:la_lc":"5507760900",
    "qs:level":"localadmin",
    "qs:pop":885,
    "qs:source":"US Census",
    "qs:type":"town",
    "src:geom":"quattroshapes",
    "src:population":"quattroshapes",
    "wof:belongsto":[
        102191575,
        85633793,
        85688517,
        102081849
    ],
    "wof:breaches":[],
    "wof:concordances":{},
    "wof:country":"US",
    "wof:geomhash":"612607133dc4636515caa12d74bac3c8",
    "wof:hierarchy":[
        {
            "continent_id":102191575,
            "country_id":85633793,
            "county_id":102081849,
            "localadmin_id":404494053,
            "region_id":85688517
        }
    ],
    "wof:id":404494053,
    "wof:lastmodified":1505339577,
    "wof:name":"Oxford",
    "wof:parent_id":102081849,
    "wof:placetype":"localadmin",
    "wof:population":885,
    "wof:population_rank":2,
    "wof:repo":"whosonfirst-data-admin-us",
    "wof:superseded_by":[],
    "wof:supersedes":[],
    "wof:tags":[]
},
  "bbox": [
    -89.599041,
    43.730382,
    -89.482665,
    43.817903
],
  "geometry": {"coordinates":[[[-89.483553,43.793195],[-89.48369,43.79069],[-89.483863,43.787613],[-89.485024,43.769263],[-89.48416,43.75729],[-89.483693,43.737055],[-89.48354,43.730382],[-89.484433,43.730383],[-89.503575,43.730467],[-89.538698,43.73059],[-89.54324,43.730611],[-89.56224400000001,43.730672],[-89.599041,43.730801],[-89.598911,43.766727],[-89.598619,43.78121],[-89.5985,43.787692],[-89.59835,43.79545],[-89.597984,43.817903],[-89.53292,43.81766],[-89.53232,43.81779],[-89.532,43.81768],[-89.51255,43.81773],[-89.512328,43.817547],[-89.482665,43.817812],[-89.48275,43.80422],[-89.483553,43.793195]],[[-89.58210800000001,43.781379],[-89.582027,43.779487],[-89.580128,43.77948],[-89.580861,43.78145],[-89.57811,43.78161],[-89.578214,43.773986],[-89.56326300000001,43.773908],[-89.56309,43.77763],[-89.54908399999999,43.777764],[-89.54908399999999,43.778037],[-89.54907799999999,43.7782],[-89.545856,43.777409],[-89.542261,43.778813],[-89.542163,43.77659],[-89.537413,43.775483],[-89.537216,43.78158],[-89.548856,43.781542],[-89.55343999999999,43.78154],[-89.553539,43.785002],[-89.55891099999999,43.784936],[-89.55898000000001,43.783637],[-89.562077,43.783228],[-89.56828299999999,43.783294],[-89.568271,43.785165],[-89.570548,43.785779],[-89.571867,43.784929],[-89.57664699999999,43.785765],[-89.578152,43.784929],[-89.57805999999999,43.782338],[-89.580595,43.782144],[-89.58172,43.78358],[-89.58210800000001,43.781379]]],"type":"Polygon"}
}