{
  "id": 1126062393,
  "type": "Feature",
  "properties": {
    "edtf:cessation":"uuuu",
    "edtf:deprecated":"2018-08-15",
    "edtf:inception":"uuuu",
    "edtf:superseded":"2018-08-15",
    "geom:area":0.0,
    "geom:area_square_m":0.0,
    "geom:bbox":"-71.61646,43.10258,-71.61646,43.10258",
    "geom:latitude":43.10258,
    "geom:longitude":-71.61646,
    "gn:gn_country":"US",
    "gn:gn_fcode":"PPL",
    "gn:gn_pop":0,
    "iso:country":"US",
    "lbl:latitude":43.10258,
    "lbl:longitude":-71.61646,
    "mz:hierarchy_label":1,
    "mz:is_current":0,
    "mz:note":"Quattroshapes Point Gazetteer import 20170519",
    "name:eng_x_preferred":[
        "Dunbarton Center"
    ],
    "name:unk_x_variant":[
        "Dunbarton"
    ],
    "qs_pg:aaroncc":"US",
    "qs_pg:gn_country":"US",
    "qs_pg:gn_fcode":"PPL",
    "qs_pg:gn_id":5085599,
    "qs_pg:gn_pop":0,
    "qs_pg:name":"Dunbarton Center",
    "qs_pg:name_adm0":"United States",
    "qs_pg:name_adm1":"New Hampshire",
    "qs_pg:photos":1,
    "qs_pg:photos_1k":1,
    "qs_pg:photos_9k":1,
    "qs_pg:photos_9r":1,
    "qs_pg:photos_all":1,
    "qs_pg:photos_sr":1,
    "qs_pg:pop_sr":0,
    "qs_pg:qs_id":1160704,
    "qs_pg:qs_pg_placetype":"neighbourhood",
    "qs_pg:qs_pg_placetype_gp":"Suburb",
    "qs_pg:woe_adm0":23424977,
    "qs_pg:woe_id":2394292,
    "src:geom":"qs_pg",
    "src:lbl:centroid":"qs_pg",
    "woe:adm0_id":23424977,
    "woe:name_adm0":"United States",
    "woe:name_adm1":"New Hampshire",
    "woe:placetype":"Suburb",
    "wof:belongsto":[
        102191575,
        404477161,
        85633793,
        102086515,
        85688689
    ],
    "wof:breaches":[],
    "wof:concordances":{
        "gn:id":5085599,
        "gp:id":2394292,
        "qs_pg:id":1160704
    },
    "wof:country":"US",
    "wof:created":1497308328,
    "wof:geomhash":"4417f1e61ef0113733a8a8691cce0dff",
    "wof:hierarchy":[
        {
            "continent_id":102191575,
            "country_id":85633793,
            "county_id":102086515,
            "localadmin_id":404477161,
            "locality_id":-1,
            "neighbourhood_id":1126062393,
            "region_id":85688689
        }
    ],
    "wof:id":1126062393,
    "wof:lastmodified":1534379771,
    "wof:name":"Dunbarton Center",
    "wof:parent_id":-1,
    "wof:placetype":"neighbourhood",
    "wof:repo":"whosonfirst-data-admin-us",
    "wof:superseded_by":[
        420526247
    ],
    "wof:supersedes":[],
    "wof:tags":[]
},
  "bbox": [
    -71.61646,
    43.10258,
    -71.61646,
    43.10258
],
  "geometry": {"coordinates":[-71.61646,43.10258],"type":"Point"}
}