{
  "id": 1360309649,
  "type": "Feature",
  "properties": {
    "edtf:cessation":"uuuu",
    "edtf:inception":"uuuu",
    "geom:area":0.0,
    "geom:area_square_m":0.0,
    "geom:bbox":"-110.946,39.70385,-110.946,39.70385",
    "geom:latitude":39.70385,
    "geom:longitude":-110.946,
    "gn:admin1_code":"UT",
    "gn:admin2_code":"7.0",
    "gn:asciiname":"Latuda",
    "gn:country_code":"US",
    "gn:dem":2099,
    "gn:elevation":"2091.0",
    "gn:feature_class":"P",
    "gn:feature_code":"PPL",
    "gn:geonameid":5541818,
    "gn:latitude":39.70385,
    "gn:longitude":-110.946,
    "gn:modification_date":"2006-01-15",
    "gn:name":"Latuda",
    "gn:population":0,
    "gn:timezone":"America/Denver",
    "iso:country":"US",
    "mz:hierarchy_label":1,
    "mz:is_current":-1,
    "name:eng_x_preferred":[
        "Latuda"
    ],
    "name:und_x_variant":[
        "Liberty"
    ],
    "src:geom":"geonames",
    "wof:belongsto":[
        102191575,
        85633793,
        85688567,
        102082305
    ],
    "wof:breaches":[],
    "wof:concordances":{
        "gn:id":5541818
    },
    "wof:country":"US",
    "wof:geomhash":"c3b1bf7528c8c701c9c33c566416ab1a",
    "wof:hierarchy":[
        {
            "continent_id":102191575,
            "country_id":85633793,
            "county_id":102082305,
            "locality_id":1360309649,
            "region_id":85688567
        }
    ],
    "wof:id":1360309649,
    "wof:lastmodified":1537713060,
    "wof:name":"Latuda",
    "wof:parent_id":102082305,
    "wof:placetype":"locality",
    "wof:repo":"whosonfirst-data-admin-us",
    "wof:superseded_by":[],
    "wof:supersedes":[],
    "wof:tags":[]
},
  "bbox": [
    -110.946,
    39.70385,
    -110.946,
    39.70385
],
  "geometry": {"coordinates":[-110.946,39.70385],"type":"Point"}
}