{
  "id": 1259599045,
  "type": "Feature",
  "properties": {
    "edtf:cessation":"uuuu",
    "edtf:inception":"uuuu",
    "geom:area":0.0,
    "geom:area_square_m":0.0,
    "geom:bbox":"-96.27998,32.27237,-96.27998,32.27237",
    "geom:latitude":32.27237,
    "geom:longitude":-96.27998,
    "gn:admin1_code":"TX",
    "gn:admin2_code":"213.0",
    "gn:asciiname":"Buffalo",
    "gn:country_code":"US",
    "gn:dem":110,
    "gn:elevation":"107.0",
    "gn:feature_class":"P",
    "gn:feature_code":"PPL",
    "gn:geonameid":4677229,
    "gn:latitude":32.27237,
    "gn:longitude":-96.27998,
    "gn:modification_date":"2006-01-15",
    "gn:name":"Buffalo",
    "gn:population":0,
    "gn:timezone":"America/Chicago",
    "iso:country":"US",
    "mz:hierarchy_label":1,
    "mz:is_current":-1,
    "src:geom":"geonames",
    "wof:belongsto":[
        102191575,
        85633793,
        85688753,
        102086741
    ],
    "wof:breaches":[],
    "wof:concordances":{
        "gn:id":4677229
    },
    "wof:country":"US",
    "wof:geomhash":"2cea62eea189cd71e540f2d6e2882b28",
    "wof:hierarchy":[
        {
            "continent_id":102191575,
            "country_id":85633793,
            "county_id":102086741,
            "locality_id":1259599045,
            "region_id":85688753
        }
    ],
    "wof:id":1259599045,
    "wof:lastmodified":1536692516,
    "wof:name":"Buffalo",
    "wof:parent_id":102086741,
    "wof:placetype":"locality",
    "wof:repo":"whosonfirst-data-admin-us",
    "wof:superseded_by":[],
    "wof:supersedes":[],
    "wof:tags":[]
},
  "bbox": [
    -96.27998,
    32.27237,
    -96.27998,
    32.27237
],
  "geometry": {"coordinates":[-96.27997999999999,32.27237],"type":"Point"}
}