{
  "id": 1125299053,
  "type": "Feature",
  "properties": {
    "edtf:cessation":"uuuu",
    "edtf:deprecated":"2017-11-04",
    "edtf:inception":"uuuu",
    "geom:area":0.0,
    "geom:area_square_m":0.0,
    "geom:bbox":"-87.02194,33.42416,-87.02194,33.42416",
    "geom:latitude":33.42416,
    "geom:longitude":-87.02194,
    "gn:gn_country":"US",
    "gn:gn_fcode":"ADMD",
    "gn:gn_pop":16105,
    "gn:population":16105,
    "iso:country":"US",
    "lbl:latitude":33.42416,
    "lbl:longitude":-87.02194,
    "mz:hierarchy_label":1,
    "mz:is_current":0,
    "mz:note":"Quattroshapes Point Gazetteer import 20170519",
    "qs_pg:aaroncc":"US",
    "qs_pg:gn_country":"US",
    "qs_pg:gn_fcode":"ADMD",
    "qs_pg:gn_id":7318000,
    "qs_pg:gn_pop":16105,
    "qs_pg:name":"City of Hueytown",
    "qs_pg:photos_9r":0,
    "qs_pg:photos_sr":0,
    "qs_pg:pop_sr":6,
    "qs_pg:qs_id":684018,
    "qs_pg:qs_pg_placetype":"localadmin",
    "src:geom":"qs_pg",
    "src:lbl:centroid":"qs_pg",
    "src:population":"geonames",
    "wof:belongsto":[
        85633793
    ],
    "wof:breaches":[],
    "wof:concordances":{
        "gn:id":7318000,
        "qs_pg:id":684018
    },
    "wof:country":"US",
    "wof:created":1497043317,
    "wof:geomhash":"397e7f0598dd2552d19826919bc52cd5",
    "wof:hierarchy":[
        {
            "country_id":85633793,
            "localadmin_id":1125299053
        }
    ],
    "wof:id":1125299053,
    "wof:lastmodified":1509752490,
    "wof:name":"City of Hueytown",
    "wof:parent_id":-1,
    "wof:placetype":"localadmin",
    "wof:population":16105,
    "wof:population_rank":6,
    "wof:repo":"whosonfirst-data-admin-us",
    "wof:superseded_by":[
        85914841
    ],
    "wof:supersedes":[],
    "wof:tags":[]
},
  "bbox": [
    -87.02194,
    33.42416,
    -87.02194,
    33.42416
],
  "geometry": {"coordinates":[-87.02194,33.42416],"type":"Point"}
}