{
  "id": 85814251,
  "type": "Feature",
  "properties": {"wof:repo":"whosonfirst-data-admin-us",
    "src:geom":"quattroshapes",
    "wof:geomhash":"888a54dfae7c518e6e3068afb2ab6aed",
    "wof:id":85814251
},
  "bbox": [
    -122.36022949199992,
    47.53203818120012,
    -122.34262202624129,
    47.541309575878714
],
  "geometry": {"coordinates":[[[-122.35415398485341,47.54130956727518],[-122.35373677913515,47.53945544740004],[-122.34924316399989,47.53945544740004],[-122.34924311973137,47.53945544740004],[-122.34811534948022,47.54112601433870],[-122.34782645736351,47.54130941970034],[-122.34500162824133,47.54130941970034],[-122.34375004426818,47.53945544740013],[-122.34375000000000,47.53945544740004],[-122.34375000000000,47.53945538182548],[-122.34262202624129,47.53778451343062],[-122.34375000000000,47.53722758683743],[-122.34375000000000,47.53574697819995],[-122.34649658199982,47.53574697819995],[-122.34649658199982,47.53389263905247],[-122.34924316399989,47.53389263349159],[-122.34924316399989,47.53203824679993],[-122.35473632799992,47.53203824679993],[-122.35573595801128,47.53203824679993],[-122.35573600230208,47.53203818120012],[-122.35922981769784,47.53203818120012],[-122.35922986198855,47.53203824679993],[-122.36022949199992,47.53203824679993],[-122.36022949199992,47.53351881626561],[-122.36022949199992,47.53574691265017],[-122.36022949199992,47.53574697819995],[-122.36022949199992,47.53797475366601],[-122.36022949199992,47.53945544740004],[-122.35748290999996,47.53945544740004],[-122.35748290999996,47.54130957587871],[-122.35473632799992,47.54130957200881],[-122.35415398485341,47.54130956727518]]],"type":"Polygon"}
}