{
  "id": 1243183485,
  "type": "Feature",
  "properties": {
    "edtf:cessation":"uuuu",
    "edtf:inception":"uuuu",
    "geom:area":0.0,
    "geom:area_square_m":0.0,
    "geom:bbox":"-84.01185,35.69592,-84.01185,35.69592",
    "geom:latitude":35.69592,
    "geom:longitude":-84.01185,
    "gn:admin1_code":"TN",
    "gn:admin2_code":"9",
    "gn:asciiname":"Country Haven",
    "gn:country_code":"US",
    "gn:dem":365,
    "gn:elevation":"359.0",
    "gn:feature_class":"P",
    "gn:feature_code":"PPL",
    "gn:geonameid":4615680,
    "gn:latitude":35.69592,
    "gn:longitude":-84.01185,
    "gn:modification_date":"2006-01-15",
    "gn:name":"Country Haven",
    "gn:population":0,
    "gn:timezone":"America/New_York",
    "iso:country":"US",
    "mz:hierarchy_label":1,
    "mz:is_current":-1,
    "src:geom":"geonames",
    "wof:belongsto":[
        102191575,
        85633793,
        85688701,
        102087017
    ],
    "wof:breaches":[],
    "wof:concordances":{
        "gn:id":4615680
    },
    "wof:country":"US",
    "wof:geomhash":"fd9be1c66572a4f86df1c8afc0fe0d80",
    "wof:hierarchy":[
        {
            "continent_id":102191575,
            "country_id":85633793,
            "county_id":102087017,
            "locality_id":1243183485,
            "region_id":85688701
        }
    ],
    "wof:id":1243183485,
    "wof:lastmodified":1536687667,
    "wof:name":"Country Haven",
    "wof:parent_id":102087017,
    "wof:placetype":"locality",
    "wof:repo":"whosonfirst-data-admin-us",
    "wof:superseded_by":[],
    "wof:supersedes":[],
    "wof:tags":[]
},
  "bbox": [
    -84.01185,
    35.69592,
    -84.01185,
    35.69592
],
  "geometry": {"coordinates":[-84.01185,35.69592],"type":"Point"}
}