{
  "id": 1259602447,
  "type": "Feature",
  "properties": {
    "edtf:cessation":"2018-09-07",
    "edtf:inception":"uuuu",
    "geom:area":0.0,
    "geom:area_square_m":0.0,
    "geom:bbox":"-82.33876,39.59229,-82.33876,39.59229",
    "geom:latitude":39.59229,
    "geom:longitude":-82.33876,
    "gn:admin1_code":"OH",
    "gn:admin2_code":"73",
    "gn:admin3_code":"26488.0",
    "gn:asciiname":"Winona (historical)",
    "gn:country_code":"US",
    "gn:dem":230,
    "gn:elevation":"229.0",
    "gn:feature_class":"P",
    "gn:feature_code":"PPLQ",
    "gn:geonameid":4528561,
    "gn:latitude":39.59229,
    "gn:longitude":-82.33876,
    "gn:modification_date":"2017-05-23",
    "gn:name":"Winona (historical)",
    "gn:population":0,
    "gn:timezone":"America/New_York",
    "iso:country":"US",
    "mz:hierarchy_label":1,
    "mz:is_current":0,
    "name:eng_x_preferred":[
        "Winona (historical)"
    ],
    "name:und_x_variant":[
        "Winona Furnace"
    ],
    "src:geom":"geonames",
    "wof:belongsto":[
        85688485,
        102191575,
        404526423,
        85633793,
        102083709
    ],
    "wof:breaches":[],
    "wof:concordances":{
        "gn:id":4528561
    },
    "wof:country":"US",
    "wof:geomhash":"a9b20641bcc15fed958f4894dfdddb7a",
    "wof:hierarchy":[
        {
            "continent_id":102191575,
            "country_id":85633793,
            "county_id":102083709,
            "localadmin_id":404526423,
            "locality_id":1259602447,
            "region_id":85688485
        }
    ],
    "wof:id":1259602447,
    "wof:lastmodified":1537712570,
    "wof:name":"Winona (historical)",
    "wof:parent_id":404526423,
    "wof:placetype":"locality",
    "wof:repo":"whosonfirst-data-admin-us",
    "wof:superseded_by":[],
    "wof:supersedes":[],
    "wof:tags":[]
},
  "bbox": [
    -82.33876,
    39.59229000000001,
    -82.33876,
    39.59229000000001
],
  "geometry": {"coordinates":[-82.33875999999999,39.59229000000001],"type":"Point"}
}