{
  "id": 1344072575,
  "type": "Feature",
  "properties": {
    "edtf:cessation":"uuuu",
    "edtf:inception":"uuuu",
    "geom:area":0.0,
    "geom:area_square_m":0.0,
    "geom:bbox":"-76.52328,41.90757,-76.52328,41.90757",
    "geom:latitude":41.90757,
    "geom:longitude":-76.52328,
    "gn:admin1_code":"PA",
    "gn:admin2_code":"15.0",
    "gn:admin3_code":"78232.0",
    "gn:asciiname":"Milan",
    "gn:country_code":"US",
    "gn:dem":233,
    "gn:elevation":"231.0",
    "gn:feature_class":"P",
    "gn:feature_code":"PPL",
    "gn:geonameid":5201091,
    "gn:latitude":41.90757,
    "gn:longitude":-76.52328,
    "gn:modification_date":"2017-05-23",
    "gn:name":"Milan",
    "gn:population":0,
    "gn:timezone":"America/New_York",
    "iso:country":"US",
    "mz:hierarchy_label":1,
    "mz:is_current":-1,
    "src:geom":"geonames",
    "wof:belongsto":[
        85688481,
        102191575,
        404484691,
        85633793,
        102081319
    ],
    "wof:breaches":[],
    "wof:concordances":{
        "gn:id":5201091
    },
    "wof:country":"US",
    "wof:geomhash":"d6d204bd357f214a00ca9e73512d34d1",
    "wof:hierarchy":[
        {
            "continent_id":102191575,
            "country_id":85633793,
            "county_id":102081319,
            "localadmin_id":404484691,
            "locality_id":1344072575,
            "region_id":85688481
        }
    ],
    "wof:id":1344072575,
    "wof:lastmodified":1536856777,
    "wof:name":"Milan",
    "wof:parent_id":404484691,
    "wof:placetype":"locality",
    "wof:repo":"whosonfirst-data-admin-us",
    "wof:superseded_by":[],
    "wof:supersedes":[],
    "wof:tags":[]
},
  "bbox": [
    -76.52328,
    41.90757,
    -76.52328,
    41.90757
],
  "geometry": {"coordinates":[-76.52328,41.90757],"type":"Point"}
}