{
  "id": 1209015529,
  "type": "Feature",
  "properties": {
    "edtf:cessation":"uuuu",
    "edtf:inception":"uuuu",
    "geom:area":0.0,
    "geom:area_square_m":0.0,
    "geom:bbox":"-83.23435,38.33591,-83.23435,38.33591",
    "geom:latitude":38.33591,
    "geom:longitude":-83.23435,
    "gn:admin1_code":"KY",
    "gn:admin2_code":"43",
    "gn:asciiname":"Rose Hill",
    "gn:country_code":"US",
    "gn:dem":335,
    "gn:elevation":"333.0",
    "gn:feature_class":"P",
    "gn:feature_code":"PPL",
    "gn:geonameid":4306743,
    "gn:latitude":38.33591,
    "gn:longitude":-83.23435,
    "gn:modification_date":"2006-01-15",
    "gn:name":"Rose Hill",
    "gn:population":0,
    "gn:timezone":"America/New_York",
    "iso:country":"US",
    "mz:hierarchy_label":1,
    "mz:is_current":-1,
    "src:geom":"geonames",
    "wof:belongsto":[
        85633793
    ],
    "wof:breaches":[],
    "wof:concordances":{
        "gn:id":4306743
    },
    "wof:country":"US",
    "wof:geomhash":"ad4c29898d8f2e1708c6d1bc782ae8d3",
    "wof:hierarchy":[
        {
            "country_id":85633793,
            "locality_id":1209015529
        }
    ],
    "wof:id":1209015529,
    "wof:lastmodified":1536300310,
    "wof:name":"Rose Hill",
    "wof:parent_id":85633793,
    "wof:placetype":"locality",
    "wof:repo":"whosonfirst-data-admin-us",
    "wof:superseded_by":[],
    "wof:supersedes":[],
    "wof:tags":[]
},
  "bbox": [
    -83.23435,
    38.33591,
    -83.23435,
    38.33591
],
  "geometry": {"coordinates":[-83.23435000000001,38.33591],"type":"Point"}
}