{
  "id": 1125318963,
  "type": "Feature",
  "properties": {
    "edtf:cessation":"uuuu",
    "edtf:deprecated":"2017-11-04",
    "edtf:inception":"uuuu",
    "geom:area":0.0,
    "geom:area_square_m":0.0,
    "geom:bbox":"-83.85767,37.84844,-83.85767,37.84844",
    "geom:latitude":37.84844,
    "geom:longitude":-83.85767,
    "gn:gn_country":"US",
    "gn:gn_fcode":"ADMD",
    "gn:gn_pop":2733,
    "gn:population":2733,
    "iso:country":"US",
    "lbl:latitude":37.84844,
    "lbl:longitude":-83.85767,
    "mz:hierarchy_label":1,
    "mz:is_current":0,
    "mz:note":"Quattroshapes Point Gazetteer import 20170519",
    "qs_pg:aaroncc":"US",
    "qs_pg:gn_country":"US",
    "qs_pg:gn_fcode":"ADMD",
    "qs_pg:gn_id":7170859,
    "qs_pg:gn_pop":2733,
    "qs_pg:name":"City of Stanton",
    "qs_pg:photos_9r":0,
    "qs_pg:photos_sr":0,
    "qs_pg:pop_sr":4,
    "qs_pg:qs_id":663518,
    "qs_pg:qs_pg_placetype":"localadmin",
    "src:geom":"qs_pg",
    "src:lbl:centroid":"qs_pg",
    "src:population":"geonames",
    "wof:belongsto":[
        85633793
    ],
    "wof:breaches":[],
    "wof:concordances":{
        "gn:id":7170859,
        "qs_pg:id":663518
    },
    "wof:country":"US",
    "wof:created":1497044417,
    "wof:geomhash":"0ab5212916bed12d41084ebd1738add4",
    "wof:hierarchy":[
        {
            "country_id":85633793,
            "localadmin_id":1125318963
        }
    ],
    "wof:id":1125318963,
    "wof:lastmodified":1509752540,
    "wof:name":"City of Stanton",
    "wof:parent_id":-1,
    "wof:placetype":"localadmin",
    "wof:population":2733,
    "wof:population_rank":4,
    "wof:repo":"whosonfirst-data-admin-us",
    "wof:superseded_by":[
        85947355
    ],
    "wof:supersedes":[],
    "wof:tags":[]
},
  "bbox": [
    -83.85767,
    37.84844,
    -83.85767,
    37.84844
],
  "geometry": {"coordinates":[-83.85767,37.84844],"type":"Point"}
}