{
  "id": 1126083031,
  "type": "Feature",
  "properties": {
    "edtf:cessation":"uuuu",
    "edtf:deprecated":"2018-08-15",
    "edtf:inception":"uuuu",
    "edtf:superseded":"2018-08-15",
    "geom:area":0.0,
    "geom:area_square_m":0.0,
    "geom:bbox":"-79.41837,40.30174,-79.41837,40.30174",
    "geom:latitude":40.30174,
    "geom:longitude":-79.41837,
    "gn:gn_country":"US",
    "gn:gn_fcode":"PPL",
    "gn:gn_pop":0,
    "iso:country":"US",
    "lbl:latitude":40.30174,
    "lbl:longitude":-79.41837,
    "mz:hierarchy_label":1,
    "mz:is_current":0,
    "mz:note":"Quattroshapes Point Gazetteer import 20170519",
    "qs_pg:aaroncc":"US",
    "qs_pg:gn_country":"US",
    "qs_pg:gn_fcode":"PPL",
    "qs_pg:gn_id":5179436,
    "qs_pg:gn_pop":0,
    "qs_pg:name":"Beatty",
    "qs_pg:name_adm0":"United States",
    "qs_pg:name_adm1":"Pennsylvania",
    "qs_pg:photos":2,
    "qs_pg:photos_1k":1,
    "qs_pg:photos_9k":1,
    "qs_pg:photos_9r":1,
    "qs_pg:photos_all":2,
    "qs_pg:photos_sr":1,
    "qs_pg:pop_sr":0,
    "qs_pg:qs_id":1190024,
    "qs_pg:qs_pg_placetype":"neighbourhood",
    "qs_pg:qs_pg_placetype_gp":"Suburb",
    "qs_pg:woe_adm0":23424977,
    "qs_pg:woe_id":2360846,
    "src:geom":"qs_pg",
    "src:lbl:centroid":"qs_pg",
    "woe:adm0_id":23424977,
    "woe:name_adm0":"United States",
    "woe:name_adm1":"Pennsylvania",
    "woe:placetype":"Suburb",
    "wof:belongsto":[
        102191575,
        404487601,
        85633793,
        102081383,
        85688481
    ],
    "wof:breaches":[],
    "wof:concordances":{
        "gn:id":5179436,
        "gp:id":2360846,
        "qs_pg:id":1190024
    },
    "wof:country":"US",
    "wof:created":1497312249,
    "wof:geomhash":"fc64cf2c03637f14a985c103249704bf",
    "wof:hierarchy":[
        {
            "continent_id":102191575,
            "country_id":85633793,
            "county_id":102081383,
            "localadmin_id":404487601,
            "locality_id":-1,
            "neighbourhood_id":1126083031,
            "region_id":85688481
        }
    ],
    "wof:id":1126083031,
    "wof:lastmodified":1534379771,
    "wof:name":"Beatty",
    "wof:parent_id":-1,
    "wof:placetype":"neighbourhood",
    "wof:repo":"whosonfirst-data-admin-us",
    "wof:superseded_by":[
        420540217
    ],
    "wof:supersedes":[],
    "wof:tags":[]
},
  "bbox": [
    -79.41837,
    40.30174,
    -79.41837,
    40.30174
],
  "geometry": {"coordinates":[-79.41837,40.30174],"type":"Point"}
}