{
  "id": 1360019779,
  "type": "Feature",
  "properties": {
    "edtf:cessation":"2018-09-06",
    "edtf:inception":"uuuu",
    "geom:area":0.0,
    "geom:area_square_m":0.0,
    "geom:bbox":"-157.5,66.91667,-157.5,66.91667",
    "geom:latitude":66.91667,
    "geom:longitude":-157.5,
    "gn:admin1_code":"AK",
    "gn:admin2_code":"188.0",
    "gn:asciiname":"Umnokalukta (historical)",
    "gn:country_code":"US",
    "gn:dem":25,
    "gn:elevation":"30.0",
    "gn:feature_class":"P",
    "gn:feature_code":"PPLQ",
    "gn:geonameid":5877183,
    "gn:latitude":66.91667,
    "gn:longitude":-157.5,
    "gn:modification_date":"2011-12-12",
    "gn:name":"Umnokalukta (historical)",
    "gn:population":0,
    "gn:timezone":"America/Anchorage",
    "iso:country":"US",
    "mz:hierarchy_label":1,
    "mz:is_current":0,
    "src:geom":"geonames",
    "wof:belongsto":[
        102191575,
        85633793,
        85688573,
        102081009
    ],
    "wof:breaches":[],
    "wof:concordances":{
        "gn:id":5877183
    },
    "wof:country":"US",
    "wof:geomhash":"a91cd33b2e4371d8bfbd55603906c984",
    "wof:hierarchy":[
        {
            "continent_id":102191575,
            "country_id":85633793,
            "county_id":102081009,
            "locality_id":1360019779,
            "region_id":85688573
        }
    ],
    "wof:id":1360019779,
    "wof:lastmodified":1537038207,
    "wof:name":"Umnokalukta (historical)",
    "wof:parent_id":102081009,
    "wof:placetype":"locality",
    "wof:repo":"whosonfirst-data-admin-us",
    "wof:superseded_by":[],
    "wof:supersedes":[],
    "wof:tags":[]
},
  "bbox": [
    -157.5,
    66.91667,
    -157.5,
    66.91667
],
  "geometry": {"coordinates":[-157.5,66.91667],"type":"Point"}
}