{
  "id": 1343687615,
  "type": "Feature",
  "properties": {
    "edtf:cessation":"uuuu",
    "edtf:inception":"uuuu",
    "geom:area":0.0,
    "geom:area_square_m":0.0,
    "geom:bbox":"-101.23016,36.02226,-101.23016,36.02226",
    "geom:latitude":36.02226,
    "geom:longitude":-101.23016,
    "gn:admin1_code":"TX",
    "gn:admin2_code":"233.0",
    "gn:asciiname":"Holt",
    "gn:country_code":"US",
    "gn:dem":982,
    "gn:elevation":"974.0",
    "gn:feature_class":"P",
    "gn:feature_code":"PPL",
    "gn:geonameid":5523307,
    "gn:latitude":36.02226,
    "gn:longitude":-101.23016,
    "gn:modification_date":"2006-01-15",
    "gn:name":"Holt",
    "gn:population":0,
    "gn:timezone":"America/Chicago",
    "iso:country":"US",
    "mz:hierarchy_label":1,
    "mz:is_current":-1,
    "src:geom":"geonames",
    "wof:belongsto":[
        102191575,
        85633793,
        85688753,
        102082493
    ],
    "wof:breaches":[],
    "wof:concordances":{
        "gn:id":5523307
    },
    "wof:country":"US",
    "wof:geomhash":"5ea3e5f24bc85d4b7a94ae05ca50dc73",
    "wof:hierarchy":[
        {
            "continent_id":102191575,
            "country_id":85633793,
            "county_id":102082493,
            "locality_id":1343687615,
            "region_id":85688753
        }
    ],
    "wof:id":1343687615,
    "wof:lastmodified":1536916490,
    "wof:name":"Holt",
    "wof:parent_id":102082493,
    "wof:placetype":"locality",
    "wof:repo":"whosonfirst-data-admin-us",
    "wof:superseded_by":[],
    "wof:supersedes":[],
    "wof:tags":[]
},
  "bbox": [
    -101.23016,
    36.02226,
    -101.23016,
    36.02226
],
  "geometry": {"coordinates":[-101.23016,36.02226],"type":"Point"}
}