{
  "id": 1125271213,
  "type": "Feature",
  "properties": {
    "edtf:cessation":"2017-05-19",
    "edtf:inception":"uuuu",
    "geom:area":0.0,
    "geom:area_square_m":0.0,
    "geom:bbox":"-93.11707,32.1163,-93.11707,32.1163",
    "geom:latitude":32.1163,
    "geom:longitude":-93.11707,
    "gn:gn_country":"US",
    "gn:gn_fcode":"ADMD",
    "gn:gn_pop":269,
    "gn:population":269,
    "iso:country":"US",
    "lbl:latitude":32.1163,
    "lbl:longitude":-93.11707,
    "mz:hierarchy_label":1,
    "mz:is_current":0,
    "mz:note":"Quattroshapes Point Gazetteer import 20170519",
    "qs_pg:aaroncc":"US",
    "qs_pg:gn_country":"US",
    "qs_pg:gn_fcode":"ADMD",
    "qs_pg:gn_id":7172618,
    "qs_pg:gn_pop":269,
    "qs_pg:name":"Village of Ashland",
    "qs_pg:photos_9r":0,
    "qs_pg:photos_sr":0,
    "qs_pg:pop_sr":2,
    "qs_pg:qs_id":665212,
    "qs_pg:qs_pg_placetype":"localadmin",
    "src:geom":"qs_pg",
    "src:lbl:centroid":"qs_pg",
    "src:population":"geonames",
    "wof:belongsto":[
        85633793
    ],
    "wof:breaches":[],
    "wof:concordances":{
        "gn:id":7172618,
        "qs_pg:id":665212
    },
    "wof:country":"US",
    "wof:created":1497042136,
    "wof:geomhash":"ef4d414bb90ebbdfac4e3c46ef94ad87",
    "wof:hierarchy":[
        {
            "country_id":85633793,
            "localadmin_id":1125271213
        }
    ],
    "wof:id":1125271213,
    "wof:lastmodified":1505187119,
    "wof:name":"Village of Ashland",
    "wof:parent_id":-1,
    "wof:placetype":"localadmin",
    "wof:population":269,
    "wof:population_rank":2,
    "wof:repo":"whosonfirst-data-admin-us",
    "wof:superseded_by":[],
    "wof:supersedes":[],
    "wof:tags":[]
},
  "bbox": [
    -93.11707,
    32.1163,
    -93.11707,
    32.1163
],
  "geometry": {"coordinates":[-93.11707,32.1163],"type":"Point"}
}