{
  "id": 1125347251,
  "type": "Feature",
  "properties": {
    "edtf:cessation":"uuuu",
    "edtf:deprecated":"2017-11-04",
    "edtf:inception":"uuuu",
    "geom:area":0.0,
    "geom:area_square_m":0.0,
    "geom:bbox":"-94.35107,32.76318,-94.35107,32.76318",
    "geom:latitude":32.76318,
    "geom:longitude":-94.35107,
    "gn:gn_country":"US",
    "gn:gn_fcode":"ADMD",
    "gn:gn_pop":2106,
    "gn:population":2106,
    "iso:country":"US",
    "lbl:latitude":32.76318,
    "lbl:longitude":-94.35107,
    "mz:hierarchy_label":1,
    "mz:is_current":0,
    "mz:note":"Quattroshapes Point Gazetteer import 20170519",
    "qs_pg:aaroncc":"US",
    "qs_pg:gn_country":"US",
    "qs_pg:gn_fcode":"ADMD",
    "qs_pg:gn_id":7173167,
    "qs_pg:gn_pop":2106,
    "qs_pg:name":"City of Jefferson",
    "qs_pg:photos_9r":0,
    "qs_pg:photos_sr":0,
    "qs_pg:pop_sr":4,
    "qs_pg:qs_id":665730,
    "qs_pg:qs_pg_placetype":"localadmin",
    "src:geom":"qs_pg",
    "src:lbl:centroid":"qs_pg",
    "src:population":"geonames",
    "wof:belongsto":[
        85633793
    ],
    "wof:breaches":[],
    "wof:concordances":{
        "gn:id":7173167,
        "qs_pg:id":665730
    },
    "wof:country":"US",
    "wof:created":1497045992,
    "wof:geomhash":"68d3087c353532a08301a02fb7b6c8f2",
    "wof:hierarchy":[
        {
            "country_id":85633793,
            "localadmin_id":1125347251
        }
    ],
    "wof:id":1125347251,
    "wof:lastmodified":1509752598,
    "wof:name":"City of Jefferson",
    "wof:parent_id":-1,
    "wof:placetype":"localadmin",
    "wof:population":2106,
    "wof:population_rank":4,
    "wof:repo":"whosonfirst-data-admin-us",
    "wof:superseded_by":[
        101723753
    ],
    "wof:supersedes":[],
    "wof:tags":[]
},
  "bbox": [
    -94.35107,
    32.76318,
    -94.35107,
    32.76318
],
  "geometry": {"coordinates":[-94.35107000000001,32.76318],"type":"Point"}
}