{
  "id": 85871035,
  "type": "Feature",
  "properties": {"wof:repo":"whosonfirst-data-admin-us",
    "src:geom":"quattroshapes",
    "wof:geomhash":"f8e3ad414e673b5574fd107cb0f3dd2b",
    "wof:id":85871035
},
  "bbox": [
    -98.48693847659993,
    29.423151731000246,
    -98.47142413816005,
    29.435853393484265
],
  "geometry": {"coordinates":[[[-98.47142413816005,29.43446693385299],[-98.47320556351198,29.43242152125396],[-98.47320556640000,29.43072260775155],[-98.47320556640000,29.43002940460005],[-98.47380931708091,29.43002939943023],[-98.47534839737008,29.43002939913571],[-98.47595214841363,29.42933618842589],[-98.47595214841454,29.42763721733550],[-98.47869873048634,29.42763721498964],[-98.47869873048083,29.42524498012868],[-98.48084153727214,29.42524498033012],[-98.48144531250000,29.42524498550003],[-98.48389000438226,29.42524498550003],[-98.48406364316756,29.42464691635010],[-98.48396547508634,29.42430879571221],[-98.48412776922970,29.42374980807514],[-98.48419189449996,29.42374980815738],[-98.48453521728322,29.42374980815011],[-98.48487854001542,29.42374980815951],[-98.48487854001542,29.42345077005963],[-98.48522186278430,29.42345077005963],[-98.48522186278430,29.42315173107521],[-98.48556518549989,29.42315173108693],[-98.48562931056586,29.42315173100025],[-98.48571613272253,29.42345076985650],[-98.48610088397135,29.42345076968971],[-98.48625183110002,29.42345077020005],[-98.48625183110002,29.42374980813838],[-98.48659515381550,29.42374980815951],[-98.48659515381550,29.42404884535958],[-98.48693847658731,29.42404884538765],[-98.48693847658421,29.42434788165976],[-98.48659515381550,29.42434788165976],[-98.48659515381550,29.42464691707529],[-98.48625183108535,29.42464691708363],[-98.48625183108322,29.42494595165026],[-98.48625183108322,29.42524498535010],[-98.48625183108322,29.42554401815005],[-98.48625183108430,29.42584305005968],[-98.48590850829987,29.42584305005968],[-98.48590850829996,29.42614208106693],[-98.48590850829996,29.42644111125030],[-98.48590850829996,29.42674014055429],[-98.48608016967484,29.42693722937244],[-98.48608016967484,29.42701538058097],[-98.48610088892889,29.42703916899976],[-98.48625183110002,29.42703916900003],[-98.48625183108535,29.42721247036972],[-98.48625183108490,29.42763722320005],[-98.48693847659993,29.42763722320005],[-98.48693847659993,29.42883331871433],[-98.48693847659993,29.43002940460005],[-98.48556518551490,29.43002940460005],[-98.48556518551544,29.43122547191270],[-98.48419189449996,29.43122547197186],[-98.48419189449996,29.43242152636046],[-98.48358815290874,29.43242152324473],[-98.48144531250000,29.43242152209355],[-98.47930247014736,29.43242152303182],[-98.47869873049257,29.43311473502372],[-98.47869873048634,29.43481359007521],[-98.47595214585382,29.43481359090477],[-98.47504656254591,29.43585339348427],[-98.47232987368858,29.43481359830010],[-98.47142413816005,29.43446693385299]]],"type":"Polygon"}
}