{
  "id": 1293795131,
  "type": "Feature",
  "properties": {
    "edtf:cessation":"uuuu",
    "edtf:inception":"uuuu",
    "geom:area":0.0,
    "geom:area_square_m":0.0,
    "geom:bbox":"-119.93601,38.97019,-119.93601,38.97019",
    "geom:latitude":38.97019,
    "geom:longitude":-119.93601,
    "gn:admin1_code":"NV",
    "gn:admin2_code":"5.0",
    "gn:asciiname":"Tahoe Village",
    "gn:country_code":"US",
    "gn:dem":1920,
    "gn:elevation":"1923.0",
    "gn:feature_class":"P",
    "gn:feature_code":"PPL",
    "gn:geonameid":5513477,
    "gn:latitude":38.97019,
    "gn:longitude":-119.93601,
    "gn:modification_date":"2006-01-15",
    "gn:name":"Tahoe Village",
    "gn:population":0,
    "gn:timezone":"America/Los_Angeles",
    "iso:country":"US",
    "mz:hierarchy_label":1,
    "mz:is_current":-1,
    "src:geom":"geonames",
    "wof:belongsto":[
        102191575,
        85633793,
        85688531,
        102081541
    ],
    "wof:breaches":[],
    "wof:concordances":{
        "gn:id":5513477
    },
    "wof:country":"US",
    "wof:geomhash":"6e55da97551324a68f91c51efd70f0af",
    "wof:hierarchy":[
        {
            "continent_id":102191575,
            "country_id":85633793,
            "county_id":102081541,
            "locality_id":1293795131,
            "region_id":85688531
        }
    ],
    "wof:id":1293795131,
    "wof:lastmodified":1536839568,
    "wof:name":"Tahoe Village",
    "wof:parent_id":102081541,
    "wof:placetype":"locality",
    "wof:repo":"whosonfirst-data-admin-us",
    "wof:superseded_by":[],
    "wof:supersedes":[],
    "wof:tags":[]
},
  "bbox": [
    -119.93601,
    38.97019,
    -119.93601,
    38.97019
],
  "geometry": {"coordinates":[-119.93601,38.97019],"type":"Point"}
}