{
  "id": 1125287499,
  "type": "Feature",
  "properties": {
    "edtf:cessation":"2017-05-19",
    "edtf:inception":"uuuu",
    "geom:area":0.0,
    "geom:area_square_m":0.0,
    "geom:bbox":"-96.2667,36.24957,-96.2667,36.24957",
    "geom:latitude":36.24957,
    "geom:longitude":-96.2667,
    "gn:gn_country":"US",
    "gn:gn_fcode":"ADMD",
    "gn:gn_pop":465,
    "gn:population":465,
    "iso:country":"US",
    "lbl:latitude":36.24957,
    "lbl:longitude":-96.2667,
    "mz:hierarchy_label":1,
    "mz:is_current":0,
    "mz:note":"Quattroshapes Point Gazetteer import 20170519",
    "qs_pg:aaroncc":"US",
    "qs_pg:gn_country":"US",
    "qs_pg:gn_fcode":"ADMD",
    "qs_pg:gn_id":7174931,
    "qs_pg:gn_pop":465,
    "qs_pg:name":"Town of Prue",
    "qs_pg:photos_9r":0,
    "qs_pg:photos_sr":0,
    "qs_pg:pop_sr":2,
    "qs_pg:qs_id":667487,
    "qs_pg:qs_pg_placetype":"localadmin",
    "src:geom":"qs_pg",
    "src:lbl:centroid":"qs_pg",
    "src:population":"geonames",
    "wof:belongsto":[
        85633793
    ],
    "wof:breaches":[],
    "wof:concordances":{
        "gn:id":7174931,
        "qs_pg:id":667487
    },
    "wof:country":"US",
    "wof:created":1497042773,
    "wof:geomhash":"450c846eaf83eef65aa44b4c9866f8b1",
    "wof:hierarchy":[
        {
            "country_id":85633793,
            "localadmin_id":1125287499
        }
    ],
    "wof:id":1125287499,
    "wof:lastmodified":1505187146,
    "wof:name":"Town of Prue",
    "wof:parent_id":-1,
    "wof:placetype":"localadmin",
    "wof:population":465,
    "wof:population_rank":2,
    "wof:repo":"whosonfirst-data-admin-us",
    "wof:superseded_by":[],
    "wof:supersedes":[],
    "wof:tags":[]
},
  "bbox": [
    -96.2667,
    36.24957,
    -96.2667,
    36.24957
],
  "geometry": {"coordinates":[-96.2667,36.24957],"type":"Point"}
}