{
  "id": 1125341729,
  "type": "Feature",
  "properties": {
    "edtf:cessation":"uuuu",
    "edtf:deprecated":"2017-11-04",
    "edtf:inception":"uuuu",
    "geom:area":0.0,
    "geom:area_square_m":0.0,
    "geom:bbox":"-97.27531,37.79399,-97.27531,37.79399",
    "geom:latitude":37.79399,
    "geom:longitude":-97.27531,
    "gn:gn_country":"US",
    "gn:gn_fcode":"ADMD",
    "gn:gn_pop":1909,
    "gn:population":1909,
    "iso:country":"US",
    "lbl:latitude":37.79399,
    "lbl:longitude":-97.27531,
    "mz:hierarchy_label":1,
    "mz:is_current":0,
    "mz:note":"Quattroshapes Point Gazetteer import 20170519",
    "qs_pg:aaroncc":"US",
    "qs_pg:gn_country":"US",
    "qs_pg:gn_fcode":"ADMD",
    "qs_pg:gn_id":7163967,
    "qs_pg:gn_pop":1909,
    "qs_pg:name":"City of Kechi",
    "qs_pg:photos_9r":0,
    "qs_pg:photos_sr":0,
    "qs_pg:pop_sr":3,
    "qs_pg:qs_id":658939,
    "qs_pg:qs_pg_placetype":"localadmin",
    "src:geom":"qs_pg",
    "src:lbl:centroid":"qs_pg",
    "src:population":"geonames",
    "wof:belongsto":[
        85633793
    ],
    "wof:breaches":[],
    "wof:concordances":{
        "gn:id":7163967,
        "qs_pg:id":658939
    },
    "wof:country":"US",
    "wof:created":1497045696,
    "wof:geomhash":"c0072d0213a732f25e38c711686a2d76",
    "wof:hierarchy":[
        {
            "country_id":85633793,
            "localadmin_id":1125341729
        }
    ],
    "wof:id":1125341729,
    "wof:lastmodified":1509752572,
    "wof:name":"City of Kechi",
    "wof:parent_id":-1,
    "wof:placetype":"localadmin",
    "wof:population":1909,
    "wof:population_rank":3,
    "wof:repo":"whosonfirst-data-admin-us",
    "wof:superseded_by":[
        85945857
    ],
    "wof:supersedes":[],
    "wof:tags":[]
},
  "bbox": [
    -97.27531,
    37.79399,
    -97.27531,
    37.79399
],
  "geometry": {"coordinates":[-97.27531,37.79399],"type":"Point"}
}