{
  "id": 1276893367,
  "type": "Feature",
  "properties": {
    "edtf:cessation":"uuuu",
    "edtf:inception":"uuuu",
    "geom:area":0.0,
    "geom:area_square_m":0.0,
    "geom:bbox":"-80.31649,32.75907,-80.31649,32.75907",
    "geom:latitude":32.75907,
    "geom:longitude":-80.31649,
    "gn:admin1_code":"SC",
    "gn:admin2_code":"19.0",
    "gn:asciiname":"Jericho",
    "gn:country_code":"US",
    "gn:dem":16,
    "gn:elevation":"17.0",
    "gn:feature_class":"P",
    "gn:feature_code":"PPL",
    "gn:geonameid":4583396,
    "gn:latitude":32.75907,
    "gn:longitude":-80.31649,
    "gn:modification_date":"2006-01-15",
    "gn:name":"Jericho",
    "gn:population":0,
    "gn:timezone":"America/New_York",
    "iso:country":"US",
    "mz:hierarchy_label":1,
    "mz:is_current":-1,
    "src:geom":"geonames",
    "wof:belongsto":[
        102191575,
        85633793,
        85688683,
        102085591
    ],
    "wof:breaches":[],
    "wof:concordances":{
        "gn:id":4583396
    },
    "wof:country":"US",
    "wof:geomhash":"e7abb9e7fd2a520616890aa3123aa1a7",
    "wof:hierarchy":[
        {
            "continent_id":102191575,
            "country_id":85633793,
            "county_id":102085591,
            "locality_id":1276893367,
            "region_id":85688683
        }
    ],
    "wof:id":1276893367,
    "wof:lastmodified":1537022105,
    "wof:name":"Jericho",
    "wof:parent_id":102085591,
    "wof:placetype":"locality",
    "wof:repo":"whosonfirst-data-admin-us",
    "wof:superseded_by":[],
    "wof:supersedes":[],
    "wof:tags":[]
},
  "bbox": [
    -80.31649,
    32.75907,
    -80.31649,
    32.75907
],
  "geometry": {"coordinates":[-80.31649,32.75907],"type":"Point"}
}