{
  "id": 404495003,
  "type": "Feature",
  "properties": {
    "edtf:cessation":"uuuu",
    "edtf:inception":"uuuu",
    "geom:area":0.010411,
    "geom:area_square_m":93361963.161458,
    "geom:bbox":"-90.552308,43.466354,-90.430099,43.553718",
    "geom:latitude":43.509953,
    "geom:longitude":-90.490662,
    "iso:country":"US",
    "lbl:latitude":43.509829,
    "lbl:longitude":-90.490662,
    "mz:hierarchy_label":1,
    "mz:is_current":-1,
    "name:eng_x_preferred":[
        "Bloom"
    ],
    "qs:a0":"United States",
    "qs:a1":"Wisconsin",
    "qs:a1_lc":"55",
    "qs:a2":"Richland",
    "qs:a2_lc":"55103",
    "qs:adm0":"United States",
    "qs:adm0_a3":"USA",
    "qs:la":"Bloom",
    "qs:la_lc":"5510308175",
    "qs:level":"localadmin",
    "qs:pop":512,
    "qs:source":"US Census",
    "qs:type":"town",
    "src:geom":"quattroshapes",
    "src:population":"quattroshapes",
    "wof:belongsto":[
        102191575,
        85633793,
        85688517,
        102081809
    ],
    "wof:breaches":[],
    "wof:concordances":{},
    "wof:country":"US",
    "wof:geomhash":"5486f3a8c3597fab90a1e388e95a4fb0",
    "wof:hierarchy":[
        {
            "continent_id":102191575,
            "country_id":85633793,
            "county_id":102081809,
            "localadmin_id":404495003,
            "region_id":85688517
        }
    ],
    "wof:id":404495003,
    "wof:lastmodified":1505339584,
    "wof:name":"Bloom",
    "wof:parent_id":102081809,
    "wof:placetype":"localadmin",
    "wof:population":512,
    "wof:population_rank":2,
    "wof:repo":"whosonfirst-data-admin-us",
    "wof:superseded_by":[],
    "wof:supersedes":[],
    "wof:tags":[]
},
  "bbox": [
    -90.552308,
    43.466354,
    -90.430099,
    43.553718
],
  "geometry": {"coordinates":[[[-90.507069,43.466391],[-90.508077,43.466366],[-90.510246,43.466399],[-90.549413,43.466354],[-90.549398,43.466627],[-90.549578,43.473729],[-90.55095,43.518104],[-90.55119999999999,43.526671],[-90.552308,43.549092],[-90.55213999999999,43.552823],[-90.52700900000001,43.552849],[-90.497103,43.553128],[-90.490129,43.553262],[-90.48709599999999,43.553288],[-90.48088,43.553352],[-90.478756,43.553372],[-90.4768,43.553388],[-90.471064,43.553232],[-90.46232000000001,43.553448],[-90.46155299999999,43.553457],[-90.457081,43.553508],[-90.452416,43.553557],[-90.431302,43.553718],[-90.431104,43.550098],[-90.43108599999999,43.542742],[-90.43102,43.531794],[-90.43092799999999,43.522824],[-90.430817,43.514535],[-90.43129999999999,43.513143],[-90.430364,43.499967],[-90.430099,43.466873],[-90.464749,43.466575],[-90.467135,43.466555],[-90.479708,43.466416],[-90.507069,43.466391]]],"type":"Polygon"}
}