{
  "id": 420531447,
  "type": "Feature",
  "properties": {
    "edtf:cessation":"uuuu",
    "edtf:inception":"uuuu",
    "geom:area":0.0,
    "geom:area_square_m":842052.718877,
    "geom:bbox":"-78.913465,35.981393,-78.913465,35.981393",
    "geom:latitude":35.981393,
    "geom:longitude":-78.913465,
    "iso:country":"US",
    "lbl:latitude":35.981393,
    "lbl:longitude":-78.913465,
    "mz:hierarchy_label":0,
    "mz:is_current":1,
    "name:eng_x_preferred":[
        "Forest Hills"
    ],
    "src:geom":"mz",
    "src:geom_alt":[
        "zetashapes"
    ],
    "src:lbl":"mapshaper",
    "src:lbl:centroid":"mapshaper",
    "src:population":"zetashapes",
    "wd:wordcount":235,
    "wof:belongsto":[
        102191575,
        85633793,
        85980565,
        102080909,
        85688773
    ],
    "wof:breaches":[],
    "wof:concordances":{
        "gp:id":55858784
    },
    "wof:country":"US",
    "wof:geomhash":"d6156b51e15a0f680ac69367895d9127",
    "wof:hierarchy":[
        {
            "continent_id":102191575,
            "country_id":85633793,
            "county_id":102080909,
            "locality_id":85980565,
            "neighbourhood_id":420531447,
            "region_id":85688773
        }
    ],
    "wof:id":420531447,
    "wof:lastmodified":1533597704,
    "wof:name":"Forest Hills",
    "wof:parent_id":85980565,
    "wof:placetype":"neighbourhood",
    "wof:population":527,
    "wof:population_rank":2,
    "wof:repo":"whosonfirst-data-admin-us",
    "wof:superseded_by":[],
    "wof:supersedes":[],
    "wof:tags":[],
    "zs:area_m":841995.258682,
    "zs:blockids":[
        370630007002032,
        370630007003004,
        370630007002038,
        370630007002034,
        370630007002025,
        370630007002013,
        370630007002022,
        370630007002024,
        370630007002027,
        370630007002028,
        370630007002031,
        370630007003001,
        370630007002039,
        370630007002023,
        370630007002030,
        370630007002012,
        370630007003005,
        370630007002029,
        370630007003000,
        370630007002026,
        370630007003003,
        370630007003007,
        370630007002033,
        370630007002037
    ],
    "zs:housing10":221,
    "zs:id":55858784,
    "zs:label":"Forest Hills",
    "zs:pop10":527
},
  "bbox": [
    -78.913465,
    35.981393,
    -78.913465,
    35.981393
],
  "geometry": {"coordinates":[-78.913465,35.981393],"type":"Point"}
}