{
  "id": 420523131,
  "type": "Feature",
  "properties": {"wof:repo":"whosonfirst-data-admin-us",
    "src:geom":"zetashapes",
    "wof:geomhash":"f747d0012a8c417ec3d758e83299c0bb",
    "wof:id":420523131,
    "wof:placetype":"neighbourhood"
},
  "bbox": [
    -76.603918,
    39.347144,
    -76.601937,
    39.349666
],
  "geometry": {"coordinates":[[[[-76.602289,39.347555],[-76.60299999999999,39.347622],[-76.603015,39.347624],[-76.603026,39.347622],[-76.603033,39.347619],[-76.603037,39.347614],[-76.603115,39.347144],[-76.60360300000001,39.347286],[-76.60391799999999,39.347377],[-76.603585,39.349666],[-76.603212,39.349621],[-76.603109,39.349606],[-76.60311400000001,39.349555],[-76.60311400000001,39.349526],[-76.60311,39.3495],[-76.603095,39.349478],[-76.60306199999999,39.349457],[-76.60301699999999,39.349439],[-76.602953,39.349425],[-76.60226299999999,39.349343],[-76.60193700000001,39.349308],[-76.602289,39.347555]]]],"type":"MultiPolygon"}
}