{
  "id": 1225861359,
  "type": "Feature",
  "properties": {
    "edtf:cessation":"2018-09-07",
    "edtf:inception":"uuuu",
    "geom:area":0.0,
    "geom:area_square_m":0.0,
    "geom:bbox":"-84.14683,37.99799,-84.14683,37.99799",
    "geom:latitude":37.99799,
    "geom:longitude":-84.14683,
    "gn:admin1_code":"KY",
    "gn:admin2_code":"49",
    "gn:asciiname":"Saddlebrook (historical)",
    "gn:country_code":"US",
    "gn:dem":298,
    "gn:elevation":"298.0",
    "gn:feature_class":"P",
    "gn:feature_code":"PPLQ",
    "gn:geonameid":7232324,
    "gn:latitude":37.99799,
    "gn:longitude":-84.14683,
    "gn:modification_date":"2014-10-08",
    "gn:name":"Saddlebrook (historical)",
    "gn:population":0,
    "gn:timezone":"America/New_York",
    "iso:country":"US",
    "mz:hierarchy_label":1,
    "mz:is_current":0,
    "src:geom":"geonames",
    "wof:belongsto":[
        102191575,
        85633793,
        85688641,
        102084625
    ],
    "wof:breaches":[],
    "wof:concordances":{
        "gn:id":7232324
    },
    "wof:country":"US",
    "wof:geomhash":"c590732557e6862d559e85fb87c2b62d",
    "wof:hierarchy":[
        {
            "continent_id":102191575,
            "country_id":85633793,
            "county_id":102084625,
            "locality_id":1225861359,
            "region_id":85688641
        }
    ],
    "wof:id":1225861359,
    "wof:lastmodified":1536990362,
    "wof:name":"Saddlebrook (historical)",
    "wof:parent_id":102084625,
    "wof:placetype":"locality",
    "wof:repo":"whosonfirst-data-admin-us",
    "wof:superseded_by":[],
    "wof:supersedes":[],
    "wof:tags":[]
},
  "bbox": [
    -84.14683000000002,
    37.99799,
    -84.14683000000002,
    37.99799
],
  "geometry": {"coordinates":[-84.14683000000002,37.99799],"type":"Point"}
}