{
  "id": 1125882839,
  "type": "Feature",
  "properties": {
    "edtf:cessation":"uuuu",
    "edtf:inception":"uuuu",
    "geom:area":0.0,
    "geom:area_square_m":0.0,
    "geom:bbox":"-79.43338,34.40099,-79.43338,34.40099",
    "geom:latitude":34.40099,
    "geom:longitude":-79.43338,
    "gn:gn_country":"US",
    "gn:gn_fcode":"PPL",
    "gn:gn_pop":0,
    "iso:country":"US",
    "lbl:latitude":34.40099,
    "lbl:longitude":-79.43338,
    "mz:hierarchy_label":1,
    "mz:is_current":-1,
    "mz:note":"Quattroshapes Point Gazetteer import 20170519",
    "name:eng_x_preferred":[
        "Dothan"
    ],
    "name:unk_x_variant":[
        "Bethea Camp Ground"
    ],
    "qs_pg:aaroncc":"US",
    "qs_pg:gn_country":"US",
    "qs_pg:gn_fcode":"PPL",
    "qs_pg:gn_id":4576843,
    "qs_pg:gn_pop":0,
    "qs_pg:name":"Dothan",
    "qs_pg:name_adm0":"United States",
    "qs_pg:name_adm1":"South Carolina",
    "qs_pg:photos":17,
    "qs_pg:photos_1k":3,
    "qs_pg:photos_9k":1,
    "qs_pg:photos_9r":1,
    "qs_pg:photos_all":17,
    "qs_pg:photos_sr":1,
    "qs_pg:pop_sr":0,
    "qs_pg:qs_id":47359,
    "qs_pg:qs_pg_placetype":"locality",
    "qs_pg:qs_pg_placetype_gp":"Town",
    "qs_pg:woe_adm0":23424977,
    "qs_pg:woe_id":2393123,
    "src:geom":"qs_pg",
    "src:lbl:centroid":"qs_pg",
    "woe:adm0_id":23424977,
    "woe:name_adm0":"United States",
    "woe:name_adm1":"South Carolina",
    "woe:placetype":"Town",
    "wof:belongsto":[
        102191575,
        85633793,
        85688683,
        102085701
    ],
    "wof:breaches":[],
    "wof:concordances":{
        "gn:id":4576843,
        "gp:id":2393123,
        "qs_pg:id":47359
    },
    "wof:country":"US",
    "wof:created":1497294905,
    "wof:geomhash":"7745f509763ceef2b82a50ef4608f0f1",
    "wof:hierarchy":[
        {
            "continent_id":102191575,
            "country_id":85633793,
            "county_id":102085701,
            "locality_id":1125882839,
            "region_id":85688683
        }
    ],
    "wof:id":1125882839,
    "wof:lastmodified":1509398287,
    "wof:name":"Dothan",
    "wof:parent_id":102085701,
    "wof:placetype":"locality",
    "wof:repo":"whosonfirst-data-admin-us",
    "wof:superseded_by":[],
    "wof:supersedes":[],
    "wof:tags":[]
},
  "bbox": [
    -79.43338,
    34.40099,
    -79.43338,
    34.40099
],
  "geometry": {"coordinates":[-79.43338,34.40099],"type":"Point"}
}