{
  "id": 1226058331,
  "type": "Feature",
  "properties": {
    "edtf:cessation":"uuuu",
    "edtf:inception":"uuuu",
    "geom:area":0.0,
    "geom:area_square_m":0.0,
    "geom:bbox":"-81.98873,32.39406,-81.98873,32.39406",
    "geom:latitude":32.39406,
    "geom:longitude":-81.98873,
    "gn:admin1_code":"GA",
    "gn:admin2_code":"43",
    "gn:asciiname":"Parish",
    "gn:country_code":"US",
    "gn:dem":74,
    "gn:elevation":"68.0",
    "gn:feature_class":"P",
    "gn:feature_code":"PPL",
    "gn:geonameid":4214741,
    "gn:latitude":32.39406,
    "gn:longitude":-81.98873,
    "gn:modification_date":"2006-01-15",
    "gn:name":"Parish",
    "gn:population":0,
    "gn:timezone":"America/New_York",
    "iso:country":"US",
    "mz:hierarchy_label":1,
    "mz:is_current":-1,
    "src:geom":"geonames",
    "wof:belongsto":[
        102191575,
        85633793,
        85688535,
        102083605
    ],
    "wof:breaches":[],
    "wof:concordances":{
        "gn:id":4214741
    },
    "wof:country":"US",
    "wof:geomhash":"e2bf464090bd353c2071356bc97773ee",
    "wof:hierarchy":[
        {
            "continent_id":102191575,
            "country_id":85633793,
            "county_id":102083605,
            "locality_id":1226058331,
            "region_id":85688535
        }
    ],
    "wof:id":1226058331,
    "wof:lastmodified":1536707236,
    "wof:name":"Parish",
    "wof:parent_id":102083605,
    "wof:placetype":"locality",
    "wof:repo":"whosonfirst-data-admin-us",
    "wof:superseded_by":[],
    "wof:supersedes":[],
    "wof:tags":[]
},
  "bbox": [
    -81.98873,
    32.39406,
    -81.98873,
    32.39406
],
  "geometry": {"coordinates":[-81.98873,32.39406],"type":"Point"}
}