{
  "id": 1226262181,
  "type": "Feature",
  "properties": {
    "edtf:cessation":"uuuu",
    "edtf:inception":"uuuu",
    "geom:area":0.0,
    "geom:area_square_m":0.0,
    "geom:bbox":"-78.12195,41.15284,-78.12195,41.15284",
    "geom:latitude":41.15284,
    "geom:longitude":-78.12195,
    "gn:admin1_code":"PA",
    "gn:admin2_code":"33.0",
    "gn:admin3_code":"38784.0",
    "gn:asciiname":"Oak Hill",
    "gn:country_code":"US",
    "gn:dem":447,
    "gn:elevation":"445.0",
    "gn:feature_class":"P",
    "gn:feature_code":"PPL",
    "gn:geonameid":5204083,
    "gn:latitude":41.15284,
    "gn:longitude":-78.12195,
    "gn:modification_date":"2017-05-23",
    "gn:name":"Oak Hill",
    "gn:population":0,
    "gn:timezone":"America/New_York",
    "iso:country":"US",
    "mz:hierarchy_label":1,
    "mz:is_current":-1,
    "src:geom":"geonames",
    "wof:belongsto":[
        85688481,
        102191575,
        404487025,
        85633793,
        102080967
    ],
    "wof:breaches":[],
    "wof:concordances":{
        "gn:id":5204083
    },
    "wof:country":"US",
    "wof:geomhash":"23b80ebf74affbeced0ff920180f94cb",
    "wof:hierarchy":[
        {
            "continent_id":102191575,
            "country_id":85633793,
            "county_id":102080967,
            "localadmin_id":404487025,
            "locality_id":1226262181,
            "region_id":85688481
        }
    ],
    "wof:id":1226262181,
    "wof:lastmodified":1536910287,
    "wof:name":"Oak Hill",
    "wof:parent_id":404487025,
    "wof:placetype":"locality",
    "wof:repo":"whosonfirst-data-admin-us",
    "wof:superseded_by":[],
    "wof:supersedes":[],
    "wof:tags":[]
},
  "bbox": [
    -78.12195,
    41.15284000000001,
    -78.12195,
    41.15284000000001
],
  "geometry": {"coordinates":[-78.12195,41.15284000000001],"type":"Point"}
}