{
  "id": 1343874265,
  "type": "Feature",
  "properties": {
    "edtf:cessation":"uuuu",
    "edtf:inception":"uuuu",
    "geom:area":0.0,
    "geom:area_square_m":0.0,
    "geom:bbox":"-84.65165,42.58893,-84.65165,42.58893",
    "geom:latitude":42.58893,
    "geom:longitude":-84.65165,
    "gn:admin1_code":"MI",
    "gn:admin2_code":"45.0",
    "gn:admin3_code":"24560.0",
    "gn:asciiname":"Kingsland",
    "gn:country_code":"US",
    "gn:dem":281,
    "gn:elevation":"282.0",
    "gn:feature_class":"P",
    "gn:feature_code":"PPL",
    "gn:geonameid":4998193,
    "gn:latitude":42.58893,
    "gn:longitude":-84.65165,
    "gn:modification_date":"2017-05-23",
    "gn:name":"Kingsland",
    "gn:population":0,
    "gn:timezone":"America/Detroit",
    "iso:country":"US",
    "mz:hierarchy_label":1,
    "mz:is_current":-1,
    "src:geom":"geonames",
    "wof:belongsto":[
        85688599,
        102191575,
        404507343,
        85633793,
        102083005
    ],
    "wof:breaches":[],
    "wof:concordances":{
        "gn:id":4998193
    },
    "wof:country":"US",
    "wof:geomhash":"56902e6af2a2a62e8cfc8941f1c6de7a",
    "wof:hierarchy":[
        {
            "continent_id":102191575,
            "country_id":85633793,
            "county_id":102083005,
            "localadmin_id":404507343,
            "locality_id":1343874265,
            "region_id":85688599
        }
    ],
    "wof:id":1343874265,
    "wof:lastmodified":1536646161,
    "wof:name":"Kingsland",
    "wof:parent_id":404507343,
    "wof:placetype":"locality",
    "wof:repo":"whosonfirst-data-admin-us",
    "wof:superseded_by":[],
    "wof:supersedes":[],
    "wof:tags":[]
},
  "bbox": [
    -84.65165,
    42.58893,
    -84.65165,
    42.58893
],
  "geometry": {"coordinates":[-84.65165,42.58893],"type":"Point"}
}