{
  "id": 1125291209,
  "type": "Feature",
  "properties": {
    "edtf:cessation":"2017-05-19",
    "edtf:inception":"uuuu",
    "geom:area":0.0,
    "geom:area_square_m":0.0,
    "geom:bbox":"-104.81035,44.35364,-104.81035,44.35364",
    "geom:latitude":44.35364,
    "geom:longitude":-104.81035,
    "gn:gn_country":"US",
    "gn:gn_fcode":"ADMD",
    "gn:gn_pop":490,
    "gn:population":490,
    "iso:country":"US",
    "lbl:latitude":44.35364,
    "lbl:longitude":-104.81035,
    "mz:hierarchy_label":1,
    "mz:is_current":0,
    "mz:note":"Quattroshapes Point Gazetteer import 20170519",
    "qs_pg:aaroncc":"US",
    "qs_pg:gn_country":"US",
    "qs_pg:gn_fcode":"ADMD",
    "qs_pg:gn_id":7175538,
    "qs_pg:gn_pop":490,
    "qs_pg:name":"Town of Pine Haven",
    "qs_pg:photos_9r":0,
    "qs_pg:photos_sr":0,
    "qs_pg:pop_sr":2,
    "qs_pg:qs_id":668063,
    "qs_pg:qs_pg_placetype":"localadmin",
    "src:geom":"qs_pg",
    "src:lbl:centroid":"qs_pg",
    "src:population":"geonames",
    "wof:belongsto":[
        85633793
    ],
    "wof:breaches":[],
    "wof:concordances":{
        "gn:id":7175538,
        "qs_pg:id":668063
    },
    "wof:country":"US",
    "wof:created":1497042927,
    "wof:geomhash":"6f32d42ce6f52e1b2fe6b5231a9055d4",
    "wof:hierarchy":[
        {
            "country_id":85633793,
            "localadmin_id":1125291209
        }
    ],
    "wof:id":1125291209,
    "wof:lastmodified":1505187153,
    "wof:name":"Town of Pine Haven",
    "wof:parent_id":-1,
    "wof:placetype":"localadmin",
    "wof:population":490,
    "wof:population_rank":2,
    "wof:repo":"whosonfirst-data-admin-us",
    "wof:superseded_by":[],
    "wof:supersedes":[],
    "wof:tags":[]
},
  "bbox": [
    -104.81035,
    44.35364,
    -104.81035,
    44.35364
],
  "geometry": {"coordinates":[-104.81035,44.35364],"type":"Point"}
}