{
  "id": 1125379603,
  "type": "Feature",
  "properties": {
    "edtf:cessation":"2017-05-19",
    "edtf:inception":"uuuu",
    "geom:area":0.0,
    "geom:area_square_m":0.0,
    "geom:bbox":"-74.97462,40.73343,-74.97462,40.73343",
    "geom:latitude":40.73343,
    "geom:longitude":-74.97462,
    "gn:gn_country":"US",
    "gn:gn_fcode":"ADMD",
    "gn:gn_pop":0,
    "iso:country":"US",
    "lbl:latitude":40.73343,
    "lbl:longitude":-74.97462,
    "mz:hierarchy_label":1,
    "mz:is_current":0,
    "mz:note":"Quattroshapes Point Gazetteer import 20170519",
    "name:eng_x_preferred":[
        "Washington Township"
    ],
    "qs_pg:aaroncc":"US",
    "qs_pg:gn_country":"US",
    "qs_pg:gn_fcode":"ADMD",
    "qs_pg:gn_id":5106125,
    "qs_pg:gn_pop":0,
    "qs_pg:name":"Township of Washington",
    "qs_pg:photos_9r":0,
    "qs_pg:photos_sr":0,
    "qs_pg:pop_sr":0,
    "qs_pg:qs_id":1038019,
    "qs_pg:qs_pg_placetype":"localadmin",
    "src:geom":"qs_pg",
    "src:lbl:centroid":"qs_pg",
    "wof:belongsto":[
        85633793
    ],
    "wof:breaches":[],
    "wof:concordances":{
        "gn:id":5106125,
        "qs_pg:id":1038019
    },
    "wof:country":"US",
    "wof:created":1497047963,
    "wof:geomhash":"0af827c30b9c86f986a096854da7657d",
    "wof:hierarchy":[
        {
            "country_id":85633793,
            "localadmin_id":1125379603
        }
    ],
    "wof:id":1125379603,
    "wof:lastmodified":1505248142,
    "wof:name":"Township of Washington",
    "wof:parent_id":-1,
    "wof:placetype":"localadmin",
    "wof:repo":"whosonfirst-data-admin-us",
    "wof:superseded_by":[],
    "wof:supersedes":[],
    "wof:tags":[]
},
  "bbox": [
    -74.97462,
    40.73343,
    -74.97462,
    40.73343
],
  "geometry": {"coordinates":[-74.97462,40.73343],"type":"Point"}
}