{
  "id": 1259599205,
  "type": "Feature",
  "properties": {
    "edtf:cessation":"uuuu",
    "edtf:inception":"uuuu",
    "geom:area":0.0,
    "geom:area_square_m":0.0,
    "geom:bbox":"-104.40522,47.37807,-104.40522,47.37807",
    "geom:latitude":47.37807,
    "geom:longitude":-104.40522,
    "gn:admin1_code":"MT",
    "gn:admin2_code":"83.0",
    "gn:asciiname":"Burns",
    "gn:country_code":"US",
    "gn:dem":600,
    "gn:elevation":"601.0",
    "gn:feature_class":"P",
    "gn:feature_code":"PPL",
    "gn:geonameid":5642776,
    "gn:latitude":47.37807,
    "gn:longitude":-104.40522,
    "gn:modification_date":"2006-01-15",
    "gn:name":"Burns",
    "gn:population":0,
    "gn:timezone":"America/Denver",
    "iso:country":"US",
    "mz:hierarchy_label":1,
    "mz:is_current":-1,
    "name:eng_x_preferred":[
        "Burns"
    ],
    "name:und_x_variant":[
        "Burns Ranch"
    ],
    "src:geom":"geonames",
    "wof:belongsto":[
        102191575,
        85633793,
        85688617,
        102085141
    ],
    "wof:breaches":[],
    "wof:concordances":{
        "gn:id":5642776
    },
    "wof:country":"US",
    "wof:geomhash":"3430b85765baea49fa57744665e3915d",
    "wof:hierarchy":[
        {
            "continent_id":102191575,
            "country_id":85633793,
            "county_id":102085141,
            "locality_id":1259599205,
            "region_id":85688617
        }
    ],
    "wof:id":1259599205,
    "wof:lastmodified":1537713081,
    "wof:name":"Burns",
    "wof:parent_id":102085141,
    "wof:placetype":"locality",
    "wof:repo":"whosonfirst-data-admin-us",
    "wof:superseded_by":[],
    "wof:supersedes":[],
    "wof:tags":[]
},
  "bbox": [
    -104.40522,
    47.37807,
    -104.40522,
    47.37807
],
  "geometry": {"coordinates":[-104.40522,47.37807],"type":"Point"}
}