{
  "id": 1125383163,
  "type": "Feature",
  "properties": {
    "edtf:cessation":"uuuu",
    "edtf:deprecated":"2017-11-04",
    "edtf:inception":"uuuu",
    "geom:area":0.0,
    "geom:area_square_m":0.0,
    "geom:bbox":"-95.34035,41.82542,-95.34035,41.82542",
    "geom:latitude":41.82542,
    "geom:longitude":-95.34035,
    "gn:gn_country":"US",
    "gn:gn_fcode":"ADMD",
    "gn:gn_pop":284,
    "gn:population":284,
    "iso:country":"US",
    "lbl:latitude":41.82542,
    "lbl:longitude":-95.34035,
    "mz:hierarchy_label":1,
    "mz:is_current":0,
    "mz:note":"Quattroshapes Point Gazetteer import 20170519",
    "qs_pg:aaroncc":"US",
    "qs_pg:gn_country":"US",
    "qs_pg:gn_fcode":"ADMD",
    "qs_pg:gn_id":7316886,
    "qs_pg:gn_pop":284,
    "qs_pg:name":"City of Defiance",
    "qs_pg:photos_9r":0,
    "qs_pg:photos_sr":0,
    "qs_pg:pop_sr":2,
    "qs_pg:qs_id":682900,
    "qs_pg:qs_pg_placetype":"localadmin",
    "src:geom":"qs_pg",
    "src:lbl:centroid":"qs_pg",
    "src:population":"geonames",
    "wof:belongsto":[
        85633793
    ],
    "wof:breaches":[],
    "wof:concordances":{
        "gn:id":7316886,
        "qs_pg:id":682900
    },
    "wof:country":"US",
    "wof:created":1497048188,
    "wof:geomhash":"1fb9a1f0afd02047642d8508e26c8434",
    "wof:hierarchy":[
        {
            "country_id":85633793,
            "localadmin_id":1125383163
        }
    ],
    "wof:id":1125383163,
    "wof:lastmodified":1509752683,
    "wof:name":"City of Defiance",
    "wof:parent_id":-1,
    "wof:placetype":"localadmin",
    "wof:population":284,
    "wof:population_rank":2,
    "wof:repo":"whosonfirst-data-admin-us",
    "wof:superseded_by":[
        85943281
    ],
    "wof:supersedes":[],
    "wof:tags":[]
},
  "bbox": [
    -95.34035,
    41.82542,
    -95.34035,
    41.82542
],
  "geometry": {"coordinates":[-95.34035,41.82542],"type":"Point"}
}