{
  "id": 1276992505,
  "type": "Feature",
  "properties": {
    "edtf:cessation":"uuuu",
    "edtf:inception":"uuuu",
    "geom:area":0.0,
    "geom:area_square_m":0.0,
    "geom:bbox":"-93.86077,39.31946,-93.86077,39.31946",
    "geom:latitude":39.31946,
    "geom:longitude":-93.86077,
    "gn:admin1_code":"MO",
    "gn:admin2_code":"177.0",
    "gn:admin3_code":"17398.0",
    "gn:asciiname":"Morton",
    "gn:country_code":"US",
    "gn:dem":246,
    "gn:elevation":"244.0",
    "gn:feature_class":"P",
    "gn:feature_code":"PPL",
    "gn:geonameid":4399140,
    "gn:latitude":39.31946,
    "gn:longitude":-93.86077,
    "gn:modification_date":"2017-05-23",
    "gn:name":"Morton",
    "gn:population":0,
    "gn:timezone":"America/Chicago",
    "iso:country":"US",
    "mz:hierarchy_label":1,
    "mz:is_current":-1,
    "name:eng_x_preferred":[
        "Morton"
    ],
    "name:und_x_variant":[
        "Shaws Shop"
    ],
    "src:geom":"geonames",
    "wof:belongsto":[
        85688661,
        102191575,
        404515897,
        85633793,
        102086185
    ],
    "wof:breaches":[],
    "wof:concordances":{
        "gn:id":4399140
    },
    "wof:country":"US",
    "wof:geomhash":"e67a47c342cf8c4b33dd73922ac8ea1a",
    "wof:hierarchy":[
        {
            "continent_id":102191575,
            "country_id":85633793,
            "county_id":102086185,
            "localadmin_id":404515897,
            "locality_id":1276992505,
            "region_id":85688661
        }
    ],
    "wof:id":1276992505,
    "wof:lastmodified":1537712464,
    "wof:name":"Morton",
    "wof:parent_id":404515897,
    "wof:placetype":"locality",
    "wof:repo":"whosonfirst-data-admin-us",
    "wof:superseded_by":[],
    "wof:supersedes":[],
    "wof:tags":[]
},
  "bbox": [
    -93.86077,
    39.31946,
    -93.86077,
    39.31946
],
  "geometry": {"coordinates":[-93.86077,39.31946],"type":"Point"}
}