{
  "id": 1125765187,
  "type": "Feature",
  "properties": {
    "edtf:cessation":"uuuu",
    "edtf:inception":"uuuu",
    "geom:area":0.0,
    "geom:area_square_m":0.0,
    "geom:bbox":"-106.89836,34.09118,-106.89836,34.09118",
    "geom:latitude":34.09118,
    "geom:longitude":-106.89836,
    "gn:gn_country":"US",
    "gn:gn_fcode":"PPL",
    "gn:gn_pop":0,
    "iso:country":"US",
    "lbl:latitude":34.09118,
    "lbl:longitude":-106.89836,
    "mz:hierarchy_label":1,
    "mz:is_current":-1,
    "mz:note":"Quattroshapes Point Gazetteer import 20170519",
    "qs_pg:aaroncc":"US",
    "qs_pg:gn_country":"US",
    "qs_pg:gn_fcode":"PPL",
    "qs_pg:gn_id":5467923,
    "qs_pg:gn_pop":0,
    "qs_pg:name":"Florida",
    "qs_pg:name_adm0":"United States",
    "qs_pg:name_adm1":"New Mexico",
    "qs_pg:photos":17,
    "qs_pg:photos_1k":3,
    "qs_pg:photos_9k":1,
    "qs_pg:photos_9r":1,
    "qs_pg:photos_all":17,
    "qs_pg:photos_sr":1,
    "qs_pg:pop_sr":0,
    "qs_pg:qs_id":1332301,
    "qs_pg:qs_pg_placetype":"locality",
    "qs_pg:qs_pg_placetype_gp":"Town",
    "qs_pg:woe_adm0":23424977,
    "qs_pg:woe_id":2404566,
    "src:geom":"qs_pg",
    "src:lbl:centroid":"qs_pg",
    "woe:adm0_id":23424977,
    "woe:name_adm0":"United States",
    "woe:name_adm1":"New Mexico",
    "woe:placetype":"Town",
    "wof:belongsto":[
        102191575,
        85633793,
        85688493,
        102081575
    ],
    "wof:breaches":[],
    "wof:concordances":{
        "gn:id":5467923,
        "gp:id":2404566,
        "qs_pg:id":1332301
    },
    "wof:country":"US",
    "wof:created":1497289864,
    "wof:geomhash":"d28f97ea87c174168ced86ff2f10373a",
    "wof:hierarchy":[
        {
            "continent_id":102191575,
            "country_id":85633793,
            "county_id":102081575,
            "locality_id":1125765187,
            "region_id":85688493
        }
    ],
    "wof:id":1125765187,
    "wof:lastmodified":1509390644,
    "wof:name":"Florida",
    "wof:parent_id":102081575,
    "wof:placetype":"locality",
    "wof:repo":"whosonfirst-data-admin-us",
    "wof:superseded_by":[],
    "wof:supersedes":[],
    "wof:tags":[]
},
  "bbox": [
    -106.89836,
    34.09118,
    -106.89836,
    34.09118
],
  "geometry": {"coordinates":[-106.89836,34.09118],"type":"Point"}
}