{
  "id": 1226253719,
  "type": "Feature",
  "properties": {
    "edtf:cessation":"2018-09-07",
    "edtf:inception":"uuuu",
    "geom:area":0.0,
    "geom:area_square_m":0.0,
    "geom:bbox":"-107.19977,36.7589,-107.19977,36.7589",
    "geom:latitude":36.7589,
    "geom:longitude":-107.19977,
    "gn:admin1_code":"NM",
    "gn:admin2_code":"39.0",
    "gn:asciiname":"Vaqueros (historical)",
    "gn:country_code":"US",
    "gn:dem":2133,
    "gn:elevation":"2128.0",
    "gn:feature_class":"P",
    "gn:feature_code":"PPLQ",
    "gn:geonameid":5496494,
    "gn:latitude":36.7589,
    "gn:longitude":-107.19977,
    "gn:modification_date":"2011-12-11",
    "gn:name":"Vaqueros (historical)",
    "gn:population":0,
    "gn:timezone":"America/Denver",
    "iso:country":"US",
    "mz:hierarchy_label":1,
    "mz:is_current":0,
    "src:geom":"geonames",
    "wof:belongsto":[
        102191575,
        85633793,
        85688493,
        102081563
    ],
    "wof:breaches":[],
    "wof:concordances":{
        "gn:id":5496494
    },
    "wof:country":"US",
    "wof:geomhash":"66d415649490378523c9694201d87ca7",
    "wof:hierarchy":[
        {
            "continent_id":102191575,
            "country_id":85633793,
            "county_id":102081563,
            "locality_id":1226253719,
            "region_id":85688493
        }
    ],
    "wof:id":1226253719,
    "wof:lastmodified":1536922741,
    "wof:name":"Vaqueros (historical)",
    "wof:parent_id":102081563,
    "wof:placetype":"locality",
    "wof:repo":"whosonfirst-data-admin-us",
    "wof:superseded_by":[],
    "wof:supersedes":[],
    "wof:tags":[]
},
  "bbox": [
    -107.19977,
    36.7589,
    -107.19977,
    36.7589
],
  "geometry": {"coordinates":[-107.19977,36.7589],"type":"Point"}
}