{
  "id": 1125321443,
  "type": "Feature",
  "properties": {
    "edtf:cessation":"uuuu",
    "edtf:deprecated":"2017-11-04",
    "edtf:inception":"uuuu",
    "geom:area":0.0,
    "geom:area_square_m":0.0,
    "geom:bbox":"-82.88552,32.05439,-82.88552,32.05439",
    "geom:latitude":32.05439,
    "geom:longitude":-82.88552,
    "gn:gn_country":"US",
    "gn:gn_fcode":"ADMD",
    "gn:gn_pop":5740,
    "gn:population":5740,
    "iso:country":"US",
    "lbl:latitude":32.05439,
    "lbl:longitude":-82.88552,
    "mz:hierarchy_label":1,
    "mz:is_current":0,
    "mz:note":"Quattroshapes Point Gazetteer import 20170519",
    "qs_pg:aaroncc":"US",
    "qs_pg:gn_country":"US",
    "qs_pg:gn_fcode":"ADMD",
    "qs_pg:gn_id":7318094,
    "qs_pg:gn_pop":5740,
    "qs_pg:name":"City of McRae",
    "qs_pg:photos_9r":0,
    "qs_pg:photos_sr":0,
    "qs_pg:pop_sr":5,
    "qs_pg:qs_id":684114,
    "qs_pg:qs_pg_placetype":"localadmin",
    "src:geom":"qs_pg",
    "src:lbl:centroid":"qs_pg",
    "src:population":"geonames",
    "wof:belongsto":[
        85633793
    ],
    "wof:breaches":[],
    "wof:concordances":{
        "gn:id":7318094,
        "qs_pg:id":684114
    },
    "wof:country":"US",
    "wof:created":1497044555,
    "wof:geomhash":"f558bf34d4f2bdabd0d375306b1bcfc5",
    "wof:hierarchy":[
        {
            "country_id":85633793,
            "localadmin_id":1125321443
        }
    ],
    "wof:id":1125321443,
    "wof:lastmodified":1509752550,
    "wof:name":"City of McRae",
    "wof:parent_id":-1,
    "wof:placetype":"localadmin",
    "wof:population":5740,
    "wof:population_rank":5,
    "wof:repo":"whosonfirst-data-admin-us",
    "wof:superseded_by":[
        85936919
    ],
    "wof:supersedes":[],
    "wof:tags":[]
},
  "bbox": [
    -82.88552,
    32.05439,
    -82.88552,
    32.05439
],
  "geometry": {"coordinates":[-82.88552,32.05439],"type":"Point"}
}