{
  "id": 1125965237,
  "type": "Feature",
  "properties": {
    "edtf:cessation":"uuuu",
    "edtf:deprecated":"2018-08-15",
    "edtf:inception":"uuuu",
    "edtf:superseded":"2018-08-15",
    "geom:area":0.0,
    "geom:area_square_m":0.0,
    "geom:bbox":"-116.598243,32.615412,-116.598243,32.615412",
    "geom:latitude":32.615412,
    "geom:longitude":-116.598243,
    "gn:gn_country":null,
    "iso:country":"US",
    "lbl:latitude":32.615412,
    "lbl:longitude":-116.598243,
    "mz:hierarchy_label":1,
    "mz:is_current":0,
    "mz:note":"Quattroshapes Point Gazetteer import 20170519",
    "qs_pg:aaroncc":"US",
    "qs_pg:gn_country":null,
    "qs_pg:name":"Tecate",
    "qs_pg:name_adm0":"United States",
    "qs_pg:name_adm1":"California",
    "qs_pg:photos":852,
    "qs_pg:photos_1k":173,
    "qs_pg:photos_9k":4,
    "qs_pg:photos_9r":6,
    "qs_pg:photos_all":852,
    "qs_pg:photos_sr":10,
    "qs_pg:pop_sr":0,
    "qs_pg:qs_id":1150967,
    "qs_pg:qs_pg_placetype":"locality",
    "qs_pg:qs_pg_placetype_gp":"Town",
    "qs_pg:woe_adm0":23424977,
    "qs_pg:woe_id":2504518,
    "src:geom":"qs_pg",
    "src:lbl:centroid":"qs_pg",
    "woe:adm0_id":23424977,
    "woe:name_adm0":"United States",
    "woe:name_adm1":"California",
    "woe:placetype":"Town",
    "wof:belongsto":[
        102191575,
        85633793,
        85688637,
        102083569
    ],
    "wof:breaches":[],
    "wof:concordances":{
        "gp:id":2504518,
        "qs_pg:id":1150967
    },
    "wof:country":"US",
    "wof:created":1497297948,
    "wof:geomhash":"dfea28e09aeb38106a0f17c02cfa60ef",
    "wof:hierarchy":[
        {
            "continent_id":102191575,
            "country_id":85633793,
            "county_id":102083569,
            "locality_id":1125965237,
            "region_id":85688637
        }
    ],
    "wof:id":1125965237,
    "wof:lastmodified":1534379473,
    "wof:name":"Tecate",
    "wof:parent_id":102083569,
    "wof:placetype":"locality",
    "wof:repo":"whosonfirst-data-admin-us",
    "wof:superseded_by":[
        1125980283
    ],
    "wof:supersedes":[],
    "wof:tags":[]
},
  "bbox": [
    -116.598243,
    32.615412,
    -116.598243,
    32.615412
],
  "geometry": {"coordinates":[-116.598243,32.615412],"type":"Point"}
}