{
  "id": 1226665491,
  "type": "Feature",
  "properties": {
    "edtf:cessation":"uuuu",
    "edtf:inception":"uuuu",
    "geom:area":0.0,
    "geom:area_square_m":0.0,
    "geom:bbox":"-84.33326,35.65591,-84.33326,35.65591",
    "geom:latitude":35.65591,
    "geom:longitude":-84.33326,
    "gn:admin1_code":"TN",
    "gn:admin2_code":"123",
    "gn:asciiname":"Macedonia",
    "gn:country_code":"US",
    "gn:dem":312,
    "gn:elevation":"311.0",
    "gn:feature_class":"P",
    "gn:feature_code":"PPL",
    "gn:geonameid":4638886,
    "gn:latitude":35.65591,
    "gn:longitude":-84.33326,
    "gn:modification_date":"2006-01-15",
    "gn:name":"Macedonia",
    "gn:population":0,
    "gn:timezone":"America/New_York",
    "iso:country":"US",
    "mz:hierarchy_label":1,
    "mz:is_current":-1,
    "src:geom":"geonames",
    "wof:belongsto":[
        102191575,
        85633793,
        85688701,
        102087197
    ],
    "wof:breaches":[],
    "wof:concordances":{
        "gn:id":4638886
    },
    "wof:country":"US",
    "wof:geomhash":"dbb4a923026cdaf425da3484fb8716a5",
    "wof:hierarchy":[
        {
            "continent_id":102191575,
            "country_id":85633793,
            "county_id":102087197,
            "locality_id":1226665491,
            "region_id":85688701
        }
    ],
    "wof:id":1226665491,
    "wof:lastmodified":1536830088,
    "wof:name":"Macedonia",
    "wof:parent_id":102087197,
    "wof:placetype":"locality",
    "wof:repo":"whosonfirst-data-admin-us",
    "wof:superseded_by":[],
    "wof:supersedes":[],
    "wof:tags":[]
},
  "bbox": [
    -84.33326,
    35.65591,
    -84.33326,
    35.65591
],
  "geometry": {"coordinates":[-84.33326,35.65591],"type":"Point"}
}