{
  "id": 1276255153,
  "type": "Feature",
  "properties": {
    "edtf:cessation":"uuuu",
    "edtf:inception":"uuuu",
    "geom:area":0.0,
    "geom:area_square_m":0.0,
    "geom:bbox":"-89.72091,32.12821,-89.72091,32.12821",
    "geom:latitude":32.12821,
    "geom:longitude":-89.72091,
    "gn:admin1_code":"MS",
    "gn:admin2_code":"129.0",
    "gn:asciiname":"Daniel",
    "gn:country_code":"US",
    "gn:dem":114,
    "gn:elevation":"110.0",
    "gn:feature_class":"P",
    "gn:feature_code":"PPL",
    "gn:geonameid":4423483,
    "gn:latitude":32.12821,
    "gn:longitude":-89.72091,
    "gn:modification_date":"2006-01-15",
    "gn:name":"Daniel",
    "gn:population":0,
    "gn:timezone":"America/Chicago",
    "iso:country":"US",
    "mz:hierarchy_label":1,
    "mz:is_current":-1,
    "name:eng_x_preferred":[
        "Daniel"
    ],
    "name:und_x_variant":[
        "Rock Bluff"
    ],
    "src:geom":"geonames",
    "wof:belongsto":[
        102191575,
        85633793,
        85688579,
        102083793
    ],
    "wof:breaches":[],
    "wof:concordances":{
        "gn:id":4423483
    },
    "wof:country":"US",
    "wof:geomhash":"2a628c7af7162a1a05f6e919bc189b71",
    "wof:hierarchy":[
        {
            "continent_id":102191575,
            "country_id":85633793,
            "county_id":102083793,
            "locality_id":1276255153,
            "region_id":85688579
        }
    ],
    "wof:id":1276255153,
    "wof:lastmodified":1537712481,
    "wof:name":"Daniel",
    "wof:parent_id":102083793,
    "wof:placetype":"locality",
    "wof:repo":"whosonfirst-data-admin-us",
    "wof:superseded_by":[],
    "wof:supersedes":[],
    "wof:tags":[]
},
  "bbox": [
    -89.72091,
    32.12821,
    -89.72091,
    32.12821
],
  "geometry": {"coordinates":[-89.72091,32.12821],"type":"Point"}
}