{
  "id": 1125420527,
  "type": "Feature",
  "properties": {
    "edtf:cessation":"uuuu",
    "edtf:deprecated":"2017-11-04",
    "edtf:inception":"uuuu",
    "geom:area":0.0,
    "geom:area_square_m":0.0,
    "geom:bbox":"-123.01815,43.91886,-123.01815,43.91886",
    "geom:latitude":43.91886,
    "geom:longitude":-123.01815,
    "gn:gn_country":"US",
    "gn:gn_fcode":"ADMD",
    "gn:gn_pop":5031,
    "gn:population":5031,
    "iso:country":"US",
    "lbl:latitude":43.91886,
    "lbl:longitude":-123.01815,
    "mz:hierarchy_label":1,
    "mz:is_current":0,
    "mz:note":"Quattroshapes Point Gazetteer import 20170519",
    "qs_pg:aaroncc":"US",
    "qs_pg:gn_country":"US",
    "qs_pg:gn_fcode":"ADMD",
    "qs_pg:gn_id":7173260,
    "qs_pg:gn_pop":5031,
    "qs_pg:name":"City of Creswell",
    "qs_pg:photos_9r":0,
    "qs_pg:photos_sr":0,
    "qs_pg:pop_sr":5,
    "qs_pg:qs_id":665825,
    "qs_pg:qs_pg_placetype":"localadmin",
    "src:geom":"qs_pg",
    "src:lbl:centroid":"qs_pg",
    "src:population":"geonames",
    "wof:belongsto":[
        85633793
    ],
    "wof:breaches":[],
    "wof:concordances":{
        "gn:id":7173260,
        "qs_pg:id":665825
    },
    "wof:country":"US",
    "wof:created":1497052134,
    "wof:geomhash":"298c29c8716c61dadc7552fb595523a1",
    "wof:hierarchy":[
        {
            "country_id":85633793,
            "localadmin_id":1125420527
        }
    ],
    "wof:id":1125420527,
    "wof:lastmodified":1509752758,
    "wof:name":"City of Creswell",
    "wof:parent_id":-1,
    "wof:placetype":"localadmin",
    "wof:population":5031,
    "wof:population_rank":5,
    "wof:repo":"whosonfirst-data-admin-us",
    "wof:superseded_by":[
        101716267
    ],
    "wof:supersedes":[],
    "wof:tags":[]
},
  "bbox": [
    -123.01815,
    43.91886,
    -123.01815,
    43.91886
],
  "geometry": {"coordinates":[-123.01815000000001,43.91886],"type":"Point"}
}