{
  "id": 1293513607,
  "type": "Feature",
  "properties": {
    "edtf:cessation":"uuuu",
    "edtf:inception":"uuuu",
    "geom:area":0.0,
    "geom:area_square_m":0.0,
    "geom:bbox":"-97.23084,32.0496,-97.23084,32.0496",
    "geom:latitude":32.0496,
    "geom:longitude":-97.23084,
    "gn:admin1_code":"TX",
    "gn:admin2_code":"217.0",
    "gn:asciiname":"Woodbury",
    "gn:country_code":"US",
    "gn:dem":207,
    "gn:elevation":"202.0",
    "gn:feature_class":"P",
    "gn:feature_code":"PPL",
    "gn:geonameid":4742898,
    "gn:latitude":32.0496,
    "gn:longitude":-97.23084,
    "gn:modification_date":"2006-01-15",
    "gn:name":"Woodbury",
    "gn:population":0,
    "gn:timezone":"America/Chicago",
    "iso:country":"US",
    "mz:hierarchy_label":1,
    "mz:is_current":-1,
    "src:geom":"geonames",
    "wof:belongsto":[
        102191575,
        85633793,
        85688753,
        102086747
    ],
    "wof:breaches":[],
    "wof:concordances":{
        "gn:id":4742898
    },
    "wof:country":"US",
    "wof:geomhash":"fd6ee579aada11da633702367fc71101",
    "wof:hierarchy":[
        {
            "continent_id":102191575,
            "country_id":85633793,
            "county_id":102086747,
            "locality_id":1293513607,
            "region_id":85688753
        }
    ],
    "wof:id":1293513607,
    "wof:lastmodified":1536749361,
    "wof:name":"Woodbury",
    "wof:parent_id":102086747,
    "wof:placetype":"locality",
    "wof:repo":"whosonfirst-data-admin-us",
    "wof:superseded_by":[],
    "wof:supersedes":[],
    "wof:tags":[]
},
  "bbox": [
    -97.23084,
    32.0496,
    -97.23084,
    32.0496
],
  "geometry": {"coordinates":[-97.23084,32.0496],"type":"Point"}
}