{
  "id": 1276789335,
  "type": "Feature",
  "properties": {
    "edtf:cessation":"uuuu",
    "edtf:inception":"uuuu",
    "geom:area":0.0,
    "geom:area_square_m":0.0,
    "geom:bbox":"-90.46842,29.59522,-90.46842,29.59522",
    "geom:latitude":29.59522,
    "geom:longitude":-90.46842,
    "gn:admin1_code":"LA",
    "gn:admin2_code":"57.0",
    "gn:asciiname":"Jay",
    "gn:country_code":"US",
    "gn:dem":8,
    "gn:elevation":"2.0",
    "gn:feature_class":"P",
    "gn:feature_code":"PPL",
    "gn:geonameid":4328925,
    "gn:latitude":29.59522,
    "gn:longitude":-90.46842,
    "gn:modification_date":"2006-01-15",
    "gn:name":"Jay",
    "gn:population":0,
    "gn:timezone":"America/Chicago",
    "iso:country":"US",
    "mz:hierarchy_label":1,
    "mz:is_current":-1,
    "src:geom":"geonames",
    "wof:belongsto":[
        102191575,
        85633793,
        85688735,
        102084879
    ],
    "wof:breaches":[],
    "wof:concordances":{
        "gn:id":4328925
    },
    "wof:country":"US",
    "wof:geomhash":"56804b62ad9e9bf2950680c665791866",
    "wof:hierarchy":[
        {
            "continent_id":102191575,
            "country_id":85633793,
            "county_id":102084879,
            "locality_id":1276789335,
            "region_id":85688735
        }
    ],
    "wof:id":1276789335,
    "wof:lastmodified":1536664963,
    "wof:name":"Jay",
    "wof:parent_id":102084879,
    "wof:placetype":"locality",
    "wof:repo":"whosonfirst-data-admin-us",
    "wof:superseded_by":[],
    "wof:supersedes":[],
    "wof:tags":[]
},
  "bbox": [
    -90.46842,
    29.59522,
    -90.46842,
    29.59522
],
  "geometry": {"coordinates":[-90.46841999999999,29.59522],"type":"Point"}
}