{
  "id": 1125414839,
  "type": "Feature",
  "properties": {
    "edtf:cessation":"uuuu",
    "edtf:deprecated":"2017-11-04",
    "edtf:inception":"uuuu",
    "geom:area":0.0,
    "geom:area_square_m":0.0,
    "geom:bbox":"-99.51513,47.76278,-99.51513,47.76278",
    "geom:latitude":47.76278,
    "geom:longitude":-99.51513,
    "gn:gn_country":"US",
    "gn:gn_fcode":"ADMD",
    "gn:gn_pop":21,
    "gn:population":21,
    "iso:country":"US",
    "lbl:latitude":47.76278,
    "lbl:longitude":-99.51513,
    "mz:hierarchy_label":1,
    "mz:is_current":0,
    "mz:note":"Quattroshapes Point Gazetteer import 20170519",
    "qs_pg:aaroncc":"US",
    "qs_pg:gn_country":"US",
    "qs_pg:gn_fcode":"ADMD",
    "qs_pg:gn_id":5059524,
    "qs_pg:gn_pop":21,
    "qs_pg:name":"City of Hamberg",
    "qs_pg:photos_9r":0,
    "qs_pg:photos_sr":0,
    "qs_pg:pop_sr":1,
    "qs_pg:qs_id":602697,
    "qs_pg:qs_pg_placetype":"localadmin",
    "src:geom":"qs_pg",
    "src:lbl:centroid":"qs_pg",
    "src:population":"geonames",
    "wof:belongsto":[
        85633793
    ],
    "wof:breaches":[],
    "wof:concordances":{
        "gn:id":5059524,
        "qs_pg:id":602697
    },
    "wof:country":"US",
    "wof:created":1497051124,
    "wof:geomhash":"cdacd9f380ce6aa8b8d273d0caedd32e",
    "wof:hierarchy":[
        {
            "country_id":85633793,
            "localadmin_id":1125414839
        }
    ],
    "wof:id":1125414839,
    "wof:lastmodified":1509752740,
    "wof:name":"City of Hamberg",
    "wof:parent_id":-1,
    "wof:placetype":"localadmin",
    "wof:population":21,
    "wof:population_rank":1,
    "wof:repo":"whosonfirst-data-admin-us",
    "wof:superseded_by":[
        85982389
    ],
    "wof:supersedes":[],
    "wof:tags":[]
},
  "bbox": [
    -99.51513,
    47.76278,
    -99.51513,
    47.76278
],
  "geometry": {"coordinates":[-99.51513,47.76278],"type":"Point"}
}