{
  "id": 420532895,
  "type": "Feature",
  "properties": {
    "edtf:cessation":"uuuu",
    "edtf:inception":"uuuu",
    "geom:area":0.0,
    "geom:area_square_m":530335.045322,
    "geom:bbox":"-78.68953,35.790343,-78.68953,35.790343",
    "geom:latitude":35.790343,
    "geom:longitude":-78.68953,
    "iso:country":"US",
    "lbl:latitude":35.790343,
    "lbl:longitude":-78.68953,
    "mz:hierarchy_label":0,
    "mz:is_current":-1,
    "name:eng_x_preferred":[
        "Malcolm Mcallister"
    ],
    "src:geom":"mz",
    "src:geom_alt":[
        "zetashapes"
    ],
    "src:lbl":"mapshaper",
    "src:lbl:centroid":"mapshaper",
    "src:population":"zetashapes",
    "wof:belongsto":[
        102191575,
        85633793,
        85980569,
        102087821,
        85688773
    ],
    "wof:breaches":[],
    "wof:concordances":{
        "gp:id":55990322
    },
    "wof:country":"US",
    "wof:geomhash":"e514492ec647fb33f9a18b9637188f6b",
    "wof:hierarchy":[
        {
            "continent_id":102191575,
            "country_id":85633793,
            "county_id":102087821,
            "locality_id":85980569,
            "neighbourhood_id":420532895,
            "region_id":85688773
        }
    ],
    "wof:id":420532895,
    "wof:lastmodified":1533598143,
    "wof:name":"Malcolm Mcallister",
    "wof:parent_id":85980569,
    "wof:placetype":"neighbourhood",
    "wof:population":811,
    "wof:population_rank":2,
    "wof:repo":"whosonfirst-data-admin-us",
    "wof:superseded_by":[],
    "wof:supersedes":[],
    "wof:tags":[],
    "zs:area_m":530298.555563,
    "zs:blockids":[
        371830511012006,
        371830511012004,
        371830511012005,
        371830511013001,
        371830511012007,
        371830511013000,
        371830511012000,
        371830514004009
    ],
    "zs:housing10":238,
    "zs:id":55990322,
    "zs:label":"Malcolm Mcallister",
    "zs:pop10":811
},
  "bbox": [
    -78.68953,
    35.790343,
    -78.68953,
    35.790343
],
  "geometry": {"coordinates":[-78.68953,35.790343],"type":"Point"}
}