{
  "id": 1310623625,
  "type": "Feature",
  "properties": {
    "edtf:cessation":"uuuu",
    "edtf:inception":"uuuu",
    "geom:area":0.0,
    "geom:area_square_m":0.0,
    "geom:bbox":"-88.48672,35.59868,-88.48672,35.59868",
    "geom:latitude":35.59868,
    "geom:longitude":-88.48672,
    "gn:admin1_code":"TN",
    "gn:admin2_code":"77.0",
    "gn:asciiname":"Chapel Hill",
    "gn:country_code":"US",
    "gn:dem":170,
    "gn:elevation":"167.0",
    "gn:feature_class":"P",
    "gn:feature_code":"PPL",
    "gn:geonameid":4612723,
    "gn:latitude":35.59868,
    "gn:longitude":-88.48672,
    "gn:modification_date":"2006-01-15",
    "gn:name":"Chapel Hill",
    "gn:population":0,
    "gn:timezone":"America/Chicago",
    "iso:country":"US",
    "mz:hierarchy_label":1,
    "mz:is_current":-1,
    "src:geom":"geonames",
    "wof:belongsto":[
        102191575,
        85633793,
        85688701,
        102087123
    ],
    "wof:breaches":[],
    "wof:concordances":{
        "gn:id":4612723
    },
    "wof:country":"US",
    "wof:geomhash":"e5d85b5ebb750840f234ad85fafa7a73",
    "wof:hierarchy":[
        {
            "continent_id":102191575,
            "country_id":85633793,
            "county_id":102087123,
            "locality_id":1310623625,
            "region_id":85688701
        }
    ],
    "wof:id":1310623625,
    "wof:lastmodified":1536746322,
    "wof:name":"Chapel Hill",
    "wof:parent_id":102087123,
    "wof:placetype":"locality",
    "wof:repo":"whosonfirst-data-admin-us",
    "wof:superseded_by":[],
    "wof:supersedes":[],
    "wof:tags":[]
},
  "bbox": [
    -88.48671999999998,
    35.59868,
    -88.48671999999998,
    35.59868
],
  "geometry": {"coordinates":[-88.48671999999998,35.59868],"type":"Point"}
}