{
  "id": 1327045937,
  "type": "Feature",
  "properties": {
    "edtf:cessation":"uuuu",
    "edtf:inception":"uuuu",
    "geom:area":0.0,
    "geom:area_square_m":0.0,
    "geom:bbox":"-82.76961,38.43591,-82.76961,38.43591",
    "geom:latitude":38.43591,
    "geom:longitude":-82.76961,
    "gn:admin1_code":"KY",
    "gn:admin2_code":"89",
    "gn:asciiname":"Naples",
    "gn:country_code":"US",
    "gn:dem":177,
    "gn:elevation":"175.0",
    "gn:feature_class":"P",
    "gn:feature_code":"PPL",
    "gn:geonameid":4302115,
    "gn:latitude":38.43591,
    "gn:longitude":-82.76961,
    "gn:modification_date":"2006-01-15",
    "gn:name":"Naples",
    "gn:population":0,
    "gn:timezone":"America/New_York",
    "iso:country":"US",
    "mz:hierarchy_label":1,
    "mz:is_current":-1,
    "src:geom":"geonames",
    "wof:belongsto":[
        102191575,
        85633793,
        85688641,
        102084571
    ],
    "wof:breaches":[],
    "wof:concordances":{
        "gn:id":4302115
    },
    "wof:country":"US",
    "wof:geomhash":"d8ffebc2a0027a186e7d5fc998c65ee9",
    "wof:hierarchy":[
        {
            "continent_id":102191575,
            "country_id":85633793,
            "county_id":102084571,
            "locality_id":1327045937,
            "region_id":85688641
        }
    ],
    "wof:id":1327045937,
    "wof:lastmodified":1536740689,
    "wof:name":"Naples",
    "wof:parent_id":102084571,
    "wof:placetype":"locality",
    "wof:repo":"whosonfirst-data-admin-us",
    "wof:superseded_by":[],
    "wof:supersedes":[],
    "wof:tags":[]
},
  "bbox": [
    -82.76961,
    38.43591,
    -82.76961,
    38.43591
],
  "geometry": {"coordinates":[-82.76961,38.43591],"type":"Point"}
}