{
  "id": 1226580377,
  "type": "Feature",
  "properties": {
    "edtf:cessation":"2018-09-07",
    "edtf:inception":"uuuu",
    "geom:area":0.0,
    "geom:area_square_m":0.0,
    "geom:bbox":"-86.21004,42.6778,-86.21004,42.6778",
    "geom:latitude":42.6778,
    "geom:longitude":-86.21004,
    "gn:admin1_code":"MI",
    "gn:admin2_code":"5.0",
    "gn:admin3_code":"71720.0",
    "gn:asciiname":"Singapore (historical)",
    "gn:country_code":"US",
    "gn:dem":182,
    "gn:elevation":"182.0",
    "gn:feature_class":"P",
    "gn:feature_code":"PPLQ",
    "gn:geonameid":5009991,
    "gn:latitude":42.6778,
    "gn:longitude":-86.21004,
    "gn:modification_date":"2017-05-23",
    "gn:name":"Singapore (historical)",
    "gn:population":0,
    "gn:timezone":"America/Detroit",
    "iso:country":"US",
    "mz:hierarchy_label":1,
    "mz:is_current":0,
    "src:geom":"geonames",
    "wof:belongsto":[
        85688599,
        102191575,
        404506693,
        85633793,
        102083043
    ],
    "wof:breaches":[],
    "wof:concordances":{
        "gn:id":5009991
    },
    "wof:country":"US",
    "wof:geomhash":"b574bb511abe7ddd02f3e0e41b2aa43b",
    "wof:hierarchy":[
        {
            "continent_id":102191575,
            "country_id":85633793,
            "county_id":102083043,
            "localadmin_id":404506693,
            "locality_id":1226580377,
            "region_id":85688599
        }
    ],
    "wof:id":1226580377,
    "wof:lastmodified":1536950292,
    "wof:name":"Singapore (historical)",
    "wof:parent_id":404506693,
    "wof:placetype":"locality",
    "wof:repo":"whosonfirst-data-admin-us",
    "wof:superseded_by":[],
    "wof:supersedes":[],
    "wof:tags":[]
},
  "bbox": [
    -86.21004,
    42.6778,
    -86.21004,
    42.6778
],
  "geometry": {"coordinates":[-86.21004000000001,42.6778],"type":"Point"}
}