{
  "id": 420543029,
  "type": "Feature",
  "properties": {
    "edtf:cessation":"uuuu",
    "edtf:inception":"uuuu",
    "geom:area":0.0,
    "geom:area_square_m":913165.583141,
    "geom:bbox":"-97.09032,33.128674,-97.09032,33.128674",
    "geom:latitude":33.128674,
    "geom:longitude":-97.09032,
    "iso:country":"US",
    "lbl:latitude":33.128674,
    "lbl:longitude":-97.09032,
    "mz:hierarchy_label":0,
    "mz:is_current":-1,
    "name:eng_x_preferred":[
        "Corinthian Palisades"
    ],
    "src:geom":"mz",
    "src:geom_alt":[
        "zetashapes"
    ],
    "src:lbl":"mapshaper",
    "src:lbl:centroid":"mapshaper",
    "src:population":"zetashapes",
    "wof:belongsto":[
        102191575,
        85633793,
        101724425,
        102087371,
        85688753
    ],
    "wof:breaches":[],
    "wof:concordances":{
        "gp:id":55993534
    },
    "wof:country":"US",
    "wof:geomhash":"8bef3b9427a0b28d4a045bd1798b5105",
    "wof:hierarchy":[
        {
            "continent_id":102191575,
            "country_id":85633793,
            "county_id":102087371,
            "locality_id":101724425,
            "neighbourhood_id":420543029,
            "region_id":85688753
        }
    ],
    "wof:id":420543029,
    "wof:lastmodified":1533601249,
    "wof:name":"Corinthian Palisades",
    "wof:parent_id":101724425,
    "wof:placetype":"neighbourhood",
    "wof:population":678,
    "wof:population_rank":2,
    "wof:repo":"whosonfirst-data-admin-us",
    "wof:superseded_by":[],
    "wof:supersedes":[],
    "wof:tags":[],
    "zs:area_m":913102.641112,
    "zs:blockids":[
        481210214083022,
        481210214031019,
        481210214083023
    ],
    "zs:housing10":219,
    "zs:id":55993534,
    "zs:label":"Corinthian Palisades",
    "zs:pop10":678
},
  "bbox": [
    -97.09032,
    33.128674,
    -97.09032,
    33.128674
],
  "geometry": {"coordinates":[-97.09032000000001,33.128674],"type":"Point"}
}