{
  "id": 1360304877,
  "type": "Feature",
  "properties": {
    "edtf:cessation":"uuuu",
    "edtf:inception":"uuuu",
    "geom:area":0.0,
    "geom:area_square_m":0.0,
    "geom:bbox":"-82.15066,30.01913,-82.15066,30.01913",
    "geom:latitude":30.01913,
    "geom:longitude":-82.15066,
    "gn:admin1_code":"FL",
    "gn:admin2_code":"7.0",
    "gn:asciiname":"Heilbronn",
    "gn:country_code":"US",
    "gn:dem":47,
    "gn:elevation":"42.0",
    "gn:feature_class":"P",
    "gn:feature_code":"PPL",
    "gn:geonameid":4158313,
    "gn:latitude":30.01913,
    "gn:longitude":-82.15066,
    "gn:modification_date":"2006-01-15",
    "gn:name":"Heilbronn",
    "gn:population":0,
    "gn:timezone":"America/New_York",
    "iso:country":"US",
    "mz:hierarchy_label":1,
    "mz:is_current":-1,
    "name:eng_x_preferred":[
        "Heilbronn"
    ],
    "name:und_x_variant":[
        "Hillburn"
    ],
    "src:geom":"geonames",
    "wof:belongsto":[
        102191575,
        85633793,
        85688651,
        102085793
    ],
    "wof:breaches":[],
    "wof:concordances":{
        "gn:id":4158313
    },
    "wof:country":"US",
    "wof:geomhash":"42d9622c6fa46f89d2e03ed2448df5fc",
    "wof:hierarchy":[
        {
            "continent_id":102191575,
            "country_id":85633793,
            "county_id":102085793,
            "locality_id":1360304877,
            "region_id":85688651
        }
    ],
    "wof:id":1360304877,
    "wof:lastmodified":1537712290,
    "wof:name":"Heilbronn",
    "wof:parent_id":102085793,
    "wof:placetype":"locality",
    "wof:repo":"whosonfirst-data-admin-us",
    "wof:superseded_by":[],
    "wof:supersedes":[],
    "wof:tags":[]
},
  "bbox": [
    -82.15066,
    30.01913,
    -82.15066,
    30.01913
],
  "geometry": {"coordinates":[-82.15066,30.01913],"type":"Point"}
}