{
  "id": 85870733,
  "type": "Feature",
  "properties": {"wof:repo":"whosonfirst-data-admin-us",
    "src:geom":"quattroshapes",
    "wof:geomhash":"a487dfbb4d6ee17db6ac074f1800db76",
    "wof:id":85870733
},
  "bbox": [
    -81.72729492188637,
    30.26284230250009,
    -81.68708251955002,
    30.29623686460947
],
  "geometry": {"coordinates":[[[-81.69982910159996,30.27330042810010],[-81.69982910159996,30.27642361618265],[-81.70120239259990,30.27483345510944],[-81.70120239259990,30.27448643700008],[-81.70150208352709,30.27448643700008],[-81.70240447152582,30.27344154391594],[-81.70251038704697,30.27336349952915],[-81.70253045482198,30.27330042810010],[-81.69982910159996,30.27330042810010],[-81.69982910159996,30.27083809248647],[-81.69960974134244,30.27067374469625],[-81.69870440181751,30.26985842146270],[-81.69982905210836,30.26855624900004],[-81.69982910157492,30.26855619172541],[-81.70532226559990,30.26855619172541],[-81.70941948366072,30.26855619172541],[-81.70997809156466,30.26823279279378],[-81.71165287039770,30.26887917176022],[-81.72208087590099,30.26284230250009],[-81.72499856632101,30.26959877812369],[-81.72729492187489,30.27092822392514],[-81.72729492188566,30.27330042810010],[-81.72729492188637,30.27804437780001],[-81.72729492187489,30.28278781155025],[-81.72589818361394,30.28278781155025],[-81.72589778755804,30.28278804087525],[-81.72180175779991,30.28753153195012],[-81.72180175779991,30.28753158930006],[-81.71630859371550,30.28753158930006],[-81.71630859371453,30.29088670909815],[-81.71630859370006,30.29227485100010],[-81.71356201169991,30.29227485100010],[-81.71356200962956,30.29464638693760],[-81.71218872069997,30.29623686460947],[-81.71081543230267,30.29464638839127],[-81.70806884768646,30.29464638752938],[-81.70806884768487,30.29227485100010],[-81.70532226559990,30.29227485100010],[-81.70532226561545,30.29088670909077],[-81.70242515736126,30.28753153195012],[-81.70158578974389,30.28711493397391],[-81.69982910157492,30.28729987515494],[-81.69938945276380,30.28753130260016],[-81.69843176920813,30.28753130260016],[-81.68856333848328,30.28181727167618],[-81.68747729816124,30.27804432047512],[-81.68731894002042,30.27776925559678],[-81.68727466674585,30.27762330617027],[-81.68708251955002,30.27567240295015],[-81.68727466674585,30.27372149972976],[-81.68784372422488,30.27184556862632],[-81.68833405518319,30.27092822392514],[-81.69613787484300,30.27092822392514],[-81.69773127110230,30.27330042810019],[-81.69982910159996,30.27330042810010]]],"type":"Polygon"}
}