{
  "id": 1126067953,
  "type": "Feature",
  "properties": {
    "edtf:cessation":"uuuu",
    "edtf:deprecated":"2018-08-15",
    "edtf:inception":"uuuu",
    "edtf:superseded":"2018-08-15",
    "geom:area":0.0,
    "geom:area_square_m":0.0,
    "geom:bbox":"-77.94167,42.81728,-77.94167,42.81728",
    "geom:latitude":42.81728,
    "geom:longitude":-77.94167,
    "gn:gn_country":"US",
    "gn:gn_fcode":"PPL",
    "gn:gn_pop":0,
    "iso:country":"US",
    "lbl:latitude":42.81728,
    "lbl:longitude":-77.94167,
    "mz:hierarchy_label":1,
    "mz:is_current":0,
    "mz:note":"Quattroshapes Point Gazetteer import 20170519",
    "qs_pg:aaroncc":"US",
    "qs_pg:gn_country":"US",
    "qs_pg:gn_fcode":"PPL",
    "qs_pg:gn_id":5141520,
    "qs_pg:gn_pop":0,
    "qs_pg:name":"Tryons Corners",
    "qs_pg:name_adm0":"United States",
    "qs_pg:name_adm1":"New York",
    "qs_pg:photos":3,
    "qs_pg:photos_1k":1,
    "qs_pg:photos_9k":1,
    "qs_pg:photos_9r":1,
    "qs_pg:photos_all":3,
    "qs_pg:photos_sr":1,
    "qs_pg:pop_sr":0,
    "qs_pg:qs_id":1173759,
    "qs_pg:qs_pg_placetype":"neighbourhood",
    "qs_pg:qs_pg_placetype_gp":"Suburb",
    "qs_pg:woe_adm0":23424977,
    "qs_pg:woe_id":2508337,
    "src:geom":"qs_pg",
    "src:lbl:centroid":"qs_pg",
    "woe:adm0_id":23424977,
    "woe:name_adm0":"United States",
    "woe:name_adm1":"New York",
    "woe:placetype":"Suburb",
    "wof:belongsto":[
        102191575,
        404522005,
        85633793,
        102082381,
        85688543
    ],
    "wof:breaches":[],
    "wof:concordances":{
        "gn:id":5141520,
        "gp:id":2508337,
        "qs_pg:id":1173759
    },
    "wof:country":"US",
    "wof:created":1497309228,
    "wof:geomhash":"758f09f20dc1b34f5088d81951889109",
    "wof:hierarchy":[
        {
            "continent_id":102191575,
            "country_id":85633793,
            "county_id":102082381,
            "localadmin_id":404522005,
            "locality_id":-1,
            "neighbourhood_id":1126067953,
            "region_id":85688543
        }
    ],
    "wof:id":1126067953,
    "wof:lastmodified":1534379754,
    "wof:name":"Tryons Corners",
    "wof:parent_id":-1,
    "wof:placetype":"neighbourhood",
    "wof:repo":"whosonfirst-data-admin-us",
    "wof:superseded_by":[
        420528925
    ],
    "wof:supersedes":[],
    "wof:tags":[]
},
  "bbox": [
    -77.94167,
    42.81728,
    -77.94167,
    42.81728
],
  "geometry": {"coordinates":[-77.94167,42.81728],"type":"Point"}
}