{
  "id": 420548987,
  "type": "Feature",
  "properties": {
    "edtf:cessation":"uuuu",
    "edtf:inception":"uuuu",
    "geom:area":0.0,
    "geom:area_square_m":202361.439221,
    "geom:bbox":"-122.612588,45.691828,-122.612588,45.691828",
    "geom:latitude":45.691828,
    "geom:longitude":-122.612588,
    "iso:country":"US",
    "lbl:latitude":45.691828,
    "lbl:longitude":-122.612588,
    "mz:hierarchy_label":0,
    "mz:is_current":-1,
    "name:eng_x_preferred":[
        "Rock Creek"
    ],
    "src:geom":"mz",
    "src:geom_alt":[
        "quattroshapes_pg",
        "zetashapes"
    ],
    "src:lbl":"mapshaper",
    "src:lbl:centroid":"mapshaper",
    "src:population":"zetashapes",
    "wof:belongsto":[
        102191575,
        85633793,
        101730761,
        102084251,
        85688623
    ],
    "wof:breaches":[],
    "wof:concordances":{
        "gp:id":55997535,
        "qs_pg:id":1018002
    },
    "wof:country":"US",
    "wof:geomhash":"7ee0723b028c7a8846bf943d90c90655",
    "wof:hierarchy":[
        {
            "continent_id":102191575,
            "country_id":85633793,
            "county_id":102084251,
            "locality_id":101730761,
            "neighbourhood_id":420548987,
            "region_id":85688623
        }
    ],
    "wof:id":420548987,
    "wof:lastmodified":1533603938,
    "wof:name":"Rock Creek",
    "wof:parent_id":101730761,
    "wof:placetype":"neighbourhood",
    "wof:population":292,
    "wof:population_rank":2,
    "wof:repo":"whosonfirst-data-admin-us",
    "wof:superseded_by":[],
    "wof:supersedes":[],
    "wof:tags":[],
    "zs:area_m":202347.537869,
    "zs:blockids":[
        530110408081013,
        530110408081011
    ],
    "zs:housing10":101,
    "zs:id":55997535,
    "zs:label":"Rock Creek",
    "zs:pop10":292
},
  "bbox": [
    -122.612588,
    45.691828,
    -122.612588,
    45.691828
],
  "geometry": {"coordinates":[-122.612588,45.691828],"type":"Point"}
}