{
  "id": 1293506609,
  "type": "Feature",
  "properties": {
    "edtf:cessation":"uuuu",
    "edtf:inception":"uuuu",
    "geom:area":0.0,
    "geom:area_square_m":0.0,
    "geom:bbox":"-77.54443,38.47318,-77.54443,38.47318",
    "geom:latitude":38.47318,
    "geom:longitude":-77.54443,
    "gn:admin1_code":"VA",
    "gn:admin2_code":"179",
    "gn:asciiname":"Concord",
    "gn:country_code":"US",
    "gn:dem":100,
    "gn:elevation":"100.0",
    "gn:feature_class":"P",
    "gn:feature_code":"PPL",
    "gn:geonameid":4753822,
    "gn:latitude":38.47318,
    "gn:longitude":-77.54443,
    "gn:modification_date":"2006-01-15",
    "gn:name":"Concord",
    "gn:population":0,
    "gn:timezone":"America/New_York",
    "iso:country":"US",
    "mz:hierarchy_label":1,
    "mz:is_current":-1,
    "src:geom":"geonames",
    "wof:belongsto":[
        102191575,
        85633793,
        85688747,
        102081931
    ],
    "wof:breaches":[],
    "wof:concordances":{
        "gn:id":4753822
    },
    "wof:country":"US",
    "wof:geomhash":"f133205c6f58ff155c1c514114d6269f",
    "wof:hierarchy":[
        {
            "continent_id":102191575,
            "country_id":85633793,
            "county_id":102081931,
            "locality_id":1293506609,
            "region_id":85688747
        }
    ],
    "wof:id":1293506609,
    "wof:lastmodified":1536759682,
    "wof:name":"Concord",
    "wof:parent_id":102081931,
    "wof:placetype":"locality",
    "wof:repo":"whosonfirst-data-admin-us",
    "wof:superseded_by":[],
    "wof:supersedes":[],
    "wof:tags":[]
},
  "bbox": [
    -77.54443,
    38.47318,
    -77.54443,
    38.47318
],
  "geometry": {"coordinates":[-77.54443000000001,38.47318],"type":"Point"}
}