{
  "id": 1125353813,
  "type": "Feature",
  "properties": {
    "edtf:cessation":"uuuu",
    "edtf:deprecated":"2017-11-04",
    "edtf:inception":"uuuu",
    "geom:area":0.0,
    "geom:area_square_m":0.0,
    "geom:bbox":"-94.4303,41.84631,-94.4303,41.84631",
    "geom:latitude":41.84631,
    "geom:longitude":-94.4303,
    "gn:gn_country":"US",
    "gn:gn_fcode":"ADMD",
    "gn:gn_pop":303,
    "gn:population":303,
    "iso:country":"US",
    "lbl:latitude":41.84631,
    "lbl:longitude":-94.4303,
    "mz:hierarchy_label":1,
    "mz:is_current":0,
    "mz:note":"Quattroshapes Point Gazetteer import 20170519",
    "qs_pg:aaroncc":"US",
    "qs_pg:gn_country":"US",
    "qs_pg:gn_fcode":"ADMD",
    "qs_pg:gn_id":7316803,
    "qs_pg:gn_pop":303,
    "qs_pg:name":"City of Bagley",
    "qs_pg:photos_9r":0,
    "qs_pg:photos_sr":0,
    "qs_pg:pop_sr":2,
    "qs_pg:qs_id":682815,
    "qs_pg:qs_pg_placetype":"localadmin",
    "src:geom":"qs_pg",
    "src:lbl:centroid":"qs_pg",
    "src:population":"geonames",
    "wof:belongsto":[
        85633793
    ],
    "wof:breaches":[],
    "wof:concordances":{
        "gn:id":7316803,
        "qs_pg:id":682815
    },
    "wof:country":"US",
    "wof:created":1497046343,
    "wof:geomhash":"ff8e307a396c7bbd5ec2bdb4ddb601c8",
    "wof:hierarchy":[
        {
            "country_id":85633793,
            "localadmin_id":1125353813
        }
    ],
    "wof:id":1125353813,
    "wof:lastmodified":1509752638,
    "wof:name":"City of Bagley",
    "wof:parent_id":-1,
    "wof:placetype":"localadmin",
    "wof:population":303,
    "wof:population_rank":2,
    "wof:repo":"whosonfirst-data-admin-us",
    "wof:superseded_by":[
        85942839
    ],
    "wof:supersedes":[],
    "wof:tags":[]
},
  "bbox": [
    -94.4303,
    41.84631,
    -94.4303,
    41.84631
],
  "geometry": {"coordinates":[-94.4303,41.84631],"type":"Point"}
}