{
  "id": 1343678087,
  "type": "Feature",
  "properties": {
    "edtf:cessation":"uuuu",
    "edtf:inception":"uuuu",
    "geom:area":0.0,
    "geom:area_square_m":0.0,
    "geom:bbox":"-114.57476,42.51269,-114.57476,42.51269",
    "geom:latitude":42.51269,
    "geom:longitude":-114.57476,
    "gn:admin1_code":"ID",
    "gn:admin2_code":"83.0",
    "gn:asciiname":"Godwin",
    "gn:country_code":"US",
    "gn:dem":1233,
    "gn:elevation":"1234.0",
    "gn:feature_class":"P",
    "gn:feature_code":"PPL",
    "gn:geonameid":5594179,
    "gn:latitude":42.51269,
    "gn:longitude":-114.57476,
    "gn:modification_date":"2006-01-15",
    "gn:name":"Godwin",
    "gn:population":0,
    "gn:timezone":"America/Boise",
    "iso:country":"US",
    "mz:hierarchy_label":1,
    "mz:is_current":-1,
    "src:geom":"geonames",
    "wof:belongsto":[
        102191575,
        85633793,
        85688657,
        102085153
    ],
    "wof:breaches":[],
    "wof:concordances":{
        "gn:id":5594179
    },
    "wof:country":"US",
    "wof:geomhash":"af07efa9ac9f67c1d15f9da0db6872fd",
    "wof:hierarchy":[
        {
            "continent_id":102191575,
            "country_id":85633793,
            "county_id":102085153,
            "locality_id":1343678087,
            "region_id":85688657
        }
    ],
    "wof:id":1343678087,
    "wof:lastmodified":1536930363,
    "wof:name":"Godwin",
    "wof:parent_id":102085153,
    "wof:placetype":"locality",
    "wof:repo":"whosonfirst-data-admin-us",
    "wof:superseded_by":[],
    "wof:supersedes":[],
    "wof:tags":[]
},
  "bbox": [
    -114.57476,
    42.51269,
    -114.57476,
    42.51269
],
  "geometry": {"coordinates":[-114.57476,42.51269],"type":"Point"}
}