{
  "id": 1226665905,
  "type": "Feature",
  "properties": {
    "edtf:cessation":"2018-09-07",
    "edtf:inception":"uuuu",
    "geom:area":0.0,
    "geom:area_square_m":0.0,
    "geom:bbox":"-90.69953,30.00354,-90.69953,30.00354",
    "geom:latitude":30.00354,
    "geom:longitude":-90.69953,
    "gn:admin1_code":"LA",
    "gn:admin2_code":"93.0",
    "gn:asciiname":"Cress (historical)",
    "gn:country_code":"US",
    "gn:dem":5,
    "gn:elevation":"4.0",
    "gn:feature_class":"P",
    "gn:feature_code":"PPLQ",
    "gn:geonameid":4321159,
    "gn:latitude":30.00354,
    "gn:longitude":-90.69953,
    "gn:modification_date":"2011-12-12",
    "gn:name":"Cress (historical)",
    "gn:population":0,
    "gn:timezone":"America/Chicago",
    "iso:country":"US",
    "mz:hierarchy_label":1,
    "mz:is_current":0,
    "src:geom":"geonames",
    "wof:belongsto":[
        102191575,
        85633793,
        85688735,
        102081921
    ],
    "wof:breaches":[],
    "wof:concordances":{
        "gn:id":4321159
    },
    "wof:country":"US",
    "wof:geomhash":"00033bd33471fd0f5a176a4d9a462813",
    "wof:hierarchy":[
        {
            "continent_id":102191575,
            "country_id":85633793,
            "county_id":102081921,
            "locality_id":1226665905,
            "region_id":85688735
        }
    ],
    "wof:id":1226665905,
    "wof:lastmodified":1536829514,
    "wof:name":"Cress (historical)",
    "wof:parent_id":102081921,
    "wof:placetype":"locality",
    "wof:repo":"whosonfirst-data-admin-us",
    "wof:superseded_by":[],
    "wof:supersedes":[],
    "wof:tags":[]
},
  "bbox": [
    -90.69953,
    30.00354,
    -90.69953,
    30.00354
],
  "geometry": {"coordinates":[-90.69953,30.00354],"type":"Point"}
}