{
  "id": 1125279163,
  "type": "Feature",
  "properties": {
    "edtf:cessation":"2017-05-19",
    "edtf:inception":"uuuu",
    "geom:area":0.0,
    "geom:area_square_m":0.0,
    "geom:bbox":"-77.41961,35.47072,-77.41961,35.47072",
    "geom:latitude":35.47072,
    "geom:longitude":-77.41961,
    "gn:gn_country":"US",
    "gn:gn_fcode":"ADMD",
    "gn:gn_pop":4932,
    "gn:population":4932,
    "iso:country":"US",
    "lbl:latitude":35.47072,
    "lbl:longitude":-77.41961,
    "mz:hierarchy_label":1,
    "mz:is_current":0,
    "mz:note":"Quattroshapes Point Gazetteer import 20170519",
    "qs_pg:aaroncc":"US",
    "qs_pg:gn_country":"US",
    "qs_pg:gn_fcode":"ADMD",
    "qs_pg:gn_id":7170565,
    "qs_pg:gn_pop":4932,
    "qs_pg:name":"Town of Ayden",
    "qs_pg:photos_9r":0,
    "qs_pg:photos_sr":0,
    "qs_pg:pop_sr":4,
    "qs_pg:qs_id":663228,
    "qs_pg:qs_pg_placetype":"localadmin",
    "src:geom":"qs_pg",
    "src:lbl:centroid":"qs_pg",
    "src:population":"geonames",
    "wof:belongsto":[
        85633793
    ],
    "wof:breaches":[],
    "wof:concordances":{
        "gn:id":7170565,
        "qs_pg:id":663228
    },
    "wof:country":"US",
    "wof:created":1497042435,
    "wof:geomhash":"5742ec0628b7d03d8b268ade93414b03",
    "wof:hierarchy":[
        {
            "country_id":85633793,
            "localadmin_id":1125279163
        }
    ],
    "wof:id":1125279163,
    "wof:lastmodified":1505187096,
    "wof:name":"Town of Ayden",
    "wof:parent_id":-1,
    "wof:placetype":"localadmin",
    "wof:population":4932,
    "wof:population_rank":4,
    "wof:repo":"whosonfirst-data-admin-us",
    "wof:superseded_by":[],
    "wof:supersedes":[],
    "wof:tags":[]
},
  "bbox": [
    -77.41961,
    35.47072,
    -77.41961,
    35.47072
],
  "geometry": {"coordinates":[-77.41961000000001,35.47072],"type":"Point"}
}