{
  "id": 1309734363,
  "type": "Feature",
  "properties": {
    "edtf:cessation":"uuuu",
    "edtf:inception":"uuuu",
    "geom:area":0.0,
    "geom:area_square_m":0.0,
    "geom:bbox":"-81.19844,39.88813,-81.19844,39.88813",
    "geom:latitude":39.88813,
    "geom:longitude":-81.19844,
    "gn:admin1_code":"OH",
    "gn:admin2_code":"13.0",
    "gn:admin3_code":"72970.0",
    "gn:asciiname":"Boston",
    "gn:country_code":"US",
    "gn:dem":389,
    "gn:elevation":"391.0",
    "gn:feature_class":"P",
    "gn:feature_code":"PPL",
    "gn:geonameid":4506902,
    "gn:latitude":39.88813,
    "gn:longitude":-81.19844,
    "gn:modification_date":"2017-05-23",
    "gn:name":"Boston",
    "gn:population":0,
    "gn:timezone":"America/New_York",
    "iso:country":"US",
    "mz:hierarchy_label":1,
    "mz:is_current":-1,
    "src:geom":"geonames",
    "wof:belongsto":[
        85688485,
        102191575,
        404524873,
        85633793,
        102083721
    ],
    "wof:breaches":[],
    "wof:concordances":{
        "gn:id":4506902
    },
    "wof:country":"US",
    "wof:geomhash":"8f08bbc3c8c7a85a2065090f099e9b7f",
    "wof:hierarchy":[
        {
            "continent_id":102191575,
            "country_id":85633793,
            "county_id":102083721,
            "localadmin_id":404524873,
            "locality_id":1309734363,
            "region_id":85688485
        }
    ],
    "wof:id":1309734363,
    "wof:lastmodified":1537032697,
    "wof:name":"Boston",
    "wof:parent_id":404524873,
    "wof:placetype":"locality",
    "wof:repo":"whosonfirst-data-admin-us",
    "wof:superseded_by":[],
    "wof:supersedes":[],
    "wof:tags":[]
},
  "bbox": [
    -81.19844,
    39.88813,
    -81.19844,
    39.88813
],
  "geometry": {"coordinates":[-81.19844000000001,39.88813],"type":"Point"}
}