{
  "id": 1125303007,
  "type": "Feature",
  "properties": {
    "edtf:cessation":"uuuu",
    "edtf:deprecated":"2017-11-04",
    "edtf:inception":"uuuu",
    "geom:area":0.0,
    "geom:area_square_m":0.0,
    "geom:bbox":"-96.83481,46.81719,-96.83481,46.81719",
    "geom:latitude":46.81719,
    "geom:longitude":-96.83481,
    "gn:gn_country":"US",
    "gn:gn_fcode":"ADMD",
    "gn:gn_pop":73,
    "gn:population":73,
    "iso:country":"US",
    "lbl:latitude":46.81719,
    "lbl:longitude":-96.83481,
    "mz:hierarchy_label":1,
    "mz:is_current":0,
    "mz:note":"Quattroshapes Point Gazetteer import 20170519",
    "qs_pg:aaroncc":"US",
    "qs_pg:gn_country":"US",
    "qs_pg:gn_fcode":"ADMD",
    "qs_pg:gn_id":5061031,
    "qs_pg:gn_pop":73,
    "qs_pg:name":"City of Prairie Rose",
    "qs_pg:photos_9r":0,
    "qs_pg:photos_sr":0,
    "qs_pg:pop_sr":1,
    "qs_pg:qs_id":603034,
    "qs_pg:qs_pg_placetype":"localadmin",
    "src:geom":"qs_pg",
    "src:lbl:centroid":"qs_pg",
    "src:population":"geonames",
    "wof:belongsto":[
        85633793
    ],
    "wof:breaches":[],
    "wof:concordances":{
        "gn:id":5061031,
        "qs_pg:id":603034
    },
    "wof:country":"US",
    "wof:created":1497043533,
    "wof:geomhash":"cc242f0209624117782fa1f82a348175",
    "wof:hierarchy":[
        {
            "country_id":85633793,
            "localadmin_id":1125303007
        }
    ],
    "wof:id":1125303007,
    "wof:lastmodified":1509752513,
    "wof:name":"City of Prairie Rose",
    "wof:parent_id":-1,
    "wof:placetype":"localadmin",
    "wof:population":73,
    "wof:population_rank":1,
    "wof:repo":"whosonfirst-data-admin-us",
    "wof:superseded_by":[
        85982177
    ],
    "wof:supersedes":[],
    "wof:tags":[]
},
  "bbox": [
    -96.83481,
    46.81719,
    -96.83481,
    46.81719
],
  "geometry": {"coordinates":[-96.83481,46.81719],"type":"Point"}
}