{
  "id": 1125407629,
  "type": "Feature",
  "properties": {
    "edtf:cessation":"2017-05-19",
    "edtf:inception":"uuuu",
    "geom:area":0.0,
    "geom:area_square_m":0.0,
    "geom:bbox":"-92.00713,41.90611,-92.00713,41.90611",
    "geom:latitude":41.90611,
    "geom:longitude":-92.00713,
    "gn:gn_country":"US",
    "gn:gn_fcode":"ADMD",
    "gn:gn_pop":0,
    "iso:country":"US",
    "lbl:latitude":41.90611,
    "lbl:longitude":-92.00713,
    "mz:hierarchy_label":1,
    "mz:is_current":0,
    "mz:note":"Quattroshapes Point Gazetteer import 20170519",
    "name:eng_x_preferred":[
        "Saint Clair Township"
    ],
    "qs_pg:aaroncc":"US",
    "qs_pg:gn_country":"US",
    "qs_pg:gn_fcode":"ADMD",
    "qs_pg:gn_id":4874169,
    "qs_pg:gn_pop":0,
    "qs_pg:name":"Township of Saint Clair",
    "qs_pg:photos_9r":0,
    "qs_pg:photos_sr":0,
    "qs_pg:pop_sr":0,
    "qs_pg:qs_id":1152591,
    "qs_pg:qs_pg_placetype":"localadmin",
    "src:geom":"qs_pg",
    "src:lbl:centroid":"qs_pg",
    "wof:belongsto":[
        85633793
    ],
    "wof:breaches":[],
    "wof:concordances":{
        "gn:id":4874169,
        "qs_pg:id":1152591
    },
    "wof:country":"US",
    "wof:created":1497049746,
    "wof:geomhash":"a9f31d6592ff23dca0f276ac9a849145",
    "wof:hierarchy":[
        {
            "country_id":85633793,
            "localadmin_id":1125407629
        }
    ],
    "wof:id":1125407629,
    "wof:lastmodified":1505248214,
    "wof:name":"Township of Saint Clair",
    "wof:parent_id":-1,
    "wof:placetype":"localadmin",
    "wof:repo":"whosonfirst-data-admin-us",
    "wof:superseded_by":[],
    "wof:supersedes":[],
    "wof:tags":[]
},
  "bbox": [
    -92.00713,
    41.90611,
    -92.00713,
    41.90611
],
  "geometry": {"coordinates":[-92.00713,41.90611],"type":"Point"}
}