{
  "id": 1326450053,
  "type": "Feature",
  "properties": {
    "edtf:cessation":"uuuu",
    "edtf:inception":"uuuu",
    "geom:area":0.0,
    "geom:area_square_m":0.0,
    "geom:bbox":"-83.03043,34.6951,-83.03043,34.6951",
    "geom:latitude":34.6951,
    "geom:longitude":-83.03043,
    "gn:admin1_code":"SC",
    "gn:admin2_code":"73.0",
    "gn:asciiname":"Ridgeland Estates",
    "gn:country_code":"US",
    "gn:dem":258,
    "gn:elevation":"259.0",
    "gn:feature_class":"P",
    "gn:feature_code":"PPL",
    "gn:geonameid":4592914,
    "gn:latitude":34.6951,
    "gn:longitude":-83.03043,
    "gn:modification_date":"2010-02-17",
    "gn:name":"Ridgeland Estates",
    "gn:population":0,
    "gn:timezone":"America/New_York",
    "iso:country":"US",
    "mz:hierarchy_label":1,
    "mz:is_current":-1,
    "src:geom":"geonames",
    "wof:belongsto":[
        102191575,
        85633793,
        85688683,
        102085427
    ],
    "wof:breaches":[],
    "wof:concordances":{
        "gn:id":4592914
    },
    "wof:country":"US",
    "wof:geomhash":"cad9bd5172e81eb7dbe301c19ae24005",
    "wof:hierarchy":[
        {
            "continent_id":102191575,
            "country_id":85633793,
            "county_id":102085427,
            "locality_id":1326450053,
            "region_id":85688683
        }
    ],
    "wof:id":1326450053,
    "wof:lastmodified":1536602397,
    "wof:name":"Ridgeland Estates",
    "wof:parent_id":102085427,
    "wof:placetype":"locality",
    "wof:repo":"whosonfirst-data-admin-us",
    "wof:superseded_by":[],
    "wof:supersedes":[],
    "wof:tags":[]
},
  "bbox": [
    -83.03043000000002,
    34.6951,
    -83.03043000000002,
    34.6951
],
  "geometry": {"coordinates":[-83.03043000000002,34.6951],"type":"Point"}
}