{
  "id": 1276783311,
  "type": "Feature",
  "properties": {
    "edtf:cessation":"uuuu",
    "edtf:inception":"uuuu",
    "geom:area":0.0,
    "geom:area_square_m":0.0,
    "geom:bbox":"-80.41117,36.02903,-80.41117,36.02903",
    "geom:latitude":36.02903,
    "geom:longitude":-80.41117,
    "gn:admin1_code":"NC",
    "gn:admin2_code":"67",
    "gn:admin3_code":"90684.0",
    "gn:asciiname":"Waterford",
    "gn:country_code":"US",
    "gn:dem":215,
    "gn:elevation":"213.0",
    "gn:feature_class":"P",
    "gn:feature_code":"PPL",
    "gn:geonameid":4049954,
    "gn:latitude":36.02903,
    "gn:longitude":-80.41117,
    "gn:modification_date":"2017-05-23",
    "gn:name":"Waterford",
    "gn:population":0,
    "gn:timezone":"America/New_York",
    "iso:country":"US",
    "mz:hierarchy_label":1,
    "mz:is_current":-1,
    "src:geom":"geonames",
    "wof:belongsto":[
        102191575,
        85633793,
        85688773,
        102080957
    ],
    "wof:breaches":[],
    "wof:concordances":{
        "gn:id":4049954
    },
    "wof:country":"US",
    "wof:geomhash":"f3f1a7c940299400659dc3d484c9a473",
    "wof:hierarchy":[
        {
            "continent_id":102191575,
            "country_id":85633793,
            "county_id":102080957,
            "locality_id":1276783311,
            "region_id":85688773
        }
    ],
    "wof:id":1276783311,
    "wof:lastmodified":1536672979,
    "wof:name":"Waterford",
    "wof:parent_id":102080957,
    "wof:placetype":"locality",
    "wof:repo":"whosonfirst-data-admin-us",
    "wof:superseded_by":[],
    "wof:supersedes":[],
    "wof:tags":[]
},
  "bbox": [
    -80.41117,
    36.02903,
    -80.41117,
    36.02903
],
  "geometry": {"coordinates":[-80.41117,36.02903],"type":"Point"}
}