{
  "id": 1125354511,
  "type": "Feature",
  "properties": {
    "edtf:cessation":"uuuu",
    "edtf:deprecated":"2017-11-04",
    "edtf:inception":"uuuu",
    "geom:area":0.0,
    "geom:area_square_m":0.0,
    "geom:bbox":"-89.05281,37.90047,-89.05281,37.90047",
    "geom:latitude":37.90047,
    "geom:longitude":-89.05281,
    "gn:gn_country":"US",
    "gn:gn_fcode":"ADMD",
    "gn:gn_pop":1801,
    "gn:population":1801,
    "iso:country":"US",
    "lbl:latitude":37.90047,
    "lbl:longitude":-89.05281,
    "mz:hierarchy_label":1,
    "mz:is_current":0,
    "mz:note":"Quattroshapes Point Gazetteer import 20170519",
    "qs_pg:aaroncc":"US",
    "qs_pg:gn_country":"US",
    "qs_pg:gn_fcode":"ADMD",
    "qs_pg:gn_id":7317458,
    "qs_pg:gn_pop":1801,
    "qs_pg:name":"City of Zeigler",
    "qs_pg:photos_9r":0,
    "qs_pg:photos_sr":0,
    "qs_pg:pop_sr":3,
    "qs_pg:qs_id":683473,
    "qs_pg:qs_pg_placetype":"localadmin",
    "src:geom":"qs_pg",
    "src:lbl:centroid":"qs_pg",
    "src:population":"geonames",
    "wof:belongsto":[
        85633793
    ],
    "wof:breaches":[],
    "wof:concordances":{
        "gn:id":7317458,
        "qs_pg:id":683473
    },
    "wof:country":"US",
    "wof:created":1497046382,
    "wof:geomhash":"184f9d8147c448053723d1ffd12be78a",
    "wof:hierarchy":[
        {
            "country_id":85633793,
            "localadmin_id":1125354511
        }
    ],
    "wof:id":1125354511,
    "wof:lastmodified":1509752643,
    "wof:name":"City of Zeigler",
    "wof:parent_id":-1,
    "wof:placetype":"localadmin",
    "wof:population":1801,
    "wof:population_rank":3,
    "wof:repo":"whosonfirst-data-admin-us",
    "wof:superseded_by":[
        85941055
    ],
    "wof:supersedes":[],
    "wof:tags":[]
},
  "bbox": [
    -89.05281,
    37.90047,
    -89.05281,
    37.90047
],
  "geometry": {"coordinates":[-89.05280999999999,37.90047],"type":"Point"}
}