{
  "id": 1125297767,
  "type": "Feature",
  "properties": {
    "edtf:cessation":"2017-05-19",
    "edtf:inception":"uuuu",
    "geom:area":0.0,
    "geom:area_square_m":0.0,
    "geom:bbox":"-96.38252,32.00079,-96.38252,32.00079",
    "geom:latitude":32.00079,
    "geom:longitude":-96.38252,
    "gn:gn_country":"US",
    "gn:gn_fcode":"ADMD",
    "gn:gn_pop":210,
    "gn:population":210,
    "iso:country":"US",
    "lbl:latitude":32.00079,
    "lbl:longitude":-96.38252,
    "mz:hierarchy_label":1,
    "mz:is_current":0,
    "mz:note":"Quattroshapes Point Gazetteer import 20170519",
    "qs_pg:aaroncc":"US",
    "qs_pg:gn_country":"US",
    "qs_pg:gn_fcode":"ADMD",
    "qs_pg:gn_id":7175444,
    "qs_pg:gn_pop":210,
    "qs_pg:name":"Town of Navarro",
    "qs_pg:photos_9r":0,
    "qs_pg:photos_sr":0,
    "qs_pg:pop_sr":2,
    "qs_pg:qs_id":667972,
    "qs_pg:qs_pg_placetype":"localadmin",
    "src:geom":"qs_pg",
    "src:lbl:centroid":"qs_pg",
    "src:population":"geonames",
    "wof:belongsto":[
        85633793
    ],
    "wof:breaches":[],
    "wof:concordances":{
        "gn:id":7175444,
        "qs_pg:id":667972
    },
    "wof:country":"US",
    "wof:created":1497043246,
    "wof:geomhash":"a7cf6505dab65077a0c8edeec5d57da5",
    "wof:hierarchy":[
        {
            "country_id":85633793,
            "localadmin_id":1125297767
        }
    ],
    "wof:id":1125297767,
    "wof:lastmodified":1505187152,
    "wof:name":"Town of Navarro",
    "wof:parent_id":-1,
    "wof:placetype":"localadmin",
    "wof:population":210,
    "wof:population_rank":2,
    "wof:repo":"whosonfirst-data-admin-us",
    "wof:superseded_by":[],
    "wof:supersedes":[],
    "wof:tags":[]
},
  "bbox": [
    -96.38252,
    32.00079,
    -96.38252,
    32.00079
],
  "geometry": {"coordinates":[-96.38252,32.00079],"type":"Point"}
}