{
  "id": 1125403379,
  "type": "Feature",
  "properties": {
    "edtf:cessation":"2017-05-19",
    "edtf:inception":"uuuu",
    "geom:area":0.0,
    "geom:area_square_m":0.0,
    "geom:bbox":"-81.07269,40.01638,-81.07269,40.01638",
    "geom:latitude":40.01638,
    "geom:longitude":-81.07269,
    "gn:gn_country":"US",
    "gn:gn_fcode":"ADMD",
    "gn:gn_pop":1256,
    "gn:population":1256,
    "iso:country":"US",
    "lbl:latitude":40.01638,
    "lbl:longitude":-81.07269,
    "mz:hierarchy_label":1,
    "mz:is_current":0,
    "mz:note":"Quattroshapes Point Gazetteer import 20170519",
    "qs_pg:aaroncc":"US",
    "qs_pg:gn_country":"US",
    "qs_pg:gn_fcode":"ADMD",
    "qs_pg:gn_id":7165850,
    "qs_pg:gn_pop":1256,
    "qs_pg:name":"Village of Bethesda",
    "qs_pg:photos_9r":0,
    "qs_pg:photos_sr":0,
    "qs_pg:pop_sr":3,
    "qs_pg:qs_id":660714,
    "qs_pg:qs_pg_placetype":"localadmin",
    "src:geom":"qs_pg",
    "src:lbl:centroid":"qs_pg",
    "src:population":"geonames",
    "wof:belongsto":[
        85633793
    ],
    "wof:breaches":[],
    "wof:concordances":{
        "gn:id":7165850,
        "qs_pg:id":660714
    },
    "wof:country":"US",
    "wof:created":1497049468,
    "wof:geomhash":"557b1bf6efcb5e6d2038a982efe0ee32",
    "wof:hierarchy":[
        {
            "country_id":85633793,
            "localadmin_id":1125403379
        }
    ],
    "wof:id":1125403379,
    "wof:lastmodified":1505187059,
    "wof:name":"Village of Bethesda",
    "wof:parent_id":-1,
    "wof:placetype":"localadmin",
    "wof:population":1256,
    "wof:population_rank":3,
    "wof:repo":"whosonfirst-data-admin-us",
    "wof:superseded_by":[],
    "wof:supersedes":[],
    "wof:tags":[]
},
  "bbox": [
    -81.07269,
    40.01638,
    -81.07269,
    40.01638
],
  "geometry": {"coordinates":[-81.07268999999999,40.01638],"type":"Point"}
}