{
  "id": 420547445,
  "type": "Feature",
  "properties": {
    "edtf:cessation":"uuuu",
    "edtf:inception":"uuuu",
    "geom:area":0.0,
    "geom:area_square_m":404226.221451,
    "geom:bbox":"-94.183531,36.037513,-94.183531,36.037513",
    "geom:latitude":36.037513,
    "geom:longitude":-94.183531,
    "iso:country":"US",
    "lbl:latitude":36.037513,
    "lbl:longitude":-94.183531,
    "mz:hierarchy_label":0,
    "mz:is_current":-1,
    "name:eng_x_preferred":[
        "Broad Acres"
    ],
    "src:geom":"mz",
    "src:geom_alt":[
        "zetashapes"
    ],
    "src:lbl":"mapshaper",
    "src:lbl:centroid":"mapshaper",
    "src:population":"zetashapes",
    "wof:belongsto":[
        102191575,
        85633793,
        85919609,
        102082007,
        85688549
    ],
    "wof:breaches":[],
    "wof:concordances":{
        "gp:id":55968285
    },
    "wof:country":"US",
    "wof:geomhash":"1cd6125994768f0107d2166632aa95be",
    "wof:hierarchy":[
        {
            "continent_id":102191575,
            "country_id":85633793,
            "county_id":102082007,
            "locality_id":85919609,
            "neighbourhood_id":420547445,
            "region_id":85688549
        }
    ],
    "wof:id":420547445,
    "wof:lastmodified":1533602923,
    "wof:name":"Broad Acres",
    "wof:parent_id":85919609,
    "wof:placetype":"neighbourhood",
    "wof:population":6,
    "wof:population_rank":1,
    "wof:repo":"whosonfirst-data-admin-us",
    "wof:superseded_by":[],
    "wof:supersedes":[],
    "wof:tags":[],
    "zs:area_m":404196.538714,
    "zs:blockids":[
        51430110011098,
        51430110011096,
        51430111012052,
        51430111012051,
        51430110011104,
        51430111012048,
        51430110011101,
        51430110011097,
        51430110011099,
        51430110011095,
        51430111012016
    ],
    "zs:housing10":3,
    "zs:id":55968285,
    "zs:label":"Broad Acres",
    "zs:pop10":6
},
  "bbox": [
    -94.183531,
    36.037513,
    -94.183531,
    36.037513
],
  "geometry": {"coordinates":[-94.183531,36.037513],"type":"Point"}
}