{
  "id": 420519925,
  "type": "Feature",
  "properties": {
    "edtf:cessation":"uuuu",
    "edtf:inception":"uuuu",
    "geom:area":0.0,
    "geom:area_square_m":259698.774627,
    "geom:bbox":"-87.530803,37.978482,-87.530803,37.978482",
    "geom:latitude":37.978482,
    "geom:longitude":-87.530803,
    "iso:country":"US",
    "lbl:latitude":37.978482,
    "lbl:longitude":-87.530803,
    "mz:hierarchy_label":0,
    "mz:is_current":-1,
    "name:eng_x_preferred":[
        "Weinbach"
    ],
    "src:geom":"mz",
    "src:geom_alt":[
        "zetashapes"
    ],
    "src:lbl":"mapshaper",
    "src:lbl:centroid":"mapshaper",
    "src:population":"zetashapes",
    "wof:belongsto":[
        85688709,
        102191575,
        404502161,
        85633793,
        85942147,
        102087105
    ],
    "wof:breaches":[],
    "wof:concordances":{
        "gp:id":55858913
    },
    "wof:country":"US",
    "wof:geomhash":"f607a392032d968a9c5c4061358e7031",
    "wof:hierarchy":[
        {
            "continent_id":102191575,
            "country_id":85633793,
            "county_id":102087105,
            "localadmin_id":404502161,
            "locality_id":85942147,
            "neighbourhood_id":420519925,
            "region_id":85688709
        }
    ],
    "wof:id":420519925,
    "wof:lastmodified":1533594196,
    "wof:name":"Weinbach",
    "wof:parent_id":85942147,
    "wof:placetype":"neighbourhood",
    "wof:population":481,
    "wof:population_rank":2,
    "wof:repo":"whosonfirst-data-admin-us",
    "wof:superseded_by":[],
    "wof:supersedes":[],
    "wof:tags":[],
    "zs:area_m":259680.931764,
    "zs:blockids":[
        181630003002011,
        181630003003001,
        181630003004009,
        181630003002015,
        181630003004010,
        181630003002012,
        181630003003011,
        181630003002004,
        181630003003000,
        181630003002003,
        181630003002014,
        181630003002002,
        181630003002016,
        181630003002001
    ],
    "zs:housing10":237,
    "zs:id":55858913,
    "zs:label":"Weinbach",
    "zs:pop10":481
},
  "bbox": [
    -87.530803,
    37.978482,
    -87.530803,
    37.978482
],
  "geometry": {"coordinates":[-87.53080300000001,37.978482],"type":"Point"}
}