{
  "id": 404495135,
  "type": "Feature",
  "properties": {
    "edtf:cessation":"uuuu",
    "edtf:inception":"uuuu",
    "geom:area":0.010305,
    "geom:area_square_m":93602654.813271,
    "geom:bbox":"-89.838574,42.682614,-89.719287,42.770491",
    "geom:latitude":42.726684,
    "geom:longitude":-89.778858,
    "iso:country":"US",
    "lbl:latitude":42.726863,
    "lbl:longitude":-89.778857,
    "mz:hierarchy_label":1,
    "mz:is_current":-1,
    "name:eng_x_preferred":[
        "Adams"
    ],
    "qs:a0":"United States",
    "qs:a1":"Wisconsin",
    "qs:a1_lc":"55",
    "qs:a2":"Green",
    "qs:a2_lc":"55045",
    "qs:adm0":"United States",
    "qs:adm0_a3":"USA",
    "qs:la":"Adams",
    "qs:la_lc":"5504500325",
    "qs:level":"localadmin",
    "qs:pop":530,
    "qs:source":"US Census",
    "qs:type":"town",
    "src:geom":"quattroshapes",
    "src:population":"quattroshapes",
    "wof:belongsto":[
        102191575,
        85633793,
        85688517,
        102081827
    ],
    "wof:breaches":[],
    "wof:concordances":{},
    "wof:country":"US",
    "wof:geomhash":"054b9d75fe2e79dfe1b058e6f30b2701",
    "wof:hierarchy":[
        {
            "continent_id":102191575,
            "country_id":85633793,
            "county_id":102081827,
            "localadmin_id":404495135,
            "region_id":85688517
        }
    ],
    "wof:id":404495135,
    "wof:lastmodified":1505339585,
    "wof:name":"Adams",
    "wof:parent_id":102081827,
    "wof:placetype":"localadmin",
    "wof:population":530,
    "wof:population_rank":2,
    "wof:repo":"whosonfirst-data-admin-us",
    "wof:superseded_by":[],
    "wof:supersedes":[],
    "wof:tags":[]
},
  "bbox": [
    -89.838574,
    42.682614,
    -89.719287,
    42.770491
],
  "geometry": {"coordinates":[[[-89.837408,42.692018],[-89.83776400000001,42.714106],[-89.83800100000001,42.733381],[-89.838095,42.755676],[-89.83809599999999,42.755947],[-89.83812399999999,42.763042],[-89.838353,42.766331],[-89.83857399999999,42.770491],[-89.78099400000001,42.770458],[-89.774215,42.770481],[-89.770533,42.770352],[-89.77012000000001,42.770317],[-89.766043,42.770352],[-89.755483,42.770391],[-89.745377,42.770328],[-89.72105000000001,42.770129],[-89.720658,42.761339],[-89.720569,42.75933],[-89.72057599999999,42.75621],[-89.719874,42.741385],[-89.719886,42.733956],[-89.71975399999999,42.730472],[-89.71970399999999,42.726856],[-89.719534,42.706933],[-89.71928699999999,42.682821],[-89.719318,42.68282],[-89.719444,42.68282],[-89.73071899999999,42.682707],[-89.748582,42.682614],[-89.750122,42.68322],[-89.774113,42.683257],[-89.779113,42.683261],[-89.803543,42.683082],[-89.807507,42.682922],[-89.82556200000001,42.683226],[-89.8291,42.683053],[-89.837226,42.683176],[-89.837408,42.692018]]],"type":"Polygon"}
}