{
  "id": 1343474915,
  "type": "Feature",
  "properties": {
    "edtf:cessation":"uuuu",
    "edtf:inception":"uuuu",
    "geom:area":0.0,
    "geom:area_square_m":0.0,
    "geom:bbox":"-94.9516,33.34845,-94.9516,33.34845",
    "geom:latitude":33.34845,
    "geom:longitude":-94.9516,
    "gn:admin1_code":"TX",
    "gn:admin2_code":"449.0",
    "gn:asciiname":"Wilkinson",
    "gn:country_code":"US",
    "gn:dem":105,
    "gn:elevation":"99.0",
    "gn:feature_class":"P",
    "gn:feature_code":"PPL",
    "gn:geonameid":4741921,
    "gn:latitude":33.34845,
    "gn:longitude":-94.9516,
    "gn:modification_date":"2006-01-15",
    "gn:name":"Wilkinson",
    "gn:population":0,
    "gn:timezone":"America/Chicago",
    "iso:country":"US",
    "mz:hierarchy_label":1,
    "mz:is_current":-1,
    "src:geom":"geonames",
    "wof:belongsto":[
        102191575,
        85633793,
        85688753,
        102083857
    ],
    "wof:breaches":[],
    "wof:concordances":{
        "gn:id":4741921
    },
    "wof:country":"US",
    "wof:geomhash":"1c52560419f7ff8a5cf6571ad1c6bbb5",
    "wof:hierarchy":[
        {
            "continent_id":102191575,
            "country_id":85633793,
            "county_id":102083857,
            "locality_id":1343474915,
            "region_id":85688753
        }
    ],
    "wof:id":1343474915,
    "wof:lastmodified":1536725625,
    "wof:name":"Wilkinson",
    "wof:parent_id":102083857,
    "wof:placetype":"locality",
    "wof:repo":"whosonfirst-data-admin-us",
    "wof:superseded_by":[],
    "wof:supersedes":[],
    "wof:tags":[]
},
  "bbox": [
    -94.9516,
    33.34845,
    -94.9516,
    33.34845
],
  "geometry": {"coordinates":[-94.9516,33.34845],"type":"Point"}
}