{
  "id": 1125803609,
  "type": "Feature",
  "properties": {
    "edtf:cessation":"uuuu",
    "edtf:inception":"uuuu",
    "geom:area":0.0,
    "geom:area_square_m":0.0,
    "geom:bbox":"-83.88603,37.6037,-83.88603,37.6037",
    "geom:latitude":37.6037,
    "geom:longitude":-83.88603,
    "gn:gn_country":"US",
    "gn:gn_fcode":"PPL",
    "gn:gn_pop":0,
    "iso:country":"US",
    "lbl:latitude":37.6037,
    "lbl:longitude":-83.88603,
    "mz:hierarchy_label":1,
    "mz:is_current":-1,
    "mz:note":"Quattroshapes Point Gazetteer import 20170519",
    "qs_pg:aaroncc":"US",
    "qs_pg:gn_country":"US",
    "qs_pg:gn_fcode":"PPL",
    "qs_pg:gn_id":4297868,
    "qs_pg:gn_pop":0,
    "qs_pg:name":"Leighton",
    "qs_pg:name_adm0":"United States",
    "qs_pg:name_adm1":"Kentucky",
    "qs_pg:photos_9r":0,
    "qs_pg:photos_sr":0,
    "qs_pg:pop_sr":0,
    "qs_pg:qs_id":198696,
    "qs_pg:qs_pg_placetype":"locality",
    "qs_pg:qs_pg_placetype_gp":"Town",
    "qs_pg:woe_adm0":23424977,
    "qs_pg:woe_id":2438084,
    "src:geom":"qs_pg",
    "src:lbl:centroid":"qs_pg",
    "woe:adm0_id":23424977,
    "woe:name_adm0":"United States",
    "woe:name_adm1":"Kentucky",
    "woe:placetype":"Town",
    "wof:belongsto":[
        102191575,
        85633793,
        85688641,
        102084677
    ],
    "wof:breaches":[],
    "wof:concordances":{
        "gn:id":4297868,
        "gp:id":2438084,
        "qs_pg:id":198696
    },
    "wof:country":"US",
    "wof:created":1497291374,
    "wof:geomhash":"f23649015d9d5c01e777a817528e138f",
    "wof:hierarchy":[
        {
            "continent_id":102191575,
            "country_id":85633793,
            "county_id":102084677,
            "locality_id":1125803609,
            "region_id":85688641
        }
    ],
    "wof:id":1125803609,
    "wof:lastmodified":1509393155,
    "wof:name":"Leighton",
    "wof:parent_id":102084677,
    "wof:placetype":"locality",
    "wof:repo":"whosonfirst-data-admin-us",
    "wof:superseded_by":[],
    "wof:supersedes":[],
    "wof:tags":[]
},
  "bbox": [
    -83.88603,
    37.6037,
    -83.88603,
    37.6037
],
  "geometry": {"coordinates":[-83.88603000000001,37.6037],"type":"Point"}
}