{
  "id": 1193163161,
  "type": "Feature",
  "properties": {
    "edtf:cessation":"uuuu",
    "edtf:inception":"uuuu",
    "geom:area":0.0,
    "geom:area_square_m":0.0,
    "geom:bbox":"-89.0784,36.08118,-89.0784,36.08118",
    "geom:latitude":36.08118,
    "geom:longitude":-89.0784,
    "gn:admin1_code":"TN",
    "gn:admin2_code":"53",
    "gn:asciiname":"Hopewell",
    "gn:country_code":"US",
    "gn:dem":106,
    "gn:elevation":"103.0",
    "gn:feature_class":"P",
    "gn:feature_code":"PPL",
    "gn:geonameid":4630569,
    "gn:latitude":36.08118,
    "gn:longitude":-89.0784,
    "gn:modification_date":"2006-01-15",
    "gn:name":"Hopewell",
    "gn:population":0,
    "gn:timezone":"America/Chicago",
    "iso:country":"US",
    "mz:hierarchy_label":1,
    "mz:is_current":-1,
    "name:eng_x_preferred":[
        "Hopewell"
    ],
    "name:und_x_variant":[
        "Gregory"
    ],
    "src:geom":"geonames",
    "wof:belongsto":[
        102191575,
        85633793,
        85688701,
        102086403
    ],
    "wof:breaches":[],
    "wof:concordances":{
        "gn:id":4630569
    },
    "wof:country":"US",
    "wof:geomhash":"b163b6e77d4d059d57297588ea6101ea",
    "wof:hierarchy":[
        {
            "continent_id":102191575,
            "country_id":85633793,
            "county_id":102086403,
            "locality_id":1193163161,
            "region_id":85688701
        }
    ],
    "wof:id":1193163161,
    "wof:lastmodified":1537712626,
    "wof:name":"Hopewell",
    "wof:parent_id":102086403,
    "wof:placetype":"locality",
    "wof:repo":"whosonfirst-data-admin-us",
    "wof:superseded_by":[],
    "wof:supersedes":[],
    "wof:tags":[]
},
  "bbox": [
    -89.0784,
    36.08118,
    -89.0784,
    36.08118
],
  "geometry": {"coordinates":[-89.0784,36.08118],"type":"Point"}
}