{
  "id": 1125392395,
  "type": "Feature",
  "properties": {
    "edtf:cessation":"2017-05-19",
    "edtf:inception":"uuuu",
    "geom:area":0.0,
    "geom:area_square_m":0.0,
    "geom:bbox":"-77.80824,38.53465,-77.80824,38.53465",
    "geom:latitude":38.53465,
    "geom:longitude":-77.80824,
    "gn:gn_country":"US",
    "gn:gn_fcode":"ADMD",
    "gn:gn_pop":598,
    "gn:population":598,
    "iso:country":"US",
    "lbl:latitude":38.53465,
    "lbl:longitude":-77.80824,
    "mz:hierarchy_label":1,
    "mz:is_current":0,
    "mz:note":"Quattroshapes Point Gazetteer import 20170519",
    "qs_pg:aaroncc":"US",
    "qs_pg:gn_country":"US",
    "qs_pg:gn_fcode":"ADMD",
    "qs_pg:gn_id":7162104,
    "qs_pg:gn_pop":598,
    "qs_pg:name":"Town of Remington",
    "qs_pg:photos_9r":0,
    "qs_pg:photos_sr":0,
    "qs_pg:pop_sr":2,
    "qs_pg:qs_id":657630,
    "qs_pg:qs_pg_placetype":"localadmin",
    "src:geom":"qs_pg",
    "src:lbl:centroid":"qs_pg",
    "src:population":"geonames",
    "wof:belongsto":[
        85633793
    ],
    "wof:breaches":[],
    "wof:concordances":{
        "gn:id":7162104,
        "qs_pg:id":657630
    },
    "wof:country":"US",
    "wof:created":1497048785,
    "wof:geomhash":"502338c60215016b6086bb2f3e713e83",
    "wof:hierarchy":[
        {
            "country_id":85633793,
            "localadmin_id":1125392395
        }
    ],
    "wof:id":1125392395,
    "wof:lastmodified":1505187023,
    "wof:name":"Town of Remington",
    "wof:parent_id":-1,
    "wof:placetype":"localadmin",
    "wof:population":598,
    "wof:population_rank":2,
    "wof:repo":"whosonfirst-data-admin-us",
    "wof:superseded_by":[],
    "wof:supersedes":[],
    "wof:tags":[]
},
  "bbox": [
    -77.80824,
    38.53465,
    -77.80824,
    38.53465
],
  "geometry": {"coordinates":[-77.80824,38.53465],"type":"Point"}
}