{
  "id": 1209526383,
  "type": "Feature",
  "properties": {
    "edtf:cessation":"uuuu",
    "edtf:deprecated":"2019-02-08",
    "edtf:inception":"uuuu",
    "geom:area":0.0,
    "geom:area_square_m":0.0,
    "geom:bbox":"-90.92963,30.5067,-90.92963,30.5067",
    "geom:latitude":30.5067,
    "geom:longitude":-90.92963,
    "gn:admin1_code":"LA",
    "gn:admin2_code":"63.0",
    "gn:asciiname":"Greys Mobile Home Park",
    "gn:country_code":"US",
    "gn:dem":20,
    "gn:elevation":"15.0",
    "gn:feature_class":"P",
    "gn:feature_code":"PPL",
    "gn:geonameid":7707963,
    "gn:latitude":30.5067,
    "gn:longitude":-90.92963,
    "gn:modification_date":"2011-03-12",
    "gn:name":"Greys Mobile Home Park",
    "gn:population":0,
    "gn:timezone":"America/Chicago",
    "iso:country":"US",
    "mz:hierarchy_label":1,
    "mz:is_current":0,
    "src:geom":"geonames",
    "wof:belongsto":[
        85633793
    ],
    "wof:breaches":[],
    "wof:concordances":{
        "gn:id":7707963
    },
    "wof:country":"US",
    "wof:geomhash":"b6efc1462da34aaa7ef6db26e3bd992c",
    "wof:hierarchy":[
        {
            "country_id":85633793,
            "locality_id":1209526383
        }
    ],
    "wof:id":1209526383,
    "wof:lastmodified":1549653923,
    "wof:name":"Greys Mobile Home Park",
    "wof:parent_id":85633793,
    "wof:placetype":"locality",
    "wof:repo":"whosonfirst-data-admin-us",
    "wof:superseded_by":[
        1376899953
    ],
    "wof:supersedes":[],
    "wof:tags":[]
},
  "bbox": [
    -90.92963,
    30.5067,
    -90.92963,
    30.5067
],
  "geometry": {"coordinates":[-90.92963,30.5067],"type":"Point"}
}