{
  "id": 1126063933,
  "type": "Feature",
  "properties": {
    "edtf:cessation":"uuuu",
    "edtf:deprecated":"2018-08-15",
    "edtf:inception":"uuuu",
    "edtf:superseded":"2018-08-15",
    "geom:area":0.0,
    "geom:area_square_m":0.0,
    "geom:bbox":"-83.11519,40.31062,-83.11519,40.31062",
    "geom:latitude":40.31062,
    "geom:longitude":-83.11519,
    "gn:gn_country":"US",
    "gn:gn_fcode":"PPLX",
    "gn:gn_pop":0,
    "iso:country":"US",
    "lbl:latitude":40.31062,
    "lbl:longitude":-83.11519,
    "mz:hierarchy_label":1,
    "mz:is_current":0,
    "mz:note":"Quattroshapes Point Gazetteer import 20170519",
    "qs_pg:aaroncc":"US",
    "qs_pg:gn_country":"US",
    "qs_pg:gn_fcode":"PPLX",
    "qs_pg:gn_id":5174371,
    "qs_pg:gn_pop":0,
    "qs_pg:name":"Troy Farms",
    "qs_pg:name_adm0":"United States",
    "qs_pg:name_adm1":"Ohio",
    "qs_pg:photos":145,
    "qs_pg:photos_1k":29,
    "qs_pg:photos_9k":1,
    "qs_pg:photos_9r":3,
    "qs_pg:photos_all":145,
    "qs_pg:photos_sr":3,
    "qs_pg:pop_sr":0,
    "qs_pg:qs_id":1162702,
    "qs_pg:qs_pg_placetype":"neighbourhood",
    "qs_pg:qs_pg_placetype_gp":"Suburb",
    "qs_pg:woe_adm0":23424977,
    "qs_pg:woe_id":2508225,
    "src:geom":"qs_pg",
    "src:lbl:centroid":"qs_pg",
    "woe:adm0_id":23424977,
    "woe:name_adm0":"United States",
    "woe:name_adm1":"Ohio",
    "woe:placetype":"Suburb",
    "wof:belongsto":[
        102191575,
        404524517,
        85633793,
        102084739,
        85688485
    ],
    "wof:breaches":[],
    "wof:concordances":{
        "gn:id":5174371,
        "gp:id":2508225,
        "qs_pg:id":1162702
    },
    "wof:country":"US",
    "wof:created":1497308551,
    "wof:geomhash":"14f5c0a58d8dc99765655dc890bab5b9",
    "wof:hierarchy":[
        {
            "continent_id":102191575,
            "country_id":85633793,
            "county_id":102084739,
            "localadmin_id":404524517,
            "locality_id":-1,
            "neighbourhood_id":1126063933,
            "region_id":85688485
        }
    ],
    "wof:id":1126063933,
    "wof:lastmodified":1534379477,
    "wof:name":"Troy Farms",
    "wof:parent_id":-1,
    "wof:placetype":"neighbourhood",
    "wof:repo":"whosonfirst-data-admin-us",
    "wof:superseded_by":[
        85852699
    ],
    "wof:supersedes":[],
    "wof:tags":[]
},
  "bbox": [
    -83.11519,
    40.31062,
    -83.11519,
    40.31062
],
  "geometry": {"coordinates":[-83.11519,40.31062],"type":"Point"}
}