{
  "id": 420559447,
  "type": "Feature",
  "properties": {
    "edtf:cessation":"uuuu",
    "edtf:inception":"uuuu",
    "geom:area":0.0,
    "geom:area_square_m":592835.617007,
    "geom:bbox":"-108.577783,37.352991,-108.577783,37.352991",
    "geom:latitude":37.352991,
    "geom:longitude":-108.577783,
    "iso:country":"US",
    "lbl:latitude":37.352991,
    "lbl:longitude":-108.577783,
    "mz:hierarchy_label":0,
    "mz:is_current":-1,
    "src:geom":"mz",
    "src:geom_alt":[
        "zetashapes"
    ],
    "src:lbl:centroid":"mapshaper",
    "wof:belongsto":[
        102191575,
        85633793,
        85928909,
        102084099,
        85688603
    ],
    "wof:breaches":[],
    "wof:concordances":{
        "gp:id":55972719
    },
    "wof:country":"US",
    "wof:geomhash":"d436319c4176b825e8bb7a021fa090aa",
    "wof:hierarchy":[
        {
            "continent_id":102191575,
            "country_id":85633793,
            "county_id":102084099,
            "locality_id":85928909,
            "neighbourhood_id":420559447,
            "region_id":85688603
        }
    ],
    "wof:id":420559447,
    "wof:lastmodified":1533614345,
    "wof:name":"",
    "wof:parent_id":85928909,
    "wof:placetype":"neighbourhood",
    "wof:repo":"whosonfirst-data-admin-us",
    "wof:superseded_by":[],
    "wof:supersedes":[],
    "wof:tags":[],
    "zs:8083:area_m":592794.79849,
    "zs:8083:blockids":"080839694002029,080839693001044,080839694001049,080839694001050,080839693001045,080839694001043,080839693001035,080839694001040,080839693001037,080839693001034,080839693001046,080839694001054,080839693001036,080839693001028,080839693001060,080839693001047,080839694001044,080839693001050,080839694001055,080839694001042,080839694001046,080839694001041,080839693001061,080839693001039,080839693001042,080839694001051,080839693001062,080839693001043,080839693001031,080839694001047",
    "zs:8083:housing10":372,
    "zs:8083:id":55972719,
    "zs:8083:label":"Wesch",
    "zs:8083:pop10":789,
    "zs:id":55972719,
    "zs:name":"Wesch",
    "zs:placetype":"neighbourhood",
    "zs:us:counties":[
        "8083"
    ]
},
  "bbox": [
    -108.577783,
    37.352991,
    -108.577783,
    37.352991
],
  "geometry": {"coordinates":[-108.577783,37.352991],"type":"Point"}
}