{
  "id": 1292919241,
  "type": "Feature",
  "properties": {
    "edtf:cessation":"uuuu",
    "edtf:inception":"uuuu",
    "geom:area":0.0,
    "geom:area_square_m":0.0,
    "geom:bbox":"-98.09449,35.20395,-98.09449,35.20395",
    "geom:latitude":35.20395,
    "geom:longitude":-98.09449,
    "gn:admin1_code":"OK",
    "gn:admin2_code":"15",
    "gn:asciiname":"Dutton",
    "gn:country_code":"US",
    "gn:dem":371,
    "gn:elevation":"366.0",
    "gn:feature_class":"P",
    "gn:feature_code":"PPL",
    "gn:geonameid":4535438,
    "gn:latitude":35.20395,
    "gn:longitude":-98.09449,
    "gn:modification_date":"2006-01-15",
    "gn:name":"Dutton",
    "gn:population":0,
    "gn:timezone":"America/Chicago",
    "iso:country":"US",
    "mz:hierarchy_label":1,
    "mz:is_current":-1,
    "src:geom":"geonames",
    "wof:belongsto":[
        102191575,
        85633793,
        85688585,
        102083901
    ],
    "wof:breaches":[],
    "wof:concordances":{
        "gn:id":4535438
    },
    "wof:country":"US",
    "wof:geomhash":"e699fbcceeda9b6e62ea6ec2cd0aa184",
    "wof:hierarchy":[
        {
            "continent_id":102191575,
            "country_id":85633793,
            "county_id":102083901,
            "locality_id":1292919241,
            "region_id":85688585
        }
    ],
    "wof:id":1292919241,
    "wof:lastmodified":1536609393,
    "wof:name":"Dutton",
    "wof:parent_id":102083901,
    "wof:placetype":"locality",
    "wof:repo":"whosonfirst-data-admin-us",
    "wof:superseded_by":[],
    "wof:supersedes":[],
    "wof:tags":[]
},
  "bbox": [
    -98.09449,
    35.20395,
    -98.09449,
    35.20395
],
  "geometry": {"coordinates":[-98.09448999999999,35.20395],"type":"Point"}
}