{
  "id": 1126085201,
  "type": "Feature",
  "properties": {
    "edtf:cessation":"uuuu",
    "edtf:deprecated":"2018-08-15",
    "edtf:inception":"uuuu",
    "edtf:superseded":"2018-08-15",
    "geom:area":0.0,
    "geom:area_square_m":0.0,
    "geom:bbox":"-76.26021,42.98701,-76.26021,42.98701",
    "geom:latitude":42.98701,
    "geom:longitude":-76.26021,
    "gn:gn_country":"US",
    "gn:gn_fcode":"PPL",
    "gn:gn_pop":0,
    "iso:country":"US",
    "lbl:latitude":42.98701,
    "lbl:longitude":-76.26021,
    "mz:hierarchy_label":1,
    "mz:is_current":0,
    "mz:note":"Quattroshapes Point Gazetteer import 20170519",
    "qs_pg:aaroncc":"US",
    "qs_pg:gn_country":"US",
    "qs_pg:gn_fcode":"PPL",
    "qs_pg:gn_id":5143565,
    "qs_pg:gn_pop":0,
    "qs_pg:name":"Wellington Corner",
    "qs_pg:name_adm0":"United States",
    "qs_pg:name_adm1":"New York",
    "qs_pg:photos":85,
    "qs_pg:photos_1k":17,
    "qs_pg:photos_9k":1,
    "qs_pg:photos_9r":3,
    "qs_pg:photos_all":85,
    "qs_pg:photos_sr":3,
    "qs_pg:pop_sr":0,
    "qs_pg:qs_id":484897,
    "qs_pg:qs_pg_placetype":"neighbourhood",
    "qs_pg:qs_pg_placetype_gp":"Suburb",
    "qs_pg:woe_adm0":23424977,
    "qs_pg:woe_id":2516260,
    "src:geom":"qs_pg",
    "src:lbl:centroid":"qs_pg",
    "woe:adm0_id":23424977,
    "woe:name_adm0":"United States",
    "woe:name_adm1":"New York",
    "woe:placetype":"Suburb",
    "wof:belongsto":[
        102191575,
        404522839,
        85633793,
        102082351,
        85688543
    ],
    "wof:breaches":[],
    "wof:concordances":{
        "gn:id":5143565,
        "gp:id":2516260,
        "qs_pg:id":484897
    },
    "wof:country":"US",
    "wof:created":1497312642,
    "wof:geomhash":"2fa76955d90be7124f2eb5348c5ea55c",
    "wof:hierarchy":[
        {
            "continent_id":102191575,
            "country_id":85633793,
            "county_id":102082351,
            "localadmin_id":404522839,
            "locality_id":-1,
            "neighbourhood_id":1126085201,
            "region_id":85688543
        }
    ],
    "wof:id":1126085201,
    "wof:lastmodified":1534379705,
    "wof:name":"Wellington Corner",
    "wof:parent_id":-1,
    "wof:placetype":"neighbourhood",
    "wof:repo":"whosonfirst-data-admin-us",
    "wof:superseded_by":[
        420529331
    ],
    "wof:supersedes":[],
    "wof:tags":[]
},
  "bbox": [
    -76.26021,
    42.98701,
    -76.26021,
    42.98701
],
  "geometry": {"coordinates":[-76.26021,42.98701],"type":"Point"}
}