{
  "id": 1310316035,
  "type": "Feature",
  "properties": {
    "edtf:cessation":"uuuu",
    "edtf:inception":"uuuu",
    "geom:area":0.0,
    "geom:area_square_m":0.0,
    "geom:bbox":"-79.54255,34.35155,-79.54255,34.35155",
    "geom:latitude":34.35155,
    "geom:longitude":-79.54255,
    "gn:admin1_code":"SC",
    "gn:admin2_code":"33.0",
    "gn:asciiname":"Oak Grove",
    "gn:country_code":"US",
    "gn:dem":39,
    "gn:elevation":"40.0",
    "gn:feature_class":"P",
    "gn:feature_code":"PPL",
    "gn:geonameid":4589591,
    "gn:latitude":34.35155,
    "gn:longitude":-79.54255,
    "gn:modification_date":"2010-02-17",
    "gn:name":"Oak Grove",
    "gn:population":0,
    "gn:timezone":"America/New_York",
    "iso:country":"US",
    "mz:hierarchy_label":1,
    "mz:is_current":-1,
    "name:eng_x_preferred":[
        "Oak Grove"
    ],
    "name:und_x_variant":[
        "Kirbys Cross Roads"
    ],
    "src:geom":"geonames",
    "wof:belongsto":[
        102191575,
        85633793,
        85688683,
        102085701
    ],
    "wof:breaches":[],
    "wof:concordances":{
        "gn:id":4589591
    },
    "wof:country":"US",
    "wof:geomhash":"fe6287c9b0624604acd7d98f24303d7d",
    "wof:hierarchy":[
        {
            "continent_id":102191575,
            "country_id":85633793,
            "county_id":102085701,
            "locality_id":1310316035,
            "region_id":85688683
        }
    ],
    "wof:id":1310316035,
    "wof:lastmodified":1537712598,
    "wof:name":"Oak Grove",
    "wof:parent_id":102085701,
    "wof:placetype":"locality",
    "wof:repo":"whosonfirst-data-admin-us",
    "wof:superseded_by":[],
    "wof:supersedes":[],
    "wof:tags":[]
},
  "bbox": [
    -79.54255,
    34.35155,
    -79.54255,
    34.35155
],
  "geometry": {"coordinates":[-79.54255000000001,34.35155],"type":"Point"}
}