{
  "id": 1125357225,
  "type": "Feature",
  "properties": {
    "edtf:cessation":"uuuu",
    "edtf:deprecated":"2017-11-04",
    "edtf:inception":"uuuu",
    "geom:area":0.0,
    "geom:area_square_m":0.0,
    "geom:bbox":"-81.00549,29.16551,-81.00549,29.16551",
    "geom:latitude":29.16551,
    "geom:longitude":-81.00549,
    "gn:gn_country":"US",
    "gn:gn_fcode":"ADMD",
    "gn:gn_pop":12252,
    "gn:population":12252,
    "iso:country":"US",
    "lbl:latitude":29.16551,
    "lbl:longitude":-81.00549,
    "mz:hierarchy_label":1,
    "mz:is_current":0,
    "mz:note":"Quattroshapes Point Gazetteer import 20170519",
    "qs_pg:aaroncc":"US",
    "qs_pg:gn_country":"US",
    "qs_pg:gn_fcode":"ADMD",
    "qs_pg:gn_id":7318124,
    "qs_pg:gn_pop":12252,
    "qs_pg:name":"City of South Daytona",
    "qs_pg:photos_9r":0,
    "qs_pg:photos_sr":0,
    "qs_pg:pop_sr":6,
    "qs_pg:qs_id":684144,
    "qs_pg:qs_pg_placetype":"localadmin",
    "src:geom":"qs_pg",
    "src:lbl:centroid":"qs_pg",
    "src:population":"geonames",
    "wof:belongsto":[
        85633793
    ],
    "wof:breaches":[],
    "wof:concordances":{
        "gn:id":7318124,
        "qs_pg:id":684144
    },
    "wof:country":"US",
    "wof:created":1497046550,
    "wof:geomhash":"f204df9d0adf9af510a87e282f351d85",
    "wof:hierarchy":[
        {
            "country_id":85633793,
            "localadmin_id":1125357225
        }
    ],
    "wof:id":1125357225,
    "wof:lastmodified":1509752659,
    "wof:name":"City of South Daytona",
    "wof:parent_id":-1,
    "wof:placetype":"localadmin",
    "wof:population":12252,
    "wof:population_rank":6,
    "wof:repo":"whosonfirst-data-admin-us",
    "wof:superseded_by":[
        85932623
    ],
    "wof:supersedes":[],
    "wof:tags":[]
},
  "bbox": [
    -81.00549,
    29.16551,
    -81.00549,
    29.16551
],
  "geometry": {"coordinates":[-81.00548999999999,29.16551],"type":"Point"}
}