{
  "id": 1293220177,
  "type": "Feature",
  "properties": {
    "edtf:cessation":"2018-09-06",
    "edtf:inception":"uuuu",
    "geom:area":0.0,
    "geom:area_square_m":0.0,
    "geom:bbox":"-86.1761,35.70701,-86.1761,35.70701",
    "geom:latitude":35.70701,
    "geom:longitude":-86.1761,
    "gn:admin1_code":"TN",
    "gn:admin2_code":"15.0",
    "gn:asciiname":"Tolbertsville (historical)",
    "gn:country_code":"US",
    "gn:dem":240,
    "gn:elevation":"238.0",
    "gn:feature_class":"P",
    "gn:feature_code":"PPLQ",
    "gn:geonameid":4662897,
    "gn:latitude":35.70701,
    "gn:longitude":-86.1761,
    "gn:modification_date":"2011-12-12",
    "gn:name":"Tolbertsville (historical)",
    "gn:population":0,
    "gn:timezone":"America/Chicago",
    "iso:country":"US",
    "mz:hierarchy_label":1,
    "mz:is_current":0,
    "src:geom":"geonames",
    "wof:belongsto":[
        102191575,
        85633793,
        85688701,
        102086999
    ],
    "wof:breaches":[],
    "wof:concordances":{
        "gn:id":4662897
    },
    "wof:country":"US",
    "wof:geomhash":"c07db991b430e8383e3b5901e4e616bb",
    "wof:hierarchy":[
        {
            "continent_id":102191575,
            "country_id":85633793,
            "county_id":102086999,
            "locality_id":1293220177,
            "region_id":85688701
        }
    ],
    "wof:id":1293220177,
    "wof:lastmodified":1536675413,
    "wof:name":"Tolbertsville (historical)",
    "wof:parent_id":102086999,
    "wof:placetype":"locality",
    "wof:repo":"whosonfirst-data-admin-us",
    "wof:superseded_by":[],
    "wof:supersedes":[],
    "wof:tags":[]
},
  "bbox": [
    -86.1761,
    35.70701,
    -86.1761,
    35.70701
],
  "geometry": {"coordinates":[-86.17610000000001,35.70701],"type":"Point"}
}