{
  "id": 1125836653,
  "type": "Feature",
  "properties": {
    "edtf:cessation":"uuuu",
    "edtf:inception":"uuuu",
    "geom:area":0.0,
    "geom:area_square_m":0.0,
    "geom:bbox":"-79.89812,34.18682,-79.89812,34.18682",
    "geom:latitude":34.18682,
    "geom:longitude":-79.89812,
    "gn:gn_country":"US",
    "gn:gn_fcode":"PPL",
    "gn:gn_pop":0,
    "iso:country":"US",
    "lbl:latitude":34.18682,
    "lbl:longitude":-79.89812,
    "mz:hierarchy_label":1,
    "mz:is_current":-1,
    "mz:note":"Quattroshapes Point Gazetteer import 20170519",
    "name:eng_x_preferred":[
        "Whitehall"
    ],
    "name:unk_x_variant":[
        "White Hall"
    ],
    "qs_pg:aaroncc":"US",
    "qs_pg:gn_country":"US",
    "qs_pg:gn_fcode":"PPL",
    "qs_pg:gn_id":4600926,
    "qs_pg:gn_pop":0,
    "qs_pg:name":"Whitehall",
    "qs_pg:name_adm0":"United States",
    "qs_pg:name_adm1":"South Carolina",
    "qs_pg:photos_9r":0,
    "qs_pg:photos_sr":0,
    "qs_pg:pop_sr":0,
    "qs_pg:qs_id":202094,
    "qs_pg:qs_pg_placetype":"locality",
    "qs_pg:qs_pg_placetype_gp":"Town",
    "qs_pg:woe_adm0":23424977,
    "qs_pg:woe_id":2519659,
    "src:geom":"qs_pg",
    "src:lbl:centroid":"qs_pg",
    "woe:adm0_id":23424977,
    "woe:name_adm0":"United States",
    "woe:name_adm1":"South Carolina",
    "woe:placetype":"Town",
    "wof:belongsto":[
        102191575,
        85633793,
        85688683,
        102085723
    ],
    "wof:breaches":[],
    "wof:concordances":{
        "gn:id":4600926,
        "gp:id":2519659,
        "qs_pg:id":202094
    },
    "wof:country":"US",
    "wof:created":1497292744,
    "wof:geomhash":"e638b3f3c01a2a9694923fb5849d2806",
    "wof:hierarchy":[
        {
            "continent_id":102191575,
            "country_id":85633793,
            "county_id":102085723,
            "locality_id":1125836653,
            "region_id":85688683
        }
    ],
    "wof:id":1125836653,
    "wof:lastmodified":1509395019,
    "wof:name":"Whitehall",
    "wof:parent_id":102085723,
    "wof:placetype":"locality",
    "wof:repo":"whosonfirst-data-admin-us",
    "wof:superseded_by":[],
    "wof:supersedes":[],
    "wof:tags":[]
},
  "bbox": [
    -79.89812,
    34.18682,
    -79.89812,
    34.18682
],
  "geometry": {"coordinates":[-79.89812000000001,34.18682],"type":"Point"}
}