{
  "id": 1125383925,
  "type": "Feature",
  "properties": {
    "edtf:cessation":"2017-05-19",
    "edtf:inception":"uuuu",
    "geom:area":0.0,
    "geom:area_square_m":0.0,
    "geom:bbox":"-80.35752,37.99265,-80.35752,37.99265",
    "geom:latitude":37.99265,
    "geom:longitude":-80.35752,
    "gn:gn_country":"US",
    "gn:gn_fcode":"ADMD",
    "gn:gn_pop":211,
    "gn:population":211,
    "iso:country":"US",
    "lbl:latitude":37.99265,
    "lbl:longitude":-80.35752,
    "mz:hierarchy_label":1,
    "mz:is_current":0,
    "mz:note":"Quattroshapes Point Gazetteer import 20170519",
    "qs_pg:aaroncc":"US",
    "qs_pg:gn_country":"US",
    "qs_pg:gn_fcode":"ADMD",
    "qs_pg:gn_id":7161343,
    "qs_pg:gn_pop":211,
    "qs_pg:name":"Town of Falling Spring",
    "qs_pg:photos_9r":0,
    "qs_pg:photos_sr":0,
    "qs_pg:pop_sr":2,
    "qs_pg:qs_id":656923,
    "qs_pg:qs_pg_placetype":"localadmin",
    "src:geom":"qs_pg",
    "src:lbl:centroid":"qs_pg",
    "src:population":"geonames",
    "wof:belongsto":[
        85633793
    ],
    "wof:breaches":[],
    "wof:concordances":{
        "gn:id":7161343,
        "qs_pg:id":656923
    },
    "wof:country":"US",
    "wof:created":1497048237,
    "wof:geomhash":"33aa8cf80532eac85e635f5ae01188b2",
    "wof:hierarchy":[
        {
            "country_id":85633793,
            "localadmin_id":1125383925
        }
    ],
    "wof:id":1125383925,
    "wof:lastmodified":1505187014,
    "wof:name":"Town of Falling Spring",
    "wof:parent_id":-1,
    "wof:placetype":"localadmin",
    "wof:population":211,
    "wof:population_rank":2,
    "wof:repo":"whosonfirst-data-admin-us",
    "wof:superseded_by":[],
    "wof:supersedes":[],
    "wof:tags":[]
},
  "bbox": [
    -80.35752,
    37.99265,
    -80.35752,
    37.99265
],
  "geometry": {"coordinates":[-80.35751999999999,37.99265],"type":"Point"}
}