{
  "id": 1125314421,
  "type": "Feature",
  "properties": {
    "edtf:cessation":"2017-05-19",
    "edtf:inception":"uuuu",
    "geom:area":0.0,
    "geom:area_square_m":0.0,
    "geom:bbox":"-79.95311,40.20813,-79.95311,40.20813",
    "geom:latitude":40.20813,
    "geom:longitude":-79.95311,
    "gn:gn_country":"US",
    "gn:gn_fcode":"ADMD",
    "gn:gn_pop":2184,
    "gn:population":2184,
    "iso:country":"US",
    "lbl:latitude":40.20813,
    "lbl:longitude":-79.95311,
    "mz:hierarchy_label":1,
    "mz:is_current":0,
    "mz:note":"Quattroshapes Point Gazetteer import 20170519",
    "qs_pg:aaroncc":"US",
    "qs_pg:gn_country":"US",
    "qs_pg:gn_fcode":"ADMD",
    "qs_pg:gn_id":5203157,
    "qs_pg:gn_pop":2184,
    "qs_pg:name":"Borough of New Eagle",
    "qs_pg:photos_9r":0,
    "qs_pg:photos_sr":0,
    "qs_pg:pop_sr":4,
    "qs_pg:qs_id":606798,
    "qs_pg:qs_pg_placetype":"localadmin",
    "src:geom":"qs_pg",
    "src:lbl:centroid":"qs_pg",
    "src:population":"geonames",
    "wof:belongsto":[
        85633793
    ],
    "wof:breaches":[],
    "wof:concordances":{
        "gn:id":5203157,
        "qs_pg:id":606798
    },
    "wof:country":"US",
    "wof:created":1497044195,
    "wof:geomhash":"50f7409150195ffe57769e18d9f6d2f2",
    "wof:hierarchy":[
        {
            "country_id":85633793,
            "localadmin_id":1125314421
        }
    ],
    "wof:id":1125314421,
    "wof:lastmodified":1505186974,
    "wof:name":"Borough of New Eagle",
    "wof:parent_id":-1,
    "wof:placetype":"localadmin",
    "wof:population":2184,
    "wof:population_rank":4,
    "wof:repo":"whosonfirst-data-admin-us",
    "wof:superseded_by":[],
    "wof:supersedes":[],
    "wof:tags":[]
},
  "bbox": [
    -79.95311,
    40.20813,
    -79.95311,
    40.20813
],
  "geometry": {"coordinates":[-79.95311,40.20813],"type":"Point"}
}