{
  "id": 1125787279,
  "type": "Feature",
  "properties": {
    "edtf:cessation":"uuuu",
    "edtf:inception":"uuuu",
    "geom:area":0.0,
    "geom:area_square_m":0.0,
    "geom:bbox":"-104.52246,39.75637,-104.52246,39.75637",
    "geom:latitude":39.75637,
    "geom:longitude":-104.52246,
    "gn:gn_country":"US",
    "gn:gn_fcode":"PPL",
    "gn:gn_pop":0,
    "iso:country":"US",
    "lbl:latitude":39.75637,
    "lbl:longitude":-104.52246,
    "mz:hierarchy_label":1,
    "mz:is_current":-1,
    "mz:note":"Quattroshapes Point Gazetteer import 20170519",
    "qs_pg:aaroncc":"US",
    "qs_pg:gn_country":"US",
    "qs_pg:gn_fcode":"PPL",
    "qs_pg:gn_id":5430012,
    "qs_pg:gn_pop":0,
    "qs_pg:name":"Manila",
    "qs_pg:name_adm0":"United States",
    "qs_pg:name_adm1":"Colorado",
    "qs_pg:photos":75,
    "qs_pg:photos_1k":15,
    "qs_pg:photos_9k":1,
    "qs_pg:photos_9r":2,
    "qs_pg:photos_all":75,
    "qs_pg:photos_sr":2,
    "qs_pg:pop_sr":0,
    "qs_pg:qs_id":1161647,
    "qs_pg:qs_pg_placetype":"locality",
    "qs_pg:qs_pg_placetype_gp":"Town",
    "qs_pg:woe_adm0":23424977,
    "qs_pg:woe_id":2444792,
    "src:geom":"qs_pg",
    "src:lbl:centroid":"qs_pg",
    "woe:adm0_id":23424977,
    "woe:name_adm0":"United States",
    "woe:name_adm1":"Colorado",
    "woe:placetype":"Town",
    "wof:belongsto":[
        102191575,
        85633793,
        85688603,
        102084053
    ],
    "wof:breaches":[],
    "wof:concordances":{
        "gn:id":5430012,
        "gp:id":2444792,
        "qs_pg:id":1161647
    },
    "wof:country":"US",
    "wof:created":1497290732,
    "wof:geomhash":"0db3e2dc051be2414b4dc4d64dccb977",
    "wof:hierarchy":[
        {
            "continent_id":102191575,
            "country_id":85633793,
            "county_id":102084053,
            "locality_id":1125787279,
            "region_id":85688603
        }
    ],
    "wof:id":1125787279,
    "wof:lastmodified":1509392058,
    "wof:name":"Manila",
    "wof:parent_id":102084053,
    "wof:placetype":"locality",
    "wof:repo":"whosonfirst-data-admin-us",
    "wof:superseded_by":[],
    "wof:supersedes":[],
    "wof:tags":[]
},
  "bbox": [
    -104.52246,
    39.75637,
    -104.52246,
    39.75637
],
  "geometry": {"coordinates":[-104.52246,39.75637],"type":"Point"}
}