{
  "id": 420546117,
  "type": "Feature",
  "properties": {
    "edtf:cessation":"uuuu",
    "edtf:inception":"uuuu",
    "geom:area":0.0,
    "geom:area_square_m":2481648.813624,
    "geom:bbox":"-94.159025,36.220076,-94.159025,36.220076",
    "geom:latitude":36.220076,
    "geom:longitude":-94.159025,
    "iso:country":"US",
    "lbl:latitude":36.220076,
    "lbl:longitude":-94.159025,
    "mz:hierarchy_label":0,
    "mz:is_current":-1,
    "name:eng_x_preferred":[
        "Spring Hill"
    ],
    "src:geom":"mz",
    "src:geom_alt":[
        "zetashapes"
    ],
    "src:lbl":"mapshaper",
    "src:lbl:centroid":"mapshaper",
    "src:population":"zetashapes",
    "wof:belongsto":[
        102191575,
        85633793,
        85919623,
        102082007,
        85688549
    ],
    "wof:breaches":[],
    "wof:concordances":{
        "gp:id":56019053
    },
    "wof:country":"US",
    "wof:geomhash":"db4894bd33de9fcda27ac192ae578e60",
    "wof:hierarchy":[
        {
            "continent_id":102191575,
            "country_id":85633793,
            "county_id":102082007,
            "locality_id":85919623,
            "neighbourhood_id":420546117,
            "region_id":85688549
        }
    ],
    "wof:id":420546117,
    "wof:lastmodified":1533602171,
    "wof:name":"Spring Hill",
    "wof:parent_id":85919623,
    "wof:placetype":"neighbourhood",
    "wof:population":1435,
    "wof:population_rank":3,
    "wof:repo":"whosonfirst-data-admin-us",
    "wof:superseded_by":[],
    "wof:supersedes":[],
    "wof:tags":[],
    "zs:area_m":2481477.715888,
    "zs:blockids":[
        50070213104061,
        50070213103013,
        50070213104059,
        50070213103009,
        50070213103011,
        50070213104062,
        50070213104057,
        50070213103008,
        50070213103010,
        50070213104060,
        50070213104058,
        50070213104063,
        50070213104055,
        50070213103006,
        50070213103012,
        50070213103007,
        50070213104064
    ],
    "zs:housing10":471,
    "zs:id":56019053,
    "zs:label":"Spring Hill",
    "zs:pop10":1435
},
  "bbox": [
    -94.159025,
    36.220076,
    -94.159025,
    36.220076
],
  "geometry": {"coordinates":[-94.159025,36.220076],"type":"Point"}
}