{
  "id": 1310521225,
  "type": "Feature",
  "properties": {
    "edtf:cessation":"uuuu",
    "edtf:inception":"uuuu",
    "geom:area":0.0,
    "geom:area_square_m":0.0,
    "geom:bbox":"-89.03478,32.67625,-89.03478,32.67625",
    "geom:latitude":32.67625,
    "geom:longitude":-89.03478,
    "gn:admin1_code":"MS",
    "gn:admin2_code":"99.0",
    "gn:asciiname":"Bethsaida",
    "gn:country_code":"US",
    "gn:dem":162,
    "gn:elevation":"147.0",
    "gn:feature_class":"P",
    "gn:feature_code":"PPL",
    "gn:geonameid":4418144,
    "gn:latitude":32.67625,
    "gn:longitude":-89.03478,
    "gn:modification_date":"2010-02-16",
    "gn:name":"Bethsaida",
    "gn:population":0,
    "gn:timezone":"America/Chicago",
    "iso:country":"US",
    "mz:hierarchy_label":1,
    "mz:is_current":-1,
    "name:eng_x_preferred":[
        "Bethsaida"
    ],
    "name:und_x_variant":[
        "Bethsadia"
    ],
    "src:geom":"geonames",
    "wof:belongsto":[
        102191575,
        85633793,
        85688579,
        102085883
    ],
    "wof:breaches":[],
    "wof:concordances":{
        "gn:id":4418144
    },
    "wof:country":"US",
    "wof:geomhash":"ae2f837565e3346c5d2ecabd6b10fac4",
    "wof:hierarchy":[
        {
            "continent_id":102191575,
            "country_id":85633793,
            "county_id":102085883,
            "locality_id":1310521225,
            "region_id":85688579
        }
    ],
    "wof:id":1310521225,
    "wof:lastmodified":1537712476,
    "wof:name":"Bethsaida",
    "wof:parent_id":102085883,
    "wof:placetype":"locality",
    "wof:repo":"whosonfirst-data-admin-us",
    "wof:superseded_by":[],
    "wof:supersedes":[],
    "wof:tags":[]
},
  "bbox": [
    -89.03478,
    32.67625,
    -89.03478,
    32.67625
],
  "geometry": {"coordinates":[-89.03478,32.67625],"type":"Point"}
}