{
  "id": 1293409255,
  "type": "Feature",
  "properties": {
    "edtf:cessation":"2018-09-06",
    "edtf:inception":"uuuu",
    "geom:area":0.0,
    "geom:area_square_m":0.0,
    "geom:bbox":"-77.81722,37.93125,-77.81722,37.93125",
    "geom:latitude":37.93125,
    "geom:longitude":-77.81722,
    "gn:admin1_code":"VA",
    "gn:admin2_code":"109",
    "gn:asciiname":"Longcreek (historical)",
    "gn:country_code":"US",
    "gn:dem":106,
    "gn:elevation":"101.0",
    "gn:feature_class":"P",
    "gn:feature_code":"PPLQ",
    "gn:geonameid":4770647,
    "gn:latitude":37.93125,
    "gn:longitude":-77.81722,
    "gn:modification_date":"2011-12-12",
    "gn:name":"Longcreek (historical)",
    "gn:population":0,
    "gn:timezone":"America/New_York",
    "iso:country":"US",
    "mz:hierarchy_label":1,
    "mz:is_current":0,
    "name:eng_x_preferred":[
        "Longcreek (historical)"
    ],
    "name:und_x_variant":[
        "Long Creek"
    ],
    "src:geom":"geonames",
    "wof:belongsto":[
        102191575,
        85633793,
        85688747,
        102084949
    ],
    "wof:breaches":[],
    "wof:concordances":{
        "gn:id":4770647
    },
    "wof:country":"US",
    "wof:geomhash":"ce77e84736c439fe3762667edca1e24f",
    "wof:hierarchy":[
        {
            "continent_id":102191575,
            "country_id":85633793,
            "county_id":102084949,
            "locality_id":1293409255,
            "region_id":85688747
        }
    ],
    "wof:id":1293409255,
    "wof:lastmodified":1537712719,
    "wof:name":"Longcreek (historical)",
    "wof:parent_id":102084949,
    "wof:placetype":"locality",
    "wof:repo":"whosonfirst-data-admin-us",
    "wof:superseded_by":[],
    "wof:supersedes":[],
    "wof:tags":[]
},
  "bbox": [
    -77.81721999999998,
    37.93125,
    -77.81721999999998,
    37.93125
],
  "geometry": {"coordinates":[-77.81721999999998,37.93125],"type":"Point"}
}