{
  "id": 1343580373,
  "type": "Feature",
  "properties": {
    "edtf:cessation":"uuuu",
    "edtf:inception":"uuuu",
    "geom:area":0.0,
    "geom:area_square_m":0.0,
    "geom:bbox":"-84.75855,33.95816,-84.75855,33.95816",
    "geom:latitude":33.95816,
    "geom:longitude":-84.75855,
    "gn:admin1_code":"GA",
    "gn:admin2_code":"223",
    "gn:asciiname":"Wildwood",
    "gn:country_code":"US",
    "gn:dem":327,
    "gn:elevation":"321.0",
    "gn:feature_class":"P",
    "gn:feature_code":"PPL",
    "gn:geonameid":4230988,
    "gn:latitude":33.95816,
    "gn:longitude":-84.75855,
    "gn:modification_date":"2006-01-15",
    "gn:name":"Wildwood",
    "gn:population":0,
    "gn:timezone":"America/New_York",
    "iso:country":"US",
    "mz:hierarchy_label":1,
    "mz:is_current":-1,
    "src:geom":"geonames",
    "wof:belongsto":[
        102191575,
        85633793,
        85688535,
        102084665
    ],
    "wof:breaches":[],
    "wof:concordances":{
        "gn:id":4230988
    },
    "wof:country":"US",
    "wof:geomhash":"361e7af4760deb7696df7da1181b14d5",
    "wof:hierarchy":[
        {
            "continent_id":102191575,
            "country_id":85633793,
            "county_id":102084665,
            "locality_id":1343580373,
            "region_id":85688535
        }
    ],
    "wof:id":1343580373,
    "wof:lastmodified":1537067759,
    "wof:name":"Wildwood",
    "wof:parent_id":102084665,
    "wof:placetype":"locality",
    "wof:repo":"whosonfirst-data-admin-us",
    "wof:superseded_by":[],
    "wof:supersedes":[],
    "wof:tags":[]
},
  "bbox": [
    -84.75855,
    33.95816,
    -84.75855,
    33.95816
],
  "geometry": {"coordinates":[-84.75855,33.95816],"type":"Point"}
}