{
  "id": 1243188715,
  "type": "Feature",
  "properties": {
    "edtf:cessation":"2018-09-06",
    "edtf:inception":"uuuu",
    "geom:area":0.0,
    "geom:area_square_m":0.0,
    "geom:bbox":"-84.05689,41.56144,-84.05689,41.56144",
    "geom:latitude":41.56144,
    "geom:longitude":-84.05689,
    "gn:admin1_code":"OH",
    "gn:admin2_code":"51.0",
    "gn:admin3_code":"87024.0",
    "gn:asciiname":"Haller (historical)",
    "gn:country_code":"US",
    "gn:dem":228,
    "gn:elevation":"228.0",
    "gn:feature_class":"P",
    "gn:feature_code":"PPLQ",
    "gn:geonameid":5156711,
    "gn:latitude":41.56144,
    "gn:longitude":-84.05689,
    "gn:modification_date":"2017-05-23",
    "gn:name":"Haller (historical)",
    "gn:population":0,
    "gn:timezone":"America/New_York",
    "iso:country":"US",
    "mz:hierarchy_label":1,
    "mz:is_current":0,
    "name:eng_x_preferred":[
        "Haller (historical)"
    ],
    "name:und_x_variant":[
        "Batdorf"
    ],
    "src:geom":"geonames",
    "wof:belongsto":[
        85688485,
        102191575,
        404524673,
        85633793,
        102083693
    ],
    "wof:breaches":[],
    "wof:concordances":{
        "gn:id":5156711
    },
    "wof:country":"US",
    "wof:geomhash":"f62fc55ca4ff3ccf53066eb2d05c8624",
    "wof:hierarchy":[
        {
            "continent_id":102191575,
            "country_id":85633793,
            "county_id":102083693,
            "localadmin_id":404524673,
            "locality_id":1243188715,
            "region_id":85688485
        }
    ],
    "wof:id":1243188715,
    "wof:lastmodified":1537712906,
    "wof:name":"Haller (historical)",
    "wof:parent_id":404524673,
    "wof:placetype":"locality",
    "wof:repo":"whosonfirst-data-admin-us",
    "wof:superseded_by":[],
    "wof:supersedes":[],
    "wof:tags":[]
},
  "bbox": [
    -84.05689,
    41.56144000000001,
    -84.05689,
    41.56144000000001
],
  "geometry": {"coordinates":[-84.05689,41.56144000000001],"type":"Point"}
}