{
  "id": 1293506967,
  "type": "Feature",
  "properties": {
    "edtf:cessation":"uuuu",
    "edtf:inception":"uuuu",
    "geom:area":0.0,
    "geom:area_square_m":0.0,
    "geom:bbox":"-76.10911,39.04678,-76.10911,39.04678",
    "geom:latitude":39.04678,
    "geom:longitude":-76.10911,
    "gn:admin1_code":"MD",
    "gn:admin2_code":"35.0",
    "gn:asciiname":"Brownsville",
    "gn:country_code":"US",
    "gn:dem":22,
    "gn:elevation":"18.0",
    "gn:feature_class":"P",
    "gn:feature_code":"PPL",
    "gn:geonameid":4349693,
    "gn:latitude":39.04678,
    "gn:longitude":-76.10911,
    "gn:modification_date":"2006-01-15",
    "gn:name":"Brownsville",
    "gn:population":0,
    "gn:timezone":"America/New_York",
    "iso:country":"US",
    "mz:hierarchy_label":1,
    "mz:is_current":-1,
    "src:geom":"geonames",
    "wof:belongsto":[
        102191575,
        85633793,
        85688501,
        102082721
    ],
    "wof:breaches":[],
    "wof:concordances":{
        "gn:id":4349693
    },
    "wof:country":"US",
    "wof:geomhash":"4426e0843dde1b6bce0e4afe78774f13",
    "wof:hierarchy":[
        {
            "continent_id":102191575,
            "country_id":85633793,
            "county_id":102082721,
            "locality_id":1293506967,
            "region_id":85688501
        }
    ],
    "wof:id":1293506967,
    "wof:lastmodified":1536759158,
    "wof:name":"Brownsville",
    "wof:parent_id":102082721,
    "wof:placetype":"locality",
    "wof:repo":"whosonfirst-data-admin-us",
    "wof:superseded_by":[],
    "wof:supersedes":[],
    "wof:tags":[]
},
  "bbox": [
    -76.10911,
    39.04678,
    -76.10911,
    39.04678
],
  "geometry": {"coordinates":[-76.10911,39.04678],"type":"Point"}
}