{
  "id": 420516237,
  "type": "Feature",
  "properties": {
    "edtf:cessation":"uuuu",
    "edtf:inception":"uuuu",
    "geom:area":0.0,
    "geom:area_square_m":435730.833683,
    "geom:bbox":"-82.731146,28.058594,-82.731146,28.058594",
    "geom:latitude":28.058594,
    "geom:longitude":-82.731146,
    "iso:country":"US",
    "lbl:latitude":28.058594,
    "lbl:longitude":-82.731146,
    "mz:hierarchy_label":0,
    "mz:is_current":-1,
    "name:eng_x_preferred":[
        "Lake Valencia"
    ],
    "src:geom":"mz",
    "src:geom_alt":[
        "quattroshapes_pg",
        "zetashapes"
    ],
    "src:lbl":"mapshaper",
    "src:lbl:centroid":"mapshaper",
    "src:population":"zetashapes",
    "wof:belongsto":[
        102191575,
        85633793,
        85933967,
        102085759,
        85688651
    ],
    "wof:breaches":[],
    "wof:concordances":{
        "gn:id":7223054,
        "gp:id":55984772,
        "qs_pg:id":535747
    },
    "wof:country":"US",
    "wof:geomhash":"639d9f3872e2c5c94bb8682749ea73bd",
    "wof:hierarchy":[
        {
            "continent_id":102191575,
            "country_id":85633793,
            "county_id":102085759,
            "locality_id":85933967,
            "neighbourhood_id":420516237,
            "region_id":85688651
        }
    ],
    "wof:id":420516237,
    "wof:lastmodified":1533593042,
    "wof:name":"Lake Valencia",
    "wof:parent_id":85933967,
    "wof:placetype":"neighbourhood",
    "wof:population":632,
    "wof:population_rank":2,
    "wof:repo":"whosonfirst-data-admin-us",
    "wof:superseded_by":[],
    "wof:supersedes":[],
    "wof:tags":[],
    "zs:area_m":435700.877386,
    "zs:blockids":[
        121030273173001,
        121030273171012,
        121030273171011,
        121030273173005
    ],
    "zs:housing10":269,
    "zs:id":55980458,
    "zs:label":"Lake Valencia",
    "zs:pop10":632
},
  "bbox": [
    -82.731146,
    28.058594,
    -82.731146,
    28.058594
],
  "geometry": {"coordinates":[-82.731146,28.058594],"type":"Point"}
}