{
  "id": 420545377,
  "type": "Feature",
  "properties": {
    "edtf:cessation":"uuuu",
    "edtf:inception":"uuuu",
    "geom:area":0.0,
    "geom:area_square_m":95160.982367,
    "geom:bbox":"-111.832882,40.622043,-111.832882,40.622043",
    "geom:latitude":40.622043,
    "geom:longitude":-111.832882,
    "iso:country":"US",
    "lbl:latitude":40.622043,
    "lbl:longitude":-111.832882,
    "mz:hierarchy_label":0,
    "mz:is_current":-1,
    "name:eng_x_preferred":[
        "Little Cottonwood Valley"
    ],
    "name:hbs_x_preferred":[
        "Little Cottonwood Creek Valley"
    ],
    "name:nld_x_preferred":[
        "Little Cottonwood Creek Valley"
    ],
    "name:por_x_preferred":[
        "Little Cottonwood Creek Valley"
    ],
    "name:spa_x_preferred":[
        "Little Cottonwood Creek Valley"
    ],
    "name:srp_x_preferred":[
        "\u041b\u0438\u0442\u043b \u041a\u043e\u0442\u043e\u043d\u0432\u0443\u0434 \u041a\u0440\u0438\u043a \u0412\u0430\u043b\u0438"
    ],
    "src:geom":"mz",
    "src:geom_alt":[
        "quattroshapes_pg",
        "zetashapes"
    ],
    "src:lbl":"mapshaper",
    "src:lbl:centroid":"mapshaper",
    "src:population":"zetashapes",
    "wd:wordcount":479,
    "wof:belongsto":[
        102191575,
        85633793,
        101728065,
        102082877,
        85688567
    ],
    "wof:breaches":[],
    "wof:concordances":{
        "gn:id":5777388,
        "gp:id":2440146,
        "qs_pg:id":1026122,
        "wd:id":"Q2415455"
    },
    "wof:country":"US",
    "wof:geomhash":"20b243eb8ca44b4ab8bbbb9ef4772e94",
    "wof:hierarchy":[
        {
            "continent_id":102191575,
            "country_id":85633793,
            "county_id":102082877,
            "locality_id":101728065,
            "neighbourhood_id":420545377,
            "region_id":85688567
        }
    ],
    "wof:id":420545377,
    "wof:lastmodified":1533601958,
    "wof:name":"Little Cottonwood Valley",
    "wof:parent_id":101728065,
    "wof:placetype":"neighbourhood",
    "wof:population":191,
    "wof:population_rank":1,
    "wof:repo":"whosonfirst-data-admin-us",
    "wof:superseded_by":[],
    "wof:supersedes":[],
    "wof:tags":[],
    "zs:area_m":95154.364939,
    "zs:blockids":[
        490351113052004,
        490351113052003,
        490351113052002
    ],
    "zs:housing10":68,
    "zs:id":2440146,
    "zs:label":"Little Cottonwood Valley",
    "zs:pop10":191
},
  "bbox": [
    -111.832882,
    40.622043,
    -111.832882,
    40.622043
],
  "geometry": {"coordinates":[-111.832882,40.622043],"type":"Point"}
}