{
  "id": 420559555,
  "type": "Feature",
  "properties": {
    "edtf:cessation":"uuuu",
    "edtf:inception":"uuuu",
    "geom:area":0.0,
    "geom:area_square_m":12033.861361,
    "geom:bbox":"-97.747029,30.271811,-97.747029,30.271811",
    "geom:latitude":30.271811,
    "geom:longitude":-97.747029,
    "iso:country":"US",
    "lbl:latitude":30.271811,
    "lbl:longitude":-97.747029,
    "mz:hierarchy_label":0,
    "mz:is_current":-1,
    "src:geom":"mz",
    "src:geom_alt":[
        "zetashapes"
    ],
    "src:lbl:centroid":"mapshaper",
    "wof:belongsto":[
        102191575,
        85633793,
        101724577,
        102081935,
        85688753
    ],
    "wof:breaches":[],
    "wof:concordances":{
        "gp:id":55993075
    },
    "wof:country":"US",
    "wof:geomhash":"9a44d57e11ad5b583cf60a7655d1a8c1",
    "wof:hierarchy":[
        {
            "continent_id":102191575,
            "country_id":85633793,
            "county_id":102081935,
            "locality_id":101724577,
            "neighbourhood_id":420559555,
            "region_id":85688753
        }
    ],
    "wof:id":420559555,
    "wof:lastmodified":1533614370,
    "wof:name":"",
    "wof:parent_id":101724577,
    "wof:placetype":"neighbourhood",
    "wof:repo":"whosonfirst-data-admin-us",
    "wof:superseded_by":[],
    "wof:supersedes":[],
    "wof:tags":[],
    "zs:48453:area_m":12033.034636,
    "zs:48453:blockids":"484530011001032",
    "zs:48453:housing10":12,
    "zs:48453:id":55993075,
    "zs:48453:label":"Republic Square Park",
    "zs:48453:pop10":15,
    "zs:id":55993075,
    "zs:name":"Republic Square Park",
    "zs:placetype":"neighbourhood",
    "zs:us:counties":[
        "48453"
    ]
},
  "bbox": [
    -97.747029,
    30.271811,
    -97.747029,
    30.271811
],
  "geometry": {"coordinates":[-97.747029,30.271811],"type":"Point"}
}