{
  "id": 420559247,
  "type": "Feature",
  "properties": {
    "edtf:cessation":"uuuu",
    "edtf:inception":"uuuu",
    "geom:area":0.0,
    "geom:area_square_m":1186056.667662,
    "geom:bbox":"-105.228639,40.048332,-105.228639,40.048332",
    "geom:latitude":40.048332,
    "geom:longitude":-105.228639,
    "iso:country":"US",
    "lbl:latitude":40.048332,
    "lbl:longitude":-105.228639,
    "mz:hierarchy_label":0,
    "mz:is_current":-1,
    "src:geom":"mz",
    "src:geom_alt":[
        "zetashapes"
    ],
    "src:lbl:centroid":"mapshaper",
    "wof:belongsto":[
        102191575,
        85633793,
        85930751,
        102085251,
        85688603
    ],
    "wof:breaches":[],
    "wof:concordances":{
        "gp:id":56019525
    },
    "wof:country":"US",
    "wof:geomhash":"3056a129d775a32a6b109d7b63be9a01",
    "wof:hierarchy":[
        {
            "continent_id":102191575,
            "country_id":85633793,
            "county_id":102085251,
            "locality_id":85930751,
            "neighbourhood_id":420559247,
            "region_id":85688603
        }
    ],
    "wof:id":420559247,
    "wof:lastmodified":1533614298,
    "wof:name":"",
    "wof:parent_id":85930751,
    "wof:placetype":"neighbourhood",
    "wof:repo":"whosonfirst-data-admin-us",
    "wof:superseded_by":[],
    "wof:supersedes":[],
    "wof:tags":[],
    "zs:8013:area_m":1185976.762936,
    "zs:8013:blockids":"080130127071013,080130127071025,080130127053026,080130127071026,080130127071019,080130127071028,080130127071012,080130127053032",
    "zs:8013:housing10":24,
    "zs:8013:id":56019525,
    "zs:8013:label":"Woodbourne Hollow",
    "zs:8013:pop10":51,
    "zs:id":56019525,
    "zs:name":"Woodbourne Hollow",
    "zs:placetype":"neighbourhood",
    "zs:us:counties":[
        "8013"
    ]
},
  "bbox": [
    -105.228639,
    40.048332,
    -105.228639,
    40.048332
],
  "geometry": {"coordinates":[-105.228639,40.048332],"type":"Point"}
}