{
  "id": 1310021589,
  "type": "Feature",
  "properties": {
    "edtf:cessation":"2018-09-07",
    "edtf:inception":"uuuu",
    "geom:area":0.0,
    "geom:area_square_m":0.0,
    "geom:bbox":"-85.19095,37.55123,-85.19095,37.55123",
    "geom:latitude":37.55123,
    "geom:longitude":-85.19095,
    "gn:admin1_code":"KY",
    "gn:admin2_code":"155",
    "gn:asciiname":"Helm (historical)",
    "gn:country_code":"US",
    "gn:dem":276,
    "gn:elevation":"266.0",
    "gn:feature_class":"P",
    "gn:feature_code":"PPLQ",
    "gn:geonameid":7252424,
    "gn:latitude":37.55123,
    "gn:longitude":-85.19095,
    "gn:modification_date":"2011-12-12",
    "gn:name":"Helm (historical)",
    "gn:population":0,
    "gn:timezone":"America/New_York",
    "iso:country":"US",
    "mz:hierarchy_label":1,
    "mz:is_current":0,
    "src:geom":"geonames",
    "wof:belongsto":[
        102191575,
        85633793,
        85688641,
        102085629
    ],
    "wof:breaches":[],
    "wof:concordances":{
        "gn:id":7252424
    },
    "wof:country":"US",
    "wof:geomhash":"2169ac5d5204b01bf5612bff552562f1",
    "wof:hierarchy":[
        {
            "continent_id":102191575,
            "country_id":85633793,
            "county_id":102085629,
            "locality_id":1310021589,
            "region_id":85688641
        }
    ],
    "wof:id":1310021589,
    "wof:lastmodified":1536617897,
    "wof:name":"Helm (historical)",
    "wof:parent_id":102085629,
    "wof:placetype":"locality",
    "wof:repo":"whosonfirst-data-admin-us",
    "wof:superseded_by":[],
    "wof:supersedes":[],
    "wof:tags":[]
},
  "bbox": [
    -85.19095,
    37.55123,
    -85.19095,
    37.55123
],
  "geometry": {"coordinates":[-85.19095,37.55123],"type":"Point"}
}