{
  "id": 1243207273,
  "type": "Feature",
  "properties": {
    "edtf:cessation":"2018-09-06",
    "edtf:inception":"uuuu",
    "geom:area":0.0,
    "geom:area_square_m":0.0,
    "geom:bbox":"-120.32599,34.84387,-120.32599,34.84387",
    "geom:latitude":34.84387,
    "geom:longitude":-120.32599,
    "gn:admin1_code":"CA",
    "gn:admin2_code":"83.0",
    "gn:asciiname":"Roadamite (historical)",
    "gn:country_code":"US",
    "gn:dem":233,
    "gn:elevation":"234.0",
    "gn:feature_class":"P",
    "gn:feature_code":"PPLQ",
    "gn:geonameid":5387988,
    "gn:latitude":34.84387,
    "gn:longitude":-120.32599,
    "gn:modification_date":"2011-12-12",
    "gn:name":"Roadamite (historical)",
    "gn:population":0,
    "gn:timezone":"America/Los_Angeles",
    "iso:country":"US",
    "mz:hierarchy_label":1,
    "mz:is_current":0,
    "src:geom":"geonames",
    "wof:belongsto":[
        102191575,
        85633793,
        85688637,
        102080855
    ],
    "wof:breaches":[],
    "wof:concordances":{
        "gn:id":5387988
    },
    "wof:country":"US",
    "wof:geomhash":"a6d32f4021adac2c878c97f4b468813e",
    "wof:hierarchy":[
        {
            "continent_id":102191575,
            "country_id":85633793,
            "county_id":102080855,
            "locality_id":1243207273,
            "region_id":85688637
        }
    ],
    "wof:id":1243207273,
    "wof:lastmodified":1536653349,
    "wof:name":"Roadamite (historical)",
    "wof:parent_id":102080855,
    "wof:placetype":"locality",
    "wof:repo":"whosonfirst-data-admin-us",
    "wof:superseded_by":[],
    "wof:supersedes":[],
    "wof:tags":[]
},
  "bbox": [
    -120.32599,
    34.84387,
    -120.32599,
    34.84387
],
  "geometry": {"coordinates":[-120.32599,34.84387],"type":"Point"}
}