{
  "id": 1125293691,
  "type": "Feature",
  "properties": {
    "edtf:cessation":"2017-05-19",
    "edtf:inception":"uuuu",
    "geom:area":0.0,
    "geom:area_square_m":0.0,
    "geom:bbox":"-89.59485,32.59385,-89.59485,32.59385",
    "geom:latitude":32.59385,
    "geom:longitude":-89.59485,
    "gn:gn_country":"US",
    "gn:gn_fcode":"ADMD",
    "gn:gn_pop":148,
    "gn:population":148,
    "iso:country":"US",
    "lbl:latitude":32.59385,
    "lbl:longitude":-89.59485,
    "mz:hierarchy_label":1,
    "mz:is_current":0,
    "mz:note":"Quattroshapes Point Gazetteer import 20170519",
    "qs_pg:aaroncc":"US",
    "qs_pg:gn_country":"US",
    "qs_pg:gn_fcode":"ADMD",
    "qs_pg:gn_id":7171247,
    "qs_pg:gn_pop":148,
    "qs_pg:name":"Town of Lena",
    "qs_pg:photos_9r":0,
    "qs_pg:photos_sr":0,
    "qs_pg:pop_sr":1,
    "qs_pg:qs_id":663896,
    "qs_pg:qs_pg_placetype":"localadmin",
    "src:geom":"qs_pg",
    "src:lbl:centroid":"qs_pg",
    "src:population":"geonames",
    "wof:belongsto":[
        85633793
    ],
    "wof:breaches":[],
    "wof:concordances":{
        "gn:id":7171247,
        "qs_pg:id":663896
    },
    "wof:country":"US",
    "wof:created":1497043044,
    "wof:geomhash":"f906de41aec036b10ec8cb0c4379d7bb",
    "wof:hierarchy":[
        {
            "country_id":85633793,
            "localadmin_id":1125293691
        }
    ],
    "wof:id":1125293691,
    "wof:lastmodified":1505187104,
    "wof:name":"Town of Lena",
    "wof:parent_id":-1,
    "wof:placetype":"localadmin",
    "wof:population":148,
    "wof:population_rank":1,
    "wof:repo":"whosonfirst-data-admin-us",
    "wof:superseded_by":[],
    "wof:supersedes":[],
    "wof:tags":[]
},
  "bbox": [
    -89.59485,
    32.59385,
    -89.59485,
    32.59385
],
  "geometry": {"coordinates":[-89.59484999999999,32.59385],"type":"Point"}
}