{
  "id": 1293903305,
  "type": "Feature",
  "properties": {
    "edtf:cessation":"uuuu",
    "edtf:inception":"uuuu",
    "geom:area":0.0,
    "geom:area_square_m":0.0,
    "geom:bbox":"-68.98032,45.23644,-68.98032,45.23644",
    "geom:latitude":45.23644,
    "geom:longitude":-68.98032,
    "gn:admin1_code":"ME",
    "gn:admin2_code":"21.0",
    "gn:admin3_code":"46020.0",
    "gn:asciiname":"Derby",
    "gn:country_code":"US",
    "gn:dem":95,
    "gn:elevation":"96.0",
    "gn:feature_class":"P",
    "gn:feature_code":"PPL",
    "gn:geonameid":4962479,
    "gn:latitude":45.23644,
    "gn:longitude":-68.98032,
    "gn:modification_date":"2017-05-23",
    "gn:name":"Derby",
    "gn:population":0,
    "gn:timezone":"America/New_York",
    "iso:country":"US",
    "mz:hierarchy_label":1,
    "mz:is_current":-1,
    "name:eng_x_preferred":[
        "Derby"
    ],
    "name:und_x_variant":[
        "Medford Junction"
    ],
    "src:geom":"geonames",
    "wof:belongsto":[
        85688769,
        102191575,
        404474765,
        85633793,
        102087465
    ],
    "wof:breaches":[],
    "wof:concordances":{
        "gn:id":4962479
    },
    "wof:country":"US",
    "wof:geomhash":"1c0ddfc4303ed02e022868ebd39e7e6f",
    "wof:hierarchy":[
        {
            "continent_id":102191575,
            "country_id":85633793,
            "county_id":102087465,
            "localadmin_id":404474765,
            "locality_id":1293903305,
            "region_id":85688769
        }
    ],
    "wof:id":1293903305,
    "wof:lastmodified":1537712841,
    "wof:name":"Derby",
    "wof:parent_id":404474765,
    "wof:placetype":"locality",
    "wof:repo":"whosonfirst-data-admin-us",
    "wof:superseded_by":[],
    "wof:supersedes":[],
    "wof:tags":[]
},
  "bbox": [
    -68.98031999999999,
    45.23644,
    -68.98031999999999,
    45.23644
],
  "geometry": {"coordinates":[-68.98031999999999,45.23644],"type":"Point"}
}