{
  "id": 420536703,
  "type": "Feature",
  "properties": {
    "edtf:cessation":"uuuu",
    "edtf:inception":"uuuu",
    "geom:area":0.0,
    "geom:area_square_m":1009543.34492,
    "geom:bbox":"-78.515693,40.436542,-78.515693,40.436542",
    "geom:latitude":40.436542,
    "geom:longitude":-78.515693,
    "iso:country":"US",
    "lbl:latitude":40.436542,
    "lbl:longitude":-78.515693,
    "mz:hierarchy_label":0,
    "mz:is_current":-1,
    "name:eng_x_preferred":[
        "Dysertown"
    ],
    "src:geom":"mz",
    "src:geom_alt":[
        "zetashapes"
    ],
    "src:lbl":"mapshaper",
    "src:population":"zetashapes",
    "wof:belongsto":[
        102191575,
        404484715,
        85633793,
        102081325,
        85688481
    ],
    "wof:breaches":[],
    "wof:concordances":{
        "gp:id":2394969
    },
    "wof:country":"US",
    "wof:geomhash":"81b30ce12bdc46e02a91bdf405fc4d29",
    "wof:hierarchy":[
        {
            "continent_id":102191575,
            "country_id":85633793,
            "county_id":102081325,
            "localadmin_id":404484715,
            "locality_id":-1,
            "neighbourhood_id":420536703,
            "region_id":85688481
        }
    ],
    "wof:id":420536703,
    "wof:lastmodified":1533599393,
    "wof:name":"Dysertown",
    "wof:parent_id":-1,
    "wof:placetype":"neighbourhood",
    "wof:population":1,
    "wof:population_rank":1,
    "wof:repo":"whosonfirst-data-admin-us",
    "wof:superseded_by":[],
    "wof:supersedes":[],
    "wof:tags":[],
    "zs:area_m":1009512.071984,
    "zs:blockids":[
        420130110013000,
        420130110012005,
        420130110013027,
        420130110012034,
        420130110013005,
        420130110013008
    ],
    "zs:housing10":1,
    "zs:id":2394969,
    "zs:label":"Dysertown",
    "zs:pop10":1
},
  "bbox": [
    -78.515693,
    40.436542,
    -78.515693,
    40.436542
],
  "geometry": {"coordinates":[-78.515693,40.436542],"type":"Point"}
}