{
  "id": 1276696787,
  "type": "Feature",
  "properties": {
    "edtf:cessation":"2018-09-07",
    "edtf:inception":"uuuu",
    "geom:area":0.0,
    "geom:area_square_m":0.0,
    "geom:bbox":"-157.63333,65.33333,-157.63333,65.33333",
    "geom:latitude":65.33333,
    "geom:longitude":-157.63333,
    "gn:admin1_code":"AK",
    "gn:admin2_code":"290.0",
    "gn:asciiname":"Zonagoliakten (historical)",
    "gn:country_code":"US",
    "gn:dem":39,
    "gn:elevation":"44.0",
    "gn:feature_class":"P",
    "gn:feature_code":"PPLQ",
    "gn:geonameid":5878596,
    "gn:latitude":65.33333,
    "gn:longitude":-157.63333,
    "gn:modification_date":"2011-12-12",
    "gn:name":"Zonagoliakten (historical)",
    "gn:population":0,
    "gn:timezone":"America/Anchorage",
    "iso:country":"US",
    "mz:hierarchy_label":1,
    "mz:is_current":0,
    "name:eng_x_preferred":[
        "Zonagoliakten (historical)"
    ],
    "name:und_x_variant":[
        "Tsonagolyakhten",
        "Zonagogliak ten",
        "Tsonogokhlyakhten",
        "Tsonagoliakten",
        "Zonogchljachten"
    ],
    "src:geom":"geonames",
    "wof:belongsto":[
        102191575,
        85633793,
        85688573,
        102081905
    ],
    "wof:breaches":[],
    "wof:concordances":{
        "gn:id":5878596
    },
    "wof:country":"US",
    "wof:geomhash":"74d433aa6831a42c4578ece38fbeb84f",
    "wof:hierarchy":[
        {
            "continent_id":102191575,
            "country_id":85633793,
            "county_id":102081905,
            "locality_id":1276696787,
            "region_id":85688573
        }
    ],
    "wof:id":1276696787,
    "wof:lastmodified":1537713164,
    "wof:name":"Zonagoliakten (historical)",
    "wof:parent_id":102081905,
    "wof:placetype":"locality",
    "wof:repo":"whosonfirst-data-admin-us",
    "wof:superseded_by":[],
    "wof:supersedes":[],
    "wof:tags":[]
},
  "bbox": [
    -157.63333,
    65.33333,
    -157.63333,
    65.33333
],
  "geometry": {"coordinates":[-157.63333,65.33333],"type":"Point"}
}