{
  "id": 1209526705,
  "type": "Feature",
  "properties": {
    "edtf:cessation":"2018-09-06",
    "edtf:inception":"uuuu",
    "geom:area":0.0,
    "geom:area_square_m":0.0,
    "geom:bbox":"-78.18056,37.94931,-78.18056,37.94931",
    "geom:latitude":37.94931,
    "geom:longitude":-78.18056,
    "gn:admin1_code":"VA",
    "gn:admin2_code":"65",
    "gn:asciiname":"Trice (historical)",
    "gn:country_code":"US",
    "gn:dem":160,
    "gn:elevation":"161.0",
    "gn:feature_class":"P",
    "gn:feature_code":"PPLQ",
    "gn:geonameid":4790038,
    "gn:latitude":37.94931,
    "gn:longitude":-78.18056,
    "gn:modification_date":"2011-12-12",
    "gn:name":"Trice (historical)",
    "gn:population":0,
    "gn:timezone":"America/New_York",
    "iso:country":"US",
    "mz:hierarchy_label":1,
    "mz:is_current":0,
    "src:geom":"geonames",
    "wof:belongsto":[
        85633793
    ],
    "wof:breaches":[],
    "wof:concordances":{
        "gn:id":4790038
    },
    "wof:country":"US",
    "wof:geomhash":"cd668ddd08beb71bfcd789a54e69728a",
    "wof:hierarchy":[
        {
            "country_id":85633793,
            "locality_id":1209526705
        }
    ],
    "wof:id":1209526705,
    "wof:lastmodified":1536284412,
    "wof:name":"Trice (historical)",
    "wof:parent_id":85633793,
    "wof:placetype":"locality",
    "wof:repo":"whosonfirst-data-admin-us",
    "wof:superseded_by":[],
    "wof:supersedes":[],
    "wof:tags":[]
},
  "bbox": [
    -78.18056,
    37.94931,
    -78.18056,
    37.94931
],
  "geometry": {"coordinates":[-78.18056,37.94931],"type":"Point"}
}