{
  "id": 1125288129,
  "type": "Feature",
  "properties": {
    "edtf:cessation":"2017-05-19",
    "edtf:inception":"uuuu",
    "geom:area":0.0,
    "geom:area_square_m":0.0,
    "geom:bbox":"-117.14129,47.00876,-117.14129,47.00876",
    "geom:latitude":47.00876,
    "geom:longitude":-117.14129,
    "gn:gn_country":"US",
    "gn:gn_fcode":"ADMD",
    "gn:gn_pop":597,
    "gn:population":597,
    "iso:country":"US",
    "lbl:latitude":47.00876,
    "lbl:longitude":-117.14129,
    "mz:hierarchy_label":1,
    "mz:is_current":0,
    "mz:note":"Quattroshapes Point Gazetteer import 20170519",
    "qs_pg:aaroncc":"US",
    "qs_pg:gn_country":"US",
    "qs_pg:gn_fcode":"ADMD",
    "qs_pg:gn_id":7175084,
    "qs_pg:gn_pop":597,
    "qs_pg:name":"Town of Garfield",
    "qs_pg:photos_9r":0,
    "qs_pg:photos_sr":0,
    "qs_pg:pop_sr":2,
    "qs_pg:qs_id":667631,
    "qs_pg:qs_pg_placetype":"localadmin",
    "src:geom":"qs_pg",
    "src:lbl:centroid":"qs_pg",
    "src:population":"geonames",
    "wof:belongsto":[
        85633793
    ],
    "wof:breaches":[],
    "wof:concordances":{
        "gn:id":7175084,
        "qs_pg:id":667631
    },
    "wof:country":"US",
    "wof:created":1497042798,
    "wof:geomhash":"81cbd333ccd2d034b52022ca310fd692",
    "wof:hierarchy":[
        {
            "country_id":85633793,
            "localadmin_id":1125288129
        }
    ],
    "wof:id":1125288129,
    "wof:lastmodified":1505187148,
    "wof:name":"Town of Garfield",
    "wof:parent_id":-1,
    "wof:placetype":"localadmin",
    "wof:population":597,
    "wof:population_rank":2,
    "wof:repo":"whosonfirst-data-admin-us",
    "wof:superseded_by":[],
    "wof:supersedes":[],
    "wof:tags":[]
},
  "bbox": [
    -117.14129,
    47.00876,
    -117.14129,
    47.00876
],
  "geometry": {"coordinates":[-117.14129,47.00876],"type":"Point"}
}