{
  "id": 1126095281,
  "type": "Feature",
  "properties": {
    "edtf:cessation":"uuuu",
    "edtf:inception":"uuuu",
    "geom:area":0.0,
    "geom:area_square_m":0.0,
    "geom:bbox":"-78.48863,40.65312,-78.48863,40.65312",
    "geom:latitude":40.65312,
    "geom:longitude":-78.48863,
    "gn:gn_country":"US",
    "gn:gn_fcode":"PPL",
    "gn:gn_pop":0,
    "iso:country":"US",
    "lbl:latitude":40.65312,
    "lbl:longitude":-78.48863,
    "mz:hierarchy_label":1,
    "mz:is_current":-1,
    "mz:note":"Quattroshapes Point Gazetteer import 20170519",
    "name:ara_x_preferred":[
        "\u062a\u0648\u0641\u064a\u0631"
    ],
    "name:bul_x_preferred":[
        "\u0418\u043a\u043e\u043d\u043e\u043c\u0438\u0447\u043d\u043e\u0441\u0442"
    ],
    "name:cat_x_preferred":[
        "Frugalitat"
    ],
    "name:deu_x_preferred":[
        "Sparsamkeit"
    ],
    "name:eng_x_preferred":[
        "Frugality"
    ],
    "name:hye_x_preferred":[
        "\u053d\u0576\u0561\u0575\u0578\u0572\u0578\u0582\u0569\u0575\u0578\u0582\u0576"
    ],
    "name:lit_x_preferred":[
        "Ekonomi\u0161kumas"
    ],
    "name:por_x_preferred":[
        "Frugalidade"
    ],
    "name:rus_x_preferred":[
        "\u0411\u0435\u0440\u0435\u0436\u043b\u0438\u0432\u043e\u0441\u0442\u044c"
    ],
    "name:spa_x_preferred":[
        "Frugalidad"
    ],
    "name:zea_x_preferred":[
        "Zunig'eid"
    ],
    "qs_pg:aaroncc":"US",
    "qs_pg:gn_country":"US",
    "qs_pg:gn_fcode":"PPL",
    "qs_pg:gn_id":5190621,
    "qs_pg:gn_pop":0,
    "qs_pg:name":"Frugality",
    "qs_pg:name_adm0":"United States",
    "qs_pg:name_adm1":"Pennsylvania",
    "qs_pg:photos":1,
    "qs_pg:photos_1k":1,
    "qs_pg:photos_9k":1,
    "qs_pg:photos_9r":1,
    "qs_pg:photos_all":1,
    "qs_pg:photos_sr":1,
    "qs_pg:pop_sr":0,
    "qs_pg:qs_id":1333498,
    "qs_pg:qs_pg_placetype":"neighbourhood",
    "qs_pg:qs_pg_placetype_gp":"Suburb",
    "qs_pg:woe_adm0":23424977,
    "qs_pg:woe_id":2407920,
    "src:geom":"qs_pg",
    "src:lbl:centroid":"qs_pg",
    "src:population":"zetashapes",
    "woe:adm0_id":23424977,
    "woe:name_adm0":"United States",
    "woe:name_adm1":"Pennsylvania",
    "woe:placetype":"Suburb",
    "wof:belongsto":[
        102191575,
        404485401,
        85633793,
        102080879,
        85688481
    ],
    "wof:breaches":[],
    "wof:concordances":{
        "gn:id":5190621,
        "gp:id":2407920,
        "qs_pg:id":1333498,
        "wd:id":"Q1858477"
    },
    "wof:country":"US",
    "wof:created":1497315080,
    "wof:geomhash":"57d6ef07e95fd5bb2401243de728ff0b",
    "wof:hierarchy":[
        {
            "continent_id":102191575,
            "country_id":85633793,
            "county_id":102080879,
            "localadmin_id":404485401,
            "locality_id":-1,
            "neighbourhood_id":1126095281,
            "region_id":85688481
        }
    ],
    "wof:id":1126095281,
    "wof:lastmodified":1534379645,
    "wof:name":"Frugality",
    "wof:parent_id":-1,
    "wof:placetype":"neighbourhood",
    "wof:population":16,
    "wof:population_rank":1,
    "wof:repo":"whosonfirst-data-admin-us",
    "wof:superseded_by":[],
    "wof:supersedes":[
        420537025
    ],
    "wof:tags":[]
},
  "bbox": [
    -78.48863,
    40.65312,
    -78.48863,
    40.65312
],
  "geometry": {"coordinates":[-78.48863,40.65312],"type":"Point"}
}