{
  "id": 1310717701,
  "type": "Feature",
  "properties": {
    "edtf:cessation":"uuuu",
    "edtf:inception":"uuuu",
    "geom:area":0.0,
    "geom:area_square_m":0.0,
    "geom:bbox":"-115.31203,43.48406,-115.31203,43.48406",
    "geom:latitude":43.48406,
    "geom:longitude":-115.31203,
    "gn:admin1_code":"ID",
    "gn:admin2_code":"39.0",
    "gn:asciiname":"Pine",
    "gn:country_code":"US",
    "gn:dem":1287,
    "gn:elevation":"1291.0",
    "gn:feature_class":"P",
    "gn:feature_code":"PPL",
    "gn:geonameid":5603756,
    "gn:latitude":43.48406,
    "gn:longitude":-115.31203,
    "gn:modification_date":"2006-01-15",
    "gn:name":"Pine",
    "gn:population":0,
    "gn:timezone":"America/Boise",
    "iso:country":"US",
    "mz:hierarchy_label":1,
    "mz:is_current":-1,
    "name:eng_x_preferred":[
        "Pine"
    ],
    "name:und_x_variant":[
        "Pine Grove"
    ],
    "src:geom":"geonames",
    "wof:belongsto":[
        102191575,
        85633793,
        85688657,
        102086075
    ],
    "wof:breaches":[],
    "wof:concordances":{
        "gn:id":5603756
    },
    "wof:country":"US",
    "wof:geomhash":"ce90d11a349aebabdc0f416d552f7bc7",
    "wof:hierarchy":[
        {
            "continent_id":102191575,
            "country_id":85633793,
            "county_id":102086075,
            "locality_id":1310717701,
            "region_id":85688657
        }
    ],
    "wof:id":1310717701,
    "wof:lastmodified":1537713076,
    "wof:name":"Pine",
    "wof:parent_id":102086075,
    "wof:placetype":"locality",
    "wof:repo":"whosonfirst-data-admin-us",
    "wof:superseded_by":[],
    "wof:supersedes":[],
    "wof:tags":[]
},
  "bbox": [
    -115.31203,
    43.48406,
    -115.31203,
    43.48406
],
  "geometry": {"coordinates":[-115.31202999999999,43.48406],"type":"Point"}
}