{
  "id": 420536005,
  "type": "Feature",
  "properties": {
    "edtf:cessation":"uuuu",
    "edtf:inception":"uuuu",
    "geom:area":0.0,
    "geom:area_square_m":1863485.774147,
    "geom:bbox":"-114.553587,32.679472,-114.553587,32.679472",
    "geom:latitude":32.679472,
    "geom:longitude":-114.553587,
    "iso:country":"US",
    "lbl:latitude":32.679472,
    "lbl:longitude":-114.553587,
    "mz:hierarchy_label":0,
    "mz:is_current":-1,
    "name:eng_x_preferred":[
        "Curtis"
    ],
    "src:geom":"mz",
    "src:geom_alt":[
        "zetashapes"
    ],
    "src:lbl":"mapshaper",
    "src:lbl:centroid":"mapshaper",
    "src:population":"zetashapes",
    "wd:wordcount":980,
    "wof:belongsto":[
        102191575,
        85633793,
        85917319,
        102081527,
        85688719
    ],
    "wof:breaches":[],
    "wof:concordances":{
        "gp:id":56019168,
        "wd:id":"Q17520995"
    },
    "wof:country":"US",
    "wof:geomhash":"a94985e970cfa4255dfc61407d9496b8",
    "wof:hierarchy":[
        {
            "continent_id":102191575,
            "country_id":85633793,
            "county_id":102081527,
            "locality_id":85917319,
            "neighbourhood_id":420536005,
            "region_id":85688719
        }
    ],
    "wof:id":420536005,
    "wof:lastmodified":1533599187,
    "wof:name":"Curtis",
    "wof:parent_id":85917319,
    "wof:placetype":"neighbourhood",
    "wof:population":10,
    "wof:population_rank":1,
    "wof:repo":"whosonfirst-data-admin-us",
    "wof:superseded_by":[],
    "wof:supersedes":[],
    "wof:tags":[],
    "zs:area_m":1863356.85847,
    "zs:blockids":[
        40270109131118,
        40270111071017,
        40270111071021,
        40270111071018,
        40270109131117,
        40270111071000,
        40270109131120,
        40270109131092,
        40270111071019,
        40270109131111,
        40270109131113,
        40270111071020
    ],
    "zs:housing10":1,
    "zs:id":56019168,
    "zs:label":"Curtis",
    "zs:pop10":10
},
  "bbox": [
    -114.553587,
    32.679472,
    -114.553587,
    32.679472
],
  "geometry": {"coordinates":[-114.55358699999999,32.679472],"type":"Point"}
}