{
  "id": 85875907,
  "type": "Feature",
  "properties": {"wof:repo":"whosonfirst-data-admin-us",
    "src:geom":"quattroshapes",
    "wof:geomhash":"dfda37329331e5abd83fc99c1d156d71",
    "wof:id":85875907
},
  "bbox": [
    -83.77349853514994,
    42.31906448302672,
    -83.75670097185957,
    42.334031762600134
],
  "geometry": {"coordinates":[[[-83.76412076065031,42.33324140018551],[-83.76363210118632,42.33291089136510],[-83.75700951049589,42.33027605986474],[-83.75701904294993,42.33027512100021],[-83.75704631270776,42.33027780683683],[-83.75681443023808,42.33008750581202],[-83.75670097185957,42.32994925637755],[-83.76118020882785,42.31985248732586],[-83.76525878907489,42.31906448302672],[-83.76682129333437,42.31997013647539],[-83.77075195312491,42.31997013647539],[-83.77341298319010,42.32176959736121],[-83.77349853514994,42.32200101507517],[-83.77349853514994,42.33237988613040],[-83.77183220542355,42.33327055792520],[-83.76995627432012,42.33383961540412],[-83.76800537110000,42.33403176260013],[-83.76605446787977,42.33383961540412],[-83.76417853677634,42.33327055792520],[-83.76411823979907,42.33323832851939],[-83.76412076065031,42.33324140018551]]],"type":"Polygon"}
}