{
  "id": 1310429807,
  "type": "Feature",
  "properties": {
    "edtf:cessation":"uuuu",
    "edtf:inception":"uuuu",
    "geom:area":0.0,
    "geom:area_square_m":0.0,
    "geom:bbox":"-86.93972,36.35005,-86.93972,36.35005",
    "geom:latitude":36.35005,
    "geom:longitude":-86.93972,
    "gn:admin1_code":"TN",
    "gn:admin2_code":"21.0",
    "gn:asciiname":"Pinnacle",
    "gn:country_code":"US",
    "gn:dem":227,
    "gn:elevation":"229.0",
    "gn:feature_class":"P",
    "gn:feature_code":"PPL",
    "gn:geonameid":4649749,
    "gn:latitude":36.35005,
    "gn:longitude":-86.93972,
    "gn:modification_date":"2006-01-15",
    "gn:name":"Pinnacle",
    "gn:population":0,
    "gn:timezone":"America/Chicago",
    "iso:country":"US",
    "mz:hierarchy_label":1,
    "mz:is_current":-1,
    "src:geom":"geonames",
    "wof:belongsto":[
        102191575,
        85633793,
        85688701,
        102086233
    ],
    "wof:breaches":[],
    "wof:concordances":{
        "gn:id":4649749
    },
    "wof:country":"US",
    "wof:geomhash":"5cf9dd29a6f9c1ce9a1ffc59eece5ca4",
    "wof:hierarchy":[
        {
            "continent_id":102191575,
            "country_id":85633793,
            "county_id":102086233,
            "locality_id":1310429807,
            "region_id":85688701
        }
    ],
    "wof:id":1310429807,
    "wof:lastmodified":1537025054,
    "wof:name":"Pinnacle",
    "wof:parent_id":102086233,
    "wof:placetype":"locality",
    "wof:repo":"whosonfirst-data-admin-us",
    "wof:superseded_by":[],
    "wof:supersedes":[],
    "wof:tags":[]
},
  "bbox": [
    -86.93972,
    36.35005,
    -86.93972,
    36.35005
],
  "geometry": {"coordinates":[-86.93971999999999,36.35005],"type":"Point"}
}