{
  "id": 1277093891,
  "type": "Feature",
  "properties": {
    "edtf:cessation":"uuuu",
    "edtf:inception":"uuuu",
    "geom:area":0.0,
    "geom:area_square_m":0.0,
    "geom:bbox":"-97.8017,32.51486,-97.8017,32.51486",
    "geom:latitude":32.51486,
    "geom:longitude":-97.8017,
    "gn:admin1_code":"TX",
    "gn:admin2_code":"221",
    "gn:asciiname":"Fairview",
    "gn:country_code":"US",
    "gn:dem":250,
    "gn:elevation":"245.0",
    "gn:feature_class":"P",
    "gn:feature_code":"PPL",
    "gn:geonameid":4689873,
    "gn:latitude":32.51486,
    "gn:longitude":-97.8017,
    "gn:modification_date":"2006-01-15",
    "gn:name":"Fairview",
    "gn:population":0,
    "gn:timezone":"America/Chicago",
    "iso:country":"US",
    "mz:hierarchy_label":1,
    "mz:is_current":-1,
    "src:geom":"geonames",
    "wof:belongsto":[
        102191575,
        85633793,
        85688753,
        102087383
    ],
    "wof:breaches":[],
    "wof:concordances":{
        "gn:id":4689873
    },
    "wof:country":"US",
    "wof:geomhash":"492ebc8790babfe46203028f1d4a9592",
    "wof:hierarchy":[
        {
            "continent_id":102191575,
            "country_id":85633793,
            "county_id":102087383,
            "locality_id":1277093891,
            "region_id":85688753
        }
    ],
    "wof:id":1277093891,
    "wof:lastmodified":1536751510,
    "wof:name":"Fairview",
    "wof:parent_id":102087383,
    "wof:placetype":"locality",
    "wof:repo":"whosonfirst-data-admin-us",
    "wof:superseded_by":[],
    "wof:supersedes":[],
    "wof:tags":[]
},
  "bbox": [
    -97.8017,
    32.51486,
    -97.8017,
    32.51486
],
  "geometry": {"coordinates":[-97.8017,32.51486],"type":"Point"}
}