{
  "id": 1125292447,
  "type": "Feature",
  "properties": {
    "edtf:cessation":"uuuu",
    "edtf:deprecated":"2017-11-15",
    "edtf:inception":"uuuu",
    "geom:area":0.0,
    "geom:area_square_m":0.0,
    "geom:bbox":"-85.86444,33.98989,-85.86444,33.98989",
    "geom:latitude":33.98989,
    "geom:longitude":-85.86444,
    "gn:gn_country":"US",
    "gn:gn_fcode":"ADMD",
    "gn:gn_pop":4286,
    "gn:population":4286,
    "iso:country":"US",
    "lbl:latitude":33.98989,
    "lbl:longitude":-85.86444,
    "mz:hierarchy_label":1,
    "mz:is_current":0,
    "mz:note":"Quattroshapes Point Gazetteer import 20170519",
    "qs_pg:aaroncc":"US",
    "qs_pg:gn_country":"US",
    "qs_pg:gn_fcode":"ADMD",
    "qs_pg:gn_id":7170202,
    "qs_pg:gn_pop":4286,
    "qs_pg:name":"City of Hokes Bluff",
    "qs_pg:photos_9r":0,
    "qs_pg:photos_sr":0,
    "qs_pg:pop_sr":4,
    "qs_pg:qs_id":662874,
    "qs_pg:qs_pg_placetype":"localadmin",
    "src:geom":"qs_pg",
    "src:lbl:centroid":"qs_pg",
    "src:population":"geonames",
    "wof:belongsto":[
        85633793
    ],
    "wof:breaches":[],
    "wof:concordances":{
        "gn:id":7170202,
        "qs_pg:id":662874
    },
    "wof:country":"US",
    "wof:created":1497042985,
    "wof:geomhash":"a529df7bb85cd92de412c11cbeab242b",
    "wof:hierarchy":[
        {
            "country_id":85633793,
            "localadmin_id":1125292447
        }
    ],
    "wof:id":1125292447,
    "wof:lastmodified":1510790347,
    "wof:name":"City of Hokes Bluff",
    "wof:parent_id":-1,
    "wof:placetype":"localadmin",
    "wof:population":4286,
    "wof:population_rank":4,
    "wof:repo":"whosonfirst-data-admin-us",
    "wof:superseded_by":[
        85914363
    ],
    "wof:supersedes":[],
    "wof:tags":[]
},
  "bbox": [
    -85.86444,
    33.98989,
    -85.86444,
    33.98989
],
  "geometry": {"coordinates":[-85.86444,33.98989],"type":"Point"}
}