{
  "id": 1243198327,
  "type": "Feature",
  "properties": {
    "edtf:cessation":"uuuu",
    "edtf:inception":"uuuu",
    "geom:area":0.0,
    "geom:area_square_m":0.0,
    "geom:bbox":"-86.75083,34.51176,-86.75083,34.51176",
    "geom:latitude":34.51176,
    "geom:longitude":-86.75083,
    "gn:admin1_code":"AL",
    "gn:admin2_code":"103.0",
    "gn:asciiname":"Winton",
    "gn:country_code":"US",
    "gn:dem":179,
    "gn:elevation":"177.0",
    "gn:feature_class":"P",
    "gn:feature_code":"PPL",
    "gn:geonameid":4098219,
    "gn:latitude":34.51176,
    "gn:longitude":-86.75083,
    "gn:modification_date":"2006-01-15",
    "gn:name":"Winton",
    "gn:population":0,
    "gn:timezone":"America/Chicago",
    "iso:country":"US",
    "mz:hierarchy_label":1,
    "mz:is_current":-1,
    "src:geom":"geonames",
    "wof:belongsto":[
        102191575,
        85633793,
        85688675,
        102085531
    ],
    "wof:breaches":[],
    "wof:concordances":{
        "gn:id":4098219
    },
    "wof:country":"US",
    "wof:geomhash":"73d44c79cfef8ec129c565f8c91917a9",
    "wof:hierarchy":[
        {
            "continent_id":102191575,
            "country_id":85633793,
            "county_id":102085531,
            "locality_id":1243198327,
            "region_id":85688675
        }
    ],
    "wof:id":1243198327,
    "wof:lastmodified":1536666406,
    "wof:name":"Winton",
    "wof:parent_id":102085531,
    "wof:placetype":"locality",
    "wof:repo":"whosonfirst-data-admin-us",
    "wof:superseded_by":[],
    "wof:supersedes":[],
    "wof:tags":[]
},
  "bbox": [
    -86.75083000000002,
    34.51176,
    -86.75083000000002,
    34.51176
],
  "geometry": {"coordinates":[-86.75083000000002,34.51176],"type":"Point"}
}