{
  "id": 1125408749,
  "type": "Feature",
  "properties": {
    "edtf:cessation":"uuuu",
    "edtf:deprecated":"2017-11-04",
    "edtf:inception":"uuuu",
    "geom:area":0.0,
    "geom:area_square_m":0.0,
    "geom:bbox":"-89.23236,38.00195,-89.23236,38.00195",
    "geom:latitude":38.00195,
    "geom:longitude":-89.23236,
    "gn:gn_country":"US",
    "gn:gn_fcode":"ADMD",
    "gn:gn_pop":6109,
    "gn:population":6109,
    "iso:country":"US",
    "lbl:latitude":38.00195,
    "lbl:longitude":-89.23236,
    "mz:hierarchy_label":1,
    "mz:is_current":0,
    "mz:note":"Quattroshapes Point Gazetteer import 20170519",
    "qs_pg:aaroncc":"US",
    "qs_pg:gn_country":"US",
    "qs_pg:gn_fcode":"ADMD",
    "qs_pg:gn_id":7163481,
    "qs_pg:gn_pop":6109,
    "qs_pg:name":"City of Du Quoin",
    "qs_pg:photos_9r":0,
    "qs_pg:photos_sr":0,
    "qs_pg:pop_sr":5,
    "qs_pg:qs_id":658449,
    "qs_pg:qs_pg_placetype":"localadmin",
    "src:geom":"qs_pg",
    "src:lbl:centroid":"qs_pg",
    "src:population":"geonames",
    "wof:belongsto":[
        85633793
    ],
    "wof:breaches":[],
    "wof:concordances":{
        "gn:id":7163481,
        "qs_pg:id":658449
    },
    "wof:country":"US",
    "wof:created":1497049825,
    "wof:geomhash":"e908f40ce3fdc2ec13baf7b28c01ad25",
    "wof:hierarchy":[
        {
            "country_id":85633793,
            "localadmin_id":1125408749
        }
    ],
    "wof:id":1125408749,
    "wof:lastmodified":1509752719,
    "wof:name":"City of Du Quoin",
    "wof:parent_id":-1,
    "wof:placetype":"localadmin",
    "wof:population":6109,
    "wof:population_rank":5,
    "wof:repo":"whosonfirst-data-admin-us",
    "wof:superseded_by":[
        85938763
    ],
    "wof:supersedes":[],
    "wof:tags":[]
},
  "bbox": [
    -89.23236,
    38.00195,
    -89.23236,
    38.00195
],
  "geometry": {"coordinates":[-89.23236,38.00195],"type":"Point"}
}