{
  "id": 420510265,
  "type": "Feature",
  "properties": {
    "edtf:cessation":"uuuu",
    "edtf:inception":"uuuu",
    "geom:area":0.0,
    "geom:area_square_m":20962.336714,
    "geom:bbox":"-86.695475,33.575454,-86.695475,33.575454",
    "geom:latitude":33.575454,
    "geom:longitude":-86.695475,
    "iso:country":"US",
    "lbl:latitude":33.575454,
    "lbl:longitude":-86.695475,
    "mz:hierarchy_label":0,
    "mz:is_current":1,
    "name:eng_x_preferred":[
        "Oakville"
    ],
    "src:geom":"mz",
    "src:geom_alt":[
        "quattroshapes_pg",
        "zetashapes"
    ],
    "src:lbl":"mapshaper",
    "src:lbl:centroid":"mapshaper",
    "src:population":"zetashapes",
    "wd:wordcount":105,
    "wof:belongsto":[
        102191575,
        85633793,
        85914465,
        102085481,
        85688675
    ],
    "wof:breaches":[],
    "wof:concordances":{
        "gn:id":4081108,
        "gp:id":2463859,
        "qs_pg:id":1261981
    },
    "wof:country":"US",
    "wof:geomhash":"052f0e8e298d7eb3ad946b18f42210b2",
    "wof:hierarchy":[
        {
            "continent_id":102191575,
            "country_id":85633793,
            "county_id":102085481,
            "locality_id":85914465,
            "neighbourhood_id":420510265,
            "region_id":85688675
        }
    ],
    "wof:id":420510265,
    "wof:lastmodified":1533591153,
    "wof:name":"Oakville",
    "wof:parent_id":85914465,
    "wof:placetype":"neighbourhood",
    "wof:population":29,
    "wof:population_rank":1,
    "wof:repo":"whosonfirst-data-admin-us",
    "wof:superseded_by":[],
    "wof:supersedes":[],
    "wof:tags":[],
    "zs:area_m":20960.893346,
    "zs:blockids":[
        10730053022024
    ],
    "zs:housing10":13,
    "zs:id":2463859,
    "zs:label":"Oakville",
    "zs:pop10":29
},
  "bbox": [
    -86.695475,
    33.575454,
    -86.695475,
    33.575454
],
  "geometry": {"coordinates":[-86.695475,33.575454],"type":"Point"}
}