{
  "id": 1125416893,
  "type": "Feature",
  "properties": {
    "edtf:cessation":"uuuu",
    "edtf:deprecated":"2017-11-04",
    "edtf:inception":"uuuu",
    "geom:area":0.0,
    "geom:area_square_m":0.0,
    "geom:bbox":"-90.64201,40.91403,-90.64201,40.91403",
    "geom:latitude":40.91403,
    "geom:longitude":-90.64201,
    "gn:gn_country":"US",
    "gn:gn_fcode":"ADMD",
    "gn:gn_pop":9444,
    "gn:population":9444,
    "iso:country":"US",
    "lbl:latitude":40.91403,
    "lbl:longitude":-90.64201,
    "mz:hierarchy_label":1,
    "mz:is_current":0,
    "mz:note":"Quattroshapes Point Gazetteer import 20170519",
    "qs_pg:aaroncc":"US",
    "qs_pg:gn_country":"US",
    "qs_pg:gn_fcode":"ADMD",
    "qs_pg:gn_id":7317093,
    "qs_pg:gn_pop":9444,
    "qs_pg:name":"City of Monmouth",
    "qs_pg:photos_9r":0,
    "qs_pg:photos_sr":0,
    "qs_pg:pop_sr":5,
    "qs_pg:qs_id":683107,
    "qs_pg:qs_pg_placetype":"localadmin",
    "src:geom":"qs_pg",
    "src:lbl:centroid":"qs_pg",
    "src:population":"geonames",
    "wof:belongsto":[
        85633793
    ],
    "wof:breaches":[],
    "wof:concordances":{
        "gn:id":7317093,
        "qs_pg:id":683107
    },
    "wof:country":"US",
    "wof:created":1497051504,
    "wof:geomhash":"3712156337297ca97e713bb517b5c89b",
    "wof:hierarchy":[
        {
            "country_id":85633793,
            "localadmin_id":1125416893
        }
    ],
    "wof:id":1125416893,
    "wof:lastmodified":1509752748,
    "wof:name":"City of Monmouth",
    "wof:parent_id":-1,
    "wof:placetype":"localadmin",
    "wof:population":9444,
    "wof:population_rank":5,
    "wof:repo":"whosonfirst-data-admin-us",
    "wof:superseded_by":[
        85939967
    ],
    "wof:supersedes":[],
    "wof:tags":[]
},
  "bbox": [
    -90.64201,
    40.91403,
    -90.64201,
    40.91403
],
  "geometry": {"coordinates":[-90.64201,40.91403],"type":"Point"}
}