{
  "id": 420532255,
  "type": "Feature",
  "properties": {
    "edtf:cessation":"uuuu",
    "edtf:inception":"uuuu",
    "geom:area":0.0,
    "geom:area_square_m":444439.864557,
    "geom:bbox":"-80.752934,35.169253,-80.752934,35.169253",
    "geom:latitude":35.169253,
    "geom:longitude":-80.752934,
    "iso:country":"US",
    "lbl:latitude":35.169253,
    "lbl:longitude":-80.752934,
    "mz:hierarchy_label":0,
    "mz:is_current":1,
    "name:eng_x_preferred":[
        "Woodberry Forest"
    ],
    "src:geom":"mz",
    "src:geom_alt":[
        "quattroshapes_pg",
        "zetashapes"
    ],
    "src:lbl":"mapshaper",
    "src:lbl:centroid":"mapshaper",
    "src:population":"zetashapes",
    "wd:wordcount":1297,
    "wof:belongsto":[
        102191575,
        85633793,
        85981333,
        102080981,
        85688773
    ],
    "wof:breaches":[],
    "wof:concordances":{
        "gn:id":4499820,
        "gp:id":2522858,
        "qs_pg:id":202234
    },
    "wof:country":"US",
    "wof:geomhash":"e82e302dac32e2eea28e9c98a19aeca1",
    "wof:hierarchy":[
        {
            "continent_id":102191575,
            "country_id":85633793,
            "county_id":102080981,
            "locality_id":85981333,
            "neighbourhood_id":420532255,
            "region_id":85688773
        }
    ],
    "wof:id":420532255,
    "wof:lastmodified":1533597955,
    "wof:name":"Woodberry Forest",
    "wof:parent_id":85981333,
    "wof:placetype":"neighbourhood",
    "wof:population":941,
    "wof:population_rank":2,
    "wof:repo":"whosonfirst-data-admin-us",
    "wof:superseded_by":[],
    "wof:supersedes":[],
    "wof:tags":[],
    "zs:area_m":444409.318399,
    "zs:blockids":[
        371190019151001
    ],
    "zs:housing10":501,
    "zs:id":2522858,
    "zs:label":"Woodberry Forest",
    "zs:pop10":941
},
  "bbox": [
    -80.752934,
    35.169253,
    -80.752934,
    35.169253
],
  "geometry": {"coordinates":[-80.752934,35.169253],"type":"Point"}
}