{
  "id": 1343882683,
  "type": "Feature",
  "properties": {
    "edtf:cessation":"uuuu",
    "edtf:inception":"uuuu",
    "geom:area":0.0,
    "geom:area_square_m":0.0,
    "geom:bbox":"-106.6445,34.76227,-106.6445,34.76227",
    "geom:latitude":34.76227,
    "geom:longitude":-106.6445,
    "gn:admin1_code":"NM",
    "gn:admin2_code":"61",
    "gn:asciiname":"El Cerro Mission",
    "gn:country_code":"US",
    "gn:dem":1538,
    "gn:elevation":"1538.0",
    "gn:feature_class":"P",
    "gn:feature_code":"PPL",
    "gn:geonameid":7261104,
    "gn:latitude":34.76227,
    "gn:longitude":-106.6445,
    "gn:modification_date":"2017-03-10",
    "gn:name":"El Cerro Mission",
    "gn:population":4657,
    "gn:timezone":"America/Denver",
    "iso:country":"US",
    "mz:hierarchy_label":1,
    "mz:is_current":-1,
    "name:und_x_variant":[
        "El Cerro Mission Census Designated Place",
        "El Cerro-Monterey Park CDP",
        "El Cerro Mission"
    ],
    "src:geom":"geonames",
    "src:population":"geonames",
    "wof:belongsto":[
        102191575,
        85633793,
        85688493,
        102081561
    ],
    "wof:breaches":[],
    "wof:concordances":{
        "gn:id":7261104,
        "wk:page":"El_Cerro_Mission%2C_New_Mexico"
    },
    "wof:country":"US",
    "wof:geomhash":"07eafd170fb428dd4174d17456b61d14",
    "wof:hierarchy":[
        {
            "continent_id":102191575,
            "country_id":85633793,
            "county_id":102081561,
            "locality_id":1343882683,
            "region_id":85688493
        }
    ],
    "wof:id":1343882683,
    "wof:lastmodified":1537713191,
    "wof:name":"El Cerro Mission",
    "wof:parent_id":102081561,
    "wof:placetype":"locality",
    "wof:population":4657,
    "wof:population_rank":4,
    "wof:repo":"whosonfirst-data-admin-us",
    "wof:superseded_by":[],
    "wof:supersedes":[],
    "wof:tags":[]
},
  "bbox": [
    -106.6445,
    34.76227,
    -106.6445,
    34.76227
],
  "geometry": {"coordinates":[-106.64449999999999,34.76227],"type":"Point"}
}