{
  "id": 1125414475,
  "type": "Feature",
  "properties": {
    "edtf:cessation":"2017-05-19",
    "edtf:inception":"uuuu",
    "geom:area":0.0,
    "geom:area_square_m":0.0,
    "geom:bbox":"-78.58446,39.98647,-78.58446,39.98647",
    "geom:latitude":39.98647,
    "geom:longitude":-78.58446,
    "gn:gn_country":"US",
    "gn:gn_fcode":"ADMD",
    "gn:gn_pop":300,
    "gn:population":300,
    "iso:country":"US",
    "lbl:latitude":39.98647,
    "lbl:longitude":-78.58446,
    "mz:hierarchy_label":1,
    "mz:is_current":0,
    "mz:note":"Quattroshapes Point Gazetteer import 20170519",
    "qs_pg:aaroncc":"US",
    "qs_pg:gn_country":"US",
    "qs_pg:gn_fcode":"ADMD",
    "qs_pg:gn_id":4559403,
    "qs_pg:gn_pop":300,
    "qs_pg:name":"Borough of Manns Choice",
    "qs_pg:photos_9r":0,
    "qs_pg:photos_sr":0,
    "qs_pg:pop_sr":2,
    "qs_pg:qs_id":595037,
    "qs_pg:qs_pg_placetype":"localadmin",
    "src:geom":"qs_pg",
    "src:lbl:centroid":"qs_pg",
    "src:population":"geonames",
    "wof:belongsto":[
        85633793
    ],
    "wof:breaches":[],
    "wof:concordances":{
        "gn:id":4559403,
        "qs_pg:id":595037
    },
    "wof:country":"US",
    "wof:created":1497051031,
    "wof:geomhash":"abb723e6cf5ea865e7086c7ca8a93960",
    "wof:hierarchy":[
        {
            "country_id":85633793,
            "localadmin_id":1125414475
        }
    ],
    "wof:id":1125414475,
    "wof:lastmodified":1505186917,
    "wof:name":"Borough of Manns Choice",
    "wof:parent_id":-1,
    "wof:placetype":"localadmin",
    "wof:population":300,
    "wof:population_rank":2,
    "wof:repo":"whosonfirst-data-admin-us",
    "wof:superseded_by":[],
    "wof:supersedes":[],
    "wof:tags":[]
},
  "bbox": [
    -78.58446,
    39.98647,
    -78.58446,
    39.98647
],
  "geometry": {"coordinates":[-78.58446000000001,39.98647],"type":"Point"}
}