{
  "id": 1260305335,
  "type": "Feature",
  "properties": {
    "edtf:cessation":"2018-09-07",
    "edtf:inception":"uuuu",
    "geom:area":0.0,
    "geom:area_square_m":0.0,
    "geom:bbox":"-84.26158,32.9343,-84.26158,32.9343",
    "geom:latitude":32.9343,
    "geom:longitude":-84.26158,
    "gn:admin1_code":"GA",
    "gn:admin2_code":"293.0",
    "gn:asciiname":"Blacksboro (historical)",
    "gn:country_code":"US",
    "gn:dem":240,
    "gn:elevation":"232.0",
    "gn:feature_class":"P",
    "gn:feature_code":"PPLQ",
    "gn:geonameid":4183304,
    "gn:latitude":32.9343,
    "gn:longitude":-84.26158,
    "gn:modification_date":"2011-12-11",
    "gn:name":"Blacksboro (historical)",
    "gn:population":0,
    "gn:timezone":"America/New_York",
    "iso:country":"US",
    "mz:hierarchy_label":1,
    "mz:is_current":0,
    "src:geom":"geonames",
    "wof:belongsto":[
        102191575,
        85633793,
        85688535,
        102084425
    ],
    "wof:breaches":[],
    "wof:concordances":{
        "gn:id":4183304
    },
    "wof:country":"US",
    "wof:geomhash":"248d5a7484962b62a7ff5a98e93cc14e",
    "wof:hierarchy":[
        {
            "continent_id":102191575,
            "country_id":85633793,
            "county_id":102084425,
            "locality_id":1260305335,
            "region_id":85688535
        }
    ],
    "wof:id":1260305335,
    "wof:lastmodified":1536682578,
    "wof:name":"Blacksboro (historical)",
    "wof:parent_id":102084425,
    "wof:placetype":"locality",
    "wof:repo":"whosonfirst-data-admin-us",
    "wof:superseded_by":[],
    "wof:supersedes":[],
    "wof:tags":[]
},
  "bbox": [
    -84.26158000000002,
    32.9343,
    -84.26158000000002,
    32.9343
],
  "geometry": {"coordinates":[-84.26158000000002,32.9343],"type":"Point"}
}