{
  "id": 1125383627,
  "type": "Feature",
  "properties": {
    "edtf:cessation":"2017-05-19",
    "edtf:inception":"uuuu",
    "geom:area":0.0,
    "geom:area_square_m":0.0,
    "geom:bbox":"-72.87876,44.63893,-72.87876,44.63893",
    "geom:latitude":44.63893,
    "geom:longitude":-72.87876,
    "gn:gn_country":"US",
    "gn:gn_fcode":"ADMD",
    "gn:gn_pop":236,
    "gn:population":236,
    "iso:country":"US",
    "lbl:latitude":44.63893,
    "lbl:longitude":-72.87876,
    "mz:hierarchy_label":1,
    "mz:is_current":0,
    "mz:note":"Quattroshapes Point Gazetteer import 20170519",
    "qs_pg:aaroncc":"US",
    "qs_pg:gn_country":"US",
    "qs_pg:gn_fcode":"ADMD",
    "qs_pg:gn_id":7160216,
    "qs_pg:gn_pop":236,
    "qs_pg:name":"Village of Cambridge",
    "qs_pg:photos_9r":0,
    "qs_pg:photos_sr":0,
    "qs_pg:pop_sr":2,
    "qs_pg:qs_id":656880,
    "qs_pg:qs_pg_placetype":"localadmin",
    "src:geom":"qs_pg",
    "src:lbl:centroid":"qs_pg",
    "src:population":"geonames",
    "wof:belongsto":[
        85633793
    ],
    "wof:breaches":[],
    "wof:concordances":{
        "gn:id":7160216,
        "qs_pg:id":656880
    },
    "wof:country":"US",
    "wof:created":1497048215,
    "wof:geomhash":"eea41819756967e337fed271bf23f176",
    "wof:hierarchy":[
        {
            "country_id":85633793,
            "localadmin_id":1125383627
        }
    ],
    "wof:id":1125383627,
    "wof:lastmodified":1505187013,
    "wof:name":"Village of Cambridge",
    "wof:parent_id":-1,
    "wof:placetype":"localadmin",
    "wof:population":236,
    "wof:population_rank":2,
    "wof:repo":"whosonfirst-data-admin-us",
    "wof:superseded_by":[],
    "wof:supersedes":[],
    "wof:tags":[]
},
  "bbox": [
    -72.87876,
    44.63893,
    -72.87876,
    44.63893
],
  "geometry": {"coordinates":[-72.87876,44.63893],"type":"Point"}
}