{
  "id": 1125319927,
  "type": "Feature",
  "properties": {
    "edtf:cessation":"uuuu",
    "edtf:deprecated":"2017-11-04",
    "edtf:inception":"uuuu",
    "geom:area":0.0,
    "geom:area_square_m":0.0,
    "geom:bbox":"-117.93961,44.91187,-117.93961,44.91187",
    "geom:latitude":44.91187,
    "geom:longitude":-117.93961,
    "gn:gn_country":"US",
    "gn:gn_fcode":"ADMD",
    "gn:gn_pop":416,
    "gn:population":416,
    "iso:country":"US",
    "lbl:latitude":44.91187,
    "lbl:longitude":-117.93961,
    "mz:hierarchy_label":1,
    "mz:is_current":0,
    "mz:note":"Quattroshapes Point Gazetteer import 20170519",
    "qs_pg:aaroncc":"US",
    "qs_pg:gn_country":"US",
    "qs_pg:gn_fcode":"ADMD",
    "qs_pg:gn_id":7173563,
    "qs_pg:gn_pop":416,
    "qs_pg:name":"City of Haines",
    "qs_pg:photos_9r":0,
    "qs_pg:photos_sr":0,
    "qs_pg:pop_sr":2,
    "qs_pg:qs_id":666129,
    "qs_pg:qs_pg_placetype":"localadmin",
    "src:geom":"qs_pg",
    "src:lbl:centroid":"qs_pg",
    "src:population":"geonames",
    "wof:belongsto":[
        85633793
    ],
    "wof:breaches":[],
    "wof:concordances":{
        "gn:id":7173563,
        "qs_pg:id":666129
    },
    "wof:country":"US",
    "wof:created":1497044474,
    "wof:geomhash":"5189770bec55e1ff58dd23334fd79593",
    "wof:hierarchy":[
        {
            "country_id":85633793,
            "localadmin_id":1125319927
        }
    ],
    "wof:id":1125319927,
    "wof:lastmodified":1509752543,
    "wof:name":"City of Haines",
    "wof:parent_id":-1,
    "wof:placetype":"localadmin",
    "wof:population":416,
    "wof:population_rank":2,
    "wof:repo":"whosonfirst-data-admin-us",
    "wof:superseded_by":[
        101715987
    ],
    "wof:supersedes":[],
    "wof:tags":[]
},
  "bbox": [
    -117.93961,
    44.91187,
    -117.93961,
    44.91187
],
  "geometry": {"coordinates":[-117.93961,44.91187],"type":"Point"}
}