{
  "id": 1209540259,
  "type": "Feature",
  "properties": {
    "edtf:cessation":"2018-09-06",
    "edtf:inception":"uuuu",
    "geom:area":0.0,
    "geom:area_square_m":0.0,
    "geom:bbox":"-92.23766,36.41812,-92.23766,36.41812",
    "geom:latitude":36.41812,
    "geom:longitude":-92.23766,
    "gn:admin1_code":"AR",
    "gn:admin2_code":"5.0",
    "gn:admin3_code":"92460.0",
    "gn:asciiname":"Custer (historical)",
    "gn:country_code":"US",
    "gn:dem":167,
    "gn:elevation":"167.0",
    "gn:feature_class":"P",
    "gn:feature_code":"PPLQ",
    "gn:geonameid":4107442,
    "gn:latitude":36.41812,
    "gn:longitude":-92.23766,
    "gn:modification_date":"2017-05-23",
    "gn:name":"Custer (historical)",
    "gn:population":0,
    "gn:timezone":"America/Chicago",
    "iso:country":"US",
    "mz:hierarchy_label":1,
    "mz:is_current":0,
    "src:geom":"geonames",
    "wof:belongsto":[
        85633793
    ],
    "wof:breaches":[],
    "wof:concordances":{
        "gn:id":4107442
    },
    "wof:country":"US",
    "wof:geomhash":"0780e91e570e6c1f8f7a7d09725029a5",
    "wof:hierarchy":[
        {
            "country_id":85633793,
            "locality_id":1209540259
        }
    ],
    "wof:id":1209540259,
    "wof:lastmodified":1536284009,
    "wof:name":"Custer (historical)",
    "wof:parent_id":85633793,
    "wof:placetype":"locality",
    "wof:repo":"whosonfirst-data-admin-us",
    "wof:superseded_by":[],
    "wof:supersedes":[],
    "wof:tags":[]
},
  "bbox": [
    -92.23766,
    36.41812,
    -92.23766,
    36.41812
],
  "geometry": {"coordinates":[-92.23766000000001,36.41812],"type":"Point"}
}