{
  "id": 420530425,
  "type": "Feature",
  "properties": {
    "edtf:cessation":"uuuu",
    "edtf:inception":"uuuu",
    "geom:area":0.0,
    "geom:area_square_m":640549.397565,
    "geom:bbox":"-73.687635,40.962827,-73.687635,40.962827",
    "geom:latitude":40.962827,
    "geom:longitude":-73.687635,
    "iso:country":"US",
    "lbl:latitude":40.962827,
    "lbl:longitude":-73.687635,
    "mz:hierarchy_label":0,
    "mz:is_current":-1,
    "name:eng_x_preferred":[
        "Milton"
    ],
    "src:geom":"mz",
    "src:geom_alt":[
        "quattroshapes_pg",
        "zetashapes"
    ],
    "src:lbl":"mapshaper",
    "src:lbl:centroid":"mapshaper",
    "src:population":"zetashapes",
    "wof:belongsto":[
        102191575,
        85633793,
        85978703,
        102082373,
        85688543
    ],
    "wof:breaches":[],
    "wof:concordances":{
        "gn:id":5127100,
        "gp:id":2451780,
        "qs_pg:id":980522
    },
    "wof:country":"US",
    "wof:geomhash":"020f8f025a145570a8497ba6a60cde0b",
    "wof:hierarchy":[
        {
            "continent_id":102191575,
            "country_id":85633793,
            "county_id":102082373,
            "locality_id":85978703,
            "neighbourhood_id":420530425,
            "region_id":85688543
        }
    ],
    "wof:id":420530425,
    "wof:lastmodified":1533597384,
    "wof:name":"Milton",
    "wof:parent_id":85978703,
    "wof:placetype":"neighbourhood",
    "wof:population":1340,
    "wof:population_rank":3,
    "wof:repo":"whosonfirst-data-admin-us",
    "wof:superseded_by":[],
    "wof:supersedes":[],
    "wof:tags":[],
    "zs:area_m":640505.48607,
    "zs:blockids":[
        361190076004011,
        361190075002018,
        361190076004004,
        361190075002030,
        361190076004006,
        361190076003005,
        361190075002022,
        361190076004013,
        361190076003008,
        361190076003003,
        361190076003010,
        361190076005020,
        361190076005008,
        361190075002019,
        361190076004001,
        361190076004008,
        361190076003006,
        361190075002032,
        361190076004012,
        361190076003013,
        361190075002031,
        361190076004002,
        361190075002027,
        361190076005021,
        361190076005010,
        361190075002029,
        361190076003002,
        361190076003001,
        361190075002028,
        361190075002020,
        361190076004003,
        361190076005013,
        361190076003007,
        361190076004007,
        361190076003004,
        361190076003012,
        361190076004005
    ],
    "zs:housing10":459,
    "zs:id":2451780,
    "zs:label":"Milton",
    "zs:pop10":1340
},
  "bbox": [
    -73.687635,
    40.962827,
    -73.687635,
    40.962827
],
  "geometry": {"coordinates":[-73.687635,40.962827],"type":"Point"}
}