{
  "id": 1125318459,
  "type": "Feature",
  "properties": {
    "edtf:cessation":"uuuu",
    "edtf:deprecated":"2017-11-04",
    "edtf:inception":"uuuu",
    "geom:area":0.0,
    "geom:area_square_m":0.0,
    "geom:bbox":"-86.89295,37.45075,-86.89295,37.45075",
    "geom:latitude":37.45075,
    "geom:longitude":-86.89295,
    "gn:gn_country":"US",
    "gn:gn_fcode":"ADMD",
    "gn:gn_pop":2672,
    "gn:population":2672,
    "iso:country":"US",
    "lbl:latitude":37.45075,
    "lbl:longitude":-86.89295,
    "mz:hierarchy_label":1,
    "mz:is_current":0,
    "mz:note":"Quattroshapes Point Gazetteer import 20170519",
    "qs_pg:aaroncc":"US",
    "qs_pg:gn_country":"US",
    "qs_pg:gn_fcode":"ADMD",
    "qs_pg:gn_id":7169584,
    "qs_pg:gn_pop":2672,
    "qs_pg:name":"City of Hartford",
    "qs_pg:photos_9r":0,
    "qs_pg:photos_sr":0,
    "qs_pg:pop_sr":4,
    "qs_pg:qs_id":662265,
    "qs_pg:qs_pg_placetype":"localadmin",
    "src:geom":"qs_pg",
    "src:lbl:centroid":"qs_pg",
    "src:population":"geonames",
    "wof:belongsto":[
        85633793
    ],
    "wof:breaches":[],
    "wof:concordances":{
        "gn:id":7169584,
        "qs_pg:id":662265
    },
    "wof:country":"US",
    "wof:created":1497044391,
    "wof:geomhash":"c9cef4510e084cfbbe9fb2ea6fb570d1",
    "wof:hierarchy":[
        {
            "country_id":85633793,
            "localadmin_id":1125318459
        }
    ],
    "wof:id":1125318459,
    "wof:lastmodified":1509752535,
    "wof:name":"City of Hartford",
    "wof:parent_id":-1,
    "wof:placetype":"localadmin",
    "wof:population":2672,
    "wof:population_rank":4,
    "wof:repo":"whosonfirst-data-admin-us",
    "wof:superseded_by":[
        85947097
    ],
    "wof:supersedes":[],
    "wof:tags":[]
},
  "bbox": [
    -86.89295,
    37.45075,
    -86.89295,
    37.45075
],
  "geometry": {"coordinates":[-86.89295,37.45075],"type":"Point"}
}