{
  "id": 404491855,
  "type": "Feature",
  "properties": {
    "edtf:cessation":"uuuu",
    "edtf:inception":"uuuu",
    "geom:area":0.000343,
    "geom:area_square_m":3114901.576713,
    "geom:bbox":"-89.602975,42.737318,-89.577945,42.756039",
    "geom:latitude":42.745812,
    "geom:longitude":-89.590098,
    "iso:country":"US",
    "lbl:latitude":42.744703,
    "lbl:longitude":-89.590099,
    "mz:hierarchy_label":1,
    "mz:is_current":-1,
    "name:eng_x_preferred":[
        "Monticello"
    ],
    "qs:a0":"United States",
    "qs:a1":"Wisconsin",
    "qs:a1_lc":"55",
    "qs:a2":"Green",
    "qs:a2_lc":"55045",
    "qs:adm0":"United States",
    "qs:adm0_a3":"USA",
    "qs:la":"Monticello",
    "qs:la_lc":"5504554000",
    "qs:level":"localadmin",
    "qs:pop":1217,
    "qs:source":"US Census",
    "qs:type":"village",
    "src:geom":"quattroshapes",
    "src:population":"quattroshapes",
    "wof:belongsto":[
        102191575,
        85633793,
        85688517,
        102081827
    ],
    "wof:breaches":[],
    "wof:concordances":{},
    "wof:country":"US",
    "wof:geomhash":"0e67a1175f1ee44a215754cd28ed828c",
    "wof:hierarchy":[
        {
            "continent_id":102191575,
            "country_id":85633793,
            "county_id":102081827,
            "localadmin_id":404491855,
            "region_id":85688517
        }
    ],
    "wof:id":404491855,
    "wof:lastmodified":1505339561,
    "wof:name":"Monticello",
    "wof:parent_id":102081827,
    "wof:placetype":"localadmin",
    "wof:population":1217,
    "wof:population_rank":3,
    "wof:repo":"whosonfirst-data-admin-us",
    "wof:superseded_by":[],
    "wof:supersedes":[],
    "wof:tags":[]
},
  "bbox": [
    -89.602975,
    42.737318,
    -89.577945,
    42.756039
],
  "geometry": {"coordinates":[[[-89.580791,42.752538],[-89.57905599999999,42.752536],[-89.578774,42.749787],[-89.578497,42.749747],[-89.578479,42.747604],[-89.577945,42.741462],[-89.57843800000001,42.741463],[-89.57840299999999,42.737318],[-89.598232,42.737549],[-89.598253,42.745583],[-89.598254,42.747365],[-89.59945999999999,42.747322],[-89.599363,42.746854],[-89.599311,42.746029],[-89.602842,42.746693],[-89.602931,42.748971],[-89.60288,42.75095],[-89.602875,42.751163],[-89.602975,42.756039],[-89.5958,42.756009],[-89.595849,42.751975],[-89.580794,42.751916],[-89.580792,42.752114],[-89.581053,42.752103],[-89.581479,42.752849],[-89.580788,42.752872],[-89.580791,42.752538]]],"type":"Polygon"}
}