{
  "id": 85807895,
  "type": "Feature",
  "properties": {
    "edtf:cessation":"uuuu",
    "edtf:inception":"uuuu",
    "geom:area":0.0,
    "geom:area_square_m":2848710.55532,
    "geom:bbox":"-78.747253,42.433594,-78.747253,42.433594",
    "geom:latitude":42.433594,
    "geom:longitude":-78.747253,
    "gn:elevation":421,
    "iso:country":"US",
    "lbl:latitude":42.433594,
    "lbl:longitude":-78.747253,
    "mps:latitude":42.433593,
    "mps:longitude":-78.747253,
    "mz:hierarchy_label":0,
    "mz:is_current":-1,
    "mz:is_funky":0,
    "mz:is_hard_boundary":0,
    "mz:is_landuse_aoi":0,
    "mz:is_official":0,
    "mz:max_zoom":18.0,
    "mz:min_zoom":15.0,
    "mz:tier_locality":1,
    "name:eng_x_preferred":[
        "Brooklyn"
    ],
    "name:unk_x_variant":[
        "Brooklyn"
    ],
    "qs:gn_adm0_cc":"US",
    "qs:gn_fcode":"PPL",
    "qs:gn_local":5115995,
    "qs:gn_nam_loc":"east otto",
    "qs:gn_namadm1":"NY",
    "qs:gn_name":"Brooklyn",
    "qs:local_max":6,
    "qs:local_sum":7,
    "qs:localhoods":2,
    "qs:name":"Brooklyn",
    "qs:name_adm0":"United States",
    "qs:name_adm1":"New York",
    "qs:name_adm2":"Cattaraugus",
    "qs:name_local":"East Otto",
    "qs:photo_max":6,
    "qs:photo_sum":6,
    "qs:placetype":"Suburb",
    "qs:quad_count":1,
    "qs:woe_adm0":23424977,
    "qs:woe_adm1":2347591,
    "qs:woe_adm2":12589316,
    "qs:woe_funk":"Grouping neighborhood",
    "qs:woe_lau":0,
    "qs:woe_local":2395986,
    "qs:woe_ver":"7.10.0",
    "src:geom":"mz",
    "src:geom_alt":[
        "quattroshapes",
        "quattroshapes_pg"
    ],
    "src:lbl:centroid":"yerbashapes",
    "src:population":"zetashapes",
    "wof:belongsto":[
        102191575,
        404521757,
        85633793,
        102081853,
        85688543
    ],
    "wof:breaches":[],
    "wof:concordances":{
        "gn:id":5110300,
        "gp:id":2369949,
        "qs:id":42369,
        "qs_pg:id":42369
    },
    "wof:country":"US",
    "wof:geomhash":"f3e8f31e14e2515f73c0cf88038d7c0b",
    "wof:hierarchy":[
        {
            "continent_id":102191575,
            "country_id":85633793,
            "county_id":102081853,
            "localadmin_id":404521757,
            "locality_id":-1,
            "neighbourhood_id":85807895,
            "region_id":85688543
        }
    ],
    "wof:id":85807895,
    "wof:lang":[
        "eng"
    ],
    "wof:lastmodified":1532373360,
    "wof:name":"Brooklyn",
    "wof:parent_id":-1,
    "wof:placetype":"neighbourhood",
    "wof:population":163,
    "wof:population_rank":1,
    "wof:repo":"whosonfirst-data-admin-us",
    "wof:superseded_by":[],
    "wof:supersedes":[],
    "wof:tags":[],
    "zs:blockids":[
        360099603004002,
        360099603003019,
        360099603004003,
        360099603003006,
        360099603004030
    ],
    "zs:housing10":91,
    "zs:pop10":163
},
  "bbox": [
    -78.747253,
    42.433594,
    -78.747253,
    42.433594
],
  "geometry": {"coordinates":[-78.747253,42.433594],"type":"Point"}
}