{
  "id": 1125289911,
  "type": "Feature",
  "properties": {
    "edtf:cessation":"2017-05-19",
    "edtf:inception":"uuuu",
    "geom:area":0.0,
    "geom:area_square_m":0.0,
    "geom:bbox":"-112.39615,39.50897,-112.39615,39.50897",
    "geom:latitude":39.50897,
    "geom:longitude":-112.39615,
    "gn:gn_country":"US",
    "gn:gn_fcode":"ADMD",
    "gn:gn_pop":106,
    "gn:population":106,
    "iso:country":"US",
    "lbl:latitude":39.50897,
    "lbl:longitude":-112.39615,
    "mz:hierarchy_label":1,
    "mz:is_current":0,
    "mz:note":"Quattroshapes Point Gazetteer import 20170519",
    "qs_pg:aaroncc":"US",
    "qs_pg:gn_country":"US",
    "qs_pg:gn_fcode":"ADMD",
    "qs_pg:gn_id":7175339,
    "qs_pg:gn_pop":106,
    "qs_pg:name":"Town of Lynndyl",
    "qs_pg:photos_9r":0,
    "qs_pg:photos_sr":0,
    "qs_pg:pop_sr":1,
    "qs_pg:qs_id":667868,
    "qs_pg:qs_pg_placetype":"localadmin",
    "src:geom":"qs_pg",
    "src:lbl:centroid":"qs_pg",
    "src:population":"geonames",
    "wof:belongsto":[
        85633793
    ],
    "wof:breaches":[],
    "wof:concordances":{
        "gn:id":7175339,
        "qs_pg:id":667868
    },
    "wof:country":"US",
    "wof:created":1497042873,
    "wof:geomhash":"f1ee423e50f12434a2df2c45b175a621",
    "wof:hierarchy":[
        {
            "country_id":85633793,
            "localadmin_id":1125289911
        }
    ],
    "wof:id":1125289911,
    "wof:lastmodified":1505187151,
    "wof:name":"Town of Lynndyl",
    "wof:parent_id":-1,
    "wof:placetype":"localadmin",
    "wof:population":106,
    "wof:population_rank":1,
    "wof:repo":"whosonfirst-data-admin-us",
    "wof:superseded_by":[],
    "wof:supersedes":[],
    "wof:tags":[]
},
  "bbox": [
    -112.39615,
    39.50897,
    -112.39615,
    39.50897
],
  "geometry": {"coordinates":[-112.39615000000001,39.50897],"type":"Point"}
}