{
  "id": 1243093291,
  "type": "Feature",
  "properties": {
    "edtf:cessation":"uuuu",
    "edtf:inception":"uuuu",
    "geom:area":0.0,
    "geom:area_square_m":0.0,
    "geom:bbox":"-85.61302,34.86397,-85.61302,34.86397",
    "geom:latitude":34.86397,
    "geom:longitude":-85.61302,
    "gn:admin1_code":"AL",
    "gn:admin2_code":"71",
    "gn:asciiname":"Eliza",
    "gn:country_code":"US",
    "gn:dem":447,
    "gn:elevation":"443.0",
    "gn:feature_class":"P",
    "gn:feature_code":"PPL",
    "gn:geonameid":4060429,
    "gn:latitude":34.86397,
    "gn:longitude":-85.61302,
    "gn:modification_date":"2010-09-05",
    "gn:name":"Eliza",
    "gn:population":0,
    "gn:timezone":"America/Chicago",
    "iso:country":"US",
    "mz:hierarchy_label":1,
    "mz:is_current":-1,
    "src:geom":"geonames",
    "wof:belongsto":[
        102191575,
        85633793,
        85688675,
        102085607
    ],
    "wof:breaches":[],
    "wof:concordances":{
        "gn:id":4060429
    },
    "wof:country":"US",
    "wof:geomhash":"25e1ecbc47b9a2a190743fb1ba8a6228",
    "wof:hierarchy":[
        {
            "continent_id":102191575,
            "country_id":85633793,
            "county_id":102085607,
            "locality_id":1243093291,
            "region_id":85688675
        }
    ],
    "wof:id":1243093291,
    "wof:lastmodified":1536816808,
    "wof:name":"Eliza",
    "wof:parent_id":102085607,
    "wof:placetype":"locality",
    "wof:repo":"whosonfirst-data-admin-us",
    "wof:superseded_by":[],
    "wof:supersedes":[],
    "wof:tags":[]
},
  "bbox": [
    -85.61301999999998,
    34.86397,
    -85.61301999999998,
    34.86397
],
  "geometry": {"coordinates":[-85.61301999999998,34.86397],"type":"Point"}
}