{
  "id": 1125300227,
  "type": "Feature",
  "properties": {
    "edtf:cessation":"2017-05-19",
    "edtf:inception":"uuuu",
    "geom:area":0.0,
    "geom:area_square_m":0.0,
    "geom:bbox":"-75.07462,39.91622,-75.07462,39.91622",
    "geom:latitude":39.91622,
    "geom:longitude":-75.07462,
    "gn:gn_country":"US",
    "gn:gn_fcode":"ADMD",
    "gn:gn_pop":13926,
    "gn:population":13926,
    "iso:country":"US",
    "lbl:latitude":39.91622,
    "lbl:longitude":-75.07462,
    "mz:hierarchy_label":1,
    "mz:is_current":0,
    "mz:note":"Quattroshapes Point Gazetteer import 20170519",
    "qs_pg:aaroncc":"US",
    "qs_pg:gn_country":"US",
    "qs_pg:gn_fcode":"ADMD",
    "qs_pg:gn_id":4501308,
    "qs_pg:gn_pop":13926,
    "qs_pg:name":"Borough of Collingswood",
    "qs_pg:photos_9r":0,
    "qs_pg:photos_sr":0,
    "qs_pg:pop_sr":6,
    "qs_pg:qs_id":593680,
    "qs_pg:qs_pg_placetype":"localadmin",
    "src:geom":"qs_pg",
    "src:lbl:centroid":"qs_pg",
    "src:population":"geonames",
    "wof:belongsto":[
        85633793
    ],
    "wof:breaches":[],
    "wof:concordances":{
        "gn:id":4501308,
        "qs_pg:id":593680
    },
    "wof:country":"US",
    "wof:created":1497043379,
    "wof:geomhash":"8a264bc519fc3905620af4613ebec0bd",
    "wof:hierarchy":[
        {
            "country_id":85633793,
            "localadmin_id":1125300227
        }
    ],
    "wof:id":1125300227,
    "wof:lastmodified":1505186912,
    "wof:name":"Borough of Collingswood",
    "wof:parent_id":-1,
    "wof:placetype":"localadmin",
    "wof:population":13926,
    "wof:population_rank":6,
    "wof:repo":"whosonfirst-data-admin-us",
    "wof:superseded_by":[],
    "wof:supersedes":[],
    "wof:tags":[]
},
  "bbox": [
    -75.07462,
    39.91622,
    -75.07462,
    39.91622
],
  "geometry": {"coordinates":[-75.07462,39.91622],"type":"Point"}
}