{
  "id": 85893439,
  "type": "Feature",
  "properties": {"wof:repo":"whosonfirst-data-admin-us",
    "src:geom":"quattroshapes",
    "wof:geomhash":"8022b273a2df0f03725f224bbb1bb945",
    "wof:id":85893439
},
  "bbox": [
    -86.79833630361821,
    36.100428620282955,
    -86.76997440486724,
    36.1400926705502
],
  "geometry": {"coordinates":[[[-86.78393162944724,36.14009267055020],[-86.78214037662872,36.13787470742771],[-86.78100585940004,36.13787470888317],[-86.77825927731826,36.13787471004019],[-86.77551269529991,36.13787470888307],[-86.77437817802075,36.13787470742771],[-86.77404978429024,36.13828133075694],[-86.77276611327500,36.13859922930256],[-86.77124787510371,36.13822324068606],[-86.77115404890083,36.13787471840008],[-86.77001953120006,36.13787471840008],[-86.77001953120006,36.13343831250002],[-86.77115403200810,36.13343831250002],[-86.77115408266678,36.13343824977535],[-86.77437814383291,36.13343824977535],[-86.77497535598002,36.13121999975017],[-86.77437813387021,36.12900165012086],[-86.77001953120006,36.12900165570004],[-86.77001953121240,36.12900159300041],[-86.77001953121453,36.12456474810004],[-86.77001953122075,36.12456468542538],[-86.77006454964209,36.12450895143498],[-86.77276611327500,36.12384003189557],[-86.77276611328529,36.12234620030009],[-86.77276611328529,36.12012758980006],[-86.77001953120006,36.12012758980006],[-86.77001953119998,36.11591356551152],[-86.76997440486724,36.11574597930891],[-86.77001948057168,36.11569018069811],[-86.77001953121453,36.11569011800027],[-86.77001953121550,36.11125252080008],[-86.77001953122493,36.11125245810045],[-86.77551269529991,36.11125245810045],[-86.77551269529991,36.10821923063010],[-86.77551269529991,36.10681461010009],[-86.77825927731445,36.10681461010009],[-86.77825927731382,36.10459556080004],[-86.77825927732493,36.10080632034165],[-86.78100585937500,36.10042862028295],[-86.78375244139991,36.10156172046312],[-86.78649902342494,36.10042862028295],[-86.79199218749991,36.10118402039741],[-86.79199218749991,36.10622426180778],[-86.78939366550927,36.10944061901786],[-86.78871727199572,36.10956022414199],[-86.78649902342494,36.11120769035547],[-86.78649902341445,36.11125252080008],[-86.78649902341445,36.11569011800027],[-86.78649907407305,36.11569018070212],[-86.78654414978234,36.11574597930891],[-86.78773693637993,36.11604128702604],[-86.78924560548325,36.11790891006900],[-86.78924560453308,36.12012757988133],[-86.79199218749991,36.12012758382883],[-86.79199218749991,36.12234619115647],[-86.79473876951889,36.12234619432877],[-86.79473877174280,36.12456473846943],[-86.79563473335739,36.12567395935027],[-86.79748535157907,36.12567395935027],[-86.79777174786568,36.12585124494350],[-86.79833630361821,36.12794807933425],[-86.79748535158529,36.12900164786257],[-86.79748534935695,36.13122000576953],[-86.79746289682902,36.13124780167637],[-86.79748535160005,36.13133120813472],[-86.79805262836666,36.13343831250002],[-86.79833626945356,36.13449187472460],[-86.79748535160005,36.13414067961428],[-86.79611206052496,36.13357388799201],[-86.79473876952494,36.13414067962448],[-86.79417150369187,36.13343830517353],[-86.79199218749991,36.13343830543519],[-86.78858845716073,36.13343831250012],[-86.78773769602427,36.13378943549728],[-86.78654389656339,36.13349381018745],[-86.78649902339998,36.13366049387510],[-86.78649902339998,36.13787471840008],[-86.78536450574896,36.13787471840008],[-86.78479723615445,36.13998187066441],[-86.78470775414206,36.14009267055020],[-86.78393162944724,36.14009267055020]]],"type":"Polygon"}
}