{
  "id": 1276482091,
  "type": "Feature",
  "properties": {
    "edtf:cessation":"uuuu",
    "edtf:deprecated":"2019-02-08",
    "edtf:inception":"uuuu",
    "geom:area":0.0,
    "geom:area_square_m":0.0,
    "geom:bbox":"-112.17115,33.50659,-112.17115,33.50659",
    "geom:latitude":33.50659,
    "geom:longitude":-112.17115,
    "gn:admin1_code":"AZ",
    "gn:admin2_code":"13.0",
    "gn:asciiname":"Long Haven West Mobile Home Park",
    "gn:country_code":"US",
    "gn:dem":342,
    "gn:elevation":"344.0",
    "gn:feature_class":"P",
    "gn:feature_code":"PPL",
    "gn:geonameid":8483914,
    "gn:latitude":33.50659,
    "gn:longitude":-112.17115,
    "gn:modification_date":"2013-03-08",
    "gn:name":"Long Haven West Mobile Home Park",
    "gn:population":0,
    "gn:timezone":"America/Phoenix",
    "iso:country":"US",
    "mz:hierarchy_label":1,
    "mz:is_current":0,
    "src:geom":"geonames",
    "wof:belongsto":[
        102191575,
        85633793,
        85688719,
        102087421
    ],
    "wof:breaches":[],
    "wof:concordances":{
        "gn:id":8483914
    },
    "wof:country":"US",
    "wof:geomhash":"dba68ba6185d14e6a3dec113ebdd99dc",
    "wof:hierarchy":[
        {
            "continent_id":102191575,
            "country_id":85633793,
            "county_id":102087421,
            "locality_id":1276482091,
            "region_id":85688719
        }
    ],
    "wof:id":1276482091,
    "wof:lastmodified":1549654075,
    "wof:name":"Long Haven West Mobile Home Park",
    "wof:parent_id":102087421,
    "wof:placetype":"locality",
    "wof:repo":"whosonfirst-data-admin-us",
    "wof:superseded_by":[
        1376905367
    ],
    "wof:supersedes":[],
    "wof:tags":[]
},
  "bbox": [
    -112.17115,
    33.50659,
    -112.17115,
    33.50659
],
  "geometry": {"coordinates":[-112.17115,33.50659],"type":"Point"}
}