{
  "id": 85872367,
  "type": "Feature",
  "properties": {"wof:repo":"whosonfirst-data-admin-us",
    "src:geom":"quattroshapes",
    "wof:geomhash":"44b817deec8688b13d87da2cb5b04a39",
    "wof:id":85872367
},
  "bbox": [
    -122.24847738859143,
    37.779398563856844,
    -122.22839355499994,
    37.79747947834433
],
  "geometry": {"coordinates":[[[-122.23530187623260,37.79714248868966],[-122.23500214350278,37.79676317680003],[-122.23388671900005,37.79676317680003],[-122.22839355500003,37.79676317113798],[-122.22839355500003,37.79242240800008],[-122.22839355499994,37.79101085700275],[-122.22839355499994,37.78949286178415],[-122.22839355500003,37.78808138410008],[-122.23173990417467,37.78808138410008],[-122.23251342799983,37.78775511461647],[-122.23251342799983,37.78764843121863],[-122.23388671673334,37.78591076682136],[-122.23388671899988,37.78374009913355],[-122.23663330099984,37.78374009591079],[-122.23663330099984,37.78156936302233],[-122.23937988299991,37.78156936081049],[-122.23937988299980,37.77939856522401],[-122.24156867443503,37.77939856385684],[-122.24212646499996,37.77939857130004],[-122.24487304700003,37.77939857130004],[-122.24487304699991,37.78010429774631],[-122.24487304699991,37.78156936081049],[-122.24761962899998,37.78156936403343],[-122.24761963220934,37.78374009606623],[-122.24847738859143,37.78482540900015],[-122.24761962899998,37.78591077051450],[-122.24761962899998,37.78808137525303],[-122.24487304699983,37.78808137803355],[-122.24487304699983,37.79025191993763],[-122.24487304699991,37.79242240002520],[-122.24212646499996,37.79242240192404],[-122.24212646499996,37.79459281499598],[-122.23937988300000,37.79459282430010],[-122.23937988300000,37.79676317680003],[-122.23826445849727,37.79676317680013],[-122.23796472576726,37.79714248868966],[-122.23663330099984,37.79747947834433],[-122.23530187623260,37.79714248868966]]],"type":"Polygon"}
}