{
  "id": 1125399449,
  "type": "Feature",
  "properties": {
    "edtf:cessation":"uuuu",
    "edtf:deprecated":"2017-11-04",
    "edtf:inception":"uuuu",
    "geom:area":0.0,
    "geom:area_square_m":0.0,
    "geom:bbox":"-93.04698,40.75546,-93.04698,40.75546",
    "geom:latitude":40.75546,
    "geom:longitude":-93.04698,
    "gn:gn_country":"US",
    "gn:gn_fcode":"ADMD",
    "gn:gn_pop":70,
    "gn:population":70,
    "iso:country":"US",
    "lbl:latitude":40.75546,
    "lbl:longitude":-93.04698,
    "mz:hierarchy_label":1,
    "mz:is_current":0,
    "mz:note":"Quattroshapes Point Gazetteer import 20170519",
    "qs_pg:aaroncc":"US",
    "qs_pg:gn_country":"US",
    "qs_pg:gn_fcode":"ADMD",
    "qs_pg:gn_id":7164356,
    "qs_pg:gn_pop":70,
    "qs_pg:name":"City of Plano",
    "qs_pg:photos_9r":0,
    "qs_pg:photos_sr":0,
    "qs_pg:pop_sr":1,
    "qs_pg:qs_id":659328,
    "qs_pg:qs_pg_placetype":"localadmin",
    "src:geom":"qs_pg",
    "src:lbl:centroid":"qs_pg",
    "src:population":"geonames",
    "wof:belongsto":[
        85633793
    ],
    "wof:breaches":[],
    "wof:concordances":{
        "gn:id":7164356,
        "qs_pg:id":659328
    },
    "wof:country":"US",
    "wof:created":1497049226,
    "wof:geomhash":"d23280f1e13442ab58195c5c5def770f",
    "wof:hierarchy":[
        {
            "country_id":85633793,
            "localadmin_id":1125399449
        }
    ],
    "wof:id":1125399449,
    "wof:lastmodified":1509752702,
    "wof:name":"City of Plano",
    "wof:parent_id":-1,
    "wof:placetype":"localadmin",
    "wof:population":70,
    "wof:population_rank":1,
    "wof:repo":"whosonfirst-data-admin-us",
    "wof:superseded_by":[
        85944563
    ],
    "wof:supersedes":[],
    "wof:tags":[]
},
  "bbox": [
    -93.04698,
    40.75546,
    -93.04698,
    40.75546
],
  "geometry": {"coordinates":[-93.04698,40.75546],"type":"Point"}
}