{
  "id": 1343395367,
  "type": "Feature",
  "properties": {
    "edtf:cessation":"2018-09-06",
    "edtf:inception":"uuuu",
    "geom:area":0.0,
    "geom:area_square_m":0.0,
    "geom:bbox":"-123.54145,41.30263,-123.54145,41.30263",
    "geom:latitude":41.30263,
    "geom:longitude":-123.54145,
    "gn:admin1_code":"CA",
    "gn:admin2_code":"23.0",
    "gn:asciiname":"Panamenik (historical)",
    "gn:country_code":"US",
    "gn:dem":127,
    "gn:elevation":"126.0",
    "gn:feature_class":"P",
    "gn:feature_code":"PPLQ",
    "gn:geonameid":5569155,
    "gn:latitude":41.30263,
    "gn:longitude":-123.54145,
    "gn:modification_date":"2011-12-12",
    "gn:name":"Panamenik (historical)",
    "gn:population":0,
    "gn:timezone":"America/Los_Angeles",
    "iso:country":"US",
    "mz:hierarchy_label":1,
    "mz:is_current":0,
    "name:eng_x_preferred":[
        "Panamenik (historical)"
    ],
    "name:und_x_variant":[
        "Pa-nom-nik",
        "Koomen"
    ],
    "src:geom":"geonames",
    "wof:belongsto":[
        102191575,
        85633793,
        85688637,
        102087587
    ],
    "wof:breaches":[],
    "wof:concordances":{
        "gn:id":5569155
    },
    "wof:country":"US",
    "wof:geomhash":"67091df5d558863833260cf7a2f6783a",
    "wof:hierarchy":[
        {
            "continent_id":102191575,
            "country_id":85633793,
            "county_id":102087587,
            "locality_id":1343395367,
            "region_id":85688637
        }
    ],
    "wof:id":1343395367,
    "wof:lastmodified":1537713069,
    "wof:name":"Panamenik (historical)",
    "wof:parent_id":102087587,
    "wof:placetype":"locality",
    "wof:repo":"whosonfirst-data-admin-us",
    "wof:superseded_by":[],
    "wof:supersedes":[],
    "wof:tags":[]
},
  "bbox": [
    -123.54145,
    41.30263,
    -123.54145,
    41.30263
],
  "geometry": {"coordinates":[-123.54145,41.30263],"type":"Point"}
}