{
  "id": 85871947,
  "type": "Feature",
  "properties": {"wof:repo":"whosonfirst-data-admin-us",
    "src:geom":"quattroshapes",
    "wof:geomhash":"43a572eec1c0024b38d23d152826abd1",
    "wof:id":85871947
},
  "bbox": [
    -94.51119754534176,
    38.89172088285021,
    -94.46439895985287,
    38.92454446564997
],
  "geometry": {"coordinates":[[[-94.49420388192982,38.92435231845431],[-94.49359376458625,38.92416724138135],[-94.49358221620790,38.92418884687758],[-94.48834857958116,38.91073581062548],[-94.47986833788804,38.91618525108365],[-94.47967529297500,38.91668147205010],[-94.47692871089998,38.91668147205010],[-94.47692871089998,38.91668153640005],[-94.47143554690004,38.91668153640005],[-94.47143554688120,38.91668147205010],[-94.46976812690187,38.91453842478280],[-94.46456909179997,38.91167474595434],[-94.46456909179997,38.91027021152540],[-94.46439895985287,38.90895836012278],[-94.47329494228978,38.90405906240220],[-94.47385722288823,38.89900151660547],[-94.47967529297500,38.89650962615600],[-94.48157626849786,38.89515264045158],[-94.48873963252169,38.89646748671963],[-94.48873591235900,38.89646947518786],[-94.48936328012306,38.89723392502000],[-94.49028737932503,38.89896279302646],[-94.49085643680394,38.90083872412988],[-94.49104858400005,38.90278962735019],[-94.49085643680394,38.90474053057032],[-94.49034490483808,38.90642682547181],[-94.49034024284435,38.90644219400509],[-94.49059908281959,38.90622976952700],[-94.49168189666352,38.90565099346944],[-94.49168374097292,38.90563226787999],[-94.49184009639595,38.90404476462990],[-94.49189666730035,38.90385827535023],[-94.49184009639595,38.90367178607030],[-94.49164794920000,38.90172088285019],[-94.49184009639595,38.89976997962988],[-94.49240915387486,38.89789404852635],[-94.49333325307691,38.89616518052000],[-94.49457688138799,38.89464981503836],[-94.49609224686981,38.89340618672711],[-94.49782111487633,38.89248208752487],[-94.49969704597976,38.89191303004614],[-94.49999999999977,38.89188319167951],[-94.50164794919999,38.89172088285021],[-94.50359885242020,38.89191303004614],[-94.50547478352354,38.89248208752487],[-94.50720365153018,38.89340618672711],[-94.50871901701180,38.89464981503836],[-94.50996264532307,38.89616518052000],[-94.51088674452501,38.89789404852635],[-94.51117085799376,38.89883064511437],[-94.51119754534176,38.89880874337413],[-94.50988769529999,38.90385827535023],[-94.50988769529999,38.90633218637632],[-94.50067204277133,38.91140784211460],[-94.50102069012650,38.91454448172540],[-94.49999450547921,38.92377637326179],[-94.49998161947360,38.92378326097530],[-94.49810568837017,38.92435231845431],[-94.49615478514994,38.92454446564997],[-94.49420388192982,38.92435231845431]]],"type":"Polygon"}
}