{
  "id": 1125287473,
  "type": "Feature",
  "properties": {
    "edtf:cessation":"2017-05-19",
    "edtf:inception":"uuuu",
    "geom:area":0.0,
    "geom:area_square_m":0.0,
    "geom:bbox":"-75.72301,37.92614,-75.72301,37.92614",
    "geom:latitude":37.92614,
    "geom:longitude":-75.72301,
    "gn:gn_country":"US",
    "gn:gn_fcode":"ADMD",
    "gn:gn_pop":241,
    "gn:population":241,
    "iso:country":"US",
    "lbl:latitude":37.92614,
    "lbl:longitude":-75.72301,
    "mz:hierarchy_label":1,
    "mz:is_current":0,
    "mz:note":"Quattroshapes Point Gazetteer import 20170519",
    "qs_pg:aaroncc":"US",
    "qs_pg:gn_country":"US",
    "qs_pg:gn_fcode":"ADMD",
    "qs_pg:gn_id":7162119,
    "qs_pg:gn_pop":241,
    "qs_pg:name":"Town of Saxis",
    "qs_pg:photos_9r":0,
    "qs_pg:photos_sr":0,
    "qs_pg:pop_sr":2,
    "qs_pg:qs_id":657645,
    "qs_pg:qs_pg_placetype":"localadmin",
    "src:geom":"qs_pg",
    "src:lbl:centroid":"qs_pg",
    "src:population":"geonames",
    "wof:belongsto":[
        85633793
    ],
    "wof:breaches":[],
    "wof:concordances":{
        "gn:id":7162119,
        "qs_pg:id":657645
    },
    "wof:country":"US",
    "wof:created":1497042772,
    "wof:geomhash":"7ceb4eb47b6f64734cb9550692cfff5e",
    "wof:hierarchy":[
        {
            "country_id":85633793,
            "localadmin_id":1125287473
        }
    ],
    "wof:id":1125287473,
    "wof:lastmodified":1505187023,
    "wof:name":"Town of Saxis",
    "wof:parent_id":-1,
    "wof:placetype":"localadmin",
    "wof:population":241,
    "wof:population_rank":2,
    "wof:repo":"whosonfirst-data-admin-us",
    "wof:superseded_by":[],
    "wof:supersedes":[],
    "wof:tags":[]
},
  "bbox": [
    -75.72301,
    37.92614,
    -75.72301,
    37.92614
],
  "geometry": {"coordinates":[-75.72301,37.92614],"type":"Point"}
}