{
  "id": 1327468227,
  "type": "Feature",
  "properties": {
    "edtf:cessation":"uuuu",
    "edtf:inception":"uuuu",
    "geom:area":0.0,
    "geom:area_square_m":0.0,
    "geom:bbox":"-118.81235,37.63243,-118.81235,37.63243",
    "geom:latitude":37.63243,
    "geom:longitude":-118.81235,
    "gn:admin1_code":"CA",
    "gn:admin2_code":"51.0",
    "gn:asciiname":"Whitmore Hot Springs",
    "gn:country_code":"US",
    "gn:dem":2140,
    "gn:elevation":"2139.0",
    "gn:feature_class":"P",
    "gn:feature_code":"PPL",
    "gn:geonameid":5409006,
    "gn:latitude":37.63243,
    "gn:longitude":-118.81235,
    "gn:modification_date":"2006-01-15",
    "gn:name":"Whitmore Hot Springs",
    "gn:population":0,
    "gn:timezone":"America/Los_Angeles",
    "iso:country":"US",
    "mz:hierarchy_label":1,
    "mz:is_current":-1,
    "name:eng_x_preferred":[
        "Whitmore Hot Springs"
    ],
    "name:und_x_variant":[
        "Whitmore Tub Spring",
        "Whitmore Tubs"
    ],
    "src:geom":"geonames",
    "wof:belongsto":[
        102191575,
        85633793,
        85688637,
        102080857
    ],
    "wof:breaches":[],
    "wof:concordances":{
        "gn:id":5409006,
        "wk:page":"Whitmore_Hot_Springs%2C_California"
    },
    "wof:country":"US",
    "wof:geomhash":"d4368d0a332afa1a3fc394969085dd6d",
    "wof:hierarchy":[
        {
            "continent_id":102191575,
            "country_id":85633793,
            "county_id":102080857,
            "locality_id":1327468227,
            "region_id":85688637
        }
    ],
    "wof:id":1327468227,
    "wof:lastmodified":1537713023,
    "wof:name":"Whitmore Hot Springs",
    "wof:parent_id":102080857,
    "wof:placetype":"locality",
    "wof:repo":"whosonfirst-data-admin-us",
    "wof:superseded_by":[],
    "wof:supersedes":[],
    "wof:tags":[]
},
  "bbox": [
    -118.81235,
    37.63243,
    -118.81235,
    37.63243
],
  "geometry": {"coordinates":[-118.81235,37.63243],"type":"Point"}
}