{
  "id": 1125397471,
  "type": "Feature",
  "properties": {
    "edtf:cessation":"uuuu",
    "edtf:deprecated":"2017-11-04",
    "edtf:inception":"uuuu",
    "geom:area":0.0,
    "geom:area_square_m":0.0,
    "geom:bbox":"-96.59893,39.96328,-96.59893,39.96328",
    "geom:latitude":39.96328,
    "geom:longitude":-96.59893,
    "gn:gn_country":"US",
    "gn:gn_fcode":"ADMD",
    "gn:gn_pop":66,
    "gn:population":66,
    "iso:country":"US",
    "lbl:latitude":39.96328,
    "lbl:longitude":-96.59893,
    "mz:hierarchy_label":1,
    "mz:is_current":0,
    "mz:note":"Quattroshapes Point Gazetteer import 20170519",
    "qs_pg:aaroncc":"US",
    "qs_pg:gn_country":"US",
    "qs_pg:gn_fcode":"ADMD",
    "qs_pg:gn_id":7163872,
    "qs_pg:gn_pop":66,
    "qs_pg:name":"City of Oketo",
    "qs_pg:photos_9r":0,
    "qs_pg:photos_sr":0,
    "qs_pg:pop_sr":1,
    "qs_pg:qs_id":658845,
    "qs_pg:qs_pg_placetype":"localadmin",
    "src:geom":"qs_pg",
    "src:lbl:centroid":"qs_pg",
    "src:population":"geonames",
    "wof:belongsto":[
        85633793
    ],
    "wof:breaches":[],
    "wof:concordances":{
        "gn:id":7163872,
        "qs_pg:id":658845
    },
    "wof:country":"US",
    "wof:created":1497049103,
    "wof:geomhash":"4f25ab22bd145cb6e49d327cda521d70",
    "wof:hierarchy":[
        {
            "country_id":85633793,
            "localadmin_id":1125397471
        }
    ],
    "wof:id":1125397471,
    "wof:lastmodified":1509752694,
    "wof:name":"City of Oketo",
    "wof:parent_id":-1,
    "wof:placetype":"localadmin",
    "wof:population":66,
    "wof:population_rank":1,
    "wof:repo":"whosonfirst-data-admin-us",
    "wof:superseded_by":[
        85945641
    ],
    "wof:supersedes":[],
    "wof:tags":[]
},
  "bbox": [
    -96.59893,
    39.96328,
    -96.59893,
    39.96328
],
  "geometry": {"coordinates":[-96.59893,39.96328],"type":"Point"}
}