{
  "id": 85890399,
  "type": "Feature",
  "properties": {
    "edtf:cessation":"uuuu",
    "edtf:inception":"uuuu",
    "geom:area":0.0,
    "geom:area_square_m":7258166.84903,
    "geom:bbox":"-156.664018,21.005738,-156.664018,21.005738",
    "geom:latitude":21.005738,
    "geom:longitude":-156.664018,
    "gn:id":"",
    "iso:country":"US",
    "lbl:latitude":21.005738,
    "lbl:longitude":-156.664018,
    "mps:latitude":21.000736,
    "mps:longitude":-156.600976,
    "mz:hierarchy_label":0,
    "mz:is_current":-1,
    "mz:is_funky":0,
    "mz:is_hard_boundary":0,
    "mz:is_landuse_aoi":0,
    "mz:is_official":0,
    "mz:max_zoom":18.0,
    "mz:min_zoom":15.0,
    "mz:tier_locality":1,
    "name:eng_x_preferred":[
        "Honokahua Ahupua`a"
    ],
    "name:unk_x_variant":[
        "Honokahua Ahupua`a"
    ],
    "qs:gn_adm0_cc":"US",
    "qs:gn_id":0,
    "qs:gn_local":5848365,
    "qs:gn_nam_loc":"kapalua",
    "qs:gn_namadm1":"HI",
    "qs:local_max":62,
    "qs:local_sum":62,
    "qs:localhoods":1,
    "qs:name":"Honokahua Ahupua`a",
    "qs:name_adm0":"United States",
    "qs:name_adm1":"Hawaii",
    "qs:name_adm2":"Maui",
    "qs:name_local":"Kapalua",
    "qs:photo_max":38,
    "qs:photo_sum":62,
    "qs:placetype":"Suburb",
    "qs:quad_count":7,
    "qs:woe_adm0":23424977,
    "qs:woe_adm1":2347570,
    "qs:woe_adm2":12588033,
    "qs:woe_lau":0,
    "qs:woe_local":23417507,
    "qs:woe_ver":"7.10.0",
    "src:geom":"mz",
    "src:geom_alt":[
        "quattroshapes",
        "quattroshapes_pg"
    ],
    "src:lbl:centroid":"yerbashapes",
    "wof:belongsto":[
        85688671,
        102191575,
        85633793,
        85937677,
        102085577
    ],
    "wof:breaches":[
        85890511
    ],
    "wof:concordances":{
        "gp:id":55985744,
        "qs:id":986889,
        "qs_pg:id":986889
    },
    "wof:country":"US",
    "wof:geomhash":"9e8832d84db6d2b0ba0a232bfd44b43d",
    "wof:hierarchy":[
        {
            "continent_id":102191575,
            "country_id":85633793,
            "county_id":102085577,
            "locality_id":85937677,
            "neighbourhood_id":85890399,
            "region_id":85688671
        }
    ],
    "wof:id":85890399,
    "wof:lang":[
        "eng"
    ],
    "wof:lastmodified":1532373790,
    "wof:name":"Honokahua Ahupua`a",
    "wof:parent_id":85937677,
    "wof:placetype":"neighbourhood",
    "wof:repo":"whosonfirst-data-admin-us",
    "wof:superseded_by":[],
    "wof:supersedes":[],
    "wof:tags":[],
    "zs:blockids":[
        150090315012005,
        150090315012008,
        150090315012007
    ],
    "zs:housing10":0,
    "zs:pop10":0
},
  "bbox": [
    -156.664018,
    21.005738,
    -156.664018,
    21.005738
],
  "geometry": {"coordinates":[-156.664018,21.005738],"type":"Point"}
}