{
  "id": 1209440377,
  "type": "Feature",
  "properties": {
    "edtf:cessation":"2018-09-06",
    "edtf:inception":"uuuu",
    "geom:area":0.0,
    "geom:area_square_m":0.0,
    "geom:bbox":"-83.80137,38.63053,-83.80137,38.63053",
    "geom:latitude":38.63053,
    "geom:longitude":-83.80137,
    "gn:admin1_code":"KY",
    "gn:admin2_code":"161",
    "gn:asciiname":"Simon Kenton Acres (historical)",
    "gn:country_code":"US",
    "gn:dem":262,
    "gn:elevation":"261.0",
    "gn:feature_class":"P",
    "gn:feature_code":"PPLQ",
    "gn:geonameid":7153747,
    "gn:latitude":38.63053,
    "gn:longitude":-83.80137,
    "gn:modification_date":"2014-10-08",
    "gn:name":"Simon Kenton Acres (historical)",
    "gn:population":0,
    "gn:timezone":"America/New_York",
    "iso:country":"US",
    "mz:hierarchy_label":1,
    "mz:is_current":0,
    "src:geom":"geonames",
    "wof:belongsto":[
        85633793
    ],
    "wof:breaches":[],
    "wof:concordances":{
        "gn:id":7153747
    },
    "wof:country":"US",
    "wof:geomhash":"e2c71e87f6f4404c1f79c130a4d43792",
    "wof:hierarchy":[
        {
            "country_id":85633793,
            "locality_id":1209440377
        }
    ],
    "wof:id":1209440377,
    "wof:lastmodified":1536286974,
    "wof:name":"Simon Kenton Acres (historical)",
    "wof:parent_id":85633793,
    "wof:placetype":"locality",
    "wof:repo":"whosonfirst-data-admin-us",
    "wof:superseded_by":[],
    "wof:supersedes":[],
    "wof:tags":[]
},
  "bbox": [
    -83.80136999999998,
    38.63053,
    -83.80136999999998,
    38.63053
],
  "geometry": {"coordinates":[-83.80136999999998,38.63053],"type":"Point"}
}