{
  "id": 85887355,
  "type": "Feature",
  "properties": {"wof:repo":"whosonfirst-data-admin-us",
    "src:geom":"quattroshapes",
    "wof:geomhash":"600dbefd160b1510b583b6a553b4d3aa",
    "wof:id":85887355
},
  "bbox": [
    -117.08990930787087,
    33.043323104210984,
    -117.03016825129345,
    33.06764348718205
],
  "geometry": {"coordinates":[[[-117.07818178120527,33.06764348718205],[-117.07305908199982,33.06458713175127],[-117.07029966859093,33.06623348025218],[-117.06264519553980,33.06492866748030],[-117.05932617199988,33.06294843885220],[-117.05784388338805,33.06117968348799],[-117.05671358314254,33.06084251567272],[-117.05673282857614,33.06084441118260],[-117.05657959000001,33.06076250345720],[-117.05642635142368,33.06084441118260],[-117.05644559685720,33.06084251567272],[-117.05383300799986,33.06162184920012],[-117.04909990875257,33.06162184920012],[-117.04833984399983,33.06131954915530],[-117.04284668000008,33.06088259066742],[-117.04147338899986,33.06121030953315],[-117.03788081315221,33.06092453497590],[-117.03016825129345,33.05172240789885],[-117.03029224519588,33.05046347667992],[-117.03086130267479,33.04858754557658],[-117.03178540187676,33.04685867756987],[-117.03289427318194,33.04550751397544],[-117.04284668000008,33.04550751397544],[-117.04833984399983,33.04332310421098],[-117.05657959000001,33.04659971885708],[-117.05932617199988,33.04550751397544],[-117.06095950473917,33.04550751397544],[-117.06095990829823,33.04550775470030],[-117.06481933600000,33.05011221162529],[-117.07031250000003,33.05011221162529],[-117.07580566399997,33.05011221162529],[-117.08129882800000,33.05011221162529],[-117.08129882800000,33.05011227180009],[-117.08129882800000,33.05471642782523],[-117.08679199199975,33.05471642782523],[-117.08679204243532,33.05471648800003],[-117.08990930787087,33.05843570906457],[-117.08916801609632,33.06020467756834],[-117.08679199199975,33.06162221040007],[-117.08322798692478,33.06162221040007],[-117.08129882800000,33.06392413792511],[-117.08129882800000,33.06392419810010],[-117.08129877756957,33.06392419810010],[-117.07818178120527,33.06764348718205]]],"type":"Polygon"}
}