{
  "id": 1310021511,
  "type": "Feature",
  "properties": {
    "edtf:cessation":"uuuu",
    "edtf:inception":"uuuu",
    "geom:area":0.0,
    "geom:area_square_m":0.0,
    "geom:bbox":"-76.59524,39.16761,-76.59524,39.16761",
    "geom:latitude":39.16761,
    "geom:longitude":-76.59524,
    "gn:admin1_code":"MD",
    "gn:admin2_code":"3.0",
    "gn:asciiname":"Margate",
    "gn:country_code":"US",
    "gn:dem":13,
    "gn:elevation":"13.0",
    "gn:feature_class":"P",
    "gn:feature_code":"PPL",
    "gn:geonameid":4361665,
    "gn:latitude":39.16761,
    "gn:longitude":-76.59524,
    "gn:modification_date":"2010-02-15",
    "gn:name":"Margate",
    "gn:population":0,
    "gn:timezone":"America/New_York",
    "iso:country":"US",
    "mz:hierarchy_label":1,
    "mz:is_current":-1,
    "src:geom":"geonames",
    "wof:belongsto":[
        102191575,
        85633793,
        85688501,
        102083469
    ],
    "wof:breaches":[],
    "wof:concordances":{
        "gn:id":4361665
    },
    "wof:country":"US",
    "wof:geomhash":"6f0322f78d7fc7b5e93abd4cee96f8ab",
    "wof:hierarchy":[
        {
            "continent_id":102191575,
            "country_id":85633793,
            "county_id":102083469,
            "locality_id":1310021511,
            "region_id":85688501
        }
    ],
    "wof:id":1310021511,
    "wof:lastmodified":1536618014,
    "wof:name":"Margate",
    "wof:parent_id":102083469,
    "wof:placetype":"locality",
    "wof:repo":"whosonfirst-data-admin-us",
    "wof:superseded_by":[],
    "wof:supersedes":[],
    "wof:tags":[]
},
  "bbox": [
    -76.59524,
    39.16761,
    -76.59524,
    39.16761
],
  "geometry": {"coordinates":[-76.59524,39.16761],"type":"Point"}
}