{
  "id": 1309728287,
  "type": "Feature",
  "properties": {
    "edtf:cessation":"uuuu",
    "edtf:inception":"uuuu",
    "geom:area":0.0,
    "geom:area_square_m":0.0,
    "geom:bbox":"-85.78163,33.28845,-85.78163,33.28845",
    "geom:latitude":33.28845,
    "geom:longitude":-85.78163,
    "gn:admin1_code":"AL",
    "gn:admin2_code":"27",
    "gn:asciiname":"Midway",
    "gn:country_code":"US",
    "gn:dem":316,
    "gn:elevation":"314.0",
    "gn:feature_class":"P",
    "gn:feature_code":"PPL",
    "gn:geonameid":4075994,
    "gn:latitude":33.28845,
    "gn:longitude":-85.78163,
    "gn:modification_date":"2006-01-15",
    "gn:name":"Midway",
    "gn:population":0,
    "gn:timezone":"America/Chicago",
    "iso:country":"US",
    "mz:hierarchy_label":1,
    "mz:is_current":-1,
    "src:geom":"geonames",
    "wof:belongsto":[
        102191575,
        85633793,
        85688675,
        102085421
    ],
    "wof:breaches":[],
    "wof:concordances":{
        "gn:id":4075994
    },
    "wof:country":"US",
    "wof:geomhash":"c790d261f053008b49cfe53893f33f11",
    "wof:hierarchy":[
        {
            "continent_id":102191575,
            "country_id":85633793,
            "county_id":102085421,
            "locality_id":1309728287,
            "region_id":85688675
        }
    ],
    "wof:id":1309728287,
    "wof:lastmodified":1537041082,
    "wof:name":"Midway",
    "wof:parent_id":102085421,
    "wof:placetype":"locality",
    "wof:repo":"whosonfirst-data-admin-us",
    "wof:superseded_by":[],
    "wof:supersedes":[],
    "wof:tags":[]
},
  "bbox": [
    -85.78163,
    33.28845,
    -85.78163,
    33.28845
],
  "geometry": {"coordinates":[-85.78163000000001,33.28845],"type":"Point"}
}