{
  "id": 1125352517,
  "type": "Feature",
  "properties": {
    "edtf:cessation":"uuuu",
    "edtf:deprecated":"2017-11-04",
    "edtf:inception":"uuuu",
    "geom:area":0.0,
    "geom:area_square_m":0.0,
    "geom:bbox":"-122.46553,43.74445,-122.46553,43.74445",
    "geom:latitude":43.74445,
    "geom:longitude":-122.46553,
    "gn:gn_country":"US",
    "gn:gn_fcode":"ADMD",
    "gn:gn_pop":3205,
    "gn:population":3205,
    "iso:country":"US",
    "lbl:latitude":43.74445,
    "lbl:longitude":-122.46553,
    "mz:hierarchy_label":1,
    "mz:is_current":0,
    "mz:note":"Quattroshapes Point Gazetteer import 20170519",
    "qs_pg:aaroncc":"US",
    "qs_pg:gn_country":"US",
    "qs_pg:gn_fcode":"ADMD",
    "qs_pg:gn_id":7173998,
    "qs_pg:gn_pop":3205,
    "qs_pg:name":"City of Oakridge",
    "qs_pg:photos_9r":0,
    "qs_pg:photos_sr":0,
    "qs_pg:pop_sr":4,
    "qs_pg:qs_id":666571,
    "qs_pg:qs_pg_placetype":"localadmin",
    "src:geom":"qs_pg",
    "src:lbl:centroid":"qs_pg",
    "src:population":"geonames",
    "wof:belongsto":[
        85633793
    ],
    "wof:breaches":[],
    "wof:concordances":{
        "gn:id":7173998,
        "qs_pg:id":666571
    },
    "wof:country":"US",
    "wof:created":1497046273,
    "wof:geomhash":"8194e18d95ce2a0a183006016d2d4f99",
    "wof:hierarchy":[
        {
            "country_id":85633793,
            "localadmin_id":1125352517
        }
    ],
    "wof:id":1125352517,
    "wof:lastmodified":1509752628,
    "wof:name":"City of Oakridge",
    "wof:parent_id":-1,
    "wof:placetype":"localadmin",
    "wof:population":3205,
    "wof:population_rank":4,
    "wof:repo":"whosonfirst-data-admin-us",
    "wof:superseded_by":[
        101716253
    ],
    "wof:supersedes":[],
    "wof:tags":[]
},
  "bbox": [
    -122.46553,
    43.74445,
    -122.46553,
    43.74445
],
  "geometry": {"coordinates":[-122.46553,43.74445],"type":"Point"}
}