{
  "id": 1126089581,
  "type": "Feature",
  "properties": {
    "edtf:cessation":"uuuu",
    "edtf:inception":"uuuu",
    "geom:area":0.0,
    "geom:area_square_m":0.0,
    "geom:bbox":"-76.36661,37.01709,-76.36661,37.01709",
    "geom:latitude":37.01709,
    "geom:longitude":-76.36661,
    "gn:elevation":1,
    "gn:gn_country":"US",
    "gn:gn_fcode":"PPL",
    "gn:gn_pop":0,
    "iso:country":"US",
    "lbl:latitude":37.01709,
    "lbl:longitude":-76.36661,
    "mz:hierarchy_label":1,
    "mz:is_current":-1,
    "mz:note":"Quattroshapes Point Gazetteer import 20170519",
    "name:eng_x_preferred":[
        "Pleasant Manor"
    ],
    "name:eng_x_variant":[
        "Pleasant Mnr"
    ],
    "name:unk_x_variant":[
        "Pleasant Manor"
    ],
    "qs_pg:aaroncc":"US",
    "qs_pg:gn_country":"US",
    "qs_pg:gn_fcode":"PPL",
    "qs_pg:gn_id":4779475,
    "qs_pg:gn_pop":0,
    "qs_pg:name":"Pleasant Manor",
    "qs_pg:name_adm0":"United States",
    "qs_pg:name_adm1":"Virginia",
    "qs_pg:photos":27,
    "qs_pg:photos_1k":5,
    "qs_pg:photos_9k":1,
    "qs_pg:photos_9r":2,
    "qs_pg:photos_all":27,
    "qs_pg:photos_sr":2,
    "qs_pg:pop_sr":0,
    "qs_pg:qs_id":1326907,
    "qs_pg:qs_pg_placetype":"neighbourhood",
    "qs_pg:qs_pg_placetype_gp":"Suburb",
    "qs_pg:woe_adm0":23424977,
    "qs_pg:woe_id":2473940,
    "src:geom":"qs_pg",
    "src:lbl:centroid":"qs_pg",
    "src:population":"zetashapes",
    "woe:adm0_id":23424977,
    "woe:name_adm0":"United States",
    "woe:name_adm1":"Virginia",
    "woe:placetype":"Suburb",
    "wof:belongsto":[
        85688747,
        102191575,
        85633793,
        101728661,
        102084913
    ],
    "wof:breaches":[],
    "wof:concordances":{
        "gn:id":4779475,
        "gp:id":2473940,
        "qs:id":1326907,
        "qs_pg:id":1326907
    },
    "wof:country":"US",
    "wof:created":1497313467,
    "wof:geomhash":"86c980e1dde951e15ca49431777258e7",
    "wof:hierarchy":[
        {
            "continent_id":102191575,
            "country_id":85633793,
            "county_id":102084913,
            "locality_id":101728661,
            "neighbourhood_id":1126089581,
            "region_id":85688747
        }
    ],
    "wof:id":1126089581,
    "wof:lastmodified":1534379553,
    "wof:name":"Pleasant Manor",
    "wof:parent_id":101728661,
    "wof:placetype":"neighbourhood",
    "wof:population":4945,
    "wof:population_rank":4,
    "wof:repo":"whosonfirst-data-admin-us",
    "wof:superseded_by":[],
    "wof:supersedes":[
        85842271
    ],
    "wof:tags":[]
},
  "bbox": [
    -76.36661,
    37.01709,
    -76.36661,
    37.01709
],
  "geometry": {"coordinates":[-76.36660999999999,37.01709],"type":"Point"}
}