{
  "id": 1276134803,
  "type": "Feature",
  "properties": {
    "edtf:cessation":"2018-09-07",
    "edtf:inception":"uuuu",
    "geom:area":0.0,
    "geom:area_square_m":0.0,
    "geom:bbox":"-111.1297,48.21331,-111.1297,48.21331",
    "geom:latitude":48.21331,
    "geom:longitude":-111.1297,
    "gn:admin1_code":"MT",
    "gn:admin2_code":"51.0",
    "gn:asciiname":"Selma (historical)",
    "gn:country_code":"US",
    "gn:dem":955,
    "gn:elevation":"956.0",
    "gn:feature_class":"P",
    "gn:feature_code":"PPLQ",
    "gn:geonameid":5676933,
    "gn:latitude":48.21331,
    "gn:longitude":-111.1297,
    "gn:modification_date":"2011-12-12",
    "gn:name":"Selma (historical)",
    "gn:population":0,
    "gn:timezone":"America/Denver",
    "iso:country":"US",
    "mz:hierarchy_label":1,
    "mz:is_current":0,
    "src:geom":"geonames",
    "wof:belongsto":[
        102191575,
        85633793,
        85688617,
        102085147
    ],
    "wof:breaches":[],
    "wof:concordances":{
        "gn:id":5676933
    },
    "wof:country":"US",
    "wof:geomhash":"2a5a60453764e48757b33c175d013ba2",
    "wof:hierarchy":[
        {
            "continent_id":102191575,
            "country_id":85633793,
            "county_id":102085147,
            "locality_id":1276134803,
            "region_id":85688617
        }
    ],
    "wof:id":1276134803,
    "wof:lastmodified":1537042837,
    "wof:name":"Selma (historical)",
    "wof:parent_id":102085147,
    "wof:placetype":"locality",
    "wof:repo":"whosonfirst-data-admin-us",
    "wof:superseded_by":[],
    "wof:supersedes":[],
    "wof:tags":[]
},
  "bbox": [
    -111.1297,
    48.21331,
    -111.1297,
    48.21331
],
  "geometry": {"coordinates":[-111.1297,48.21331],"type":"Point"}
}