{
  "id": 1125404519,
  "type": "Feature",
  "properties": {
    "edtf:cessation":"2017-05-19",
    "edtf:inception":"uuuu",
    "geom:area":0.0,
    "geom:area_square_m":0.0,
    "geom:bbox":"-88.8464,39.80502,-88.8464,39.80502",
    "geom:latitude":39.80502,
    "geom:longitude":-88.8464,
    "gn:gn_country":"US",
    "gn:gn_fcode":"ADMD",
    "gn:gn_pop":1328,
    "gn:population":1328,
    "iso:country":"US",
    "lbl:latitude":39.80502,
    "lbl:longitude":-88.8464,
    "mz:hierarchy_label":1,
    "mz:is_current":0,
    "mz:note":"Quattroshapes Point Gazetteer import 20170519",
    "qs_pg:aaroncc":"US",
    "qs_pg:gn_country":"US",
    "qs_pg:gn_fcode":"ADMD",
    "qs_pg:gn_id":7166187,
    "qs_pg:gn_pop":1328,
    "qs_pg:name":"Village of Long Creek",
    "qs_pg:photos_9r":0,
    "qs_pg:photos_sr":0,
    "qs_pg:pop_sr":3,
    "qs_pg:qs_id":661022,
    "qs_pg:qs_pg_placetype":"localadmin",
    "src:geom":"qs_pg",
    "src:lbl:centroid":"qs_pg",
    "src:population":"geonames",
    "wof:belongsto":[
        85633793
    ],
    "wof:breaches":[],
    "wof:concordances":{
        "gn:id":7166187,
        "qs_pg:id":661022
    },
    "wof:country":"US",
    "wof:created":1497049547,
    "wof:geomhash":"2a87362c4acb916ec435f0ad424ce154",
    "wof:hierarchy":[
        {
            "country_id":85633793,
            "localadmin_id":1125404519
        }
    ],
    "wof:id":1125404519,
    "wof:lastmodified":1505187063,
    "wof:name":"Village of Long Creek",
    "wof:parent_id":-1,
    "wof:placetype":"localadmin",
    "wof:population":1328,
    "wof:population_rank":3,
    "wof:repo":"whosonfirst-data-admin-us",
    "wof:superseded_by":[],
    "wof:supersedes":[],
    "wof:tags":[]
},
  "bbox": [
    -88.8464,
    39.80502,
    -88.8464,
    39.80502
],
  "geometry": {"coordinates":[-88.8464,39.80502],"type":"Point"}
}