{
  "id": 1125287573,
  "type": "Feature",
  "properties": {
    "edtf:cessation":"uuuu",
    "edtf:deprecated":"2017-11-04",
    "edtf:inception":"uuuu",
    "geom:area":0.0,
    "geom:area_square_m":0.0,
    "geom:bbox":"-94.82155,37.34487,-94.82155,37.34487",
    "geom:latitude":37.34487,
    "geom:longitude":-94.82155,
    "gn:gn_country":"US",
    "gn:gn_fcode":"ADMD",
    "gn:gn_pop":714,
    "gn:population":714,
    "iso:country":"US",
    "lbl:latitude":37.34487,
    "lbl:longitude":-94.82155,
    "mz:hierarchy_label":1,
    "mz:is_current":0,
    "mz:note":"Quattroshapes Point Gazetteer import 20170519",
    "qs_pg:aaroncc":"US",
    "qs_pg:gn_country":"US",
    "qs_pg:gn_fcode":"ADMD",
    "qs_pg:gn_id":7316755,
    "qs_pg:gn_pop":714,
    "qs_pg:name":"City of Cherokee",
    "qs_pg:photos_9r":0,
    "qs_pg:photos_sr":0,
    "qs_pg:pop_sr":2,
    "qs_pg:qs_id":682766,
    "qs_pg:qs_pg_placetype":"localadmin",
    "src:geom":"qs_pg",
    "src:lbl:centroid":"qs_pg",
    "src:population":"geonames",
    "wof:belongsto":[
        85633793
    ],
    "wof:breaches":[],
    "wof:concordances":{
        "gn:id":7316755,
        "qs_pg:id":682766
    },
    "wof:country":"US",
    "wof:created":1497042777,
    "wof:geomhash":"18a2075fa68797f9af2617338f04f428",
    "wof:hierarchy":[
        {
            "country_id":85633793,
            "localadmin_id":1125287573
        }
    ],
    "wof:id":1125287573,
    "wof:lastmodified":1509752445,
    "wof:name":"City of Cherokee",
    "wof:parent_id":-1,
    "wof:placetype":"localadmin",
    "wof:population":714,
    "wof:population_rank":2,
    "wof:repo":"whosonfirst-data-admin-us",
    "wof:superseded_by":[
        85946171
    ],
    "wof:supersedes":[],
    "wof:tags":[]
},
  "bbox": [
    -94.82155,
    37.34487,
    -94.82155,
    37.34487
],
  "geometry": {"coordinates":[-94.82155,37.34487],"type":"Point"}
}