{
  "id": 85865691,
  "type": "Feature",
  "properties": {"wof:repo":"whosonfirst-data-admin-us",
    "src:geom":"quattroshapes",
    "wof:geomhash":"d938cb38be77deb95a9fdb82d96ceb8a",
    "wof:id":85865691
},
  "bbox": [
    -73.97121736992221,
    40.766664959430685,
    -73.95172119139977,
    40.779679885954664
],
  "geometry": {"coordinates":[[[-73.96202087399990,40.77967988595466],[-73.96188582859642,40.77950154420121],[-73.96133422849988,40.77950154318184],[-73.96106413765358,40.77950154280855],[-73.95996093749994,40.77950154180783],[-73.95968323465203,40.77950154045043],[-73.95955579828160,40.77899665726548],[-73.95858764649992,40.77857047863229],[-73.95761949471824,40.77899665726548],[-73.95721435549999,40.77846163852301],[-73.95584106448601,40.77846163863617],[-73.95584106448325,40.77742171828349],[-73.95584106448504,40.77638178480008],[-73.95446777340001,40.77638178480008],[-73.95446777341556,40.77566841969993],[-73.95446777341903,40.77430185740016],[-73.95226139911290,40.77430186039537],[-73.95172119139994,40.77430186360010],[-73.95172119139986,40.77358850458309],[-73.95172119139977,40.77222187110026],[-73.95446777341343,40.77222186780662],[-73.95446777341306,40.77085515960614],[-73.95446777340001,40.77014182590008],[-73.95500800280948,40.77014182450991],[-73.95500801442063,40.77014180962537],[-73.95721435548160,40.77014181722028],[-73.95996093749977,40.77014181722028],[-73.96216728589459,40.77014182157812],[-73.96242983719344,40.76910177172530],[-73.96270751950001,40.76910177337892],[-73.96381068926257,40.76910177342315],[-73.96408081051442,40.76874510549018],[-73.96408081051550,40.76806170685339],[-73.96545410158524,40.76806170702321],[-73.96585929150774,40.76752670164828],[-73.96682739259992,40.76795278459879],[-73.96779549366227,40.76752670166159],[-73.96792300540841,40.76702162262531],[-73.96820068359995,40.76702162427893],[-73.96930384716046,40.76702162432315],[-73.96957397459988,40.76666495943068],[-73.97026062009991,40.76696716392368],[-73.97073829913046,40.76675692916767],[-73.97075316183077,40.76676533946129],[-73.97094726559993,40.76702162630149],[-73.97094726559993,40.76754166941690],[-73.97094726559993,40.76806170940006],[-73.97094726559993,40.76841837487686],[-73.97094726559993,40.76874510550137],[-73.97094726560002,40.76910177580010],[-73.97094726574434,40.77014182529089],[-73.97114985426177,40.77040932677603],[-73.97108610828997,40.77066184387535],[-73.97114985307348,40.77091435427620],[-73.97094726559993,40.77118185920233],[-73.97094726559993,40.77170186991681],[-73.97094726559993,40.77204354030950],[-73.97094726560002,40.77222187730010],[-73.97060394288505,40.77222187730010],[-73.97060394288425,40.77248187902833],[-73.97026062009991,40.77248187903260],[-73.97026062009991,40.77274188000003],[-73.97026062009991,40.77292021655576],[-73.97026062009991,40.77326187793345],[-73.97026062009991,40.77378187254402],[-73.97081221166860,40.77378187286891],[-73.97094726560002,40.77378187320002],[-73.97094726560002,40.77430186360010],[-73.97094726560002,40.77448020129022],[-73.97111608178415,40.77470312376643],[-73.97108611239832,40.77482184900016],[-73.97121736992221,40.77534182830023],[-73.97094726560002,40.77569850843348],[-73.97094726559993,40.77638178255023],[-73.97094726559993,40.77706503859859],[-73.97094726560002,40.77742172100008],[-73.97039566836349,40.77742172100008],[-73.97033004492437,40.77768170225029],[-73.97026062009991,40.77768170232036],[-73.96991729738431,40.77768170234400],[-73.96991729738494,40.77794168300011],[-73.96991729737499,40.77796889535657],[-73.96957397459988,40.77812002332013],[-73.96957397459988,40.77846164090005],[-73.96930387849406,40.77846164090005],[-73.96923920916470,40.77871784176092],[-73.96860582281840,40.77899665726548],[-73.96847838644777,40.77950154045043],[-73.96820068359995,40.77950154212695],[-73.96709748306441,40.77950154213779],[-73.96682739259992,40.77950154450008],[-73.96545410159999,40.77950154450008],[-73.96408081050004,40.77950154450008],[-73.96270751943749,40.77950154445283],[-73.96260623544543,40.77963530047997],[-73.96236419677501,40.77952875444495],[-73.96202087399990,40.77967988595466]]],"type":"Polygon"}
}