{
  "id": 404512377,
  "type": "Feature",
  "properties": {
    "edtf:cessation":"uuuu",
    "edtf:inception":"uuuu",
    "geom:area":0.000678,
    "geom:area_square_m":6010013.960491,
    "geom:bbox":"-93.592434,44.210444,-93.553036,44.236358",
    "geom:latitude":44.223615,
    "geom:longitude":-93.574522,
    "iso:country":"US",
    "lbl:latitude":44.224546,
    "lbl:longitude":-93.574897,
    "mz:hierarchy_label":1,
    "mz:is_current":-1,
    "name:eng_x_preferred":[
        "Waterville"
    ],
    "qs:a0":"United States",
    "qs:a1":"Minnesota",
    "qs:a1_lc":"27",
    "qs:a2":"Le Sueur",
    "qs:a2_lc":"27079",
    "qs:adm0":"United States",
    "qs:adm0_a3":"USA",
    "qs:la":"Waterville",
    "qs:la_lc":"2707968584",
    "qs:level":"localadmin",
    "qs:pop":1868,
    "qs:source":"US Census",
    "qs:type":"city",
    "src:geom":"quattroshapes",
    "src:population":"quattroshapes",
    "wof:belongsto":[
        102191575,
        85633793,
        85688727,
        102087831
    ],
    "wof:breaches":[],
    "wof:concordances":{},
    "wof:country":"US",
    "wof:geomhash":"5eb6d5597e4dcc6bebdd1f708ead819f",
    "wof:hierarchy":[
        {
            "continent_id":102191575,
            "country_id":85633793,
            "county_id":102087831,
            "localadmin_id":404512377,
            "region_id":85688727
        }
    ],
    "wof:id":404512377,
    "wof:lastmodified":1505339703,
    "wof:name":"Waterville",
    "wof:parent_id":102087831,
    "wof:placetype":"localadmin",
    "wof:population":1868,
    "wof:population_rank":3,
    "wof:repo":"whosonfirst-data-admin-us",
    "wof:superseded_by":[],
    "wof:supersedes":[],
    "wof:tags":[]
},
  "bbox": [
    -93.592434,
    44.210444,
    -93.553036,
    44.236358
],
  "geometry": {"coordinates":[[[-93.565811,44.226537],[-93.565096,44.225237],[-93.56367,44.225216],[-93.555628,44.219005],[-93.55557899999999,44.214463],[-93.55303600000001,44.214194],[-93.555697,44.212715],[-93.553437,44.210814],[-93.555865,44.21067],[-93.555756,44.212451],[-93.560909,44.212392],[-93.56107900000001,44.211535],[-93.565744,44.211491],[-93.569141,44.210444],[-93.58069,44.210578],[-93.580648,44.217825],[-93.58611999999999,44.217864],[-93.58616000000001,44.221622],[-93.591407,44.2214],[-93.591204,44.223829],[-93.592434,44.232949],[-93.590954,44.232738],[-93.59092,44.236096],[-93.585466,44.2363],[-93.565625,44.236358],[-93.565811,44.226537]]],"type":"Polygon"}
}