{
  "id": 1242593285,
  "type": "Feature",
  "properties": {
    "edtf:cessation":"uuuu",
    "edtf:inception":"uuuu",
    "geom:area":0.0,
    "geom:area_square_m":0.0,
    "geom:bbox":"-83.52352,36.5412,-83.52352,36.5412",
    "geom:latitude":36.5412,
    "geom:longitude":-83.52352,
    "gn:admin1_code":"TN",
    "gn:admin2_code":"25.0",
    "gn:asciiname":"Riverside",
    "gn:country_code":"US",
    "gn:dem":355,
    "gn:elevation":"342.0",
    "gn:feature_class":"P",
    "gn:feature_code":"PPL",
    "gn:geonameid":4653348,
    "gn:latitude":36.5412,
    "gn:longitude":-83.52352,
    "gn:modification_date":"2006-01-15",
    "gn:name":"Riverside",
    "gn:population":0,
    "gn:timezone":"America/New_York",
    "iso:country":"US",
    "mz:hierarchy_label":1,
    "mz:is_current":-1,
    "src:geom":"geonames",
    "wof:belongsto":[
        102191575,
        85633793,
        85688701,
        102086965
    ],
    "wof:breaches":[],
    "wof:concordances":{
        "gn:id":4653348
    },
    "wof:country":"US",
    "wof:geomhash":"4b3dd0a653174e20b7195a1572335720",
    "wof:hierarchy":[
        {
            "continent_id":102191575,
            "country_id":85633793,
            "county_id":102086965,
            "locality_id":1242593285,
            "region_id":85688701
        }
    ],
    "wof:id":1242593285,
    "wof:lastmodified":1537039311,
    "wof:name":"Riverside",
    "wof:parent_id":102086965,
    "wof:placetype":"locality",
    "wof:repo":"whosonfirst-data-admin-us",
    "wof:superseded_by":[],
    "wof:supersedes":[],
    "wof:tags":[]
},
  "bbox": [
    -83.52351999999998,
    36.5412,
    -83.52351999999998,
    36.5412
],
  "geometry": {"coordinates":[-83.52351999999998,36.5412],"type":"Point"}
}