{
  "id": 1260301913,
  "type": "Feature",
  "properties": {
    "edtf:cessation":"2018-09-07",
    "edtf:inception":"uuuu",
    "geom:area":0.0,
    "geom:area_square_m":0.0,
    "geom:bbox":"-87.21445,35.82923,-87.21445,35.82923",
    "geom:latitude":35.82923,
    "geom:longitude":-87.21445,
    "gn:admin1_code":"TN",
    "gn:admin2_code":"119",
    "gn:asciiname":"Mayberry (historical)",
    "gn:country_code":"US",
    "gn:dem":241,
    "gn:elevation":"236.0",
    "gn:feature_class":"P",
    "gn:feature_code":"PPLQ",
    "gn:geonameid":4640105,
    "gn:latitude":35.82923,
    "gn:longitude":-87.21445,
    "gn:modification_date":"2011-12-11",
    "gn:name":"Mayberry (historical)",
    "gn:population":0,
    "gn:timezone":"America/Chicago",
    "iso:country":"US",
    "mz:hierarchy_label":1,
    "mz:is_current":0,
    "src:geom":"geonames",
    "wof:belongsto":[
        102191575,
        85633793,
        85688701,
        102087107
    ],
    "wof:breaches":[],
    "wof:concordances":{
        "gn:id":4640105
    },
    "wof:country":"US",
    "wof:geomhash":"c3d307b754bc7a85b66f90f17cdaaff8",
    "wof:hierarchy":[
        {
            "continent_id":102191575,
            "country_id":85633793,
            "county_id":102087107,
            "locality_id":1260301913,
            "region_id":85688701
        }
    ],
    "wof:id":1260301913,
    "wof:lastmodified":1536687171,
    "wof:name":"Mayberry (historical)",
    "wof:parent_id":102087107,
    "wof:placetype":"locality",
    "wof:repo":"whosonfirst-data-admin-us",
    "wof:superseded_by":[],
    "wof:supersedes":[],
    "wof:tags":[]
},
  "bbox": [
    -87.21445,
    35.82922999999999,
    -87.21445,
    35.82922999999999
],
  "geometry": {"coordinates":[-87.21445,35.82922999999999],"type":"Point"}
}