{
  "id": 1125985637,
  "type": "Feature",
  "properties": {
    "edtf:cessation":"uuuu",
    "edtf:inception":"uuuu",
    "geom:area":0.0,
    "geom:area_square_m":0.0,
    "geom:bbox":"-88.42918,30.44353,-88.42918,30.44353",
    "geom:latitude":30.44353,
    "geom:longitude":-88.42918,
    "gn:gn_country":"US",
    "gn:gn_fcode":"PPL",
    "gn:gn_pop":0,
    "iso:country":"US",
    "lbl:latitude":30.44353,
    "lbl:longitude":-88.42918,
    "mz:hierarchy_label":1,
    "mz:is_current":-1,
    "mz:note":"Quattroshapes Point Gazetteer import 20170519",
    "qs_pg:aaroncc":"US",
    "qs_pg:gn_country":"US",
    "qs_pg:gn_fcode":"PPL",
    "qs_pg:gn_id":4440620,
    "qs_pg:gn_pop":0,
    "qs_pg:name":"Pecan",
    "qs_pg:name_adm0":"United States",
    "qs_pg:name_adm1":"Mississippi",
    "qs_pg:photos":35,
    "qs_pg:photos_1k":7,
    "qs_pg:photos_9k":1,
    "qs_pg:photos_9r":2,
    "qs_pg:photos_all":35,
    "qs_pg:photos_sr":2,
    "qs_pg:pop_sr":0,
    "qs_pg:qs_id":994977,
    "qs_pg:qs_pg_placetype":"locality",
    "qs_pg:qs_pg_placetype_gp":"Town",
    "qs_pg:woe_adm0":23424977,
    "qs_pg:woe_id":2469826,
    "src:geom":"qs_pg",
    "src:lbl:centroid":"qs_pg",
    "woe:adm0_id":23424977,
    "woe:name_adm0":"United States",
    "woe:name_adm1":"Mississippi",
    "woe:placetype":"Town",
    "wof:belongsto":[
        102191575,
        85633793,
        85688579,
        102083161
    ],
    "wof:breaches":[],
    "wof:concordances":{
        "gn:id":4440620,
        "gp:id":2469826,
        "qs_pg:id":994977
    },
    "wof:country":"US",
    "wof:created":1497298791,
    "wof:geomhash":"53185f8e1f3fd72cb9b0a35582966146",
    "wof:hierarchy":[
        {
            "continent_id":102191575,
            "country_id":85633793,
            "county_id":102083161,
            "locality_id":1125985637,
            "region_id":85688579
        }
    ],
    "wof:id":1125985637,
    "wof:lastmodified":1509405051,
    "wof:name":"Pecan",
    "wof:parent_id":102083161,
    "wof:placetype":"locality",
    "wof:repo":"whosonfirst-data-admin-us",
    "wof:superseded_by":[],
    "wof:supersedes":[],
    "wof:tags":[]
},
  "bbox": [
    -88.42918,
    30.44353,
    -88.42918,
    30.44353
],
  "geometry": {"coordinates":[-88.42918,30.44353],"type":"Point"}
}