{
  "id": 1343778595,
  "type": "Feature",
  "properties": {
    "edtf:cessation":"2018-09-06",
    "edtf:inception":"uuuu",
    "geom:area":0.0,
    "geom:area_square_m":0.0,
    "geom:bbox":"-122.40834,40.67793,-122.40834,40.67793",
    "geom:latitude":40.67793,
    "geom:longitude":-122.40834,
    "gn:admin1_code":"CA",
    "gn:admin2_code":"89.0",
    "gn:asciiname":"Churntown (historical)",
    "gn:country_code":"US",
    "gn:dem":274,
    "gn:elevation":"264.0",
    "gn:feature_class":"P",
    "gn:feature_code":"PPLQ",
    "gn:geonameid":5561426,
    "gn:latitude":40.67793,
    "gn:longitude":-122.40834,
    "gn:modification_date":"2011-12-12",
    "gn:name":"Churntown (historical)",
    "gn:population":0,
    "gn:timezone":"America/Los_Angeles",
    "iso:country":"US",
    "mz:hierarchy_label":1,
    "mz:is_current":0,
    "src:geom":"geonames",
    "wof:belongsto":[
        102191575,
        85633793,
        85688637,
        102083577
    ],
    "wof:breaches":[],
    "wof:concordances":{
        "gn:id":5561426
    },
    "wof:country":"US",
    "wof:geomhash":"0dfd9a518f687ec4bc2946676ee2a272",
    "wof:hierarchy":[
        {
            "continent_id":102191575,
            "country_id":85633793,
            "county_id":102083577,
            "locality_id":1343778595,
            "region_id":85688637
        }
    ],
    "wof:id":1343778595,
    "wof:lastmodified":1536785303,
    "wof:name":"Churntown (historical)",
    "wof:parent_id":102083577,
    "wof:placetype":"locality",
    "wof:repo":"whosonfirst-data-admin-us",
    "wof:superseded_by":[],
    "wof:supersedes":[],
    "wof:tags":[]
},
  "bbox": [
    -122.40834,
    40.67793,
    -122.40834,
    40.67793
],
  "geometry": {"coordinates":[-122.40834,40.67793],"type":"Point"}
}