{
  "id": 1326855767,
  "type": "Feature",
  "properties": {
    "edtf:cessation":"uuuu",
    "edtf:inception":"uuuu",
    "geom:area":0.0,
    "geom:area_square_m":0.0,
    "geom:bbox":"-80.03813,39.1001,-80.03813,39.1001",
    "geom:latitude":39.1001,
    "geom:longitude":-80.03813,
    "gn:admin1_code":"WV",
    "gn:admin2_code":"1.0",
    "gn:asciiname":"Union",
    "gn:country_code":"US",
    "gn:dem":566,
    "gn:elevation":"565.0",
    "gn:feature_class":"P",
    "gn:feature_code":"PPL",
    "gn:geonameid":4825446,
    "gn:latitude":39.1001,
    "gn:longitude":-80.03813,
    "gn:modification_date":"2006-01-15",
    "gn:name":"Union",
    "gn:population":0,
    "gn:timezone":"America/New_York",
    "iso:country":"US",
    "mz:hierarchy_label":1,
    "mz:is_current":-1,
    "name:eng_x_preferred":[
        "Union"
    ],
    "name:und_x_variant":[
        "Bend of the River"
    ],
    "src:geom":"geonames",
    "wof:belongsto":[
        102191575,
        85633793,
        85688589,
        102082593
    ],
    "wof:breaches":[],
    "wof:concordances":{
        "gn:id":4825446
    },
    "wof:country":"US",
    "wof:geomhash":"e03752cbc98d176c056ea88d8762915c",
    "wof:hierarchy":[
        {
            "continent_id":102191575,
            "country_id":85633793,
            "county_id":102082593,
            "locality_id":1326855767,
            "region_id":85688589
        }
    ],
    "wof:id":1326855767,
    "wof:lastmodified":1537712792,
    "wof:name":"Union",
    "wof:parent_id":102082593,
    "wof:placetype":"locality",
    "wof:repo":"whosonfirst-data-admin-us",
    "wof:superseded_by":[],
    "wof:supersedes":[],
    "wof:tags":[]
},
  "bbox": [
    -80.03813000000002,
    39.1001,
    -80.03813000000002,
    39.1001
],
  "geometry": {"coordinates":[-80.03813000000002,39.1001],"type":"Point"}
}