{
  "id": 420521327,
  "type": "Feature",
  "properties": {
    "edtf:cessation":"uuuu",
    "edtf:inception":"uuuu",
    "geom:area":0.0,
    "geom:area_square_m":267387.364863,
    "geom:bbox":"-83.197749,37.260179,-83.197749,37.260179",
    "geom:latitude":37.260179,
    "geom:longitude":-83.197749,
    "iso:country":"US",
    "lbl:latitude":37.260179,
    "lbl:longitude":-83.197749,
    "mz:hierarchy_label":0,
    "mz:is_current":1,
    "name:deu_x_preferred":[
        "Allais"
    ],
    "name:eng_x_preferred":[
        "Allais"
    ],
    "name:fra_x_preferred":[
        "Allais"
    ],
    "name:ita_x_preferred":[
        "Allais"
    ],
    "name:pol_x_preferred":[
        "Allais"
    ],
    "name:por_x_preferred":[
        "Allais"
    ],
    "name:rus_x_preferred":[
        "\u0410\u043b\u043b\u0435"
    ],
    "name:swe_x_preferred":[
        "Allais"
    ],
    "name:ukr_x_preferred":[
        "\u0410\u043b\u043b\u0435"
    ],
    "src:geom":"mz",
    "src:geom_alt":[
        "quattroshapes_pg",
        "zetashapes"
    ],
    "src:lbl":"mapshaper",
    "src:lbl:centroid":"mapshaper",
    "src:population":"zetashapes",
    "wd:wordcount":113,
    "wof:belongsto":[
        102191575,
        85633793,
        85946909,
        102084691,
        85688641
    ],
    "wof:breaches":[],
    "wof:concordances":{
        "gn:id":4282361,
        "gp:id":2353204,
        "qs_pg:id":1301676
    },
    "wof:country":"US",
    "wof:geomhash":"5a237be27e73206af96e2b4ef4830a7e",
    "wof:hierarchy":[
        {
            "continent_id":102191575,
            "country_id":85633793,
            "county_id":102084691,
            "locality_id":85946909,
            "neighbourhood_id":420521327,
            "region_id":85688641
        }
    ],
    "wof:id":420521327,
    "wof:lastmodified":1533594634,
    "wof:name":"Allais",
    "wof:parent_id":85946909,
    "wof:placetype":"neighbourhood",
    "wof:population":21,
    "wof:population_rank":1,
    "wof:repo":"whosonfirst-data-admin-us",
    "wof:superseded_by":[],
    "wof:supersedes":[],
    "wof:tags":[],
    "zs:area_m":267367.055192,
    "zs:blockids":[
        211939705003046
    ],
    "zs:housing10":8,
    "zs:id":2353204,
    "zs:label":"Allais",
    "zs:pop10":21
},
  "bbox": [
    -83.197749,
    37.260179,
    -83.197749,
    37.260179
],
  "geometry": {"coordinates":[-83.197749,37.260179],"type":"Point"}
}