{
  "id": 1209348865,
  "type": "Feature",
  "properties": {
    "edtf:cessation":"uuuu",
    "edtf:inception":"uuuu",
    "geom:area":0.0,
    "geom:area_square_m":0.0,
    "geom:bbox":"-123.46793,46.66121,-123.46793,46.66121",
    "geom:latitude":46.66121,
    "geom:longitude":-123.46793,
    "gn:admin1_code":"WA",
    "gn:admin2_code":"49.0",
    "gn:asciiname":"Bedford",
    "gn:country_code":"US",
    "gn:dem":164,
    "gn:elevation":"159.0",
    "gn:feature_class":"P",
    "gn:feature_code":"PPL",
    "gn:geonameid":5786812,
    "gn:latitude":46.66121,
    "gn:longitude":-123.46793,
    "gn:modification_date":"2006-01-15",
    "gn:name":"Bedford",
    "gn:population":0,
    "gn:timezone":"America/Los_Angeles",
    "iso:country":"US",
    "mz:hierarchy_label":1,
    "mz:is_current":-1,
    "src:geom":"geonames",
    "wof:belongsto":[
        85633793
    ],
    "wof:breaches":[],
    "wof:concordances":{
        "gn:id":5786812
    },
    "wof:country":"US",
    "wof:geomhash":"01a99e16ff9ca2e77b604bdf71a8de63",
    "wof:hierarchy":[
        {
            "country_id":85633793,
            "locality_id":1209348865
        }
    ],
    "wof:id":1209348865,
    "wof:lastmodified":1536289815,
    "wof:name":"Bedford",
    "wof:parent_id":85633793,
    "wof:placetype":"locality",
    "wof:repo":"whosonfirst-data-admin-us",
    "wof:superseded_by":[],
    "wof:supersedes":[],
    "wof:tags":[]
},
  "bbox": [
    -123.46793,
    46.66121,
    -123.46793,
    46.66121
],
  "geometry": {"coordinates":[-123.46793,46.66121],"type":"Point"}
}