{
  "id": 1309814841,
  "type": "Feature",
  "properties": {
    "edtf:cessation":"uuuu",
    "edtf:deprecated":"2019-02-08",
    "edtf:inception":"uuuu",
    "geom:area":0.0,
    "geom:area_square_m":0.0,
    "geom:bbox":"-86.499,32.461,-86.499,32.461",
    "geom:latitude":32.461,
    "geom:longitude":-86.499,
    "gn:admin1_code":"AL",
    "gn:admin2_code":"1.0",
    "gn:asciiname":"W C Rices Trailer Park",
    "gn:country_code":"US",
    "gn:dem":128,
    "gn:elevation":"122.0",
    "gn:feature_class":"P",
    "gn:feature_code":"PPL",
    "gn:geonameid":7308738,
    "gn:latitude":32.461,
    "gn:longitude":-86.499,
    "gn:modification_date":"2010-08-06",
    "gn:name":"W C Rices Trailer Park",
    "gn:population":0,
    "gn:timezone":"America/Chicago",
    "iso:country":"US",
    "mz:hierarchy_label":1,
    "mz:is_current":0,
    "src:geom":"geonames",
    "wof:belongsto":[
        102191575,
        85633793,
        85688675,
        102085509
    ],
    "wof:breaches":[],
    "wof:concordances":{
        "gn:id":7308738
    },
    "wof:country":"US",
    "wof:geomhash":"da174262fb21c890a5823ab9232dee24",
    "wof:hierarchy":[
        {
            "continent_id":102191575,
            "country_id":85633793,
            "county_id":102085509,
            "locality_id":1309814841,
            "region_id":85688675
        }
    ],
    "wof:id":1309814841,
    "wof:lastmodified":1549867399,
    "wof:name":"W C Rices Trailer Park",
    "wof:parent_id":102085509,
    "wof:placetype":"locality",
    "wof:repo":"whosonfirst-data-admin-us",
    "wof:superseded_by":[
        1376927531
    ],
    "wof:supersedes":[],
    "wof:tags":[]
},
  "bbox": [
    -86.499,
    32.461,
    -86.499,
    32.461
],
  "geometry": {"coordinates":[-86.499,32.461],"type":"Point"}
}