{
  "id": 1327247567,
  "type": "Feature",
  "properties": {
    "edtf:cessation":"uuuu",
    "edtf:inception":"uuuu",
    "geom:area":0.0,
    "geom:area_square_m":0.0,
    "geom:bbox":"-84.28617,39.26572,-84.28617,39.26572",
    "geom:latitude":39.26572,
    "geom:longitude":-84.28617,
    "gn:admin1_code":"OH",
    "gn:admin2_code":"61.0",
    "gn:admin3_code":"45108.0",
    "gn:asciiname":"Claiborne West",
    "gn:country_code":"US",
    "gn:dem":224,
    "gn:feature_class":"P",
    "gn:feature_code":"PPL",
    "gn:geonameid":8062484,
    "gn:latitude":39.26572,
    "gn:longitude":-84.28617,
    "gn:modification_date":"2017-05-23",
    "gn:name":"Claiborne West",
    "gn:population":0,
    "gn:timezone":"America/New_York",
    "iso:country":"US",
    "mz:hierarchy_label":1,
    "mz:is_current":-1,
    "src:geom":"geonames",
    "wof:belongsto":[
        85688485,
        102191575,
        404525361,
        85633793,
        102083687
    ],
    "wof:breaches":[],
    "wof:concordances":{
        "gn:id":8062484
    },
    "wof:country":"US",
    "wof:geomhash":"bade81819d1a3e8959e77f5a23226c8b",
    "wof:hierarchy":[
        {
            "continent_id":102191575,
            "country_id":85633793,
            "county_id":102083687,
            "localadmin_id":404525361,
            "locality_id":1327247567,
            "region_id":85688485
        }
    ],
    "wof:id":1327247567,
    "wof:lastmodified":1536947956,
    "wof:name":"Claiborne West",
    "wof:parent_id":404525361,
    "wof:placetype":"locality",
    "wof:repo":"whosonfirst-data-admin-us",
    "wof:superseded_by":[],
    "wof:supersedes":[],
    "wof:tags":[]
},
  "bbox": [
    -84.28617,
    39.26572,
    -84.28617,
    39.26572
],
  "geometry": {"coordinates":[-84.28617,39.26572],"type":"Point"}
}