{
  "id": 1125334777,
  "type": "Feature",
  "properties": {
    "edtf:cessation":"2017-05-19",
    "edtf:inception":"uuuu",
    "geom:area":0.0,
    "geom:area_square_m":0.0,
    "geom:bbox":"-78.65808,40.63396,-78.65808,40.63396",
    "geom:latitude":40.63396,
    "geom:longitude":-78.65808,
    "gn:gn_country":"US",
    "gn:gn_fcode":"ADMD",
    "gn:gn_pop":1769,
    "gn:population":1769,
    "iso:country":"US",
    "lbl:latitude":40.63396,
    "lbl:longitude":-78.65808,
    "mz:hierarchy_label":1,
    "mz:is_current":0,
    "mz:note":"Quattroshapes Point Gazetteer import 20170519",
    "qs_pg:aaroncc":"US",
    "qs_pg:gn_country":"US",
    "qs_pg:gn_fcode":"ADMD",
    "qs_pg:gn_id":5205228,
    "qs_pg:gn_pop":1769,
    "qs_pg:name":"Borough of Patton",
    "qs_pg:photos_9r":0,
    "qs_pg:photos_sr":0,
    "qs_pg:pop_sr":3,
    "qs_pg:qs_id":606880,
    "qs_pg:qs_pg_placetype":"localadmin",
    "src:geom":"qs_pg",
    "src:lbl:centroid":"qs_pg",
    "src:population":"geonames",
    "wof:belongsto":[
        85633793
    ],
    "wof:breaches":[],
    "wof:concordances":{
        "gn:id":5205228,
        "qs_pg:id":606880
    },
    "wof:country":"US",
    "wof:created":1497045339,
    "wof:geomhash":"c8ea8700371b22f9196583181bea3fbe",
    "wof:hierarchy":[
        {
            "country_id":85633793,
            "localadmin_id":1125334777
        }
    ],
    "wof:id":1125334777,
    "wof:lastmodified":1505186975,
    "wof:name":"Borough of Patton",
    "wof:parent_id":-1,
    "wof:placetype":"localadmin",
    "wof:population":1769,
    "wof:population_rank":3,
    "wof:repo":"whosonfirst-data-admin-us",
    "wof:superseded_by":[],
    "wof:supersedes":[],
    "wof:tags":[]
},
  "bbox": [
    -78.65808,
    40.63396,
    -78.65808,
    40.63396
],
  "geometry": {"coordinates":[-78.65808,40.63396],"type":"Point"}
}