{
  "id": 1125395445,
  "type": "Feature",
  "properties": {
    "edtf:cessation":"2017-05-19",
    "edtf:inception":"uuuu",
    "geom:area":0.0,
    "geom:area_square_m":0.0,
    "geom:bbox":"-99.89705,36.70525,-99.89705,36.70525",
    "geom:latitude":36.70525,
    "geom:longitude":-99.89705,
    "gn:gn_country":"US",
    "gn:gn_fcode":"ADMD",
    "gn:gn_pop":1344,
    "gn:population":1344,
    "iso:country":"US",
    "lbl:latitude":36.70525,
    "lbl:longitude":-99.89705,
    "mz:hierarchy_label":1,
    "mz:is_current":0,
    "mz:note":"Quattroshapes Point Gazetteer import 20170519",
    "qs_pg:aaroncc":"US",
    "qs_pg:gn_country":"US",
    "qs_pg:gn_fcode":"ADMD",
    "qs_pg:gn_id":7175291,
    "qs_pg:gn_pop":1344,
    "qs_pg:name":"Town of Laverne",
    "qs_pg:photos_9r":0,
    "qs_pg:photos_sr":0,
    "qs_pg:pop_sr":3,
    "qs_pg:qs_id":1047399,
    "qs_pg:qs_pg_placetype":"localadmin",
    "src:geom":"qs_pg",
    "src:lbl:centroid":"qs_pg",
    "src:population":"geonames",
    "wof:belongsto":[
        85633793
    ],
    "wof:breaches":[],
    "wof:concordances":{
        "gn:id":7175291,
        "qs_pg:id":1047399
    },
    "wof:country":"US",
    "wof:created":1497048986,
    "wof:geomhash":"d3d65a62375a7f720e78029f16a4ef4e",
    "wof:hierarchy":[
        {
            "country_id":85633793,
            "localadmin_id":1125395445
        }
    ],
    "wof:id":1125395445,
    "wof:lastmodified":1505187150,
    "wof:name":"Town of Laverne",
    "wof:parent_id":-1,
    "wof:placetype":"localadmin",
    "wof:population":1344,
    "wof:population_rank":3,
    "wof:repo":"whosonfirst-data-admin-us",
    "wof:superseded_by":[],
    "wof:supersedes":[],
    "wof:tags":[]
},
  "bbox": [
    -99.89705,
    36.70525,
    -99.89705,
    36.70525
],
  "geometry": {"coordinates":[-99.89704999999999,36.70525],"type":"Point"}
}