{
  "id": 420535471,
  "type": "Feature",
  "properties": {
    "edtf:cessation":"uuuu",
    "edtf:inception":"uuuu",
    "geom:area":0.0,
    "geom:area_square_m":11712.285767,
    "geom:bbox":"-112.198949,33.534314,-112.198949,33.534314",
    "geom:latitude":33.534314,
    "geom:longitude":-112.198949,
    "iso:country":"US",
    "lbl:latitude":33.534314,
    "lbl:longitude":-112.198949,
    "mz:hierarchy_label":0,
    "mz:is_current":-1,
    "name:eng_x_preferred":[
        "64th Drive Sunrise"
    ],
    "src:geom":"mz",
    "src:geom_alt":[
        "zetashapes"
    ],
    "src:lbl":"mapshaper",
    "src:lbl:centroid":"mapshaper",
    "src:population":"zetashapes",
    "wof:belongsto":[
        102191575,
        85633793,
        85917509,
        102087421,
        85688719
    ],
    "wof:breaches":[],
    "wof:concordances":{
        "gp:id":55859258
    },
    "wof:country":"US",
    "wof:geomhash":"2abc0e52016212c4062c92a969a60d06",
    "wof:hierarchy":[
        {
            "continent_id":102191575,
            "country_id":85633793,
            "county_id":102087421,
            "locality_id":85917509,
            "neighbourhood_id":420535471,
            "region_id":85688719
        }
    ],
    "wof:id":420535471,
    "wof:lastmodified":1533599032,
    "wof:name":"64th Drive Sunrise",
    "wof:parent_id":85917509,
    "wof:placetype":"neighbourhood",
    "wof:population":102,
    "wof:population_rank":1,
    "wof:repo":"whosonfirst-data-admin-us",
    "wof:superseded_by":[],
    "wof:supersedes":[],
    "wof:tags":[],
    "zs:area_m":11711.40605,
    "zs:blockids":[
        40130928013015,
        40130928013005
    ],
    "zs:housing10":40,
    "zs:id":55859258,
    "zs:label":"64th Drive Sunrise",
    "zs:pop10":102
},
  "bbox": [
    -112.198949,
    33.534314,
    -112.198949,
    33.534314
],
  "geometry": {"coordinates":[-112.198949,33.534314],"type":"Point"}
}