{
  "id": 420539829,
  "type": "Feature",
  "properties": {
    "edtf:cessation":"uuuu",
    "edtf:inception":"uuuu",
    "geom:area":0.0,
    "geom:area_square_m":18490106.687391,
    "geom:bbox":"-79.923581,41.268231,-79.923581,41.268231",
    "geom:latitude":41.268231,
    "geom:longitude":-79.923581,
    "iso:country":"US",
    "lbl:latitude":41.268231,
    "lbl:longitude":-79.923581,
    "mz:hierarchy_label":0,
    "mz:is_current":-1,
    "name:eng_x_preferred":[
        "Pearl"
    ],
    "src:geom":"mz",
    "src:geom_alt":[
        "zetashapes"
    ],
    "src:lbl":"mapshaper",
    "src:lbl:centroid":"mapshaper",
    "src:population":"zetashapes",
    "wd:wordcount":7277,
    "wof:belongsto":[
        102191575,
        404487561,
        85633793,
        102081279,
        85688481
    ],
    "wof:breaches":[],
    "wof:concordances":{
        "gp:id":2469700,
        "wd:id":"Q43436"
    },
    "wof:country":"US",
    "wof:geomhash":"33649a89f788f0c600ded80f886bf20f",
    "wof:hierarchy":[
        {
            "continent_id":102191575,
            "country_id":85633793,
            "county_id":102081279,
            "localadmin_id":404487561,
            "locality_id":-1,
            "neighbourhood_id":420539829,
            "region_id":85688481
        }
    ],
    "wof:id":420539829,
    "wof:lastmodified":1533600270,
    "wof:name":"Pearl",
    "wof:parent_id":-1,
    "wof:placetype":"neighbourhood",
    "wof:population":197,
    "wof:population_rank":1,
    "wof:repo":"whosonfirst-data-admin-us",
    "wof:superseded_by":[],
    "wof:supersedes":[],
    "wof:tags":[],
    "zs:area_m":18488842.423183,
    "zs:blockids":[
        421212014003001,
        421212014003012,
        421212014001072,
        421212014003004,
        421212014003006,
        421212014001069,
        421212014003003,
        421212014001085,
        421212014003009,
        421212014003005,
        421212014003007,
        421212014003011,
        421212014001065,
        421212014001090,
        421212014003000,
        421212014001074
    ],
    "zs:housing10":122,
    "zs:id":2469700,
    "zs:label":"Pearl",
    "zs:pop10":197
},
  "bbox": [
    -79.923581,
    41.268231,
    -79.923581,
    41.268231
],
  "geometry": {"coordinates":[-79.923581,41.268231],"type":"Point"}
}