{
  "id": 1242693363,
  "type": "Feature",
  "properties": {
    "edtf:cessation":"2018-09-06",
    "edtf:inception":"uuuu",
    "geom:area":0.0,
    "geom:area_square_m":0.0,
    "geom:bbox":"-78.40113,40.85061,-78.40113,40.85061",
    "geom:latitude":40.85061,
    "geom:longitude":-78.40113,
    "gn:admin1_code":"PA",
    "gn:admin2_code":"33.0",
    "gn:admin3_code":"6288.0",
    "gn:asciiname":"Mascot (historical)",
    "gn:country_code":"US",
    "gn:dem":485,
    "gn:elevation":"480.0",
    "gn:feature_class":"P",
    "gn:feature_code":"PPLQ",
    "gn:geonameid":5200087,
    "gn:latitude":40.85061,
    "gn:longitude":-78.40113,
    "gn:modification_date":"2017-05-23",
    "gn:name":"Mascot (historical)",
    "gn:population":0,
    "gn:timezone":"America/New_York",
    "iso:country":"US",
    "mz:hierarchy_label":1,
    "mz:is_current":0,
    "src:geom":"geonames",
    "wof:belongsto":[
        85688481,
        102191575,
        404482975,
        85633793,
        102080967
    ],
    "wof:breaches":[],
    "wof:concordances":{
        "gn:id":5200087
    },
    "wof:country":"US",
    "wof:geomhash":"27f9452a03b0026d3264b48205f2ed9e",
    "wof:hierarchy":[
        {
            "continent_id":102191575,
            "country_id":85633793,
            "county_id":102080967,
            "localadmin_id":404482975,
            "locality_id":1242693363,
            "region_id":85688481
        }
    ],
    "wof:id":1242693363,
    "wof:lastmodified":1536896852,
    "wof:name":"Mascot (historical)",
    "wof:parent_id":404482975,
    "wof:placetype":"locality",
    "wof:repo":"whosonfirst-data-admin-us",
    "wof:superseded_by":[],
    "wof:supersedes":[],
    "wof:tags":[]
},
  "bbox": [
    -78.40113000000002,
    40.85061,
    -78.40113000000002,
    40.85061
],
  "geometry": {"coordinates":[-78.40113000000002,40.85061],"type":"Point"}
}