{
  "id": 1125319595,
  "type": "Feature",
  "properties": {
    "edtf:cessation":"uuuu",
    "edtf:deprecated":"2017-11-04",
    "edtf:inception":"uuuu",
    "geom:area":0.0,
    "geom:area_square_m":0.0,
    "geom:bbox":"-98.32675,30.55517,-98.32675,30.55517",
    "geom:latitude":30.55517,
    "geom:longitude":-98.32675,
    "gn:gn_country":"US",
    "gn:gn_fcode":"ADMD",
    "gn:gn_pop":1123,
    "gn:population":1123,
    "iso:country":"US",
    "lbl:latitude":30.55517,
    "lbl:longitude":-98.32675,
    "mz:hierarchy_label":1,
    "mz:is_current":0,
    "mz:note":"Quattroshapes Point Gazetteer import 20170519",
    "qs_pg:aaroncc":"US",
    "qs_pg:gn_country":"US",
    "qs_pg:gn_fcode":"ADMD",
    "qs_pg:gn_id":7173244,
    "qs_pg:gn_pop":1123,
    "qs_pg:name":"City of Cottonwood Shores",
    "qs_pg:photos_9r":0,
    "qs_pg:photos_sr":0,
    "qs_pg:pop_sr":3,
    "qs_pg:qs_id":665807,
    "qs_pg:qs_pg_placetype":"localadmin",
    "src:geom":"qs_pg",
    "src:lbl:centroid":"qs_pg",
    "src:population":"geonames",
    "wof:belongsto":[
        85633793
    ],
    "wof:breaches":[],
    "wof:concordances":{
        "gn:id":7173244,
        "qs_pg:id":665807
    },
    "wof:country":"US",
    "wof:created":1497044449,
    "wof:geomhash":"366d3843aa9aa804d38805252b4954e8",
    "wof:hierarchy":[
        {
            "country_id":85633793,
            "localadmin_id":1125319595
        }
    ],
    "wof:id":1125319595,
    "wof:lastmodified":1509752541,
    "wof:name":"City of Cottonwood Shores",
    "wof:parent_id":-1,
    "wof:placetype":"localadmin",
    "wof:population":1123,
    "wof:population_rank":3,
    "wof:repo":"whosonfirst-data-admin-us",
    "wof:superseded_by":[
        101724551
    ],
    "wof:supersedes":[],
    "wof:tags":[]
},
  "bbox": [
    -98.32675,
    30.55517,
    -98.32675,
    30.55517
],
  "geometry": {"coordinates":[-98.32675,30.55517],"type":"Point"}
}