{
  "id": 1277001037,
  "type": "Feature",
  "properties": {
    "edtf:cessation":"2018-09-06",
    "edtf:inception":"uuuu",
    "geom:area":0.0,
    "geom:area_square_m":0.0,
    "geom:bbox":"-83.22659,41.21728,-83.22659,41.21728",
    "geom:latitude":41.21728,
    "geom:longitude":-83.22659,
    "gn:admin1_code":"OH",
    "gn:admin2_code":"147.0",
    "gn:admin3_code":"43316.0",
    "gn:asciiname":"Linden (historical)",
    "gn:country_code":"US",
    "gn:dem":218,
    "gn:elevation":"220.0",
    "gn:feature_class":"P",
    "gn:feature_code":"PPLQ",
    "gn:geonameid":5160897,
    "gn:latitude":41.21728,
    "gn:longitude":-83.22659,
    "gn:modification_date":"2017-05-23",
    "gn:name":"Linden (historical)",
    "gn:population":0,
    "gn:timezone":"America/New_York",
    "iso:country":"US",
    "mz:hierarchy_label":1,
    "mz:is_current":0,
    "name:eng_x_preferred":[
        "Linden (historical)"
    ],
    "name:und_x_variant":[
        "Linden Station"
    ],
    "src:geom":"geonames",
    "wof:belongsto":[
        85688485,
        102191575,
        404524247,
        85633793,
        102084717
    ],
    "wof:breaches":[],
    "wof:concordances":{
        "gn:id":5160897
    },
    "wof:country":"US",
    "wof:geomhash":"a594bb987b7cb34279e7a9d3e29d6aeb",
    "wof:hierarchy":[
        {
            "continent_id":102191575,
            "country_id":85633793,
            "county_id":102084717,
            "localadmin_id":404524247,
            "locality_id":1277001037,
            "region_id":85688485
        }
    ],
    "wof:id":1277001037,
    "wof:lastmodified":1537712912,
    "wof:name":"Linden (historical)",
    "wof:parent_id":404524247,
    "wof:placetype":"locality",
    "wof:repo":"whosonfirst-data-admin-us",
    "wof:superseded_by":[],
    "wof:supersedes":[],
    "wof:tags":[]
},
  "bbox": [
    -83.22659,
    41.21728,
    -83.22659,
    41.21728
],
  "geometry": {"coordinates":[-83.22659,41.21728],"type":"Point"}
}