{
  "id": 1125417023,
  "type": "Feature",
  "properties": {
    "edtf:cessation":"uuuu",
    "edtf:deprecated":"2017-11-15",
    "edtf:inception":"uuuu",
    "geom:area":0.0,
    "geom:area_square_m":0.0,
    "geom:bbox":"-75.47022,44.70701,-75.47022,44.70701",
    "geom:latitude":44.70701,
    "geom:longitude":-75.47022,
    "gn:gn_country":"US",
    "gn:gn_fcode":"ADMD",
    "gn:gn_pop":11128,
    "gn:population":11128,
    "iso:country":"US",
    "lbl:latitude":44.70701,
    "lbl:longitude":-75.47022,
    "mz:hierarchy_label":1,
    "mz:is_current":0,
    "mz:note":"Quattroshapes Point Gazetteer import 20170519",
    "qs_pg:aaroncc":"US",
    "qs_pg:gn_country":"US",
    "qs_pg:gn_fcode":"ADMD",
    "qs_pg:gn_id":5129630,
    "qs_pg:gn_pop":11128,
    "qs_pg:name":"City of Ogdensburg",
    "qs_pg:photos_9r":0,
    "qs_pg:photos_sr":0,
    "qs_pg:pop_sr":6,
    "qs_pg:qs_id":101087,
    "qs_pg:qs_pg_placetype":"localadmin",
    "src:geom":"qs_pg",
    "src:lbl:centroid":"qs_pg",
    "src:population":"geonames",
    "wof:belongsto":[
        85633793
    ],
    "wof:breaches":[],
    "wof:concordances":{
        "gn:id":5129630,
        "qs_pg:id":101087
    },
    "wof:country":"US",
    "wof:created":1497051525,
    "wof:geomhash":"44dff82d0ea594ee03337f0f2017719e",
    "wof:hierarchy":[
        {
            "country_id":85633793,
            "localadmin_id":1125417023
        }
    ],
    "wof:id":1125417023,
    "wof:lastmodified":1510790368,
    "wof:name":"City of Ogdensburg",
    "wof:parent_id":-1,
    "wof:placetype":"localadmin",
    "wof:population":11128,
    "wof:population_rank":6,
    "wof:repo":"whosonfirst-data-admin-us",
    "wof:superseded_by":[
        85978695
    ],
    "wof:supersedes":[],
    "wof:tags":[]
},
  "bbox": [
    -75.47022,
    44.70701,
    -75.47022,
    44.70701
],
  "geometry": {"coordinates":[-75.47022,44.70701],"type":"Point"}
}