{
  "id": 1125346497,
  "type": "Feature",
  "properties": {
    "edtf:cessation":"uuuu",
    "edtf:deprecated":"2017-11-04",
    "edtf:inception":"uuuu",
    "geom:area":0.0,
    "geom:area_square_m":0.0,
    "geom:bbox":"-95.3037,39.57132,-95.3037,39.57132",
    "geom:latitude":39.57132,
    "geom:longitude":-95.3037,
    "gn:gn_country":"US",
    "gn:gn_fcode":"ADMD",
    "gn:gn_pop":298,
    "gn:population":298,
    "iso:country":"US",
    "lbl:latitude":39.57132,
    "lbl:longitude":-95.3037,
    "mz:hierarchy_label":1,
    "mz:is_current":0,
    "mz:note":"Quattroshapes Point Gazetteer import 20170519",
    "qs_pg:aaroncc":"US",
    "qs_pg:gn_country":"US",
    "qs_pg:gn_fcode":"ADMD",
    "qs_pg:gn_id":7164033,
    "qs_pg:gn_pop":298,
    "qs_pg:name":"City of Lancaster",
    "qs_pg:photos_9r":0,
    "qs_pg:photos_sr":0,
    "qs_pg:pop_sr":2,
    "qs_pg:qs_id":659005,
    "qs_pg:qs_pg_placetype":"localadmin",
    "src:geom":"qs_pg",
    "src:lbl:centroid":"qs_pg",
    "src:population":"geonames",
    "wof:belongsto":[
        85633793
    ],
    "wof:breaches":[],
    "wof:concordances":{
        "gn:id":7164033,
        "qs_pg:id":659005
    },
    "wof:country":"US",
    "wof:created":1497045946,
    "wof:geomhash":"c0206b03e22d95c177fa31a2570a5e6c",
    "wof:hierarchy":[
        {
            "country_id":85633793,
            "localadmin_id":1125346497
        }
    ],
    "wof:id":1125346497,
    "wof:lastmodified":1509752595,
    "wof:name":"City of Lancaster",
    "wof:parent_id":-1,
    "wof:placetype":"localadmin",
    "wof:population":298,
    "wof:population_rank":2,
    "wof:repo":"whosonfirst-data-admin-us",
    "wof:superseded_by":[
        85945495
    ],
    "wof:supersedes":[],
    "wof:tags":[]
},
  "bbox": [
    -95.3037,
    39.57132,
    -95.3037,
    39.57132
],
  "geometry": {"coordinates":[-95.30370000000001,39.57132],"type":"Point"}
}