{
  "id": 1243473575,
  "type": "Feature",
  "properties": {
    "edtf:cessation":"uuuu",
    "edtf:inception":"uuuu",
    "geom:area":0.0,
    "geom:area_square_m":0.0,
    "geom:bbox":"-77.62388,41.98062,-77.62388,41.98062",
    "geom:latitude":41.98062,
    "geom:longitude":-77.62388,
    "gn:admin1_code":"PA",
    "gn:admin2_code":"105.0",
    "gn:admin3_code":"32848.0",
    "gn:asciiname":"North Fork",
    "gn:country_code":"US",
    "gn:dem":525,
    "gn:elevation":"523.0",
    "gn:feature_class":"P",
    "gn:feature_code":"PPL",
    "gn:geonameid":5203642,
    "gn:latitude":41.98062,
    "gn:longitude":-77.62388,
    "gn:modification_date":"2017-05-23",
    "gn:name":"North Fork",
    "gn:population":0,
    "gn:timezone":"America/New_York",
    "iso:country":"US",
    "mz:hierarchy_label":1,
    "mz:is_current":-1,
    "src:geom":"geonames",
    "wof:belongsto":[
        85688481,
        102191575,
        404488235,
        85633793,
        102081299
    ],
    "wof:breaches":[],
    "wof:concordances":{
        "gn:id":5203642
    },
    "wof:country":"US",
    "wof:geomhash":"b147cc55be78fc68b191e3232a546b38",
    "wof:hierarchy":[
        {
            "continent_id":102191575,
            "country_id":85633793,
            "county_id":102081299,
            "localadmin_id":404488235,
            "locality_id":1243473575,
            "region_id":85688481
        }
    ],
    "wof:id":1243473575,
    "wof:lastmodified":1536766868,
    "wof:name":"North Fork",
    "wof:parent_id":404488235,
    "wof:placetype":"locality",
    "wof:repo":"whosonfirst-data-admin-us",
    "wof:superseded_by":[],
    "wof:supersedes":[],
    "wof:tags":[]
},
  "bbox": [
    -77.62388,
    41.98062,
    -77.62388,
    41.98062
],
  "geometry": {"coordinates":[-77.62388,41.98062],"type":"Point"}
}