{
  "id": 1125334805,
  "type": "Feature",
  "properties": {
    "edtf:cessation":"uuuu",
    "edtf:deprecated":"2017-11-15",
    "edtf:inception":"uuuu",
    "geom:area":0.0,
    "geom:area_square_m":0.0,
    "geom:bbox":"-76.20411,40.68342,-76.20411,40.68342",
    "geom:latitude":40.68342,
    "geom:longitude":-76.20411,
    "gn:gn_country":"US",
    "gn:gn_fcode":"ADMD",
    "gn:gn_pop":14324,
    "gn:population":14324,
    "iso:country":"US",
    "lbl:latitude":40.68342,
    "lbl:longitude":-76.20411,
    "mz:hierarchy_label":1,
    "mz:is_current":0,
    "mz:note":"Quattroshapes Point Gazetteer import 20170519",
    "qs_pg:aaroncc":"US",
    "qs_pg:gn_country":"US",
    "qs_pg:gn_fcode":"ADMD",
    "qs_pg:gn_id":5207082,
    "qs_pg:gn_pop":14324,
    "qs_pg:name":"City of Pottsville",
    "qs_pg:photos_9r":0,
    "qs_pg:photos_sr":0,
    "qs_pg:pop_sr":6,
    "qs_pg:qs_id":606938,
    "qs_pg:qs_pg_placetype":"localadmin",
    "src:geom":"qs_pg",
    "src:lbl:centroid":"qs_pg",
    "src:population":"geonames",
    "wof:belongsto":[
        85633793
    ],
    "wof:breaches":[],
    "wof:concordances":{
        "gn:id":5207082,
        "qs_pg:id":606938
    },
    "wof:country":"US",
    "wof:created":1497045340,
    "wof:geomhash":"25dc41e9b3f09bb99746208d193af5f2",
    "wof:hierarchy":[
        {
            "country_id":85633793,
            "localadmin_id":1125334805
        }
    ],
    "wof:id":1125334805,
    "wof:lastmodified":1510790355,
    "wof:name":"City of Pottsville",
    "wof:parent_id":-1,
    "wof:placetype":"localadmin",
    "wof:population":14324,
    "wof:population_rank":6,
    "wof:repo":"whosonfirst-data-admin-us",
    "wof:superseded_by":[
        101717575
    ],
    "wof:supersedes":[],
    "wof:tags":[]
},
  "bbox": [
    -76.20411,
    40.68342,
    -76.20411,
    40.68342
],
  "geometry": {"coordinates":[-76.20411,40.68342],"type":"Point"}
}