{
  "id": 1125286761,
  "type": "Feature",
  "properties": {
    "edtf:cessation":"2017-05-19",
    "edtf:inception":"uuuu",
    "geom:area":0.0,
    "geom:area_square_m":0.0,
    "geom:bbox":"-75.57211,38.45984,-75.57211,38.45984",
    "geom:latitude":38.45984,
    "geom:longitude":-75.57211,
    "gn:gn_country":"US",
    "gn:gn_fcode":"ADMD",
    "gn:gn_pop":1597,
    "gn:population":1597,
    "iso:country":"US",
    "lbl:latitude":38.45984,
    "lbl:longitude":-75.57211,
    "mz:hierarchy_label":1,
    "mz:is_current":0,
    "mz:note":"Quattroshapes Point Gazetteer import 20170519",
    "qs_pg:aaroncc":"US",
    "qs_pg:gn_country":"US",
    "qs_pg:gn_fcode":"ADMD",
    "qs_pg:gn_id":7161605,
    "qs_pg:gn_pop":1597,
    "qs_pg:name":"Town of Delmar",
    "qs_pg:photos_9r":0,
    "qs_pg:photos_sr":0,
    "qs_pg:pop_sr":3,
    "qs_pg:qs_id":657165,
    "qs_pg:qs_pg_placetype":"localadmin",
    "src:geom":"qs_pg",
    "src:lbl:centroid":"qs_pg",
    "src:population":"geonames",
    "wof:belongsto":[
        85633793
    ],
    "wof:breaches":[],
    "wof:concordances":{
        "gn:id":7161605,
        "qs_pg:id":657165
    },
    "wof:country":"US",
    "wof:created":1497042735,
    "wof:geomhash":"aff025d3ee8690071f53a7e7ba747e20",
    "wof:hierarchy":[
        {
            "country_id":85633793,
            "localadmin_id":1125286761
        }
    ],
    "wof:id":1125286761,
    "wof:lastmodified":1505187017,
    "wof:name":"Town of Delmar",
    "wof:parent_id":-1,
    "wof:placetype":"localadmin",
    "wof:population":1597,
    "wof:population_rank":3,
    "wof:repo":"whosonfirst-data-admin-us",
    "wof:superseded_by":[],
    "wof:supersedes":[],
    "wof:tags":[]
},
  "bbox": [
    -75.57211,
    38.45984,
    -75.57211,
    38.45984
],
  "geometry": {"coordinates":[-75.57211,38.45984],"type":"Point"}
}