{
  "id": 1209449603,
  "type": "Feature",
  "properties": {
    "edtf:cessation":"uuuu",
    "edtf:inception":"uuuu",
    "geom:area":0.0,
    "geom:area_square_m":0.0,
    "geom:bbox":"-84.27612,44.97834,-84.27612,44.97834",
    "geom:latitude":44.97834,
    "geom:longitude":-84.27612,
    "gn:admin1_code":"MI",
    "gn:admin2_code":"119.0",
    "gn:admin3_code":"82420.0",
    "gn:asciiname":"Bigelow",
    "gn:country_code":"US",
    "gn:dem":343,
    "gn:elevation":"342.0",
    "gn:feature_class":"P",
    "gn:feature_code":"PPL",
    "gn:geonameid":4986070,
    "gn:latitude":44.97834,
    "gn:longitude":-84.27612,
    "gn:modification_date":"2017-05-23",
    "gn:name":"Bigelow",
    "gn:population":0,
    "gn:timezone":"America/Detroit",
    "iso:country":"US",
    "mz:hierarchy_label":1,
    "mz:is_current":-1,
    "src:geom":"geonames",
    "wof:belongsto":[
        85633793
    ],
    "wof:breaches":[],
    "wof:concordances":{
        "gn:id":4986070
    },
    "wof:country":"US",
    "wof:geomhash":"9dbd991088e933712df02deb6d929ee8",
    "wof:hierarchy":[
        {
            "country_id":85633793,
            "locality_id":1209449603
        }
    ],
    "wof:id":1209449603,
    "wof:lastmodified":1536286713,
    "wof:name":"Bigelow",
    "wof:parent_id":85633793,
    "wof:placetype":"locality",
    "wof:repo":"whosonfirst-data-admin-us",
    "wof:superseded_by":[],
    "wof:supersedes":[],
    "wof:tags":[]
},
  "bbox": [
    -84.27611999999998,
    44.97834,
    -84.27611999999998,
    44.97834
],
  "geometry": {"coordinates":[-84.27611999999998,44.97834],"type":"Point"}
}