{
  "id": 1226259037,
  "type": "Feature",
  "properties": {
    "edtf:cessation":"uuuu",
    "edtf:inception":"uuuu",
    "geom:area":0.0,
    "geom:area_square_m":0.0,
    "geom:bbox":"-79.23755,33.336,-79.23755,33.336",
    "geom:latitude":33.336,
    "geom:longitude":-79.23755,
    "gn:admin1_code":"SC",
    "gn:admin2_code":"43.0",
    "gn:asciiname":"Friendfield",
    "gn:country_code":"US",
    "gn:dem":14,
    "gn:elevation":"4.0",
    "gn:feature_class":"P",
    "gn:feature_code":"PPL",
    "gn:geonameid":4579225,
    "gn:latitude":33.336,
    "gn:longitude":-79.23755,
    "gn:modification_date":"2006-01-15",
    "gn:name":"Friendfield",
    "gn:population":0,
    "gn:timezone":"America/New_York",
    "iso:country":"US",
    "mz:hierarchy_label":1,
    "mz:is_current":-1,
    "src:geom":"geonames",
    "wof:belongsto":[
        102191575,
        85633793,
        85688683,
        102085683
    ],
    "wof:breaches":[],
    "wof:concordances":{
        "gn:id":4579225
    },
    "wof:country":"US",
    "wof:geomhash":"d7a2b8b062f9077982d868a7556fa148",
    "wof:hierarchy":[
        {
            "continent_id":102191575,
            "country_id":85633793,
            "county_id":102085683,
            "locality_id":1226259037,
            "region_id":85688683
        }
    ],
    "wof:id":1226259037,
    "wof:lastmodified":1536914923,
    "wof:name":"Friendfield",
    "wof:parent_id":102085683,
    "wof:placetype":"locality",
    "wof:repo":"whosonfirst-data-admin-us",
    "wof:superseded_by":[],
    "wof:supersedes":[],
    "wof:tags":[]
},
  "bbox": [
    -79.23755,
    33.336,
    -79.23755,
    33.336
],
  "geometry": {"coordinates":[-79.23755,33.336],"type":"Point"}
}