{
  "id": 1193161597,
  "type": "Feature",
  "properties": {
    "edtf:cessation":"uuuu",
    "edtf:inception":"uuuu",
    "geom:area":0.0,
    "geom:area_square_m":0.0,
    "geom:bbox":"-118.7495,37.61981,-118.7495,37.61981",
    "geom:latitude":37.61981,
    "geom:longitude":-118.7495,
    "gn:admin1_code":"CA",
    "gn:admin2_code":"51.0",
    "gn:asciiname":"Crowley Lake",
    "gn:country_code":"US",
    "gn:dem":2074,
    "gn:feature_class":"P",
    "gn:feature_code":"PPL",
    "gn:geonameid":7628444,
    "gn:latitude":37.61981,
    "gn:longitude":-118.7495,
    "gn:modification_date":"2011-01-04",
    "gn:name":"Crowley Lake",
    "gn:population":0,
    "gn:timezone":"America/Los_Angeles",
    "iso:country":"US",
    "mz:hierarchy_label":1,
    "mz:is_current":-1,
    "src:geom":"geonames",
    "wof:belongsto":[
        102191575,
        85633793,
        85688637,
        102080857
    ],
    "wof:breaches":[],
    "wof:concordances":{
        "gn:id":7628444,
        "wk:page":"Crowley_Lake%2C_California"
    },
    "wof:country":"US",
    "wof:geomhash":"ab8e3aa4948b7a1ce1b402d2cbf56734",
    "wof:hierarchy":[
        {
            "continent_id":102191575,
            "country_id":85633793,
            "county_id":102080857,
            "locality_id":1193161597,
            "region_id":85688637
        }
    ],
    "wof:id":1193161597,
    "wof:lastmodified":1537575733,
    "wof:name":"Crowley Lake",
    "wof:parent_id":102080857,
    "wof:placetype":"locality",
    "wof:repo":"whosonfirst-data-admin-us",
    "wof:superseded_by":[],
    "wof:supersedes":[],
    "wof:tags":[]
},
  "bbox": [
    -118.7495,
    37.61981,
    -118.7495,
    37.61981
],
  "geometry": {"coordinates":[-118.7495,37.61981],"type":"Point"}
}