{
  "id": 404475357,
  "type": "Feature",
  "properties": {
    "edtf:cessation":"uuuu",
    "edtf:inception":"uuuu",
    "geom:area":0.024883,
    "geom:area_square_m":211193358.639029,
    "geom:bbox":"-68.440131,46.561203,-68.300403,46.745238",
    "geom:latitude":46.654491,
    "geom:longitude":-68.370329,
    "iso:country":"US",
    "lbl:latitude":46.653503,
    "lbl:longitude":-68.370329,
    "mz:hierarchy_label":1,
    "mz:is_current":-1,
    "name:eng_x_preferred":[
        "Ashland"
    ],
    "qs:a0":"United States",
    "qs:a1":"Maine",
    "qs:a1_lc":"23",
    "qs:a2":"Aroostook",
    "qs:a2_lc":"23003",
    "qs:adm0":"United States",
    "qs:adm0_a3":"USA",
    "qs:la":"Ashland",
    "qs:la_lc":"2300301710",
    "qs:level":"localadmin",
    "qs:pop":1302,
    "qs:source":"US Census",
    "qs:type":"town",
    "src:geom":"quattroshapes",
    "src:population":"quattroshapes",
    "wof:belongsto":[
        102191575,
        85633793,
        85688769,
        102081161
    ],
    "wof:breaches":[],
    "wof:concordances":{},
    "wof:country":"US",
    "wof:geomhash":"cb9884bf524491bc7f6e14a8207f2e91",
    "wof:hierarchy":[
        {
            "continent_id":102191575,
            "country_id":85633793,
            "county_id":102081161,
            "localadmin_id":404475357,
            "region_id":85688769
        }
    ],
    "wof:id":404475357,
    "wof:lastmodified":1505339449,
    "wof:name":"Ashland",
    "wof:parent_id":102081161,
    "wof:placetype":"localadmin",
    "wof:population":1302,
    "wof:population_rank":3,
    "wof:repo":"whosonfirst-data-admin-us",
    "wof:superseded_by":[],
    "wof:supersedes":[],
    "wof:tags":[]
},
  "bbox": [
    -68.440131,
    46.561203,
    -68.300403,
    46.745238
],
  "geometry": {"coordinates":[[[-68.437922,46.656831],[-68.44013099999999,46.744854],[-68.30053100000001,46.745238],[-68.300403,46.705722],[-68.30072,46.657811],[-68.303012,46.657771],[-68.30490500000001,46.562704],[-68.43693,46.561203],[-68.43768,46.623553],[-68.437922,46.656831]]],"type":"Polygon"}
}