{
  "id": 1125295429,
  "type": "Feature",
  "properties": {
    "edtf:cessation":"uuuu",
    "edtf:deprecated":"2017-11-04",
    "edtf:inception":"uuuu",
    "geom:area":0.0,
    "geom:area_square_m":0.0,
    "geom:bbox":"-120.72387,44.91154,-120.72387,44.91154",
    "geom:latitude":44.91154,
    "geom:longitude":-120.72387,
    "gn:gn_country":"US",
    "gn:gn_fcode":"ADMD",
    "gn:gn_pop":46,
    "gn:population":46,
    "iso:country":"US",
    "lbl:latitude":44.91154,
    "lbl:longitude":-120.72387,
    "mz:hierarchy_label":1,
    "mz:is_current":0,
    "mz:note":"Quattroshapes Point Gazetteer import 20170519",
    "name:unk_x_variant":[
        "City of Rajneesh"
    ],
    "qs_pg:aaroncc":"US",
    "qs_pg:gn_country":"US",
    "qs_pg:gn_fcode":"ADMD",
    "qs_pg:gn_id":7172936,
    "qs_pg:gn_pop":46,
    "qs_pg:name":"City of Antelope",
    "qs_pg:photos_9r":0,
    "qs_pg:photos_sr":0,
    "qs_pg:pop_sr":1,
    "qs_pg:qs_id":665496,
    "qs_pg:qs_pg_placetype":"localadmin",
    "src:geom":"qs_pg",
    "src:lbl:centroid":"qs_pg",
    "src:population":"geonames",
    "wof:belongsto":[
        85633793
    ],
    "wof:breaches":[],
    "wof:concordances":{
        "gn:id":7172936,
        "qs_pg:id":665496
    },
    "wof:country":"US",
    "wof:created":1497043120,
    "wof:geomhash":"2c40dcdc0876e7ba18c600dee149d65f",
    "wof:hierarchy":[
        {
            "country_id":85633793,
            "localadmin_id":1125295429
        }
    ],
    "wof:id":1125295429,
    "wof:lastmodified":1509752464,
    "wof:name":"City of Antelope",
    "wof:parent_id":-1,
    "wof:placetype":"localadmin",
    "wof:population":46,
    "wof:population_rank":1,
    "wof:repo":"whosonfirst-data-admin-us",
    "wof:superseded_by":[
        101716231
    ],
    "wof:supersedes":[],
    "wof:tags":[]
},
  "bbox": [
    -120.72387,
    44.91154,
    -120.72387,
    44.91154
],
  "geometry": {"coordinates":[-120.72387000000001,44.91154],"type":"Point"}
}