{
  "id": 1209230767,
  "type": "Feature",
  "properties": {
    "edtf:cessation":"2018-09-06",
    "edtf:inception":"uuuu",
    "geom:area":0.0,
    "geom:area_square_m":0.0,
    "geom:bbox":"-91.62012,31.60795,-91.62012,31.60795",
    "geom:latitude":31.60795,
    "geom:longitude":-91.62012,
    "gn:admin1_code":"LA",
    "gn:admin2_code":"29.0",
    "gn:asciiname":"Turtle Lake (historical)",
    "gn:country_code":"US",
    "gn:dem":22,
    "gn:elevation":"17.0",
    "gn:feature_class":"P",
    "gn:feature_code":"PPLQ",
    "gn:geonameid":4344106,
    "gn:latitude":31.60795,
    "gn:longitude":-91.62012,
    "gn:modification_date":"2011-12-11",
    "gn:name":"Turtle Lake (historical)",
    "gn:population":0,
    "gn:timezone":"America/Chicago",
    "iso:country":"US",
    "mz:hierarchy_label":1,
    "mz:is_current":0,
    "src:geom":"geonames",
    "wof:belongsto":[
        85633793
    ],
    "wof:breaches":[],
    "wof:concordances":{
        "gn:id":4344106
    },
    "wof:country":"US",
    "wof:geomhash":"99bde66cf1c1dc80d8438782a5a724d3",
    "wof:hierarchy":[
        {
            "country_id":85633793,
            "locality_id":1209230767
        }
    ],
    "wof:id":1209230767,
    "wof:lastmodified":1536293647,
    "wof:name":"Turtle Lake (historical)",
    "wof:parent_id":85633793,
    "wof:placetype":"locality",
    "wof:repo":"whosonfirst-data-admin-us",
    "wof:superseded_by":[],
    "wof:supersedes":[],
    "wof:tags":[]
},
  "bbox": [
    -91.62012,
    31.60795,
    -91.62012,
    31.60795
],
  "geometry": {"coordinates":[-91.62012,31.60795],"type":"Point"}
}