{
  "id": 1259602963,
  "type": "Feature",
  "properties": {
    "edtf:cessation":"2018-09-07",
    "edtf:inception":"uuuu",
    "geom:area":0.0,
    "geom:area_square_m":0.0,
    "geom:bbox":"-83.72003,37.91453,-83.72003,37.91453",
    "geom:latitude":37.91453,
    "geom:longitude":-83.72003,
    "gn:admin1_code":"KY",
    "gn:admin2_code":"165",
    "gn:asciiname":"Ballard (historical)",
    "gn:country_code":"US",
    "gn:dem":372,
    "gn:elevation":"345.0",
    "gn:feature_class":"P",
    "gn:feature_code":"PPLQ",
    "gn:geonameid":7168160,
    "gn:latitude":37.91453,
    "gn:longitude":-83.72003,
    "gn:modification_date":"2014-10-08",
    "gn:name":"Ballard (historical)",
    "gn:population":0,
    "gn:timezone":"America/New_York",
    "iso:country":"US",
    "mz:hierarchy_label":1,
    "mz:is_current":0,
    "src:geom":"geonames",
    "wof:belongsto":[
        102191575,
        85633793,
        85688641,
        102085465
    ],
    "wof:breaches":[],
    "wof:concordances":{
        "gn:id":7168160
    },
    "wof:country":"US",
    "wof:geomhash":"241965223a2a0f428f28b26f5871c24c",
    "wof:hierarchy":[
        {
            "continent_id":102191575,
            "country_id":85633793,
            "county_id":102085465,
            "locality_id":1259602963,
            "region_id":85688641
        }
    ],
    "wof:id":1259602963,
    "wof:lastmodified":1536686773,
    "wof:name":"Ballard (historical)",
    "wof:parent_id":102085465,
    "wof:placetype":"locality",
    "wof:repo":"whosonfirst-data-admin-us",
    "wof:superseded_by":[],
    "wof:supersedes":[],
    "wof:tags":[]
},
  "bbox": [
    -83.72003000000002,
    37.91453,
    -83.72003000000002,
    37.91453
],
  "geometry": {"coordinates":[-83.72003000000002,37.91453],"type":"Point"}
}