{
  "id": 1344273631,
  "type": "Feature",
  "properties": {
    "edtf:cessation":"uuuu",
    "edtf:inception":"uuuu",
    "geom:area":0.0,
    "geom:area_square_m":0.0,
    "geom:bbox":"-96.31182,30.53876,-96.31182,30.53876",
    "geom:latitude":30.53876,
    "geom:longitude":-96.31182,
    "gn:admin1_code":"TX",
    "gn:admin2_code":"41.0",
    "gn:asciiname":"Wicker",
    "gn:country_code":"US",
    "gn:dem":101,
    "gn:elevation":"100.0",
    "gn:feature_class":"P",
    "gn:feature_code":"PPL",
    "gn:geonameid":4741768,
    "gn:latitude":30.53876,
    "gn:longitude":-96.31182,
    "gn:modification_date":"2015-05-20",
    "gn:name":"Wicker",
    "gn:population":0,
    "gn:timezone":"America/Chicago",
    "iso:country":"US",
    "mz:hierarchy_label":1,
    "mz:is_current":-1,
    "src:geom":"geonames",
    "wof:belongsto":[
        102191575,
        85633793,
        85688753,
        102081451
    ],
    "wof:breaches":[],
    "wof:concordances":{
        "gn:id":4741768
    },
    "wof:country":"US",
    "wof:geomhash":"b5ef0626372846f6e0225b8fbc0a5382",
    "wof:hierarchy":[
        {
            "continent_id":102191575,
            "country_id":85633793,
            "county_id":102081451,
            "locality_id":1344273631,
            "region_id":85688753
        }
    ],
    "wof:id":1344273631,
    "wof:lastmodified":1537062323,
    "wof:name":"Wicker",
    "wof:parent_id":102081451,
    "wof:placetype":"locality",
    "wof:repo":"whosonfirst-data-admin-us",
    "wof:superseded_by":[],
    "wof:supersedes":[],
    "wof:tags":[]
},
  "bbox": [
    -96.31182,
    30.53876,
    -96.31182,
    30.53876
],
  "geometry": {"coordinates":[-96.31182,30.53876],"type":"Point"}
}