{
  "id": 1259502895,
  "type": "Feature",
  "properties": {
    "edtf:cessation":"uuuu",
    "edtf:inception":"uuuu",
    "geom:area":0.0,
    "geom:area_square_m":0.0,
    "geom:bbox":"-76.6091,35.66516,-76.6091,35.66516",
    "geom:latitude":35.66516,
    "geom:longitude":-76.6091,
    "gn:admin1_code":"NC",
    "gn:admin2_code":"13.0",
    "gn:admin3_code":"92436.0",
    "gn:asciiname":"Union Grove",
    "gn:country_code":"US",
    "gn:dem":8,
    "gn:elevation":"2.0",
    "gn:feature_class":"P",
    "gn:feature_code":"PPL",
    "gn:geonameid":4496208,
    "gn:latitude":35.66516,
    "gn:longitude":-76.6091,
    "gn:modification_date":"2017-05-23",
    "gn:name":"Union Grove",
    "gn:population":0,
    "gn:timezone":"America/New_York",
    "iso:country":"US",
    "mz:hierarchy_label":1,
    "mz:is_current":-1,
    "src:geom":"geonames",
    "wof:belongsto":[
        102191575,
        85633793,
        85688773,
        102080941
    ],
    "wof:breaches":[],
    "wof:concordances":{
        "gn:id":4496208
    },
    "wof:country":"US",
    "wof:geomhash":"f22221065d7363561b7f9148657e6959",
    "wof:hierarchy":[
        {
            "continent_id":102191575,
            "country_id":85633793,
            "county_id":102080941,
            "locality_id":1259502895,
            "region_id":85688773
        }
    ],
    "wof:id":1259502895,
    "wof:lastmodified":1536829945,
    "wof:name":"Union Grove",
    "wof:parent_id":102080941,
    "wof:placetype":"locality",
    "wof:repo":"whosonfirst-data-admin-us",
    "wof:superseded_by":[],
    "wof:supersedes":[],
    "wof:tags":[]
},
  "bbox": [
    -76.6091,
    35.66516,
    -76.6091,
    35.66516
],
  "geometry": {"coordinates":[-76.6091,35.66516],"type":"Point"}
}