{
  "id": 1259398365,
  "type": "Feature",
  "properties": {
    "edtf:cessation":"uuuu",
    "edtf:inception":"uuuu",
    "geom:area":0.0,
    "geom:area_square_m":0.0,
    "geom:bbox":"-72.7301,43.28396,-72.7301,43.28396",
    "geom:latitude":43.28396,
    "geom:longitude":-72.7301,
    "gn:admin1_code":"VT",
    "gn:admin2_code":"27.0",
    "gn:admin3_code":"1300.0",
    "gn:asciiname":"Middletown",
    "gn:country_code":"US",
    "gn:dem":479,
    "gn:elevation":"481.0",
    "gn:feature_class":"P",
    "gn:feature_code":"PPL",
    "gn:geonameid":5238529,
    "gn:latitude":43.28396,
    "gn:longitude":-72.7301,
    "gn:modification_date":"2017-05-23",
    "gn:name":"Middletown",
    "gn:population":0,
    "gn:timezone":"America/New_York",
    "iso:country":"US",
    "mz:hierarchy_label":1,
    "mz:is_current":-1,
    "src:geom":"geonames",
    "wof:belongsto":[
        85688763,
        102191575,
        404527353,
        85633793,
        102080777
    ],
    "wof:breaches":[],
    "wof:concordances":{
        "gn:id":5238529
    },
    "wof:country":"US",
    "wof:geomhash":"c58a0e55f30399c25d430dccd021d682",
    "wof:hierarchy":[
        {
            "continent_id":102191575,
            "country_id":85633793,
            "county_id":102080777,
            "localadmin_id":404527353,
            "locality_id":1259398365,
            "region_id":85688763
        }
    ],
    "wof:id":1259398365,
    "wof:lastmodified":1536980195,
    "wof:name":"Middletown",
    "wof:parent_id":404527353,
    "wof:placetype":"locality",
    "wof:repo":"whosonfirst-data-admin-us",
    "wof:superseded_by":[],
    "wof:supersedes":[],
    "wof:tags":[]
},
  "bbox": [
    -72.7301,
    43.28396,
    -72.7301,
    43.28396
],
  "geometry": {"coordinates":[-72.73009999999999,43.28396],"type":"Point"}
}