{
  "id": 1225963759,
  "type": "Feature",
  "properties": {
    "edtf:cessation":"2018-09-07",
    "edtf:inception":"uuuu",
    "geom:area":0.0,
    "geom:area_square_m":0.0,
    "geom:bbox":"-100.18846,35.87893,-100.18846,35.87893",
    "geom:latitude":35.87893,
    "geom:longitude":-100.18846,
    "gn:admin1_code":"TX",
    "gn:admin2_code":"211.0",
    "gn:asciiname":"Springers Ranch (historical)",
    "gn:country_code":"US",
    "gn:dem":687,
    "gn:elevation":"681.0",
    "gn:feature_class":"P",
    "gn:feature_code":"PPLQ",
    "gn:geonameid":5531643,
    "gn:latitude":35.87893,
    "gn:longitude":-100.18846,
    "gn:modification_date":"2011-12-12",
    "gn:name":"Springers Ranch (historical)",
    "gn:population":0,
    "gn:timezone":"America/Chicago",
    "iso:country":"US",
    "mz:hierarchy_label":1,
    "mz:is_current":0,
    "src:geom":"geonames",
    "wof:belongsto":[
        102191575,
        85633793,
        85688753,
        102084985
    ],
    "wof:breaches":[],
    "wof:concordances":{
        "gn:id":5531643
    },
    "wof:country":"US",
    "wof:geomhash":"396c43d9c8b3d3a64d48a2bcdd089d41",
    "wof:hierarchy":[
        {
            "continent_id":102191575,
            "country_id":85633793,
            "county_id":102084985,
            "locality_id":1225963759,
            "region_id":85688753
        }
    ],
    "wof:id":1225963759,
    "wof:lastmodified":1536842301,
    "wof:name":"Springers Ranch (historical)",
    "wof:parent_id":102084985,
    "wof:placetype":"locality",
    "wof:repo":"whosonfirst-data-admin-us",
    "wof:superseded_by":[],
    "wof:supersedes":[],
    "wof:tags":[]
},
  "bbox": [
    -100.18846,
    35.87893,
    -100.18846,
    35.87893
],
  "geometry": {"coordinates":[-100.18846000000001,35.87893],"type":"Point"}
}