{
  "id": 1125397985,
  "type": "Feature",
  "properties": {
    "edtf:cessation":"uuuu",
    "edtf:deprecated":"2017-11-04",
    "edtf:inception":"uuuu",
    "geom:area":0.0,
    "geom:area_square_m":0.0,
    "geom:bbox":"-98.73245,37.72964,-98.73245,37.72964",
    "geom:latitude":37.72964,
    "geom:longitude":-98.73245,
    "gn:gn_country":"US",
    "gn:gn_fcode":"ADMD",
    "gn:gn_pop":163,
    "gn:population":163,
    "iso:country":"US",
    "lbl:latitude":37.72964,
    "lbl:longitude":-98.73245,
    "mz:hierarchy_label":1,
    "mz:is_current":0,
    "mz:note":"Quattroshapes Point Gazetteer import 20170519",
    "qs_pg:aaroncc":"US",
    "qs_pg:gn_country":"US",
    "qs_pg:gn_fcode":"ADMD",
    "qs_pg:gn_id":7163938,
    "qs_pg:gn_pop":163,
    "qs_pg:name":"City of Iuka",
    "qs_pg:photos_9r":0,
    "qs_pg:photos_sr":0,
    "qs_pg:pop_sr":1,
    "qs_pg:qs_id":658910,
    "qs_pg:qs_pg_placetype":"localadmin",
    "src:geom":"qs_pg",
    "src:lbl:centroid":"qs_pg",
    "src:population":"geonames",
    "wof:belongsto":[
        85633793
    ],
    "wof:breaches":[],
    "wof:concordances":{
        "gn:id":7163938,
        "qs_pg:id":658910
    },
    "wof:country":"US",
    "wof:created":1497049135,
    "wof:geomhash":"3780ee889577af5d7b8471c228c64a45",
    "wof:hierarchy":[
        {
            "country_id":85633793,
            "localadmin_id":1125397985
        }
    ],
    "wof:id":1125397985,
    "wof:lastmodified":1509752696,
    "wof:name":"City of Iuka",
    "wof:parent_id":-1,
    "wof:placetype":"localadmin",
    "wof:population":163,
    "wof:population_rank":1,
    "wof:repo":"whosonfirst-data-admin-us",
    "wof:superseded_by":[
        85945697
    ],
    "wof:supersedes":[],
    "wof:tags":[]
},
  "bbox": [
    -98.73245,
    37.72964,
    -98.73245,
    37.72964
],
  "geometry": {"coordinates":[-98.73245,37.72964],"type":"Point"}
}