{
  "id": 85872593,
  "type": "Feature",
  "properties": {"wof:repo":"whosonfirst-data-admin-us",
    "src:geom":"quattroshapes",
    "wof:geomhash":"4d03bd59d0e982b7bbcffbc0771ea062",
    "wof:id":85872593
},
  "bbox": [
    -93.30242267906686,
    44.90501288663775,
    -93.28937428917348,
    44.919231200218476
],
  "geometry": {"coordinates":[[[-93.29512523317931,44.91923120021848],[-93.29315185547495,44.91830225155410],[-93.29117847772324,44.91923120020711],[-93.29040527482536,44.91813929309571],[-93.28963205378491,44.91704734442816],[-93.28983340362794,44.91619435062545],[-93.28937428917348,44.91424930290016],[-93.29040527341448,44.91279347287146],[-93.29040527341556,44.91181498827935],[-93.29040527340001,44.91035917460006],[-93.29315185548506,44.91035917460006],[-93.29315185548319,44.90841397056273],[-93.29315185548703,44.90646871710008],[-93.29315185547495,44.90630550755073],[-93.29589843749977,44.90501288663775],[-93.29864501952505,44.90630550755073],[-93.30139160158319,44.90501288667311],[-93.30242267906686,44.90646865127540],[-93.30196344029451,44.90841396232533],[-93.30242265575998,44.91035910875014],[-93.30139160159263,44.91181498826184],[-93.30139160158319,44.91279347287146],[-93.30139160160007,44.91424936870006],[-93.29864501951494,44.91424936870006],[-93.29864501951351,44.91619435748991],[-93.29589843749977,44.91619436082404],[-93.29589843599138,44.91813929304855],[-93.29512523317931,44.91923120021848]]],"type":"Polygon"}
}