{
  "id": 1276253725,
  "type": "Feature",
  "properties": {
    "edtf:cessation":"uuuu",
    "edtf:inception":"uuuu",
    "geom:area":0.0,
    "geom:area_square_m":0.0,
    "geom:bbox":"-88.94728,34.50316,-88.94728,34.50316",
    "geom:latitude":34.50316,
    "geom:longitude":-88.94728,
    "gn:admin1_code":"MS",
    "gn:admin2_code":"145.0",
    "gn:asciiname":"Locust Grove",
    "gn:country_code":"US",
    "gn:dem":156,
    "gn:elevation":"155.0",
    "gn:feature_class":"P",
    "gn:feature_code":"PPL",
    "gn:geonameid":4434001,
    "gn:latitude":34.50316,
    "gn:longitude":-88.94728,
    "gn:modification_date":"2006-01-15",
    "gn:name":"Locust Grove",
    "gn:population":0,
    "gn:timezone":"America/Chicago",
    "iso:country":"US",
    "mz:hierarchy_label":1,
    "mz:is_current":-1,
    "src:geom":"geonames",
    "wof:belongsto":[
        102191575,
        85633793,
        85688579,
        102081017
    ],
    "wof:breaches":[],
    "wof:concordances":{
        "gn:id":4434001
    },
    "wof:country":"US",
    "wof:geomhash":"c3c010127371aa80f093cf5932ac0171",
    "wof:hierarchy":[
        {
            "continent_id":102191575,
            "country_id":85633793,
            "county_id":102081017,
            "locality_id":1276253725,
            "region_id":85688579
        }
    ],
    "wof:id":1276253725,
    "wof:lastmodified":1536884842,
    "wof:name":"Locust Grove",
    "wof:parent_id":102081017,
    "wof:placetype":"locality",
    "wof:repo":"whosonfirst-data-admin-us",
    "wof:superseded_by":[],
    "wof:supersedes":[],
    "wof:tags":[]
},
  "bbox": [
    -88.94728,
    34.50316,
    -88.94728,
    34.50316
],
  "geometry": {"coordinates":[-88.94728000000001,34.50316],"type":"Point"}
}