{
  "id": 420520883,
  "type": "Feature",
  "properties": {
    "edtf:cessation":"uuuu",
    "edtf:inception":"uuuu",
    "geom:area":0.0,
    "geom:area_square_m":60408.515517,
    "geom:bbox":"-94.719015,38.94705,-94.719015,38.94705",
    "geom:latitude":38.94705,
    "geom:longitude":-94.719015,
    "iso:country":"US",
    "lbl:latitude":38.94705,
    "lbl:longitude":-94.719015,
    "mz:hierarchy_label":0,
    "mz:is_current":-1,
    "name:eng_x_preferred":[
        "Oak Park"
    ],
    "src:geom":"mz",
    "src:geom_alt":[
        "zetashapes"
    ],
    "src:lbl":"mapshaper",
    "src:lbl:centroid":"mapshaper",
    "src:population":"zetashapes",
    "wof:belongsto":[
        85688555,
        102191575,
        404502689,
        85633793,
        85945755,
        102082673
    ],
    "wof:breaches":[],
    "wof:concordances":{
        "gp:id":55825024
    },
    "wof:country":"US",
    "wof:geomhash":"5d0d207fea4abd87c24ee221fbef5c85",
    "wof:hierarchy":[
        {
            "continent_id":102191575,
            "country_id":85633793,
            "county_id":102082673,
            "localadmin_id":404502689,
            "locality_id":85945755,
            "neighbourhood_id":420520883,
            "region_id":85688555
        }
    ],
    "wof:id":420520883,
    "wof:lastmodified":1533594498,
    "wof:name":"Oak Park",
    "wof:parent_id":85945755,
    "wof:placetype":"neighbourhood",
    "wof:population":133,
    "wof:population_rank":1,
    "wof:repo":"whosonfirst-data-admin-us",
    "wof:superseded_by":[],
    "wof:supersedes":[],
    "wof:tags":[],
    "zs:area_m":60404.348942,
    "zs:blockids":[
        200910519043007
    ],
    "zs:housing10":48,
    "zs:id":55825024,
    "zs:label":"Oak Park",
    "zs:pop10":133
},
  "bbox": [
    -94.719015,
    38.94705,
    -94.719015,
    38.94705
],
  "geometry": {"coordinates":[-94.719015,38.94705],"type":"Point"}
}