{
  "id": 1276674411,
  "type": "Feature",
  "properties": {
    "edtf:cessation":"uuuu",
    "edtf:inception":"uuuu",
    "geom:area":0.0,
    "geom:area_square_m":0.0,
    "geom:bbox":"-85.66081,36.39423,-85.66081,36.39423",
    "geom:latitude":36.39423,
    "geom:longitude":-85.66081,
    "gn:admin1_code":"TN",
    "gn:admin2_code":"87.0",
    "gn:asciiname":"Stone",
    "gn:country_code":"US",
    "gn:dem":172,
    "gn:elevation":"171.0",
    "gn:feature_class":"P",
    "gn:feature_code":"PPL",
    "gn:geonameid":4660233,
    "gn:latitude":36.39423,
    "gn:longitude":-85.66081,
    "gn:modification_date":"2006-01-15",
    "gn:name":"Stone",
    "gn:population":0,
    "gn:timezone":"America/Chicago",
    "iso:country":"US",
    "mz:hierarchy_label":1,
    "mz:is_current":-1,
    "src:geom":"geonames",
    "wof:belongsto":[
        102191575,
        85633793,
        85688701,
        102087003
    ],
    "wof:breaches":[],
    "wof:concordances":{
        "gn:id":4660233
    },
    "wof:country":"US",
    "wof:geomhash":"ffc7e6ce0708431a0628ad293366b772",
    "wof:hierarchy":[
        {
            "continent_id":102191575,
            "country_id":85633793,
            "county_id":102087003,
            "locality_id":1276674411,
            "region_id":85688701
        }
    ],
    "wof:id":1276674411,
    "wof:lastmodified":1536817821,
    "wof:name":"Stone",
    "wof:parent_id":102087003,
    "wof:placetype":"locality",
    "wof:repo":"whosonfirst-data-admin-us",
    "wof:superseded_by":[],
    "wof:supersedes":[],
    "wof:tags":[]
},
  "bbox": [
    -85.66081,
    36.39423,
    -85.66081,
    36.39423
],
  "geometry": {"coordinates":[-85.66081,36.39423],"type":"Point"}
}