{
  "id": 1126024239,
  "type": "Feature",
  "properties": {
    "edtf:cessation":"uuuu",
    "edtf:inception":"uuuu",
    "geom:area":0.0,
    "geom:area_square_m":0.0,
    "geom:bbox":"-82.28373,34.97928,-82.28373,34.97928",
    "geom:latitude":34.97928,
    "geom:longitude":-82.28373,
    "gn:gn_country":"US",
    "gn:gn_fcode":"PPL",
    "gn:gn_pop":0,
    "iso:country":"US",
    "lbl:latitude":34.97928,
    "lbl:longitude":-82.28373,
    "mz:hierarchy_label":1,
    "mz:is_current":-1,
    "mz:note":"Quattroshapes Point Gazetteer import 20170519",
    "qs_pg:aaroncc":"US",
    "qs_pg:gn_country":"US",
    "qs_pg:gn_fcode":"PPL",
    "qs_pg:gn_id":4587158,
    "qs_pg:gn_pop":0,
    "qs_pg:name":"Milford",
    "qs_pg:name_adm0":"United States",
    "qs_pg:name_adm1":"South Carolina",
    "qs_pg:photos":76,
    "qs_pg:photos_1k":15,
    "qs_pg:photos_9k":1,
    "qs_pg:photos_9r":3,
    "qs_pg:photos_all":76,
    "qs_pg:photos_sr":3,
    "qs_pg:pop_sr":0,
    "qs_pg:qs_id":951778,
    "qs_pg:qs_pg_placetype":"locality",
    "qs_pg:qs_pg_placetype_gp":"Town",
    "qs_pg:woe_adm0":23424977,
    "qs_pg:woe_id":2450966,
    "src:geom":"qs_pg",
    "src:lbl:centroid":"qs_pg",
    "woe:adm0_id":23424977,
    "woe:name_adm0":"United States",
    "woe:name_adm1":"South Carolina",
    "woe:placetype":"Town",
    "wof:belongsto":[
        102191575,
        85633793,
        85688683,
        102085747
    ],
    "wof:breaches":[],
    "wof:concordances":{
        "gn:id":4587158,
        "gp:id":2450966,
        "qs_pg:id":951778
    },
    "wof:country":"US",
    "wof:created":1497301027,
    "wof:geomhash":"fa6e3dfc7d4bb74a9968298155f3b4a9",
    "wof:hierarchy":[
        {
            "continent_id":102191575,
            "country_id":85633793,
            "county_id":102085747,
            "locality_id":1126024239,
            "region_id":85688683
        }
    ],
    "wof:id":1126024239,
    "wof:lastmodified":1509407440,
    "wof:name":"Milford",
    "wof:parent_id":102085747,
    "wof:placetype":"locality",
    "wof:repo":"whosonfirst-data-admin-us",
    "wof:superseded_by":[],
    "wof:supersedes":[],
    "wof:tags":[]
},
  "bbox": [
    -82.28373,
    34.97928,
    -82.28373,
    34.97928
],
  "geometry": {"coordinates":[-82.28373000000001,34.97928],"type":"Point"}
}