{
  "id": 1360195903,
  "type": "Feature",
  "properties": {
    "edtf:cessation":"uuuu",
    "edtf:inception":"uuuu",
    "geom:area":0.0,
    "geom:area_square_m":0.0,
    "geom:bbox":"-82.96987,33.92623,-82.96987,33.92623",
    "geom:latitude":33.92623,
    "geom:longitude":-82.96987,
    "gn:admin1_code":"GA",
    "gn:admin2_code":"221.0",
    "gn:asciiname":"Enterprise",
    "gn:country_code":"US",
    "gn:dem":188,
    "gn:elevation":"189.0",
    "gn:feature_class":"P",
    "gn:feature_code":"PPL",
    "gn:geonameid":4193502,
    "gn:latitude":33.92623,
    "gn:longitude":-82.96987,
    "gn:modification_date":"2010-09-05",
    "gn:name":"Enterprise",
    "gn:population":0,
    "gn:timezone":"America/New_York",
    "iso:country":"US",
    "mz:hierarchy_label":1,
    "mz:is_current":-1,
    "src:geom":"geonames",
    "wof:belongsto":[
        102191575,
        85633793,
        85688535,
        102084365
    ],
    "wof:breaches":[],
    "wof:concordances":{
        "gn:id":4193502
    },
    "wof:country":"US",
    "wof:geomhash":"898d69abc0ec8e279d0de27b407cab00",
    "wof:hierarchy":[
        {
            "continent_id":102191575,
            "country_id":85633793,
            "county_id":102084365,
            "locality_id":1360195903,
            "region_id":85688535
        }
    ],
    "wof:id":1360195903,
    "wof:lastmodified":1536786243,
    "wof:name":"Enterprise",
    "wof:parent_id":102084365,
    "wof:placetype":"locality",
    "wof:repo":"whosonfirst-data-admin-us",
    "wof:superseded_by":[],
    "wof:supersedes":[],
    "wof:tags":[]
},
  "bbox": [
    -82.96987,
    33.92623,
    -82.96987,
    33.92623
],
  "geometry": {"coordinates":[-82.96987,33.92623],"type":"Point"}
}