{
  "id": 1209122169,
  "type": "Feature",
  "properties": {
    "edtf:cessation":"uuuu",
    "edtf:inception":"uuuu",
    "geom:area":0.0,
    "geom:area_square_m":0.0,
    "geom:bbox":"-77.3847,37.64126,-77.3847,37.64126",
    "geom:latitude":37.64126,
    "geom:longitude":-77.3847,
    "gn:admin1_code":"VA",
    "gn:admin2_code":"85",
    "gn:asciiname":"Sharon Park",
    "gn:country_code":"US",
    "gn:dem":65,
    "gn:elevation":"58.0",
    "gn:feature_class":"P",
    "gn:feature_code":"PPL",
    "gn:geonameid":4785126,
    "gn:latitude":37.64126,
    "gn:longitude":-77.3847,
    "gn:modification_date":"2006-01-15",
    "gn:name":"Sharon Park",
    "gn:population":0,
    "gn:timezone":"America/New_York",
    "iso:country":"US",
    "mz:hierarchy_label":1,
    "mz:is_current":-1,
    "src:geom":"geonames",
    "wof:belongsto":[
        85633793
    ],
    "wof:breaches":[],
    "wof:concordances":{
        "gn:id":4785126
    },
    "wof:country":"US",
    "wof:geomhash":"693cb6a41c87f9ed4e7e486113484fcf",
    "wof:hierarchy":[
        {
            "country_id":85633793,
            "locality_id":1209122169
        }
    ],
    "wof:id":1209122169,
    "wof:lastmodified":1536297067,
    "wof:name":"Sharon Park",
    "wof:parent_id":85633793,
    "wof:placetype":"locality",
    "wof:repo":"whosonfirst-data-admin-us",
    "wof:superseded_by":[],
    "wof:supersedes":[],
    "wof:tags":[]
},
  "bbox": [
    -77.3847,
    37.64126,
    -77.3847,
    37.64126
],
  "geometry": {"coordinates":[-77.3847,37.64126],"type":"Point"}
}