{
  "id": 1310224543,
  "type": "Feature",
  "properties": {
    "edtf:cessation":"uuuu",
    "edtf:inception":"uuuu",
    "geom:area":0.0,
    "geom:area_square_m":0.0,
    "geom:bbox":"-82.2665,35.04289,-82.2665,35.04289",
    "geom:latitude":35.04289,
    "geom:longitude":-82.2665,
    "gn:admin1_code":"SC",
    "gn:admin2_code":"45.0",
    "gn:asciiname":"Skyland",
    "gn:country_code":"US",
    "gn:dem":311,
    "gn:elevation":"306.0",
    "gn:feature_class":"P",
    "gn:feature_code":"PPL",
    "gn:geonameid":4595966,
    "gn:latitude":35.04289,
    "gn:longitude":-82.2665,
    "gn:modification_date":"2006-01-15",
    "gn:name":"Skyland",
    "gn:population":0,
    "gn:timezone":"America/New_York",
    "iso:country":"US",
    "mz:hierarchy_label":1,
    "mz:is_current":-1,
    "src:geom":"geonames",
    "wof:belongsto":[
        102191575,
        85633793,
        85688683,
        102085747
    ],
    "wof:breaches":[],
    "wof:concordances":{
        "gn:id":4595966
    },
    "wof:country":"US",
    "wof:geomhash":"39cbbd821f77882d99faa4b9733bbed3",
    "wof:hierarchy":[
        {
            "continent_id":102191575,
            "country_id":85633793,
            "county_id":102085747,
            "locality_id":1310224543,
            "region_id":85688683
        }
    ],
    "wof:id":1310224543,
    "wof:lastmodified":1536823895,
    "wof:name":"Skyland",
    "wof:parent_id":102085747,
    "wof:placetype":"locality",
    "wof:repo":"whosonfirst-data-admin-us",
    "wof:superseded_by":[],
    "wof:supersedes":[],
    "wof:tags":[]
},
  "bbox": [
    -82.2665,
    35.04289,
    -82.2665,
    35.04289
],
  "geometry": {"coordinates":[-82.26649999999999,35.04289],"type":"Point"}
}