{
  "id": 1242597355,
  "type": "Feature",
  "properties": {
    "edtf:cessation":"uuuu",
    "edtf:inception":"uuuu",
    "geom:area":0.0,
    "geom:area_square_m":0.0,
    "geom:bbox":"-79.28311,33.40406,-79.28311,33.40406",
    "geom:latitude":33.40406,
    "geom:longitude":-79.28311,
    "gn:admin1_code":"SC",
    "gn:admin2_code":"43.0",
    "gn:asciiname":"Kensington",
    "gn:country_code":"US",
    "gn:dem":7,
    "gn:elevation":"5.0",
    "gn:feature_class":"P",
    "gn:feature_code":"PPL",
    "gn:geonameid":4583952,
    "gn:latitude":33.40406,
    "gn:longitude":-79.28311,
    "gn:modification_date":"2006-01-15",
    "gn:name":"Kensington",
    "gn:population":0,
    "gn:timezone":"America/New_York",
    "iso:country":"US",
    "mz:hierarchy_label":1,
    "mz:is_current":-1,
    "src:geom":"geonames",
    "wof:belongsto":[
        102191575,
        85633793,
        85688683,
        102085683
    ],
    "wof:breaches":[],
    "wof:concordances":{
        "gn:id":4583952
    },
    "wof:country":"US",
    "wof:geomhash":"907f1e319f2dbbae12b98da86fc97e3a",
    "wof:hierarchy":[
        {
            "continent_id":102191575,
            "country_id":85633793,
            "county_id":102085683,
            "locality_id":1242597355,
            "region_id":85688683
        }
    ],
    "wof:id":1242597355,
    "wof:lastmodified":1537033765,
    "wof:name":"Kensington",
    "wof:parent_id":102085683,
    "wof:placetype":"locality",
    "wof:repo":"whosonfirst-data-admin-us",
    "wof:superseded_by":[],
    "wof:supersedes":[],
    "wof:tags":[]
},
  "bbox": [
    -79.28311,
    33.40406,
    -79.28311,
    33.40406
],
  "geometry": {"coordinates":[-79.28310999999999,33.40406],"type":"Point"}
}