{
  "id": 1276677377,
  "type": "Feature",
  "properties": {
    "edtf:cessation":"2018-09-07",
    "edtf:inception":"uuuu",
    "geom:area":0.0,
    "geom:area_square_m":0.0,
    "geom:bbox":"-75.75549,38.92095,-75.75549,38.92095",
    "geom:latitude":38.92095,
    "geom:longitude":-75.75549,
    "gn:admin1_code":"MD",
    "gn:admin2_code":"11.0",
    "gn:asciiname":"Gareys (historical)",
    "gn:country_code":"US",
    "gn:dem":13,
    "gn:elevation":"14.0",
    "gn:feature_class":"P",
    "gn:feature_code":"PPLQ",
    "gn:geonameid":4355971,
    "gn:latitude":38.92095,
    "gn:longitude":-75.75549,
    "gn:modification_date":"2011-12-11",
    "gn:name":"Gareys (historical)",
    "gn:population":0,
    "gn:timezone":"America/New_York",
    "iso:country":"US",
    "mz:hierarchy_label":1,
    "mz:is_current":0,
    "src:geom":"geonames",
    "wof:belongsto":[
        102191575,
        85633793,
        85688501,
        102081215
    ],
    "wof:breaches":[],
    "wof:concordances":{
        "gn:id":4355971
    },
    "wof:country":"US",
    "wof:geomhash":"9e3f3d33a8f65e5b058bbcd0c5d7b4b7",
    "wof:hierarchy":[
        {
            "continent_id":102191575,
            "country_id":85633793,
            "county_id":102081215,
            "locality_id":1276677377,
            "region_id":85688501
        }
    ],
    "wof:id":1276677377,
    "wof:lastmodified":1536814047,
    "wof:name":"Gareys (historical)",
    "wof:parent_id":102081215,
    "wof:placetype":"locality",
    "wof:repo":"whosonfirst-data-admin-us",
    "wof:superseded_by":[],
    "wof:supersedes":[],
    "wof:tags":[]
},
  "bbox": [
    -75.75549000000002,
    38.92095,
    -75.75549000000002,
    38.92095
],
  "geometry": {"coordinates":[-75.75549000000002,38.92095],"type":"Point"}
}