{
  "id": 420510653,
  "type": "Feature",
  "properties": {
    "edtf:cessation":"uuuu",
    "edtf:inception":"uuuu",
    "geom:area":0.0,
    "geom:area_square_m":4545784.89348,
    "geom:bbox":"-86.509856,34.698509,-86.509856,34.698509",
    "geom:latitude":34.698509,
    "geom:longitude":-86.509856,
    "iso:country":"US",
    "lbl:latitude":34.698509,
    "lbl:longitude":-86.509856,
    "mz:hierarchy_label":0,
    "mz:is_current":-1,
    "name:eng_x_preferred":[
        "Ryland Acres"
    ],
    "src:geom":"mz",
    "src:geom_alt":[
        "quattroshapes_pg",
        "zetashapes"
    ],
    "src:lbl":"mapshaper",
    "src:lbl:centroid":"mapshaper",
    "src:population":"zetashapes",
    "wof:belongsto":[
        102191575,
        85633793,
        85913601,
        102085487,
        85688675
    ],
    "wof:breaches":[],
    "wof:concordances":{
        "gn:id":4087381,
        "gp:id":2486242,
        "qs_pg:id":1191392
    },
    "wof:country":"US",
    "wof:geomhash":"5f38ec14be6b7601532c2cb6bc46d5eb",
    "wof:hierarchy":[
        {
            "continent_id":102191575,
            "country_id":85633793,
            "county_id":102085487,
            "locality_id":85913601,
            "neighbourhood_id":420510653,
            "region_id":85688675
        }
    ],
    "wof:id":420510653,
    "wof:lastmodified":1533591288,
    "wof:name":"Ryland Acres",
    "wof:parent_id":85913601,
    "wof:placetype":"neighbourhood",
    "wof:population":786,
    "wof:population_rank":2,
    "wof:repo":"whosonfirst-data-admin-us",
    "wof:superseded_by":[],
    "wof:supersedes":[],
    "wof:tags":[],
    "zs:area_m":4545460.439098,
    "zs:blockids":[
        10890109011072,
        10890109011077,
        10890108003163,
        10890109011076,
        10890109011074,
        10890109011071,
        10890109011079,
        10890109013023,
        10890109013005,
        10890109013577,
        10890109011060,
        10890109011070,
        10890109011151,
        10890109013035,
        10890109013028,
        10890108003111,
        10890109013021,
        10890109013010,
        10890109011189,
        10890109013019,
        10890109013001,
        10890109011148,
        10890109013027,
        10890108003121,
        10890108003167,
        10890109011190,
        10890109011147,
        10890109013003,
        10890109011073,
        10890108003164,
        10890109013002,
        10890109011075,
        10890109013020,
        10890109013022,
        10890109011069,
        10890109013017,
        10890109013013,
        10890109011191,
        10890109013006,
        10890109011146
    ],
    "zs:housing10":391,
    "zs:id":2486242,
    "zs:label":"Ryland Acres",
    "zs:pop10":786
},
  "bbox": [
    -86.509856,
    34.698509,
    -86.509856,
    34.698509
],
  "geometry": {"coordinates":[-86.509856,34.698509],"type":"Point"}
}