{
  "id": 1292919733,
  "type": "Feature",
  "properties": {
    "edtf:cessation":"2018-09-06",
    "edtf:inception":"uuuu",
    "geom:area":0.0,
    "geom:area_square_m":0.0,
    "geom:bbox":"-92.81797,41.70222,-92.81797,41.70222",
    "geom:latitude":41.70222,
    "geom:longitude":-92.81797,
    "gn:admin1_code":"IA",
    "gn:admin2_code":"99.0",
    "gn:admin3_code":"93672.0",
    "gn:asciiname":"Turner (historical)",
    "gn:country_code":"US",
    "gn:dem":278,
    "gn:elevation":"272.0",
    "gn:feature_class":"P",
    "gn:feature_code":"PPLQ",
    "gn:geonameid":4879147,
    "gn:latitude":41.70222,
    "gn:longitude":-92.81797,
    "gn:modification_date":"2017-05-23",
    "gn:name":"Turner (historical)",
    "gn:population":0,
    "gn:timezone":"America/Chicago",
    "iso:country":"US",
    "mz:hierarchy_label":1,
    "mz:is_current":0,
    "src:geom":"geonames",
    "wof:belongsto":[
        102191575,
        85633793,
        85688713,
        102086553
    ],
    "wof:breaches":[],
    "wof:concordances":{
        "gn:id":4879147
    },
    "wof:country":"US",
    "wof:geomhash":"3c39c5f12855ef25adc5dbd34f1ede86",
    "wof:hierarchy":[
        {
            "continent_id":102191575,
            "country_id":85633793,
            "county_id":102086553,
            "locality_id":1292919733,
            "region_id":85688713
        }
    ],
    "wof:id":1292919733,
    "wof:lastmodified":1536608668,
    "wof:name":"Turner (historical)",
    "wof:parent_id":102086553,
    "wof:placetype":"locality",
    "wof:repo":"whosonfirst-data-admin-us",
    "wof:superseded_by":[],
    "wof:supersedes":[],
    "wof:tags":[]
},
  "bbox": [
    -92.81797,
    41.70222,
    -92.81797,
    41.70222
],
  "geometry": {"coordinates":[-92.81797,41.70222],"type":"Point"}
}