{
  "id": 1344168309,
  "type": "Feature",
  "properties": {
    "edtf:cessation":"uuuu",
    "edtf:inception":"uuuu",
    "geom:area":0.0,
    "geom:area_square_m":0.0,
    "geom:bbox":"-95.21244,30.58103,-95.21244,30.58103",
    "geom:latitude":30.58103,
    "geom:longitude":-95.21244,
    "gn:admin1_code":"TX",
    "gn:admin2_code":"407.0",
    "gn:asciiname":"Spring Hill",
    "gn:country_code":"US",
    "gn:dem":86,
    "gn:elevation":"76.0",
    "gn:feature_class":"P",
    "gn:feature_code":"PPL",
    "gn:geonameid":4733817,
    "gn:latitude":30.58103,
    "gn:longitude":-95.21244,
    "gn:modification_date":"2006-01-15",
    "gn:name":"Spring Hill",
    "gn:population":0,
    "gn:timezone":"America/Chicago",
    "iso:country":"US",
    "mz:hierarchy_label":1,
    "mz:is_current":-1,
    "src:geom":"geonames",
    "wof:belongsto":[
        102191575,
        85633793,
        85688753,
        102087385
    ],
    "wof:breaches":[],
    "wof:concordances":{
        "gn:id":4733817
    },
    "wof:country":"US",
    "wof:geomhash":"40eedef1abde25fbbe76c72cd64409cf",
    "wof:hierarchy":[
        {
            "continent_id":102191575,
            "country_id":85633793,
            "county_id":102087385,
            "locality_id":1344168309,
            "region_id":85688753
        }
    ],
    "wof:id":1344168309,
    "wof:lastmodified":1536720267,
    "wof:name":"Spring Hill",
    "wof:parent_id":102087385,
    "wof:placetype":"locality",
    "wof:repo":"whosonfirst-data-admin-us",
    "wof:superseded_by":[],
    "wof:supersedes":[],
    "wof:tags":[]
},
  "bbox": [
    -95.21244,
    30.58103,
    -95.21244,
    30.58103
],
  "geometry": {"coordinates":[-95.21244,30.58103],"type":"Point"}
}