{
  "id": 1125377567,
  "type": "Feature",
  "properties": {
    "edtf:cessation":"2017-05-19",
    "edtf:inception":"uuuu",
    "geom:area":0.0,
    "geom:area_square_m":0.0,
    "geom:bbox":"-78.81473,35.86098,-78.81473,35.86098",
    "geom:latitude":35.86098,
    "geom:longitude":-78.81473,
    "gn:gn_country":"US",
    "gn:gn_fcode":"ADMD",
    "gn:gn_pop":0,
    "iso:country":"US",
    "lbl:latitude":35.86098,
    "lbl:longitude":-78.81473,
    "mz:hierarchy_label":1,
    "mz:is_current":0,
    "mz:note":"Quattroshapes Point Gazetteer import 20170519",
    "name:eng_x_preferred":[
        "Cedar Fork Township"
    ],
    "qs_pg:aaroncc":"US",
    "qs_pg:gn_country":"US",
    "qs_pg:gn_fcode":"ADMD",
    "qs_pg:gn_id":4459826,
    "qs_pg:gn_pop":0,
    "qs_pg:name":"Township of Cedar Fork",
    "qs_pg:photos_9r":0,
    "qs_pg:photos_sr":0,
    "qs_pg:pop_sr":0,
    "qs_pg:qs_id":376392,
    "qs_pg:qs_pg_placetype":"localadmin",
    "src:geom":"qs_pg",
    "src:lbl:centroid":"qs_pg",
    "wof:belongsto":[
        85633793
    ],
    "wof:breaches":[],
    "wof:concordances":{
        "gn:id":4459826,
        "qs_pg:id":376392
    },
    "wof:country":"US",
    "wof:created":1497047847,
    "wof:geomhash":"a2012eff4e06831930ccb97328848c2e",
    "wof:hierarchy":[
        {
            "country_id":85633793,
            "localadmin_id":1125377567
        }
    ],
    "wof:id":1125377567,
    "wof:lastmodified":1505248135,
    "wof:name":"Township of Cedar Fork",
    "wof:parent_id":-1,
    "wof:placetype":"localadmin",
    "wof:repo":"whosonfirst-data-admin-us",
    "wof:superseded_by":[],
    "wof:supersedes":[],
    "wof:tags":[]
},
  "bbox": [
    -78.81473,
    35.86098,
    -78.81473,
    35.86098
],
  "geometry": {"coordinates":[-78.81473,35.86098],"type":"Point"}
}