{
  "id": 1344176743,
  "type": "Feature",
  "properties": {
    "edtf:cessation":"uuuu",
    "edtf:inception":"uuuu",
    "geom:area":0.0,
    "geom:area_square_m":0.0,
    "geom:bbox":"-114.07355,32.6756,-114.07355,32.6756",
    "geom:latitude":32.6756,
    "geom:longitude":-114.07355,
    "gn:admin1_code":"AZ",
    "gn:admin2_code":"27.0",
    "gn:asciiname":"Asher",
    "gn:country_code":"US",
    "gn:dem":91,
    "gn:elevation":"93.0",
    "gn:feature_class":"P",
    "gn:feature_code":"PPL",
    "gn:geonameid":5552050,
    "gn:latitude":32.6756,
    "gn:longitude":-114.07355,
    "gn:modification_date":"2006-01-15",
    "gn:name":"Asher",
    "gn:population":0,
    "gn:timezone":"America/Phoenix",
    "iso:country":"US",
    "mz:hierarchy_label":1,
    "mz:is_current":-1,
    "src:geom":"geonames",
    "wof:belongsto":[
        102191575,
        85633793,
        85688719,
        102081527
    ],
    "wof:breaches":[],
    "wof:concordances":{
        "gn:id":5552050
    },
    "wof:country":"US",
    "wof:geomhash":"34d1ea7e96b61c4af1722dc3bf15bba2",
    "wof:hierarchy":[
        {
            "continent_id":102191575,
            "country_id":85633793,
            "county_id":102081527,
            "locality_id":1344176743,
            "region_id":85688719
        }
    ],
    "wof:id":1344176743,
    "wof:lastmodified":1536708137,
    "wof:name":"Asher",
    "wof:parent_id":102081527,
    "wof:placetype":"locality",
    "wof:repo":"whosonfirst-data-admin-us",
    "wof:superseded_by":[],
    "wof:supersedes":[],
    "wof:tags":[]
},
  "bbox": [
    -114.07355,
    32.6756,
    -114.07355,
    32.6756
],
  "geometry": {"coordinates":[-114.07355,32.6756],"type":"Point"}
}