{
  "id": 1209125647,
  "type": "Feature",
  "properties": {
    "edtf:cessation":"uuuu",
    "edtf:inception":"uuuu",
    "geom:area":0.0,
    "geom:area_square_m":0.0,
    "geom:bbox":"-82.5805,28.0237,-82.5805,28.0237",
    "geom:latitude":28.0237,
    "geom:longitude":-82.5805,
    "gn:admin1_code":"FL",
    "gn:admin2_code":"57",
    "gn:asciiname":"Woodbridge at Rocky Creek",
    "gn:country_code":"US",
    "gn:dem":11,
    "gn:elevation":"1.0",
    "gn:feature_class":"P",
    "gn:feature_code":"PPL",
    "gn:geonameid":7219264,
    "gn:latitude":28.0237,
    "gn:longitude":-82.5805,
    "gn:modification_date":"2010-02-06",
    "gn:name":"Woodbridge at Rocky Creek",
    "gn:population":0,
    "gn:timezone":"America/New_York",
    "iso:country":"US",
    "mz:hierarchy_label":1,
    "mz:is_current":-1,
    "src:geom":"geonames",
    "wof:belongsto":[
        85633793
    ],
    "wof:breaches":[],
    "wof:concordances":{
        "gn:id":7219264
    },
    "wof:country":"US",
    "wof:geomhash":"220f7fd99cacfb7375c77e1b7c9b2794",
    "wof:hierarchy":[
        {
            "country_id":85633793,
            "locality_id":1209125647
        }
    ],
    "wof:id":1209125647,
    "wof:lastmodified":1536296964,
    "wof:name":"Woodbridge at Rocky Creek",
    "wof:parent_id":85633793,
    "wof:placetype":"locality",
    "wof:repo":"whosonfirst-data-admin-us",
    "wof:superseded_by":[],
    "wof:supersedes":[],
    "wof:tags":[]
},
  "bbox": [
    -82.5805,
    28.0237,
    -82.5805,
    28.0237
],
  "geometry": {"coordinates":[-82.5805,28.0237],"type":"Point"}
}