{
  "id": 1260221439,
  "type": "Feature",
  "properties": {
    "edtf:cessation":"uuuu",
    "edtf:inception":"uuuu",
    "geom:area":0.0,
    "geom:area_square_m":0.0,
    "geom:bbox":"-89.07014,46.47411,-89.07014,46.47411",
    "geom:latitude":46.47411,
    "geom:longitude":-89.07014,
    "gn:admin1_code":"MI",
    "gn:admin2_code":"131.0",
    "gn:admin3_code":"40760.0",
    "gn:asciiname":"Agate",
    "gn:country_code":"US",
    "gn:dem":361,
    "gn:elevation":"363.0",
    "gn:feature_class":"P",
    "gn:feature_code":"PPL",
    "gn:geonameid":4983837,
    "gn:latitude":46.47411,
    "gn:longitude":-89.07014,
    "gn:modification_date":"2017-05-23",
    "gn:name":"Agate",
    "gn:population":0,
    "gn:timezone":"America/Detroit",
    "iso:country":"US",
    "mz:hierarchy_label":1,
    "mz:is_current":-1,
    "src:geom":"geonames",
    "wof:belongsto":[
        85688599,
        102191575,
        404506153,
        85633793,
        102083045
    ],
    "wof:breaches":[],
    "wof:concordances":{
        "gn:id":4983837
    },
    "wof:country":"US",
    "wof:geomhash":"b4b20b99d9f21e4422e39f1296cf1722",
    "wof:hierarchy":[
        {
            "continent_id":102191575,
            "country_id":85633793,
            "county_id":102083045,
            "localadmin_id":404506153,
            "locality_id":1260221439,
            "region_id":85688599
        }
    ],
    "wof:id":1260221439,
    "wof:lastmodified":1536796362,
    "wof:name":"Agate",
    "wof:parent_id":404506153,
    "wof:placetype":"locality",
    "wof:repo":"whosonfirst-data-admin-us",
    "wof:superseded_by":[],
    "wof:supersedes":[],
    "wof:tags":[]
},
  "bbox": [
    -89.07014000000002,
    46.47411,
    -89.07014000000002,
    46.47411
],
  "geometry": {"coordinates":[-89.07014000000002,46.47411],"type":"Point"}
}