{
  "id": 1126073445,
  "type": "Feature",
  "properties": {
    "edtf:cessation":"uuuu",
    "edtf:deprecated":"2018-08-15",
    "edtf:inception":"uuuu",
    "edtf:superseded":"2018-08-15",
    "geom:area":0.0,
    "geom:area_square_m":0.0,
    "geom:bbox":"-70.94228,43.33758,-70.94228,43.33758",
    "geom:latitude":43.33758,
    "geom:longitude":-70.94228,
    "gn:gn_country":"US",
    "gn:gn_fcode":"PPL",
    "gn:gn_pop":0,
    "iso:country":"US",
    "lbl:latitude":43.33758,
    "lbl:longitude":-70.94228,
    "mz:hierarchy_label":1,
    "mz:is_current":0,
    "mz:note":"Quattroshapes Point Gazetteer import 20170519",
    "qs_pg:aaroncc":"US",
    "qs_pg:gn_country":"US",
    "qs_pg:gn_fcode":"PPL",
    "qs_pg:gn_id":4979192,
    "qs_pg:gn_pop":0,
    "qs_pg:name":"South Lebanon",
    "qs_pg:name_adm0":"United States",
    "qs_pg:name_adm1":"Maine",
    "qs_pg:photos":36,
    "qs_pg:photos_1k":7,
    "qs_pg:photos_9k":1,
    "qs_pg:photos_9r":2,
    "qs_pg:photos_all":36,
    "qs_pg:photos_sr":2,
    "qs_pg:pop_sr":0,
    "qs_pg:qs_id":992857,
    "qs_pg:qs_pg_placetype":"neighbourhood",
    "qs_pg:qs_pg_placetype_gp":"Suburb",
    "qs_pg:woe_adm0":23424977,
    "qs_pg:woe_id":2496434,
    "src:geom":"qs_pg",
    "src:lbl:centroid":"qs_pg",
    "woe:adm0_id":23424977,
    "woe:name_adm0":"United States",
    "woe:name_adm1":"Maine",
    "woe:placetype":"Suburb",
    "wof:belongsto":[
        102191575,
        404475131,
        85633793,
        102087449,
        85688769
    ],
    "wof:breaches":[],
    "wof:concordances":{
        "gn:id":4979192,
        "gp:id":2496434,
        "qs_pg:id":992857
    },
    "wof:country":"US",
    "wof:created":1497310418,
    "wof:geomhash":"7aa78f076d98cf8ad9cf061e32f139b9",
    "wof:hierarchy":[
        {
            "continent_id":102191575,
            "country_id":85633793,
            "county_id":102087449,
            "localadmin_id":404475131,
            "locality_id":-1,
            "neighbourhood_id":1126073445,
            "region_id":85688769
        }
    ],
    "wof:id":1126073445,
    "wof:lastmodified":1534379476,
    "wof:name":"South Lebanon",
    "wof:parent_id":-1,
    "wof:placetype":"neighbourhood",
    "wof:repo":"whosonfirst-data-admin-us",
    "wof:superseded_by":[
        85849815
    ],
    "wof:supersedes":[],
    "wof:tags":[]
},
  "bbox": [
    -70.94228,
    43.33758,
    -70.94228,
    43.33758
],
  "geometry": {"coordinates":[-70.94228,43.33758],"type":"Point"}
}