{
  "id": 1209029233,
  "type": "Feature",
  "properties": {
    "edtf:cessation":"2018-09-06",
    "edtf:inception":"uuuu",
    "geom:area":0.0,
    "geom:area_square_m":0.0,
    "geom:bbox":"-77.40693,39.68621,-77.40693,39.68621",
    "geom:latitude":39.68621,
    "geom:longitude":-77.40693,
    "gn:admin1_code":"MD",
    "gn:admin2_code":"21.0",
    "gn:asciiname":"Eyeler (historical)",
    "gn:country_code":"US",
    "gn:dem":293,
    "gn:elevation":"288.0",
    "gn:feature_class":"P",
    "gn:feature_code":"PPLQ",
    "gn:geonameid":4354522,
    "gn:latitude":39.68621,
    "gn:longitude":-77.40693,
    "gn:modification_date":"2011-12-12",
    "gn:name":"Eyeler (historical)",
    "gn:population":0,
    "gn:timezone":"America/New_York",
    "iso:country":"US",
    "mz:hierarchy_label":1,
    "mz:is_current":0,
    "src:geom":"geonames",
    "wof:belongsto":[
        85633793
    ],
    "wof:breaches":[],
    "wof:concordances":{
        "gn:id":4354522
    },
    "wof:country":"US",
    "wof:geomhash":"ef47599f1e5a0497d2371c12e005cd93",
    "wof:hierarchy":[
        {
            "country_id":85633793,
            "locality_id":1209029233
        }
    ],
    "wof:id":1209029233,
    "wof:lastmodified":1536299899,
    "wof:name":"Eyeler (historical)",
    "wof:parent_id":85633793,
    "wof:placetype":"locality",
    "wof:repo":"whosonfirst-data-admin-us",
    "wof:superseded_by":[],
    "wof:supersedes":[],
    "wof:tags":[]
},
  "bbox": [
    -77.40693,
    39.68621,
    -77.40693,
    39.68621
],
  "geometry": {"coordinates":[-77.40693,39.68621],"type":"Point"}
}