{
  "id": 420533281,
  "type": "Feature",
  "properties": {
    "edtf:cessation":"uuuu",
    "edtf:inception":"uuuu",
    "geom:area":0.0,
    "geom:area_square_m":394344.845386,
    "geom:bbox":"-78.651046,35.87911,-78.651046,35.87911",
    "geom:latitude":35.87911,
    "geom:longitude":-78.651046,
    "iso:country":"US",
    "lbl:latitude":35.87911,
    "lbl:longitude":-78.651046,
    "mz:hierarchy_label":0,
    "mz:is_current":-1,
    "name:eng_x_preferred":[
        "Woodhaize"
    ],
    "src:geom":"mz",
    "src:geom_alt":[
        "zetashapes"
    ],
    "src:lbl":"mapshaper",
    "src:lbl:centroid":"mapshaper",
    "src:population":"zetashapes",
    "wof:belongsto":[
        102191575,
        85633793,
        85980569,
        102087821,
        85688773
    ],
    "wof:breaches":[],
    "wof:concordances":{
        "gp:id":55990895
    },
    "wof:country":"US",
    "wof:geomhash":"48681c9c7471b143378f1d40e40177d7",
    "wof:hierarchy":[
        {
            "continent_id":102191575,
            "country_id":85633793,
            "county_id":102087821,
            "locality_id":85980569,
            "neighbourhood_id":420533281,
            "region_id":85688773
        }
    ],
    "wof:id":420533281,
    "wof:lastmodified":1533598263,
    "wof:name":"Woodhaize",
    "wof:parent_id":85980569,
    "wof:placetype":"neighbourhood",
    "wof:population":578,
    "wof:population_rank":2,
    "wof:repo":"whosonfirst-data-admin-us",
    "wof:superseded_by":[],
    "wof:supersedes":[],
    "wof:tags":[],
    "zs:area_m":394317.740694,
    "zs:blockids":[
        371830537073001,
        371830537072000,
        371830537072001
    ],
    "zs:housing10":248,
    "zs:id":55990895,
    "zs:label":"Woodhaize",
    "zs:pop10":578
},
  "bbox": [
    -78.651046,
    35.87911,
    -78.651046,
    35.87911
],
  "geometry": {"coordinates":[-78.65104599999999,35.87911],"type":"Point"}
}