{
  "id": 1259607713,
  "type": "Feature",
  "properties": {
    "edtf:cessation":"2018-09-07",
    "edtf:inception":"uuuu",
    "geom:area":0.0,
    "geom:area_square_m":0.0,
    "geom:bbox":"-75.53381,37.91346,-75.53381,37.91346",
    "geom:latitude":37.91346,
    "geom:longitude":-75.53381,
    "gn:admin1_code":"VA",
    "gn:admin2_code":"1",
    "gn:asciiname":"Greta (historical)",
    "gn:country_code":"US",
    "gn:dem":15,
    "gn:elevation":"11.0",
    "gn:feature_class":"P",
    "gn:feature_code":"PPLQ",
    "gn:geonameid":4762355,
    "gn:latitude":37.91346,
    "gn:longitude":-75.53381,
    "gn:modification_date":"2011-12-12",
    "gn:name":"Greta (historical)",
    "gn:population":0,
    "gn:timezone":"America/New_York",
    "iso:country":"US",
    "mz:hierarchy_label":1,
    "mz:is_current":0,
    "src:geom":"geonames",
    "wof:belongsto":[
        102191575,
        85633793,
        85688747,
        102081415
    ],
    "wof:breaches":[],
    "wof:concordances":{
        "gn:id":4762355
    },
    "wof:country":"US",
    "wof:geomhash":"76aef097f0ba46d931942dbbb4cde187",
    "wof:hierarchy":[
        {
            "continent_id":102191575,
            "country_id":85633793,
            "county_id":102081415,
            "locality_id":1259607713,
            "region_id":85688747
        }
    ],
    "wof:id":1259607713,
    "wof:lastmodified":1536679877,
    "wof:name":"Greta (historical)",
    "wof:parent_id":102081415,
    "wof:placetype":"locality",
    "wof:repo":"whosonfirst-data-admin-us",
    "wof:superseded_by":[],
    "wof:supersedes":[],
    "wof:tags":[]
},
  "bbox": [
    -75.53381,
    37.91346,
    -75.53381,
    37.91346
],
  "geometry": {"coordinates":[-75.53381,37.91346],"type":"Point"}
}