{
  "id": 85805421,
  "type": "Feature",
  "properties": {"wof:repo":"whosonfirst-data-admin-us",
    "src:geom":"quattroshapes",
    "wof:geomhash":"6f5b3fd7ec902f186db40f956a3d9995",
    "wof:id":85805421
},
  "bbox": [
    -95.58654785158504,
    29.68020980722102,
    -95.54534912109995,
    29.711910431000078
],
  "geometry": {"coordinates":[[[-95.56457519529991,29.71191037432523],[-95.56250323535016,29.70952477620033],[-95.55912060865018,29.70952477620033],[-95.55908203122493,29.70955650214006],[-95.55505848934507,29.71021829149191],[-95.55358886719995,29.70852626896698],[-95.55084228517492,29.70747219331453],[-95.55084228518515,29.70713934810003],[-95.55084228518328,29.70475371578354],[-95.54946899414995,29.70317265039213],[-95.54946899414995,29.70256207564874],[-95.54930044114576,29.70236802906683],[-95.54809570309990,29.70236803850008],[-95.54809570309990,29.69759650230006],[-95.54809570311448,29.69620954784513],[-95.54809570311491,29.69282473940005],[-95.54809570312477,29.69043863132545],[-95.54534912109995,29.68885779951920],[-95.54534912109995,29.68328047707513],[-95.54581570591969,29.68220635719942],[-95.54883993239108,29.68046588872465],[-95.55084228517492,29.68020980722102],[-95.55284463791534,29.68046588872848],[-95.55358886717499,29.68089419910045],[-95.55700889003475,29.68089419910045],[-95.55908203120006,29.68328047704689],[-95.55908208041890,29.68328053370006],[-95.56115497559369,29.68566652850038],[-95.56457519529991,29.68566652850038],[-95.56799541500595,29.68566652850038],[-95.57006831018074,29.68328053370006],[-95.57006835940004,29.68328047704645],[-95.57214150056490,29.68089419910045],[-95.57556152342494,29.68089419910045],[-95.57784152066625,29.68220635722021],[-95.57830810547500,29.68328047707513],[-95.57830810547500,29.68805269322520],[-95.57877439173402,29.68912617676389],[-95.58519988710714,29.69282445610035],[-95.58654785157501,29.69282445610035],[-95.58654785158504,29.69759650230006],[-95.58654785158325,29.70236798185029],[-95.58654785158325,29.70236803850008],[-95.58654785158370,29.70713934810003],[-95.58654785157501,29.70952477620033],[-95.58109326491993,29.70952477620033],[-95.57837234216464,29.71176245358362],[-95.57830810547500,29.71191037432523],[-95.57556152339998,29.71191037432523],[-95.57556152339998,29.71191043100008],[-95.57006835940004,29.71191043100008],[-95.56457519529991,29.71191043100008],[-95.56457519529991,29.71191037432523]]],"type":"Polygon"}
}