{
  "id": 1126060527,
  "type": "Feature",
  "properties": {
    "edtf:cessation":"uuuu",
    "edtf:deprecated":"2018-08-15",
    "edtf:inception":"uuuu",
    "edtf:superseded":"2018-08-15",
    "geom:area":0.0,
    "geom:area_square_m":0.0,
    "geom:bbox":"-75.01684,39.28956,-75.01684,39.28956",
    "geom:latitude":39.28956,
    "geom:longitude":-75.01684,
    "gn:gn_country":"US",
    "gn:gn_fcode":"PPL",
    "gn:gn_pop":0,
    "iso:country":"US",
    "lbl:latitude":39.28956,
    "lbl:longitude":-75.01684,
    "mz:hierarchy_label":1,
    "mz:is_current":0,
    "mz:note":"Quattroshapes Point Gazetteer import 20170519",
    "qs_pg:aaroncc":"US",
    "qs_pg:gn_country":"US",
    "qs_pg:gn_fcode":"PPL",
    "qs_pg:gn_id":4502119,
    "qs_pg:gn_pop":0,
    "qs_pg:name":"Haleyville",
    "qs_pg:name_adm0":"United States",
    "qs_pg:name_adm1":"New Jersey",
    "qs_pg:photos":39,
    "qs_pg:photos_1k":8,
    "qs_pg:photos_9k":1,
    "qs_pg:photos_9r":2,
    "qs_pg:photos_all":39,
    "qs_pg:photos_sr":2,
    "qs_pg:pop_sr":0,
    "qs_pg:qs_id":265919,
    "qs_pg:qs_pg_placetype":"neighbourhood",
    "qs_pg:qs_pg_placetype_gp":"Suburb",
    "qs_pg:woe_adm0":23424977,
    "qs_pg:woe_id":2416210,
    "src:geom":"qs_pg",
    "src:lbl:centroid":"qs_pg",
    "woe:adm0_id":23424977,
    "woe:name_adm0":"United States",
    "woe:name_adm1":"New Jersey",
    "woe:placetype":"Suburb",
    "wof:belongsto":[
        102191575,
        404478077,
        85633793,
        102080721,
        85688607
    ],
    "wof:breaches":[],
    "wof:concordances":{
        "gn:id":4502119,
        "gp:id":2416210,
        "qs_pg:id":265919
    },
    "wof:country":"US",
    "wof:created":1497308000,
    "wof:geomhash":"bc438c80c8c79b5ac70c04467b316da5",
    "wof:hierarchy":[
        {
            "continent_id":102191575,
            "country_id":85633793,
            "county_id":102080721,
            "localadmin_id":404478077,
            "locality_id":-1,
            "neighbourhood_id":1126060527,
            "region_id":85688607
        }
    ],
    "wof:id":1126060527,
    "wof:lastmodified":1534379776,
    "wof:name":"Haleyville",
    "wof:parent_id":-1,
    "wof:placetype":"neighbourhood",
    "wof:repo":"whosonfirst-data-admin-us",
    "wof:superseded_by":[
        420526877
    ],
    "wof:supersedes":[],
    "wof:tags":[]
},
  "bbox": [
    -75.01684,
    39.28956,
    -75.01684,
    39.28956
],
  "geometry": {"coordinates":[-75.01684,39.28956],"type":"Point"}
}