{
  "id": 85876367,
  "type": "Feature",
  "properties": {"wof:repo":"whosonfirst-data-admin-us",
    "src:geom":"quattroshapes",
    "wof:geomhash":"1ad6dce0fd7b1d2ae4098e9ec0863eaf",
    "wof:id":85876367
},
  "bbox": [
    -105.27099609399988,
    39.992533347040634,
    -105.25451660199991,
    40.00447582708915
],
  "geometry": {"coordinates":[[[-105.25919255135153,39.99709715909911],[-105.25945744937584,39.99605983550028],[-105.26275634799998,39.99605984270021],[-105.26275634799998,39.99395569400004],[-105.26275634799998,39.99372835888673],[-105.26550292999985,39.99253334704063],[-105.26659257455134,39.99395562915022],[-105.27099609399988,39.99395562915022],[-105.27099609399988,39.99395569400004],[-105.27099609399988,39.99674157481861],[-105.27099609399988,39.99816394460004],[-105.26824951200001,39.99816394460004],[-105.26824951200001,40.00026796361416],[-105.26550292999985,40.00026796643830],[-105.26550292999990,40.00237192652587],[-105.26275634799998,40.00237192971932],[-105.26275634799998,40.00447582528632],[-105.26000976599983,40.00447582564692],[-105.25726318399987,40.00447582708915],[-105.25451660200000,40.00447582492582],[-105.25451660199991,40.00237192778779],[-105.25451660199991,40.00026796643830],[-105.25726318399987,40.00026796316483],[-105.25726318399987,39.99816394460004],[-105.25726318399987,39.99793666032757],[-105.25919255135153,39.99709715909911]]],"type":"Polygon"}
}