{
  "id": 1125420619,
  "type": "Feature",
  "properties": {
    "edtf:cessation":"uuuu",
    "edtf:deprecated":"2017-11-04",
    "edtf:inception":"uuuu",
    "geom:area":0.0,
    "geom:area_square_m":0.0,
    "geom:bbox":"-95.56535,29.6272,-95.56535,29.6272",
    "geom:latitude":29.6272,
    "geom:longitude":-95.56535,
    "gn:gn_country":"US",
    "gn:gn_fcode":"ADMD",
    "gn:gn_pop":17693,
    "gn:population":17693,
    "iso:country":"US",
    "lbl:latitude":29.6272,
    "lbl:longitude":-95.56535,
    "mz:hierarchy_label":1,
    "mz:is_current":0,
    "mz:note":"Quattroshapes Point Gazetteer import 20170519",
    "qs_pg:aaroncc":"US",
    "qs_pg:gn_country":"US",
    "qs_pg:gn_fcode":"ADMD",
    "qs_pg:gn_id":7174490,
    "qs_pg:gn_pop":17693,
    "qs_pg:name":"City of Stafford",
    "qs_pg:photos_9r":0,
    "qs_pg:photos_sr":0,
    "qs_pg:pop_sr":6,
    "qs_pg:qs_id":667058,
    "qs_pg:qs_pg_placetype":"localadmin",
    "src:geom":"qs_pg",
    "src:lbl:centroid":"qs_pg",
    "src:population":"geonames",
    "wof:belongsto":[
        85633793
    ],
    "wof:breaches":[],
    "wof:concordances":{
        "gn:id":7174490,
        "qs_pg:id":667058
    },
    "wof:country":"US",
    "wof:created":1497052148,
    "wof:geomhash":"ff6599f00dc48859536329795b76edbb",
    "wof:hierarchy":[
        {
            "country_id":85633793,
            "localadmin_id":1125420619
        }
    ],
    "wof:id":1125420619,
    "wof:lastmodified":1509752760,
    "wof:name":"City of Stafford",
    "wof:parent_id":-1,
    "wof:placetype":"localadmin",
    "wof:population":17693,
    "wof:population_rank":6,
    "wof:repo":"whosonfirst-data-admin-us",
    "wof:superseded_by":[
        101725901
    ],
    "wof:supersedes":[],
    "wof:tags":[]
},
  "bbox": [
    -95.56535,
    29.6272,
    -95.56535,
    29.6272
],
  "geometry": {"coordinates":[-95.56535,29.6272],"type":"Point"}
}