{
  "id": 1125270505,
  "type": "Feature",
  "properties": {
    "edtf:cessation":"uuuu",
    "edtf:deprecated":"2017-11-15",
    "edtf:inception":"uuuu",
    "geom:area":0.0,
    "geom:area_square_m":0.0,
    "geom:bbox":"-75.06683,42.4548,-75.06683,42.4548",
    "geom:latitude":42.4548,
    "geom:longitude":-75.06683,
    "gn:gn_country":"US",
    "gn:gn_fcode":"ADMD",
    "gn:gn_pop":13901,
    "gn:population":13901,
    "iso:country":"US",
    "lbl:latitude":42.4548,
    "lbl:longitude":-75.06683,
    "mz:hierarchy_label":1,
    "mz:is_current":0,
    "mz:note":"Quattroshapes Point Gazetteer import 20170519",
    "qs_pg:aaroncc":"US",
    "qs_pg:gn_country":"US",
    "qs_pg:gn_fcode":"ADMD",
    "qs_pg:gn_id":5129853,
    "qs_pg:gn_pop":13901,
    "qs_pg:name":"City of Oneonta",
    "qs_pg:photos_9r":0,
    "qs_pg:photos_sr":0,
    "qs_pg:pop_sr":6,
    "qs_pg:qs_id":605061,
    "qs_pg:qs_pg_placetype":"localadmin",
    "src:geom":"qs_pg",
    "src:lbl:centroid":"qs_pg",
    "src:population":"geonames",
    "wof:belongsto":[
        85633793
    ],
    "wof:breaches":[],
    "wof:concordances":{
        "gn:id":5129853,
        "qs_pg:id":605061
    },
    "wof:country":"US",
    "wof:created":1497042106,
    "wof:geomhash":"1ee9512022798c6cc5577c3d1681e880",
    "wof:hierarchy":[
        {
            "country_id":85633793,
            "localadmin_id":1125270505
        }
    ],
    "wof:id":1125270505,
    "wof:lastmodified":1510790342,
    "wof:name":"City of Oneonta",
    "wof:parent_id":-1,
    "wof:placetype":"localadmin",
    "wof:population":13901,
    "wof:population_rank":6,
    "wof:repo":"whosonfirst-data-admin-us",
    "wof:superseded_by":[
        85978805
    ],
    "wof:supersedes":[],
    "wof:tags":[]
},
  "bbox": [
    -75.06683,
    42.4548,
    -75.06683,
    42.4548
],
  "geometry": {"coordinates":[-75.06683,42.4548],"type":"Point"}
}