{
  "id": 1125344569,
  "type": "Feature",
  "properties": {
    "edtf:cessation":"2017-05-19",
    "edtf:inception":"uuuu",
    "geom:area":0.0,
    "geom:area_square_m":0.0,
    "geom:bbox":"-80.64364,37.72768,-80.64364,37.72768",
    "geom:latitude":37.72768,
    "geom:longitude":-80.64364,
    "gn:gn_country":"US",
    "gn:gn_fcode":"ADMD",
    "gn:gn_pop":1184,
    "gn:population":1184,
    "iso:country":"US",
    "lbl:latitude":37.72768,
    "lbl:longitude":-80.64364,
    "mz:hierarchy_label":1,
    "mz:is_current":0,
    "mz:note":"Quattroshapes Point Gazetteer import 20170519",
    "qs_pg:aaroncc":"US",
    "qs_pg:gn_country":"US",
    "qs_pg:gn_fcode":"ADMD",
    "qs_pg:gn_id":7161497,
    "qs_pg:gn_pop":1184,
    "qs_pg:name":"Town of Alderson",
    "qs_pg:photos_9r":0,
    "qs_pg:photos_sr":0,
    "qs_pg:pop_sr":3,
    "qs_pg:qs_id":657060,
    "qs_pg:qs_pg_placetype":"localadmin",
    "src:geom":"qs_pg",
    "src:lbl:centroid":"qs_pg",
    "src:population":"geonames",
    "wof:belongsto":[
        85633793
    ],
    "wof:breaches":[],
    "wof:concordances":{
        "gn:id":7161497,
        "qs_pg:id":657060
    },
    "wof:country":"US",
    "wof:created":1497045849,
    "wof:geomhash":"8a6fd187178832c6f1a5f08e8e1772c2",
    "wof:hierarchy":[
        {
            "country_id":85633793,
            "localadmin_id":1125344569
        }
    ],
    "wof:id":1125344569,
    "wof:lastmodified":1505187016,
    "wof:name":"Town of Alderson",
    "wof:parent_id":-1,
    "wof:placetype":"localadmin",
    "wof:population":1184,
    "wof:population_rank":3,
    "wof:repo":"whosonfirst-data-admin-us",
    "wof:superseded_by":[],
    "wof:supersedes":[],
    "wof:tags":[]
},
  "bbox": [
    -80.64364,
    37.72768,
    -80.64364,
    37.72768
],
  "geometry": {"coordinates":[-80.64364,37.72768],"type":"Point"}
}