{
  "id": 420548413,
  "type": "Feature",
  "properties": {
    "edtf:cessation":"uuuu",
    "edtf:inception":"uuuu",
    "geom:area":0.0,
    "geom:area_square_m":583481.711679,
    "geom:bbox":"-76.190586,36.810476,-76.190586,36.810476",
    "geom:latitude":36.810476,
    "geom:longitude":-76.190586,
    "iso:country":"US",
    "lbl:latitude":36.810476,
    "lbl:longitude":-76.190586,
    "mz:hierarchy_label":0,
    "mz:is_current":-1,
    "name:eng_x_preferred":[
        "Avalon Hills"
    ],
    "src:geom":"mz",
    "src:geom_alt":[
        "zetashapes"
    ],
    "src:lbl":"mapshaper",
    "src:lbl:centroid":"mapshaper",
    "src:population":"zetashapes",
    "wd:wordcount":2182,
    "wof:belongsto":[
        102191575,
        85633793,
        101728745,
        102081929,
        85688747
    ],
    "wof:breaches":[],
    "wof:concordances":{
        "gp:id":2357692,
        "wd:id":"Q790101"
    },
    "wof:country":"US",
    "wof:geomhash":"9c02e21492eba292154ee16657d7c3ac",
    "wof:hierarchy":[
        {
            "continent_id":102191575,
            "country_id":85633793,
            "county_id":102081929,
            "locality_id":101728745,
            "neighbourhood_id":420548413,
            "region_id":85688747
        }
    ],
    "wof:id":420548413,
    "wof:lastmodified":1533603515,
    "wof:name":"Avalon Hills",
    "wof:parent_id":101728745,
    "wof:placetype":"neighbourhood",
    "wof:population":698,
    "wof:population_rank":2,
    "wof:repo":"whosonfirst-data-admin-us",
    "wof:superseded_by":[],
    "wof:supersedes":[],
    "wof:tags":[],
    "zs:area_m":583441.383191,
    "zs:blockids":[
        518100462064004,
        518100462064003,
        518100462064001,
        518100462073000,
        518100462064010,
        518100462064002,
        518100462064006,
        518100462062007
    ],
    "zs:housing10":275,
    "zs:id":2357692,
    "zs:label":"Avalon Hills",
    "zs:pop10":698
},
  "bbox": [
    -76.190586,
    36.810476,
    -76.190586,
    36.810476
],
  "geometry": {"coordinates":[-76.190586,36.810476],"type":"Point"}
}