{
  "id": 1125354863,
  "type": "Feature",
  "properties": {
    "edtf:cessation":"uuuu",
    "edtf:deprecated":"2017-11-04",
    "edtf:inception":"uuuu",
    "geom:area":0.0,
    "geom:area_square_m":0.0,
    "geom:bbox":"-91.54726,35.94836,-91.54726,35.94836",
    "geom:latitude":35.94836,
    "geom:longitude":-91.54726,
    "gn:gn_country":"US",
    "gn:gn_fcode":"ADMD",
    "gn:gn_pop":1904,
    "gn:population":1904,
    "iso:country":"US",
    "lbl:latitude":35.94836,
    "lbl:longitude":-91.54726,
    "mz:hierarchy_label":1,
    "mz:is_current":0,
    "mz:note":"Quattroshapes Point Gazetteer import 20170519",
    "qs_pg:aaroncc":"US",
    "qs_pg:gn_country":"US",
    "qs_pg:gn_fcode":"ADMD",
    "qs_pg:gn_id":7317777,
    "qs_pg:gn_pop":1904,
    "qs_pg:name":"City of Cave City",
    "qs_pg:photos_9r":0,
    "qs_pg:photos_sr":0,
    "qs_pg:pop_sr":3,
    "qs_pg:qs_id":683793,
    "qs_pg:qs_pg_placetype":"localadmin",
    "src:geom":"qs_pg",
    "src:lbl:centroid":"qs_pg",
    "src:population":"geonames",
    "wof:belongsto":[
        85633793
    ],
    "wof:breaches":[],
    "wof:concordances":{
        "gn:id":7317777,
        "qs_pg:id":683793
    },
    "wof:country":"US",
    "wof:created":1497046405,
    "wof:geomhash":"b161b7c47aa7e5748bc4b1641ecee4be",
    "wof:hierarchy":[
        {
            "country_id":85633793,
            "localadmin_id":1125354863
        }
    ],
    "wof:id":1125354863,
    "wof:lastmodified":1509752646,
    "wof:name":"City of Cave City",
    "wof:parent_id":-1,
    "wof:placetype":"localadmin",
    "wof:population":1904,
    "wof:population_rank":3,
    "wof:repo":"whosonfirst-data-admin-us",
    "wof:superseded_by":[
        85920663
    ],
    "wof:supersedes":[],
    "wof:tags":[]
},
  "bbox": [
    -91.54726,
    35.94836,
    -91.54726,
    35.94836
],
  "geometry": {"coordinates":[-91.54725999999999,35.94836],"type":"Point"}
}