{
  "id": 420550341,
  "type": "Feature",
  "properties": {
    "edtf:cessation":"uuuu",
    "edtf:inception":"uuuu",
    "geom:area":0.0,
    "geom:area_square_m":253393.56661,
    "geom:bbox":"-122.140227,37.704014,-122.140227,37.704014",
    "geom:latitude":37.704014,
    "geom:longitude":-122.140227,
    "iso:country":"US",
    "lbl:latitude":37.704014,
    "lbl:longitude":-122.140227,
    "mz:hierarchy_label":0,
    "mz:is_current":1,
    "name:eng_x_preferred":[
        "Washington Square"
    ],
    "src:geom":"mz",
    "src:geom_alt":[
        "quattroshapes_pg",
        "zetashapes"
    ],
    "src:lbl":"mapshaper",
    "src:lbl:centroid":"mapshaper",
    "src:population":"zetashapes",
    "wd:wordcount":157,
    "wof:belongsto":[
        102191575,
        85633793,
        85921867,
        102086959,
        85688637
    ],
    "wof:breaches":[],
    "wof:concordances":{
        "gp:id":55971431,
        "qs_pg:id":1111631
    },
    "wof:country":"US",
    "wof:geomhash":"c78487c2c4806b40b3b1861cc7aa8528",
    "wof:hierarchy":[
        {
            "continent_id":102191575,
            "country_id":85633793,
            "county_id":102086959,
            "locality_id":85921867,
            "neighbourhood_id":420550341,
            "region_id":85688637
        }
    ],
    "wof:id":420550341,
    "wof:lastmodified":1533612675,
    "wof:name":"Washington Square",
    "wof:parent_id":85921867,
    "wof:placetype":"neighbourhood",
    "wof:population":193,
    "wof:population_rank":1,
    "wof:repo":"whosonfirst-data-admin-us",
    "wof:superseded_by":[],
    "wof:supersedes":[],
    "wof:tags":[],
    "zs:area_m":253374.342277,
    "zs:blockids":[
        60014331022000
    ],
    "zs:housing10":57,
    "zs:id":55971431,
    "zs:label":"Washington Square",
    "zs:pop10":193
},
  "bbox": [
    -122.140227,
    37.704014,
    -122.140227,
    37.704014
],
  "geometry": {"coordinates":[-122.140227,37.704014],"type":"Point"}
}