{
  "id": 1276352521,
  "type": "Feature",
  "properties": {
    "edtf:cessation":"2018-09-07",
    "edtf:inception":"uuuu",
    "geom:area":0.0,
    "geom:area_square_m":0.0,
    "geom:bbox":"-81.30288,37.30373,-81.30288,37.30373",
    "geom:latitude":37.30373,
    "geom:longitude":-81.30288,
    "gn:admin1_code":"WV",
    "gn:admin2_code":"55",
    "gn:asciiname":"Abbs Valley (historical)",
    "gn:country_code":"US",
    "gn:dem":698,
    "gn:elevation":"700.0",
    "gn:feature_class":"P",
    "gn:feature_code":"PPLQ",
    "gn:geonameid":4796899,
    "gn:latitude":37.30373,
    "gn:longitude":-81.30288,
    "gn:modification_date":"2011-12-12",
    "gn:name":"Abbs Valley (historical)",
    "gn:population":0,
    "gn:timezone":"America/New_York",
    "iso:country":"US",
    "mz:hierarchy_label":1,
    "mz:is_current":0,
    "name:eng_x_preferred":[
        "Abbs Valley (historical)"
    ],
    "name:und_x_variant":[
        "Sammy",
        "Abbyvalley"
    ],
    "src:geom":"geonames",
    "wof:belongsto":[
        102191575,
        85633793,
        85688589,
        102082639
    ],
    "wof:breaches":[],
    "wof:concordances":{
        "gn:id":4796899
    },
    "wof:country":"US",
    "wof:geomhash":"77a10cfe9e68a217d04b5c01251e0921",
    "wof:hierarchy":[
        {
            "continent_id":102191575,
            "country_id":85633793,
            "county_id":102082639,
            "locality_id":1276352521,
            "region_id":85688589
        }
    ],
    "wof:id":1276352521,
    "wof:lastmodified":1537712741,
    "wof:name":"Abbs Valley (historical)",
    "wof:parent_id":102082639,
    "wof:placetype":"locality",
    "wof:repo":"whosonfirst-data-admin-us",
    "wof:superseded_by":[],
    "wof:supersedes":[],
    "wof:tags":[]
},
  "bbox": [
    -81.30288,
    37.30373,
    -81.30288,
    37.30373
],
  "geometry": {"coordinates":[-81.30288,37.30373],"type":"Point"}
}