{
  "id": 1293604967,
  "type": "Feature",
  "properties": {
    "edtf:cessation":"2018-09-06",
    "edtf:inception":"uuuu",
    "geom:area":0.0,
    "geom:area_square_m":0.0,
    "geom:bbox":"-84.06643,37.55539,-84.06643,37.55539",
    "geom:latitude":37.55539,
    "geom:longitude":-84.06643,
    "gn:admin1_code":"KY",
    "gn:admin2_code":"109",
    "gn:asciiname":"Indian Spring (historical)",
    "gn:country_code":"US",
    "gn:dem":391,
    "gn:elevation":"382.0",
    "gn:feature_class":"P",
    "gn:feature_code":"PPLQ",
    "gn:geonameid":7229919,
    "gn:latitude":37.55539,
    "gn:longitude":-84.06643,
    "gn:modification_date":"2014-10-08",
    "gn:name":"Indian Spring (historical)",
    "gn:population":0,
    "gn:timezone":"America/New_York",
    "iso:country":"US",
    "mz:hierarchy_label":1,
    "mz:is_current":0,
    "src:geom":"geonames",
    "wof:belongsto":[
        102191575,
        85633793,
        85688641,
        102084547
    ],
    "wof:breaches":[],
    "wof:concordances":{
        "gn:id":7229919
    },
    "wof:country":"US",
    "wof:geomhash":"4a50bc4b94f9d62ab8a7b0f1fa42532e",
    "wof:hierarchy":[
        {
            "continent_id":102191575,
            "country_id":85633793,
            "county_id":102084547,
            "locality_id":1293604967,
            "region_id":85688641
        }
    ],
    "wof:id":1293604967,
    "wof:lastmodified":1536615371,
    "wof:name":"Indian Spring (historical)",
    "wof:parent_id":102084547,
    "wof:placetype":"locality",
    "wof:repo":"whosonfirst-data-admin-us",
    "wof:superseded_by":[],
    "wof:supersedes":[],
    "wof:tags":[]
},
  "bbox": [
    -84.06643000000003,
    37.55539,
    -84.06643000000003,
    37.55539
],
  "geometry": {"coordinates":[-84.06643000000003,37.55539],"type":"Point"}
}