{
  "id": 1125291859,
  "type": "Feature",
  "properties": {
    "edtf:cessation":"2017-05-19",
    "edtf:inception":"uuuu",
    "geom:area":0.0,
    "geom:area_square_m":0.0,
    "geom:bbox":"-105.88355,33.6445,-105.88355,33.6445",
    "geom:latitude":33.6445,
    "geom:longitude":-105.88355,
    "gn:gn_country":"US",
    "gn:gn_fcode":"ADMD",
    "gn:gn_pop":996,
    "gn:population":996,
    "iso:country":"US",
    "lbl:latitude":33.6445,
    "lbl:longitude":-105.88355,
    "mz:hierarchy_label":1,
    "mz:is_current":0,
    "mz:note":"Quattroshapes Point Gazetteer import 20170519",
    "qs_pg:aaroncc":"US",
    "qs_pg:gn_country":"US",
    "qs_pg:gn_fcode":"ADMD",
    "qs_pg:gn_id":7175579,
    "qs_pg:gn_pop":996,
    "qs_pg:name":"Town of Carrizozo",
    "qs_pg:photos_9r":0,
    "qs_pg:photos_sr":0,
    "qs_pg:pop_sr":2,
    "qs_pg:qs_id":668104,
    "qs_pg:qs_pg_placetype":"localadmin",
    "src:geom":"qs_pg",
    "src:lbl:centroid":"qs_pg",
    "src:population":"geonames",
    "wof:belongsto":[
        85633793
    ],
    "wof:breaches":[],
    "wof:concordances":{
        "gn:id":7175579,
        "qs_pg:id":668104
    },
    "wof:country":"US",
    "wof:created":1497042960,
    "wof:geomhash":"9c6450a0b8a05adad2c5f2be78a9cd59",
    "wof:hierarchy":[
        {
            "country_id":85633793,
            "localadmin_id":1125291859
        }
    ],
    "wof:id":1125291859,
    "wof:lastmodified":1505187153,
    "wof:name":"Town of Carrizozo",
    "wof:parent_id":-1,
    "wof:placetype":"localadmin",
    "wof:population":996,
    "wof:population_rank":2,
    "wof:repo":"whosonfirst-data-admin-us",
    "wof:superseded_by":[],
    "wof:supersedes":[],
    "wof:tags":[]
},
  "bbox": [
    -105.88355,
    33.6445,
    -105.88355,
    33.6445
],
  "geometry": {"coordinates":[-105.88355,33.6445],"type":"Point"}
}