{
  "id": 1108936523,
  "type": "Feature",
  "properties": {
    "edtf:cessation":"uuuu",
    "edtf:inception":"uuuu",
    "geom:area":0.0,
    "geom:area_square_m":0.0,
    "geom:bbox":"-86.7962252226,36.1557778927,-86.7962252226,36.1557778927",
    "geom:latitude":36.155778,
    "geom:longitude":-86.796225,
    "iso:country":"US",
    "lbl:latitude":36.155778,
    "lbl:longitude":-86.796225,
    "mz:hierarchy_label":1,
    "mz:is_funky":0,
    "mz:is_hard_boundary":0,
    "mz:is_landuse_aoi":0,
    "mz:is_official":0,
    "mz:max_zoom":18.0,
    "mz:min_zoom":14.0,
    "mz:tier_metro":15,
    "src:lbl:centroid":"mz",
    "wof:belongsto":[
        102191575,
        85633793,
        101723183,
        102087061,
        85688701
    ],
    "wof:breaches":[],
    "wof:concordances":{},
    "wof:country":"US",
    "wof:created":1491359052,
    "wof:geomhash":"eba57b958a4136e31de569a58779a7ff",
    "wof:hierarchy":[
        {
            "continent_id":102191575,
            "country_id":85633793,
            "county_id":102087061,
            "locality_id":101723183,
            "neighbourhood_id":1108936523,
            "region_id":85688701
        }
    ],
    "wof:id":1108936523,
    "wof:lastmodified":1492123398,
    "wof:name":"Midtown",
    "wof:parent_id":101723183,
    "wof:placetype":"neighbourhood",
    "wof:repo":"whosonfirst-data-admin-us",
    "wof:superseded_by":[],
    "wof:supersedes":[],
    "wof:tags":[]
},
  "bbox": [
    -86.79622522262771,
    36.15577789270102,
    -86.79622522262771,
    36.15577789270102
],
  "geometry": {"coordinates":[-86.79622522262771,36.15577789270102],"type":"Point"}
}