{
  "id": 1243283261,
  "type": "Feature",
  "properties": {
    "edtf:cessation":"uuuu",
    "edtf:inception":"uuuu",
    "geom:area":0.0,
    "geom:area_square_m":0.0,
    "geom:bbox":"-79.49171,39.42176,-79.49171,39.42176",
    "geom:latitude":39.42176,
    "geom:longitude":-79.49171,
    "gn:admin1_code":"WV",
    "gn:admin2_code":"77",
    "gn:asciiname":"Corinth",
    "gn:country_code":"US",
    "gn:dem":751,
    "gn:elevation":"753.0",
    "gn:feature_class":"P",
    "gn:feature_code":"PPL",
    "gn:geonameid":4802984,
    "gn:latitude":39.42176,
    "gn:longitude":-79.49171,
    "gn:modification_date":"2006-01-15",
    "gn:name":"Corinth",
    "gn:population":0,
    "gn:timezone":"America/New_York",
    "iso:country":"US",
    "mz:hierarchy_label":1,
    "mz:is_current":-1,
    "name:eng_x_preferred":[
        "Corinth"
    ],
    "name:und_x_variant":[
        "Spencer"
    ],
    "src:geom":"geonames",
    "wof:belongsto":[
        102191575,
        85633793,
        85688589,
        102083385
    ],
    "wof:breaches":[],
    "wof:concordances":{
        "gn:id":4802984,
        "wk:page":"Corinth%2C_West_Virginia"
    },
    "wof:country":"US",
    "wof:geomhash":"7c2ec7c63191f5fc6984fd51e469b313",
    "wof:hierarchy":[
        {
            "continent_id":102191575,
            "country_id":85633793,
            "county_id":102083385,
            "locality_id":1243283261,
            "region_id":85688589
        }
    ],
    "wof:id":1243283261,
    "wof:lastmodified":1537712754,
    "wof:name":"Corinth",
    "wof:parent_id":102083385,
    "wof:placetype":"locality",
    "wof:repo":"whosonfirst-data-admin-us",
    "wof:superseded_by":[],
    "wof:supersedes":[],
    "wof:tags":[]
},
  "bbox": [
    -79.49171,
    39.42176,
    -79.49171,
    39.42176
],
  "geometry": {"coordinates":[-79.49171,39.42176],"type":"Point"}
}