{
  "id": 1309931625,
  "type": "Feature",
  "properties": {
    "edtf:cessation":"uuuu",
    "edtf:inception":"uuuu",
    "geom:area":0.0,
    "geom:area_square_m":0.0,
    "geom:bbox":"-86.73805,34.45676,-86.73805,34.45676",
    "geom:latitude":34.45676,
    "geom:longitude":-86.73805,
    "gn:admin1_code":"AL",
    "gn:admin2_code":"103.0",
    "gn:asciiname":"Union",
    "gn:country_code":"US",
    "gn:dem":186,
    "gn:elevation":"184.0",
    "gn:feature_class":"P",
    "gn:feature_code":"PPL",
    "gn:geonameid":4094657,
    "gn:latitude":34.45676,
    "gn:longitude":-86.73805,
    "gn:modification_date":"2006-01-15",
    "gn:name":"Union",
    "gn:population":0,
    "gn:timezone":"America/Chicago",
    "iso:country":"US",
    "mz:hierarchy_label":1,
    "mz:is_current":-1,
    "name:eng_x_preferred":[
        "Union"
    ],
    "name:und_x_variant":[
        "Kyleton"
    ],
    "src:geom":"geonames",
    "wof:belongsto":[
        102191575,
        85633793,
        85688675,
        102085531
    ],
    "wof:breaches":[],
    "wof:concordances":{
        "gn:id":4094657
    },
    "wof:country":"US",
    "wof:geomhash":"0316a7ce0c4463d91af0e5c954239580",
    "wof:hierarchy":[
        {
            "continent_id":102191575,
            "country_id":85633793,
            "county_id":102085531,
            "locality_id":1309931625,
            "region_id":85688675
        }
    ],
    "wof:id":1309931625,
    "wof:lastmodified":1537712241,
    "wof:name":"Union",
    "wof:parent_id":102085531,
    "wof:placetype":"locality",
    "wof:repo":"whosonfirst-data-admin-us",
    "wof:superseded_by":[],
    "wof:supersedes":[],
    "wof:tags":[]
},
  "bbox": [
    -86.73805,
    34.45676,
    -86.73805,
    34.45676
],
  "geometry": {"coordinates":[-86.73805,34.45676],"type":"Point"}
}