{
  "id": 1126066891,
  "type": "Feature",
  "properties": {
    "edtf:cessation":"uuuu",
    "edtf:deprecated":"2018-08-15",
    "edtf:inception":"uuuu",
    "edtf:superseded":"2018-08-15",
    "geom:area":0.0,
    "geom:area_square_m":0.0,
    "geom:bbox":"-82.2455,27.9725,-82.2455,27.9725",
    "geom:latitude":27.9725,
    "geom:longitude":-82.2455,
    "gn:gn_country":"US",
    "gn:gn_fcode":"PPL",
    "gn:gn_pop":0,
    "iso:country":"US",
    "lbl:latitude":27.9725,
    "lbl:longitude":-82.2455,
    "mz:hierarchy_label":1,
    "mz:is_current":0,
    "mz:note":"Quattroshapes Point Gazetteer import 20170519",
    "qs_pg:aaroncc":"US",
    "qs_pg:gn_country":"US",
    "qs_pg:gn_fcode":"PPL",
    "qs_pg:gn_id":7219181,
    "qs_pg:gn_pop":0,
    "qs_pg:name":"Wheeler Oak",
    "qs_pg:name_adm0":"United States",
    "qs_pg:name_adm1":"Florida",
    "qs_pg:photos":89,
    "qs_pg:photos_1k":18,
    "qs_pg:photos_9k":1,
    "qs_pg:photos_9r":3,
    "qs_pg:photos_all":89,
    "qs_pg:photos_sr":3,
    "qs_pg:pop_sr":0,
    "qs_pg:qs_id":1200944,
    "qs_pg:qs_pg_placetype":"neighbourhood",
    "qs_pg:qs_pg_placetype_gp":"Suburb",
    "qs_pg:woe_adm0":23424977,
    "qs_pg:woe_id":55976540,
    "src:geom":"qs_pg",
    "src:lbl:centroid":"qs_pg",
    "woe:adm0_id":23424977,
    "woe:name_adm0":"United States",
    "woe:name_adm1":"Florida",
    "woe:placetype":"Suburb",
    "wof:belongsto":[
        85688651,
        102191575,
        85633793,
        102085773
    ],
    "wof:breaches":[],
    "wof:concordances":{
        "gn:id":7219181,
        "gp:id":55976540,
        "qs_pg:id":1200944
    },
    "wof:country":"US",
    "wof:created":1497309016,
    "wof:geomhash":"e88d092acac6e17e616d983e11b9cfc6",
    "wof:hierarchy":[
        {
            "continent_id":102191575,
            "country_id":85633793,
            "county_id":102085773,
            "locality_id":-1,
            "neighbourhood_id":1126066891,
            "region_id":85688651
        }
    ],
    "wof:id":1126066891,
    "wof:lastmodified":1534379704,
    "wof:name":"Wheeler Oak",
    "wof:parent_id":-1,
    "wof:placetype":"neighbourhood",
    "wof:repo":"whosonfirst-data-admin-us",
    "wof:superseded_by":[
        420512837
    ],
    "wof:supersedes":[],
    "wof:tags":[]
},
  "bbox": [
    -82.2455,
    27.9725,
    -82.2455,
    27.9725
],
  "geometry": {"coordinates":[-82.24550000000001,27.9725],"type":"Point"}
}