{
  "id": 1225878871,
  "type": "Feature",
  "properties": {
    "edtf:cessation":"2018-09-07",
    "edtf:inception":"uuuu",
    "geom:area":0.0,
    "geom:area_square_m":0.0,
    "geom:bbox":"-122.76787,45.08595,-122.76787,45.08595",
    "geom:latitude":45.08595,
    "geom:longitude":-122.76787,
    "gn:admin1_code":"OR",
    "gn:admin2_code":"47",
    "gn:asciiname":"Dominic (historical)",
    "gn:country_code":"US",
    "gn:dem":62,
    "gn:elevation":"64.0",
    "gn:feature_class":"P",
    "gn:feature_code":"PPLQ",
    "gn:geonameid":5723623,
    "gn:latitude":45.08595,
    "gn:longitude":-122.76787,
    "gn:modification_date":"2011-12-11",
    "gn:name":"Dominic (historical)",
    "gn:population":0,
    "gn:timezone":"America/Los_Angeles",
    "iso:country":"US",
    "mz:hierarchy_label":1,
    "mz:is_current":0,
    "src:geom":"geonames",
    "wof:belongsto":[
        102191575,
        85633793,
        85688513,
        102082219
    ],
    "wof:breaches":[],
    "wof:concordances":{
        "gn:id":5723623
    },
    "wof:country":"US",
    "wof:geomhash":"06c1b817aa07ec793a6c9aba06c5a9e7",
    "wof:hierarchy":[
        {
            "continent_id":102191575,
            "country_id":85633793,
            "county_id":102082219,
            "locality_id":1225878871,
            "region_id":85688513
        }
    ],
    "wof:id":1225878871,
    "wof:lastmodified":1536965710,
    "wof:name":"Dominic (historical)",
    "wof:parent_id":102082219,
    "wof:placetype":"locality",
    "wof:repo":"whosonfirst-data-admin-us",
    "wof:superseded_by":[],
    "wof:supersedes":[],
    "wof:tags":[]
},
  "bbox": [
    -122.76787,
    45.08595,
    -122.76787,
    45.08595
],
  "geometry": {"coordinates":[-122.76787,45.08595],"type":"Point"}
}