{
  "id": 1125406747,
  "type": "Feature",
  "properties": {
    "edtf:cessation":"2017-05-19",
    "edtf:inception":"uuuu",
    "geom:area":0.0,
    "geom:area_square_m":0.0,
    "geom:bbox":"-82.41409,39.89291,-82.41409,39.89291",
    "geom:latitude":39.89291,
    "geom:longitude":-82.41409,
    "gn:gn_country":"US",
    "gn:gn_fcode":"ADMD",
    "gn:gn_pop":991,
    "gn:population":991,
    "iso:country":"US",
    "lbl:latitude":39.89291,
    "lbl:longitude":-82.41409,
    "mz:hierarchy_label":1,
    "mz:is_current":0,
    "mz:note":"Quattroshapes Point Gazetteer import 20170519",
    "qs_pg:aaroncc":"US",
    "qs_pg:gn_country":"US",
    "qs_pg:gn_fcode":"ADMD",
    "qs_pg:gn_id":7167587,
    "qs_pg:gn_pop":991,
    "qs_pg:name":"Village of Thornville",
    "qs_pg:photos_9r":0,
    "qs_pg:photos_sr":0,
    "qs_pg:pop_sr":2,
    "qs_pg:qs_id":661806,
    "qs_pg:qs_pg_placetype":"localadmin",
    "src:geom":"qs_pg",
    "src:lbl:centroid":"qs_pg",
    "src:population":"geonames",
    "wof:belongsto":[
        85633793
    ],
    "wof:breaches":[],
    "wof:concordances":{
        "gn:id":7167587,
        "qs_pg:id":661806
    },
    "wof:country":"US",
    "wof:created":1497049686,
    "wof:geomhash":"6890bd7e2e8a4acac8a6ecef12a1c9cb",
    "wof:hierarchy":[
        {
            "country_id":85633793,
            "localadmin_id":1125406747
        }
    ],
    "wof:id":1125406747,
    "wof:lastmodified":1505187079,
    "wof:name":"Village of Thornville",
    "wof:parent_id":-1,
    "wof:placetype":"localadmin",
    "wof:population":991,
    "wof:population_rank":2,
    "wof:repo":"whosonfirst-data-admin-us",
    "wof:superseded_by":[],
    "wof:supersedes":[],
    "wof:tags":[]
},
  "bbox": [
    -82.41409,
    39.89291,
    -82.41409,
    39.89291
],
  "geometry": {"coordinates":[-82.41409,39.89291],"type":"Point"}
}