{
  "id": 1259517885,
  "type": "Feature",
  "properties": {
    "edtf:cessation":"2018-09-06",
    "edtf:inception":"uuuu",
    "geom:area":0.0,
    "geom:area_square_m":0.0,
    "geom:bbox":"-111.26466,43.10297,-111.26466,43.10297",
    "geom:latitude":43.10297,
    "geom:longitude":-111.26466,
    "gn:admin1_code":"ID",
    "gn:admin2_code":"19.0",
    "gn:asciiname":"Caribou City (historical)",
    "gn:country_code":"US",
    "gn:dem":2109,
    "gn:elevation":"2095.0",
    "gn:feature_class":"P",
    "gn:feature_code":"PPLQ",
    "gn:geonameid":5588081,
    "gn:latitude":43.10297,
    "gn:longitude":-111.26466,
    "gn:modification_date":"2011-12-11",
    "gn:name":"Caribou City (historical)",
    "gn:population":0,
    "gn:timezone":"America/Boise",
    "iso:country":"US",
    "mz:hierarchy_label":1,
    "mz:is_current":0,
    "name:eng_x_preferred":[
        "Caribou City (historical)"
    ],
    "name:und_x_variant":[
        "Cariboo City",
        "Iowa Bar",
        "Iowa City"
    ],
    "src:geom":"geonames",
    "wof:belongsto":[
        102191575,
        85633793,
        85688657,
        102085163
    ],
    "wof:breaches":[],
    "wof:concordances":{
        "gn:id":5588081
    },
    "wof:country":"US",
    "wof:geomhash":"939415577a5435fdecd36f3d6569de80",
    "wof:hierarchy":[
        {
            "continent_id":102191575,
            "country_id":85633793,
            "county_id":102085163,
            "locality_id":1259517885,
            "region_id":85688657
        }
    ],
    "wof:id":1259517885,
    "wof:lastmodified":1537713073,
    "wof:name":"Caribou City (historical)",
    "wof:parent_id":102085163,
    "wof:placetype":"locality",
    "wof:repo":"whosonfirst-data-admin-us",
    "wof:superseded_by":[],
    "wof:supersedes":[],
    "wof:tags":[]
},
  "bbox": [
    -111.26466,
    43.10297,
    -111.26466,
    43.10297
],
  "geometry": {"coordinates":[-111.26466000000001,43.10297],"type":"Point"}
}