{
  "id": 1310617355,
  "type": "Feature",
  "properties": {
    "edtf:cessation":"uuuu",
    "edtf:inception":"uuuu",
    "geom:area":0.0,
    "geom:area_square_m":0.0,
    "geom:bbox":"-120.12084,46.23499,-120.12084,46.23499",
    "geom:latitude":46.23499,
    "geom:longitude":-120.12084,
    "gn:admin1_code":"WA",
    "gn:admin2_code":"77",
    "gn:asciiname":"Satus",
    "gn:country_code":"US",
    "gn:dem":211,
    "gn:elevation":"215.0",
    "gn:feature_class":"P",
    "gn:feature_code":"PPL",
    "gn:geonameid":7262337,
    "gn:latitude":46.23499,
    "gn:longitude":-120.12084,
    "gn:modification_date":"2010-02-07",
    "gn:name":"Satus",
    "gn:population":0,
    "gn:timezone":"America/Los_Angeles",
    "iso:country":"US",
    "mz:hierarchy_label":1,
    "mz:is_current":-1,
    "name:und_x_variant":[
        "Satus CDP",
        "Satus"
    ],
    "src:geom":"geonames",
    "wof:belongsto":[
        102191575,
        85633793,
        85688623,
        102081233
    ],
    "wof:breaches":[],
    "wof:concordances":{
        "gn:id":7262337,
        "wk:page":"Satus%2C_Washington"
    },
    "wof:country":"US",
    "wof:geomhash":"d920131018031a4a13ee31379b876ba0",
    "wof:hierarchy":[
        {
            "continent_id":102191575,
            "country_id":85633793,
            "county_id":102081233,
            "locality_id":1310617355,
            "region_id":85688623
        }
    ],
    "wof:id":1310617355,
    "wof:lastmodified":1537713195,
    "wof:name":"Satus",
    "wof:parent_id":102081233,
    "wof:placetype":"locality",
    "wof:repo":"whosonfirst-data-admin-us",
    "wof:superseded_by":[],
    "wof:supersedes":[],
    "wof:tags":[]
},
  "bbox": [
    -120.12084,
    46.23499,
    -120.12084,
    46.23499
],
  "geometry": {"coordinates":[-120.12084,46.23499],"type":"Point"}
}