{
  "id": 1125334471,
  "type": "Feature",
  "properties": {
    "edtf:cessation":"2017-05-19",
    "edtf:inception":"uuuu",
    "geom:area":0.0,
    "geom:area_square_m":0.0,
    "geom:bbox":"-81.52873,41.427,-81.52873,41.427",
    "geom:latitude":41.427,
    "geom:longitude":-81.52873,
    "gn:gn_country":"US",
    "gn:gn_fcode":"ADMD",
    "gn:gn_pop":1027,
    "gn:population":1027,
    "iso:country":"US",
    "lbl:latitude":41.427,
    "lbl:longitude":-81.52873,
    "mz:hierarchy_label":1,
    "mz:is_current":0,
    "mz:note":"Quattroshapes Point Gazetteer import 20170519",
    "qs_pg:aaroncc":"US",
    "qs_pg:gn_country":"US",
    "qs_pg:gn_fcode":"ADMD",
    "qs_pg:gn_id":5164894,
    "qs_pg:gn_pop":1027,
    "qs_pg:name":"Village of North Randall",
    "qs_pg:photos_9r":0,
    "qs_pg:photos_sr":0,
    "qs_pg:pop_sr":3,
    "qs_pg:qs_id":605716,
    "qs_pg:qs_pg_placetype":"localadmin",
    "src:geom":"qs_pg",
    "src:lbl:centroid":"qs_pg",
    "src:population":"geonames",
    "wof:belongsto":[
        85633793
    ],
    "wof:breaches":[],
    "wof:concordances":{
        "gn:id":5164894,
        "qs_pg:id":605716
    },
    "wof:country":"US",
    "wof:created":1497045317,
    "wof:geomhash":"f30d56c28ae73b87e95c45c3a13afed3",
    "wof:hierarchy":[
        {
            "country_id":85633793,
            "localadmin_id":1125334471
        }
    ],
    "wof:id":1125334471,
    "wof:lastmodified":1505186965,
    "wof:name":"Village of North Randall",
    "wof:parent_id":-1,
    "wof:placetype":"localadmin",
    "wof:population":1027,
    "wof:population_rank":3,
    "wof:repo":"whosonfirst-data-admin-us",
    "wof:superseded_by":[],
    "wof:supersedes":[],
    "wof:tags":[]
},
  "bbox": [
    -81.52873,
    41.427,
    -81.52873,
    41.427
],
  "geometry": {"coordinates":[-81.52873,41.427],"type":"Point"}
}