{
  "id": 1125303475,
  "type": "Feature",
  "properties": {
    "edtf:cessation":"uuuu",
    "edtf:deprecated":"2017-11-04",
    "edtf:inception":"uuuu",
    "geom:area":0.0,
    "geom:area_square_m":0.0,
    "geom:bbox":"-71.49083,42.74898,-71.49083,42.74898",
    "geom:latitude":42.74898,
    "geom:longitude":-71.49083,
    "gn:gn_country":"US",
    "gn:gn_fcode":"ADMD",
    "gn:gn_pop":86494,
    "gn:population":86494,
    "iso:country":"US",
    "lbl:latitude":42.74898,
    "lbl:longitude":-71.49083,
    "mz:hierarchy_label":1,
    "mz:is_current":0,
    "mz:note":"Quattroshapes Point Gazetteer import 20170519",
    "qs_pg:aaroncc":"US",
    "qs_pg:gn_country":"US",
    "qs_pg:gn_fcode":"ADMD",
    "qs_pg:gn_id":5090071,
    "qs_pg:gn_pop":86494,
    "qs_pg:name":"City of Nashua",
    "qs_pg:photos_9r":0,
    "qs_pg:photos_sr":0,
    "qs_pg:pop_sr":8,
    "qs_pg:qs_id":604546,
    "qs_pg:qs_pg_placetype":"localadmin",
    "src:geom":"qs_pg",
    "src:lbl:centroid":"qs_pg",
    "src:population":"geonames",
    "wof:belongsto":[
        85633793
    ],
    "wof:breaches":[],
    "wof:concordances":{
        "gn:id":5090071,
        "qs_pg:id":604546
    },
    "wof:country":"US",
    "wof:created":1497043560,
    "wof:geomhash":"67e0ab4ce2f7268a7627cf9fc3ad1ac9",
    "wof:hierarchy":[
        {
            "country_id":85633793,
            "localadmin_id":1125303475
        }
    ],
    "wof:id":1125303475,
    "wof:lastmodified":1509752514,
    "wof:name":"City of Nashua",
    "wof:parent_id":-1,
    "wof:placetype":"localadmin",
    "wof:population":86494,
    "wof:population_rank":8,
    "wof:repo":"whosonfirst-data-admin-us",
    "wof:superseded_by":[
        85975079
    ],
    "wof:supersedes":[],
    "wof:tags":[]
},
  "bbox": [
    -71.49083,
    42.74898,
    -71.49083,
    42.74898
],
  "geometry": {"coordinates":[-71.49083,42.74898],"type":"Point"}
}