{
  "id": 1276144885,
  "type": "Feature",
  "properties": {
    "edtf:cessation":"2018-09-07",
    "edtf:inception":"uuuu",
    "geom:area":0.0,
    "geom:area_square_m":0.0,
    "geom:bbox":"-78.50668,38.29652,-78.50668,38.29652",
    "geom:latitude":38.29652,
    "geom:longitude":-78.50668,
    "gn:admin1_code":"VA",
    "gn:admin2_code":"79.0",
    "gn:asciiname":"Beazley (historical)",
    "gn:country_code":"US",
    "gn:dem":209,
    "gn:elevation":"216.0",
    "gn:feature_class":"P",
    "gn:feature_code":"PPLQ",
    "gn:geonameid":4746244,
    "gn:latitude":38.29652,
    "gn:longitude":-78.50668,
    "gn:modification_date":"2011-12-12",
    "gn:name":"Beazley (historical)",
    "gn:population":0,
    "gn:timezone":"America/New_York",
    "iso:country":"US",
    "mz:hierarchy_label":1,
    "mz:is_current":0,
    "src:geom":"geonames",
    "wof:belongsto":[
        102191575,
        85633793,
        85688747,
        102083827
    ],
    "wof:breaches":[],
    "wof:concordances":{
        "gn:id":4746244
    },
    "wof:country":"US",
    "wof:geomhash":"e3d0392d6e4a9e57fb96c6d83c8dbc0d",
    "wof:hierarchy":[
        {
            "continent_id":102191575,
            "country_id":85633793,
            "county_id":102083827,
            "locality_id":1276144885,
            "region_id":85688747
        }
    ],
    "wof:id":1276144885,
    "wof:lastmodified":1537029965,
    "wof:name":"Beazley (historical)",
    "wof:parent_id":102083827,
    "wof:placetype":"locality",
    "wof:repo":"whosonfirst-data-admin-us",
    "wof:superseded_by":[],
    "wof:supersedes":[],
    "wof:tags":[]
},
  "bbox": [
    -78.50668,
    38.29652,
    -78.50668,
    38.29652
],
  "geometry": {"coordinates":[-78.50668,38.29652],"type":"Point"}
}