{
  "id": 1125392521,
  "type": "Feature",
  "properties": {
    "edtf:cessation":"2017-05-19",
    "edtf:inception":"uuuu",
    "geom:area":0.0,
    "geom:area_square_m":0.0,
    "geom:bbox":"-82.68268,41.4145,-82.68268,41.4145",
    "geom:latitude":41.4145,
    "geom:longitude":-82.68268,
    "gn:gn_country":"US",
    "gn:gn_fcode":"ADMD",
    "gn:gn_pop":0,
    "iso:country":"US",
    "lbl:latitude":41.4145,
    "lbl:longitude":-82.68268,
    "mz:hierarchy_label":1,
    "mz:is_current":0,
    "mz:note":"Quattroshapes Point Gazetteer import 20170519",
    "name:eng_x_preferred":[
        "Perkins Township"
    ],
    "qs_pg:aaroncc":"US",
    "qs_pg:gn_country":"US",
    "qs_pg:gn_fcode":"ADMD",
    "qs_pg:gn_id":5166464,
    "qs_pg:gn_pop":0,
    "qs_pg:name":"Township of Perkins",
    "qs_pg:photos_9r":0,
    "qs_pg:photos_sr":0,
    "qs_pg:pop_sr":0,
    "qs_pg:qs_id":1039144,
    "qs_pg:qs_pg_placetype":"localadmin",
    "src:geom":"qs_pg",
    "src:lbl:centroid":"qs_pg",
    "wof:belongsto":[
        85633793
    ],
    "wof:breaches":[],
    "wof:concordances":{
        "gn:id":5166464,
        "qs_pg:id":1039144
    },
    "wof:country":"US",
    "wof:created":1497048792,
    "wof:geomhash":"0fc8b8d16bb1ef8edf835939dadb129d",
    "wof:hierarchy":[
        {
            "country_id":85633793,
            "localadmin_id":1125392521
        }
    ],
    "wof:id":1125392521,
    "wof:lastmodified":1505248173,
    "wof:name":"Township of Perkins",
    "wof:parent_id":-1,
    "wof:placetype":"localadmin",
    "wof:repo":"whosonfirst-data-admin-us",
    "wof:superseded_by":[],
    "wof:supersedes":[],
    "wof:tags":[]
},
  "bbox": [
    -82.68268,
    41.4145,
    -82.68268,
    41.4145
],
  "geometry": {"coordinates":[-82.68268,41.4145],"type":"Point"}
}