{
  "id": 1125395399,
  "type": "Feature",
  "properties": {
    "edtf:cessation":"2017-05-19",
    "edtf:inception":"uuuu",
    "geom:area":0.0,
    "geom:area_square_m":0.0,
    "geom:bbox":"-81.87436,37.74228,-81.87436,37.74228",
    "geom:latitude":37.74228,
    "geom:longitude":-81.87436,
    "gn:gn_country":"US",
    "gn:gn_fcode":"ADMD",
    "gn:gn_pop":759,
    "gn:population":759,
    "iso:country":"US",
    "lbl:latitude":37.74228,
    "lbl:longitude":-81.87436,
    "mz:hierarchy_label":1,
    "mz:is_current":0,
    "mz:note":"Quattroshapes Point Gazetteer import 20170519",
    "qs_pg:aaroncc":"US",
    "qs_pg:gn_country":"US",
    "qs_pg:gn_fcode":"ADMD",
    "qs_pg:gn_id":7162011,
    "qs_pg:gn_pop":759,
    "qs_pg:name":"Town of Man",
    "qs_pg:photos_9r":0,
    "qs_pg:photos_sr":0,
    "qs_pg:pop_sr":2,
    "qs_pg:qs_id":1047148,
    "qs_pg:qs_pg_placetype":"localadmin",
    "src:geom":"qs_pg",
    "src:lbl:centroid":"qs_pg",
    "src:population":"geonames",
    "wof:belongsto":[
        85633793
    ],
    "wof:breaches":[],
    "wof:concordances":{
        "gn:id":7162011,
        "qs_pg:id":1047148
    },
    "wof:country":"US",
    "wof:created":1497048984,
    "wof:geomhash":"851c70329877cbbf09c9d0aa6dd63969",
    "wof:hierarchy":[
        {
            "country_id":85633793,
            "localadmin_id":1125395399
        }
    ],
    "wof:id":1125395399,
    "wof:lastmodified":1505187022,
    "wof:name":"Town of Man",
    "wof:parent_id":-1,
    "wof:placetype":"localadmin",
    "wof:population":759,
    "wof:population_rank":2,
    "wof:repo":"whosonfirst-data-admin-us",
    "wof:superseded_by":[],
    "wof:supersedes":[],
    "wof:tags":[]
},
  "bbox": [
    -81.87436,
    37.74228,
    -81.87436,
    37.74228
],
  "geometry": {"coordinates":[-81.87436,37.74228],"type":"Point"}
}