{
  "id": 1310718327,
  "type": "Feature",
  "properties": {
    "edtf:cessation":"uuuu",
    "edtf:inception":"uuuu",
    "geom:area":0.0,
    "geom:area_square_m":0.0,
    "geom:bbox":"-98.53918,28.01057,-98.53918,28.01057",
    "geom:latitude":28.01057,
    "geom:longitude":-98.53918,
    "gn:admin1_code":"TX",
    "gn:admin2_code":"131.0",
    "gn:asciiname":"Seven Sisters",
    "gn:country_code":"US",
    "gn:dem":150,
    "gn:elevation":"146.0",
    "gn:feature_class":"P",
    "gn:feature_code":"PPL",
    "gn:geonameid":4727874,
    "gn:latitude":28.01057,
    "gn:longitude":-98.53918,
    "gn:modification_date":"2006-01-15",
    "gn:name":"Seven Sisters",
    "gn:population":0,
    "gn:timezone":"America/Chicago",
    "iso:country":"US",
    "mz:hierarchy_label":1,
    "mz:is_current":-1,
    "src:geom":"geonames",
    "wof:belongsto":[
        102191575,
        85633793,
        85688753,
        102080681
    ],
    "wof:breaches":[],
    "wof:concordances":{
        "gn:id":4727874
    },
    "wof:country":"US",
    "wof:geomhash":"826d9a86203ecb584be77e794735dee8",
    "wof:hierarchy":[
        {
            "continent_id":102191575,
            "country_id":85633793,
            "county_id":102080681,
            "locality_id":1310718327,
            "region_id":85688753
        }
    ],
    "wof:id":1310718327,
    "wof:lastmodified":1536607092,
    "wof:name":"Seven Sisters",
    "wof:parent_id":102080681,
    "wof:placetype":"locality",
    "wof:repo":"whosonfirst-data-admin-us",
    "wof:superseded_by":[],
    "wof:supersedes":[],
    "wof:tags":[]
},
  "bbox": [
    -98.53918,
    28.01057,
    -98.53918,
    28.01057
],
  "geometry": {"coordinates":[-98.53918,28.01057],"type":"Point"}
}