{
  "id": 1125331667,
  "type": "Feature",
  "properties": {
    "edtf:cessation":"uuuu",
    "edtf:deprecated":"2017-11-04",
    "edtf:inception":"uuuu",
    "geom:area":0.0,
    "geom:area_square_m":0.0,
    "geom:bbox":"-96.3314,43.44037,-96.3314,43.44037",
    "geom:latitude":43.44037,
    "geom:longitude":-96.3314,
    "gn:gn_country":"US",
    "gn:gn_fcode":"ADMD",
    "gn:gn_pop":294,
    "gn:population":294,
    "iso:country":"US",
    "lbl:latitude":43.44037,
    "lbl:longitude":-96.3314,
    "mz:hierarchy_label":1,
    "mz:is_current":0,
    "mz:note":"Quattroshapes Point Gazetteer import 20170519",
    "qs_pg:aaroncc":"US",
    "qs_pg:gn_country":"US",
    "qs_pg:gn_fcode":"ADMD",
    "qs_pg:gn_id":7164072,
    "qs_pg:gn_pop":294,
    "qs_pg:name":"City of Lester",
    "qs_pg:photos_9r":0,
    "qs_pg:photos_sr":0,
    "qs_pg:pop_sr":2,
    "qs_pg:qs_id":659044,
    "qs_pg:qs_pg_placetype":"localadmin",
    "src:geom":"qs_pg",
    "src:lbl:centroid":"qs_pg",
    "src:population":"geonames",
    "wof:belongsto":[
        85633793
    ],
    "wof:breaches":[],
    "wof:concordances":{
        "gn:id":7164072,
        "qs_pg:id":659044
    },
    "wof:country":"US",
    "wof:created":1497045167,
    "wof:geomhash":"09e70185b9863324ace66c8fa66ec2f8",
    "wof:hierarchy":[
        {
            "country_id":85633793,
            "localadmin_id":1125331667
        }
    ],
    "wof:id":1125331667,
    "wof:lastmodified":1509752555,
    "wof:name":"City of Lester",
    "wof:parent_id":-1,
    "wof:placetype":"localadmin",
    "wof:population":294,
    "wof:population_rank":2,
    "wof:repo":"whosonfirst-data-admin-us",
    "wof:superseded_by":[
        85944695
    ],
    "wof:supersedes":[],
    "wof:tags":[]
},
  "bbox": [
    -96.3314,
    43.44037,
    -96.3314,
    43.44037
],
  "geometry": {"coordinates":[-96.3314,43.44037],"type":"Point"}
}