{
  "id": 85876069,
  "type": "Feature",
  "properties": {
    "edtf:cessation":"uuuu",
    "edtf:inception":"uuuu",
    "geom:area":0.0,
    "geom:area_square_m":4369444.207845,
    "geom:bbox":"-91.130844,30.382411,-91.130844,30.382411",
    "geom:latitude":30.382411,
    "geom:longitude":-91.130844,
    "gn:id":"",
    "iso:country":"US",
    "lbl:latitude":30.382411,
    "lbl:longitude":-91.130844,
    "mps:latitude":30.379076,
    "mps:longitude":-91.13702,
    "mz:hierarchy_label":0,
    "mz:is_current":-1,
    "mz:is_funky":0,
    "mz:is_hard_boundary":0,
    "mz:is_landuse_aoi":0,
    "mz:is_official":0,
    "mz:max_zoom":18.0,
    "mz:min_zoom":15.0,
    "mz:tier_locality":3,
    "name:eng_x_preferred":[
        "Highland"
    ],
    "name:unk_x_variant":[
        "Highland"
    ],
    "qs:gn_adm0_cc":"US",
    "qs:gn_fcode":"PPL",
    "qs:gn_local":4315588,
    "qs:gn_nam_loc":"Baton Rouge, East Baton Rouge Parish, Louisiana, US",
    "qs:gn_namadm1":"LA",
    "qs:gn_name":"Highlandia",
    "qs:local_max":4803,
    "qs:local_sum":39503,
    "qs:localhoods":84,
    "qs:name":"Highland",
    "qs:name_adm0":"United States",
    "qs:name_adm1":"Louisiana",
    "qs:name_adm2":"East Baton Rouge Parish",
    "qs:name_local":"Baton Rouge",
    "qs:photo_max":90,
    "qs:photo_sum":230,
    "qs:placetype":"Suburb",
    "qs:quad_count":6,
    "qs:woe_adm0":23424977,
    "qs:woe_adm1":2347577,
    "qs:woe_adm2":12588612,
    "qs:woe_funk":"Grouping neighborhood",
    "qs:woe_lau":0,
    "qs:woe_local":2359991,
    "qs:woe_ver":"7.10.0",
    "src:geom":"mz",
    "src:geom_alt":[
        "quattroshapes",
        "quattroshapes_pg"
    ],
    "src:lbl:centroid":"yerbashapes",
    "src:population":"zetashapes",
    "wof:belongsto":[
        85688735,
        102191575,
        85633793,
        85948205,
        102087229
    ],
    "wof:breaches":[],
    "wof:concordances":{
        "gp:id":55857913,
        "qs:id":411413,
        "qs_pg:id":411413
    },
    "wof:country":"US",
    "wof:geomhash":"fd04d0217f034da93c011f10deb1f099",
    "wof:hierarchy":[
        {
            "continent_id":102191575,
            "country_id":85633793,
            "county_id":102087229,
            "locality_id":85948205,
            "neighbourhood_id":85876069,
            "region_id":85688735
        }
    ],
    "wof:id":85876069,
    "wof:lang":[
        "eng"
    ],
    "wof:lastmodified":1532373687,
    "wof:name":"Highland",
    "wof:parent_id":85948205,
    "wof:placetype":"neighbourhood",
    "wof:population":985,
    "wof:population_rank":2,
    "wof:repo":"whosonfirst-data-admin-us",
    "wof:superseded_by":[],
    "wof:supersedes":[],
    "wof:tags":[],
    "zs:blockids":[
        220330049004007,
        220330040111000,
        220330050001012,
        220330050001011,
        220330050002004,
        220330050001010,
        220330050001014,
        220330050002003,
        220330049004008,
        220330050001005,
        220330050001013
    ],
    "zs:housing10":415,
    "zs:pop10":985
},
  "bbox": [
    -91.130844,
    30.382411,
    -91.130844,
    30.382411
],
  "geometry": {"coordinates":[-91.130844,30.382411],"type":"Point"}
}